{"type":"FeatureCollection","features":[{"type":"Feature","properties":{"id":1},"geometry":{"type":"MultiPolygon","coordinates":[[[[79.894944,6.830531],[79.894932,6.829679],[79.894894,6.828827],[79.894828,6.827978],[79.894736,6.827131],[79.894618,6.826287],[79.894473,6.825447],[79.894301,6.824612],[79.894104,6.823783],[79.89388,6.822961],[79.893631,6.822146],[79.893357,6.821339],[79.893057,6.820541],[79.892732,6.819753],[79.892382,6.818976],[79.892009,6.81821],[79.891611,6.817456],[79.89119,6.816715],[79.890746,6.815988],[79.890279,6.815275],[79.88979,6.814577],[79.88928,6.813894],[79.888748,6.813228],[79.888195,6.812579],[79.887623,6.811948],[79.887031,6.811335],[79.886419,6.810741],[79.88579,6.810166],[79.885143,6.809611],[79.884478,6.809077],[79.883797,6.808564],[79.883101,6.808073],[79.882389,6.807604],[79.881663,6.807157],[79.880923,6.806734],[79.88017,6.806334],[79.879406,6.805957],[79.878629,6.805605],[79.877842,6.805278],[79.877045,6.804975],[79.876239,6.804697],[79.875425,6.804445],[79.874603,6.804219],[79.873774,6.804018],[79.87294,6.803844],[79.8721,6.803696],[79.871256,6.803574],[79.870409,6.803479],[79.869559,6.803411],[79.868708,6.803369],[79.867855,6.803354],[79.867003,6.803366],[79.866151,6.803404],[79.865301,6.80347],[79.864454,6.803562],[79.863609,6.80368],[79.862769,6.803825],[79.861934,6.803996],[79.861105,6.804194],[79.860282,6.804417],[79.859467,6.804666],[79.85866,6.80494],[79.857861,6.80524],[79.857073,6.805565],[79.856296,6.805914],[79.855529,6.806287],[79.854775,6.806685],[79.854034,6.807105],[79.853306,6.807549],[79.852592,6.808016],[79.851894,6.808504],[79.851211,6.809015],[79.850545,6.809546],[79.849895,6.810099],[79.849264,6.810671],[79.84865,6.811263],[79.848056,6.811873],[79.847481,6.812503],[79.846926,6.81315],[79.846392,6.813814],[79.845878,6.814494],[79.845387,6.81519],[79.844917,6.815902],[79.844471,6.816627],[79.844047,6.817367],[79.843646,6.818119],[79.84327,6.818884],[79.842917,6.81966],[79.84259,6.820446],[79.842287,6.821243],[79.842009,6.822049],[79.841757,6.822863],[79.84153,6.823684],[79.84133,6.824512],[79.841155,6.825346],[79.841007,6.826186],[79.840885,6.827029],[79.84079,6.827876],[79.840721,6.828725],[79.84068,6.829576],[79.840664,6.830428],[79.840676,6.83128],[79.840715,6.832132],[79.84078,6.832981],[79.840872,6.833829],[79.84099,6.834673],[79.841135,6.835512],[79.841307,6.836347],[79.841504,6.837176],[79.841727,6.837998],[79.841977,6.838813],[79.842251,6.83962],[79.842551,6.840418],[79.842876,6.841206],[79.843225,6.841983],[79.843599,6.842749],[79.843996,6.843503],[79.844417,6.844244],[79.844861,6.844971],[79.845328,6.845685],[79.845817,6.846383],[79.846327,6.847065],[79.846859,6.847731],[79.847412,6.84838],[79.847984,6.849012],[79.848577,6.849625],[79.849188,6.850219],[79.849817,6.850794],[79.850464,6.851348],[79.851129,6.851883],[79.85181,6.852396],[79.852506,6.852887],[79.853218,6.853356],[79.853944,6.853803],[79.854684,6.854226],[79.855437,6.854627],[79.856202,6.855003],[79.856978,6.855355],[79.857765,6.855683],[79.858562,6.855985],[79.859368,6.856263],[79.860183,6.856515],[79.861005,6.856742],[79.861834,6.856942],[79.862668,6.857116],[79.863508,6.857265],[79.864352,6.857386],[79.865199,6.857481],[79.866049,6.85755],[79.8669,6.857592],[79.867753,6.857607],[79.868606,6.857595],[79.869457,6.857556],[79.870307,6.857491],[79.871155,6.857399],[79.871999,6.857281],[79.87284,6.857136],[79.873675,6.856965],[79.874504,6.856767],[79.875327,6.856544],[79.876143,6.856295],[79.87695,6.85602],[79.877748,6.855721],[79.878536,6.855396],[79.879314,6.855047],[79.88008,6.854673],[79.880835,6.854276],[79.881576,6.853855],[79.882304,6.853411],[79.883017,6.852945],[79.883716,6.852456],[79.884399,6.851945],[79.885065,6.851414],[79.885715,6.850862],[79.886346,6.850289],[79.88696,6.849697],[79.887554,6.849087],[79.888129,6.848457],[79.888684,6.84781],[79.889218,6.847146],[79.889732,6.846466],[79.890223,6.845769],[79.890693,6.845058],[79.891139,6.844332],[79.891563,6.843593],[79.891964,6.84284],[79.89234,6.842076],[79.892692,6.8413],[79.89302,6.840513],[79.893323,6.839717],[79.893601,6.838911],[79.893853,6.838097],[79.894079,6.837275],[79.89428,6.836447],[79.894454,6.835613],[79.894602,6.834774],[79.894724,6.83393],[79.894819,6.833083],[79.894888,6.832234],[79.894929,6.831383],[79.894944,6.830531]]]]}}]}