{"type":"FeatureCollection","features":[{"type":"Feature","properties":{"id":1,"Buffer_Are":785193.72},"geometry":{"type":"MultiPolygon","coordinates":[[[[79.872328,6.830489],[79.872326,6.830347],[79.872319,6.830205],[79.872308,6.830063],[79.872293,6.829922],[79.872273,6.829782],[79.872249,6.829642],[79.872221,6.829502],[79.872188,6.829364],[79.87215,6.829227],[79.872109,6.829091],[79.872063,6.828957],[79.872013,6.828824],[79.871959,6.828693],[79.871901,6.828563],[79.871838,6.828435],[79.871772,6.82831],[79.871702,6.828186],[79.871628,6.828065],[79.87155,6.827946],[79.871469,6.82783],[79.871384,6.827716],[79.871295,6.827605],[79.871203,6.827497],[79.871107,6.827392],[79.871009,6.827289],[79.870907,6.82719],[79.870802,6.827095],[79.870694,6.827002],[79.870583,6.826913],[79.87047,6.826828],[79.870354,6.826746],[79.870235,6.826668],[79.870114,6.826593],[79.869991,6.826523],[79.869865,6.826456],[79.869738,6.826393],[79.869609,6.826335],[79.869477,6.82628],[79.869345,6.826229],[79.86921,6.826183],[79.869074,6.826141],[79.868937,6.826103],[79.868799,6.82607],[79.86866,6.826041],[79.86852,6.826016],[79.86838,6.825996],[79.868238,6.82598],[79.868097,6.825969],[79.867955,6.825962],[79.867813,6.825959],[79.867671,6.825961],[79.867529,6.825968],[79.867387,6.825979],[79.867246,6.825994],[79.867105,6.826014],[79.866965,6.826038],[79.866826,6.826066],[79.866688,6.826099],[79.866551,6.826136],[79.866415,6.826178],[79.86628,6.826224],[79.866147,6.826274],[79.866016,6.826328],[79.865886,6.826386],[79.865758,6.826448],[79.865633,6.826514],[79.865509,6.826585],[79.865388,6.826659],[79.865269,6.826736],[79.865152,6.826818],[79.865039,6.826903],[79.864928,6.826991],[79.864819,6.827083],[79.864714,6.827179],[79.864612,6.827277],[79.864513,6.827379],[79.864417,6.827484],[79.864324,6.827592],[79.864235,6.827703],[79.86415,6.827816],[79.864068,6.827932],[79.86399,6.828051],[79.863915,6.828172],[79.863845,6.828295],[79.863778,6.82842],[79.863715,6.828548],[79.863656,6.828677],[79.863602,6.828808],[79.863551,6.828941],[79.863505,6.829075],[79.863463,6.829211],[79.863425,6.829348],[79.863392,6.829486],[79.863363,6.829625],[79.863338,6.829765],[79.863318,6.829905],[79.863302,6.830046],[79.86329,6.830188],[79.863283,6.83033],[79.863281,6.830472],[79.863283,6.830614],[79.863289,6.830756],[79.8633,6.830897],[79.863316,6.831039],[79.863335,6.831179],[79.863359,6.831319],[79.863388,6.831458],[79.863421,6.831596],[79.863458,6.831733],[79.8635,6.831869],[79.863545,6.832004],[79.863595,6.832137],[79.86365,6.832268],[79.863708,6.832398],[79.86377,6.832525],[79.863836,6.832651],[79.863907,6.832774],[79.863981,6.832896],[79.864058,6.833014],[79.86414,6.833131],[79.864225,6.833245],[79.864314,6.833356],[79.864406,6.833464],[79.864501,6.833569],[79.8646,6.833671],[79.864702,6.83377],[79.864807,6.833866],[79.864914,6.833958],[79.865025,6.834047],[79.865139,6.834133],[79.865255,6.834215],[79.865373,6.834293],[79.865494,6.834367],[79.865618,6.834438],[79.865743,6.834505],[79.865871,6.834567],[79.866,6.834626],[79.866131,6.834681],[79.866264,6.834731],[79.866398,6.834777],[79.866534,6.834819],[79.866671,6.834857],[79.866809,6.834891],[79.866948,6.83492],[79.867088,6.834944],[79.867229,6.834965],[79.86737,6.834981],[79.867512,6.834992],[79.867654,6.834999],[79.867796,6.835001],[79.867938,6.834999],[79.86808,6.834993],[79.868221,6.834982],[79.868363,6.834967],[79.868503,6.834947],[79.868643,6.834923],[79.868783,6.834894],[79.868921,6.834861],[79.869058,6.834824],[79.869194,6.834783],[79.869328,6.834737],[79.869461,6.834687],[79.869593,6.834633],[79.869723,6.834575],[79.86985,6.834513],[79.869976,6.834446],[79.8701,6.834376],[79.870221,6.834302],[79.87034,6.834224],[79.870456,6.834143],[79.87057,6.834058],[79.870681,6.833969],[79.870789,6.833877],[79.870894,6.833782],[79.870997,6.833683],[79.871096,6.833581],[79.871192,6.833477],[79.871284,6.833369],[79.871373,6.833258],[79.871459,6.833145],[79.871541,6.833029],[79.871619,6.83291],[79.871693,6.832789],[79.871764,6.832666],[79.871831,6.83254],[79.871893,6.832413],[79.871952,6.832284],[79.872007,6.832153],[79.872057,6.83202],[79.872104,6.831886],[79.872146,6.83175],[79.872183,6.831613],[79.872217,6.831475],[79.872246,6.831336],[79.872271,6.831196],[79.872291,6.831055],[79.872307,6.830914],[79.872318,6.830773],[79.872325,6.830631],[79.872328,6.830489]]]]}}]}