{"type":"FeatureCollection","features":[{"type":"Feature","properties":{"id":1},"geometry":{"type":"MultiPolygon","coordinates":[[[[79.867827,6.875396],[79.870047,6.875342],[79.872261,6.87518],[79.874465,6.87491],[79.876653,6.874533],[79.878819,6.87405],[79.88096,6.873462],[79.883068,6.87277],[79.88514,6.871977],[79.88717,6.871083],[79.889153,6.870092],[79.891085,6.869005],[79.892961,6.867826],[79.894776,6.866556],[79.896527,6.8652],[79.898208,6.86376],[79.899816,6.86224],[79.901347,6.860643],[79.902797,6.858973],[79.904163,6.857235],[79.905442,6.855433],[79.90663,6.85357],[79.907724,6.851652],[79.908722,6.849683],[79.909622,6.847667],[79.910421,6.84561],[79.911117,6.843517],[79.911709,6.841392],[79.912195,6.839241],[79.912575,6.837069],[79.912846,6.834881],[79.913009,6.832682],[79.913064,6.830478],[79.913009,6.828274],[79.912845,6.826076],[79.912573,6.823888],[79.912194,6.821716],[79.911707,6.819565],[79.911115,6.81744],[79.910418,6.815347],[79.909619,6.81329],[79.908719,6.811275],[79.90772,6.809306],[79.906626,6.807388],[79.905438,6.805525],[79.904159,6.803723],[79.902793,6.801985],[79.901343,6.800316],[79.899812,6.798719],[79.898204,6.797199],[79.896523,6.795759],[79.894772,6.794403],[79.892957,6.793134],[79.891081,6.791954],[79.88915,6.790868],[79.887166,6.789877],[79.885137,6.788983],[79.883065,6.78819],[79.880957,6.787498],[79.878817,6.786911],[79.876651,6.786428],[79.874464,6.786051],[79.87226,6.785781],[79.870046,6.785619],[79.867827,6.785565],[79.865607,6.785619],[79.863393,6.785781],[79.86119,6.786051],[79.859002,6.786428],[79.856836,6.786911],[79.854696,6.787498],[79.852588,6.78819],[79.850517,6.788983],[79.848487,6.789877],[79.846504,6.790868],[79.844572,6.791954],[79.842696,6.793134],[79.840881,6.794403],[79.839131,6.795759],[79.83745,6.797199],[79.835842,6.798719],[79.834311,6.800316],[79.83286,6.801985],[79.831494,6.803723],[79.830216,6.805525],[79.829028,6.807388],[79.827933,6.809306],[79.826935,6.811275],[79.826035,6.81329],[79.825236,6.815347],[79.824539,6.81744],[79.823947,6.819565],[79.82346,6.821716],[79.82308,6.823888],[79.822808,6.826076],[79.822645,6.828274],[79.82259,6.830478],[79.822644,6.832682],[79.822807,6.834881],[79.823079,6.837069],[79.823458,6.839241],[79.823945,6.841392],[79.824537,6.843517],[79.825233,6.84561],[79.826032,6.847667],[79.826932,6.849683],[79.82793,6.851652],[79.829024,6.85357],[79.830212,6.855433],[79.83149,6.857235],[79.832856,6.858973],[79.834306,6.860643],[79.835837,6.86224],[79.837445,6.86376],[79.839127,6.8652],[79.840877,6.866556],[79.842693,6.867826],[79.844569,6.869005],[79.846501,6.870092],[79.848484,6.871083],[79.850514,6.871977],[79.852586,6.87277],[79.854694,6.873462],[79.856834,6.87405],[79.859001,6.874533],[79.861189,6.87491],[79.863392,6.87518],[79.865607,6.875342],[79.867827,6.875396]]]]}}]}