{
"type": "FeatureCollection",
"name": "boundary_3000m",
"crs": { "type": "name", "properties": { "name": "urn:ogc:def:crs:OGC:1.3:CRS84" } },
"xy_coordinate_resolution": 1e-15,
"features": [
{ "type": "Feature", "properties": { "id": 1 }, "geometry": { "type": "MultiPolygon", "coordinates": [ [ [ [ 79.894944263507114, 6.830530758175537 ], [ 79.894932431690336, 6.82967866959587 ], [ 79.894893827501903, 6.828827372913772 ], [ 79.894828489182615, 6.827977708268101 ], [ 79.894736481356759, 6.82713051418259 ], [ 79.894617894967553, 6.826286626738335 ], [ 79.894472847186947, 6.825446878748661 ], [ 79.894301481299479, 6.824612098937264 ], [ 79.894103966560181, 6.82378311112035 ], [ 79.89388049802713, 6.822960733393716 ], [ 79.893631296368355, 6.822145777325412 ], [ 79.893356607643568, 6.821339047154934 ], [ 79.893056703060822, 6.820541338999607 ], [ 79.892731878708389, 6.819753440069029 ], [ 79.892382455262094, 6.818976127888333 ], [ 79.89200877766838, 6.818210169530994 ], [ 79.891611214803461, 6.817456320861977 ], [ 79.891190159108945, 6.816715325791959 ], [ 79.890746026204113, 6.815987915543394 ], [ 79.890279254475416, 6.815274807929029 ], [ 79.889790304643597, 6.814576706643778 ], [ 79.889279659308613, 6.81389430057043 ], [ 79.88874782247315, 6.813228263100076 ], [ 79.888195319045096, 6.812579251467777 ], [ 79.887622694319219, 6.811947906104203 ], [ 79.88703051343893, 6.811334850003859 ], [ 79.886419360838417, 6.81074068811053 ], [ 79.885789839665776, 6.810166006720553 ], [ 79.885142571187743, 6.80961137290447 ], [ 79.884478194176552, 6.809077333947694 ], [ 79.883797364279602, 6.808564416810657 ], [ 79.883100753372332, 6.808073127609069 ], [ 79.882389048895433, 6.807603951114707 ], [ 79.881662953176388, 6.807157350277292 ], [ 79.880923182736595, 6.806733765767884 ], [ 79.880170467584435, 6.806333615544259 ], [ 79.879405550495051, 6.805957294438728 ], [ 79.878629186277522, 6.805605173768741 ], [ 79.877842141030285, 6.805277600970665 ], [ 79.877045191385449, 6.804974899257219 ], [ 79.876239123742579, 6.804697367298688 ], [ 79.875424733493091, 6.804445278928439 ], [ 79.874602824235609, 6.804218882872894 ], [ 79.87377420698337, 6.804018402506273 ], [ 79.872939699364281, 6.803844035630365 ], [ 79.87210012481448, 6.803695954279495 ], [ 79.871256311766203, 6.803574304550926 ], [ 79.870409092830641, 6.803479206460852 ], [ 79.869559303976857, 6.803410753826078 ], [ 79.868707783707293, 6.803369014171597 ], [ 79.867855372230764, 6.803354028664043 ], [ 79.867002910633786, 6.803365812071165 ], [ 79.866151240051195, 6.803404352747353 ], [ 79.865301200836527, 6.803469612645181 ], [ 79.864453631733241, 6.803561527353013 ], [ 79.86360936904758, 6.803680006158593 ], [ 79.862769245823742, 6.803824932138602 ], [ 79.861934091022391, 6.803996162274016 ], [ 79.86110472870304, 6.804193527591255 ], [ 79.860281977211386, 6.804416833328879 ], [ 79.859466648372276, 6.804665859129758 ], [ 79.858659546688955, 6.804940359258461 ], [ 79.857861468549686, 6.805240062843662 ], [ 79.857073201442248, 6.805564674145391 ], [ 79.856295523177337, 6.805913872846728 ], [ 79.855529201121314, 6.80628731436981 ], [ 79.854774991439385, 6.806684630215728 ], [ 79.854033638349705, 6.807105428328012 ], [ 79.853305873389402, 6.807549293479399 ], [ 79.852592414692865, 6.808015787681374 ], [ 79.851893966283455, 6.808504450616239 ], [ 79.851211217378975, 6.809014800091158 ], [ 79.850544841711752, 6.809546332513795 ], [ 79.849895496863994, 6.810098523389078 ], [ 79.849263823618983, 6.810670827836542 ], [ 79.848650445328957, 6.811262681127819 ], [ 79.848055967299985, 6.811873499243685 ], [ 79.84748097619476, 6.812502679450168 ], [ 79.846926039453663, 6.813149600893071 ], [ 79.846391704734785, 6.813813625210421 ], [ 79.845878499373512, 6.814494097162182 ], [ 79.845386929861974, 6.815190345276594 ], [ 79.844917481349214, 6.815901682512568 ], [ 79.844470617162216, 6.816627406937425 ], [ 79.844046778348556, 6.817366802419346 ], [ 79.843646383240952, 6.818119139333803 ], [ 79.843269827044196, 6.818883675283375 ], [ 79.842917481444928, 6.819659655830104 ], [ 79.842589694244452, 6.820446315239782 ], [ 79.842286789015347, 6.821242877237385 ], [ 79.842009064781621, 6.822048555772902 ], [ 79.841756795723413, 6.822862555796843 ], [ 79.841530230905889, 6.82368407404462 ], [ 79.841329594033141, 6.824512299829057 ], [ 79.841155083226866, 6.825346415840223 ], [ 79.841006870830483, 6.826185598951841 ], [ 79.840885103238534, 6.827029021033415 ], [ 79.840789900751645, 6.827875849767334 ], [ 79.840721357457412, 6.828725249470115 ], [ 79.84067954113695, 6.829576381916991 ], [ 79.840664493197437, 6.830428407168998 ], [ 79.840676228630741, 6.831280484401807 ], [ 79.840714735998077, 6.832131772735419 ], [ 79.840779977440732, 6.832981432063943 ], [ 79.840871888716777, 6.833828623884616 ], [ 79.840990379263999, 6.834672512125282 ], [ 79.841135332288701, 6.835512263969473 ], [ 79.841306604880302, 6.836347050678291 ], [ 79.841504028151974, 6.837176048408294 ], [ 79.841727407406623, 6.837998439024575 ], [ 79.841976522328522, 6.838813410908204 ], [ 79.842251127200328, 6.839620159757277 ], [ 79.842550951144887, 6.840417889380754 ], [ 79.842875698392149, 6.841205812484301 ], [ 79.843225048570659, 6.841983151447396 ], [ 79.843598657023065, 6.842749139090864 ], [ 79.84399615514603, 6.843503019434166 ], [ 79.844417150753472, 6.844244048441604 ], [ 79.844861228463245, 6.844971494756812 ], [ 79.845327950106665, 6.845684640424682 ], [ 79.845816855160749, 6.846382781600144 ], [ 79.846327461202236, 6.847065229242957 ], [ 79.846859264383454, 6.847731309797986 ], [ 79.847411739929399, 6.848380365860135 ], [ 79.847984342655295, 6.84901175682339 ], [ 79.848576507504561, 6.849624859513283 ], [ 79.849187650106316, 6.850219068802159 ], [ 79.849817167351901, 6.85079379820664 ], [ 79.850464437990041, 6.851348480466682 ], [ 79.851128823240032, 6.851882568105696 ], [ 79.851809667421975, 6.852395533971115 ], [ 79.85250629860397, 6.852886871754926 ], [ 79.853218029265378, 6.853356096493619 ], [ 79.853944156975359, 6.853802745047071 ], [ 79.854683965086267, 6.85422637655592 ], [ 79.855436723441045, 6.854626572876887 ], [ 79.85620168909405, 6.855002938995743 ], [ 79.856978107044569, 6.855355103417401 ], [ 79.857765210982038, 6.855682718532815 ], [ 79.858562224042814, 6.855985460962266 ], [ 79.859368359576976, 6.856263031874771 ], [ 79.860182821925221, 6.856515157283237 ], [ 79.861004807204381, 6.856741588315066 ], [ 79.861833504101185, 6.856942101458003 ], [ 79.86266809467341, 6.857116498780909 ], [ 79.863507755157514, 6.857264608129296 ], [ 79.864351656782176, 6.857386283295408 ], [ 79.865198966586576, 6.857481404162662 ], [ 79.86604884824304, 6.857549876824353 ], [ 79.86690046288291, 6.857591633676465 ], [ 79.86775296992495, 6.857606633484484 ], [ 79.868605527905444, 6.857594861424226 ], [ 79.869457295309161, 6.857556329096519 ], [ 79.870307431400491, 6.857491074515841 ], [ 79.871155097053617, 6.857399162072845 ], [ 79.871999455581303, 6.857280682470844 ], [ 79.87283967356106, 6.857135752636307 ], [ 79.873674921658335, 6.856964515603471 ], [ 79.874504375445341, 6.856767140373129 ], [ 79.875327216215425, 6.85654382174585 ], [ 79.87614263179141, 6.856294780129633 ], [ 79.876949817327727, 6.856020261322323 ], [ 79.877747976105184, 6.855720536268956 ], [ 79.878536320317764, 6.855395900794241 ], [ 79.879314071850473, 6.85504667531049 ], [ 79.880080463047818, 6.854673204501263 ], [ 79.880834737471687, 6.854275856981054 ], [ 79.881576150648428, 6.853855024931322 ], [ 79.882303970803804, 6.853411123713286 ], [ 79.883017479585547, 6.852944591457788 ], [ 79.883715972772663, 6.852455888632709 ], [ 79.884398760970655, 6.851945497588312 ], [ 79.885065170292052, 6.851413922080984 ], [ 79.885714543021933, 6.850861686775844 ], [ 79.886346238266881, 6.850289336728692 ], [ 79.886959632587875, 6.849697436847865 ], [ 79.887554120615562, 6.849086571336448 ], [ 79.888129115647828, 6.848457343115463 ], [ 79.888684050228761, 6.847810373228604 ], [ 79.889218376708797, 6.847146300229017 ], [ 79.889731567785077, 6.846465779548878 ], [ 79.890223117021833, 6.84576948285225 ], [ 79.89069253935007, 6.845058097371953 ], [ 79.891139371546103, 6.844332325231063 ], [ 79.89156317268862, 6.843592882749723 ], [ 79.891963524593592, 6.842840499737931 ], [ 79.892340032226699, 6.842075918775044 ], [ 79.892692324093005, 6.841299894476662 ], [ 79.893020052603205, 6.840513192749661 ], [ 79.8933228944164, 6.839716590036073 ], [ 79.893600550758819, 6.838910872546594 ], [ 79.893852747718284, 6.838096835484453 ], [ 79.894079236514145, 6.837275282260404 ], [ 79.894279793742342, 6.836447023699666 ], [ 79.89445422159551, 6.835612877241513 ], [ 79.894602348057603, 6.834773666132391 ], [ 79.894724027073224, 6.833930218613287 ], [ 79.894819138691275, 6.833083367102198 ], [ 79.894887589182844, 6.832233947372501 ], [ 79.894929311133041, 6.831382797728005 ], [ 79.894944263507114, 6.830530758175537 ] ] ] ] } }
]
}
