{"type": "FeatureCollection", "features": [{"id": "9", "type": "Feature", "properties": {"node_id": "J0010", "jtype": "three_way", "gn_name": "Mount Lavinia"}, "geometry": {"type": "Point", "coordinates": [79.86567749751836, 6.830220599538519]}}, {"id": "13", "type": "Feature", "properties": {"node_id": "J0014", "jtype": "three_way", "gn_name": "Mount Lavinia"}, "geometry": {"type": "Point", "coordinates": [79.86623150225557, 6.8303714013730366]}}, {"id": "15", "type": "Feature", "properties": {"node_id": "J0016", "jtype": "three_way", "gn_name": "Mount Lavinia"}, "geometry": {"type": "Point", "coordinates": [79.86365110011903, 6.83050830235259]}}, {"id": "20", "type": "Feature", "properties": {"node_id": "J0021", "jtype": "three_way", "gn_name": "Mount Lavinia"}, "geometry": {"type": "Point", "coordinates": [79.86696370187639, 6.830713100350505]}}, {"id": "27", "type": "Feature", "properties": {"node_id": "J0028", "jtype": "three_way", "gn_name": "Mount Lavinia"}, "geometry": {"type": "Point", "coordinates": [79.86515950065156, 6.831430400265595]}}, {"id": "28", "type": "Feature", "properties": {"node_id": "J0029", "jtype": "three_way", "gn_name": "Mount Lavinia"}, "geometry": {"type": "Point", "coordinates": [79.86473960166062, 6.831464299254397]}}, {"id": "29", "type": "Feature", "properties": {"node_id": "J0030", "jtype": "three_way", "gn_name": "Mount Lavinia"}, "geometry": {"type": "Point", "coordinates": [79.86612330095909, 6.83154980004597]}}, {"id": "30", "type": "Feature", "properties": {"node_id": "J0031", "jtype": "three_way", "gn_name": "Mount Lavinia"}, "geometry": {"type": "Point", "coordinates": [79.8637393014058, 6.831578899847369]}}, {"id": "31", "type": "Feature", "properties": {"node_id": "J0032", "jtype": "three_way", "gn_name": "Mount Lavinia"}, "geometry": {"type": "Point", "coordinates": [79.86676379997911, 6.831580499998996]}}, {"id": "32", "type": "Feature", "properties": {"node_id": "J0033", "jtype": "three_way", "gn_name": "Mount Lavinia"}, "geometry": {"type": "Point", "coordinates": [79.86718909885064, 6.831590399973243]}}, {"id": "33", "type": "Feature", "properties": {"node_id": "J0034", "jtype": "three_way", "gn_name": "Mount Lavinia"}, "geometry": {"type": "Point", "coordinates": [79.86747399986488, 6.831599800687921]}}, {"id": "34", "type": "Feature", "properties": {"node_id": "J0035", "jtype": "three_way", "gn_name": "Mount Lavinia"}, "geometry": {"type": "Point", "coordinates": [79.86435859803343, 6.831660998020286]}}, {"id": "37", "type": "Feature", "properties": {"node_id": "J0038", "jtype": "three_way", "gn_name": "Mount Lavinia"}, "geometry": {"type": "Point", "coordinates": [79.86467999790078, 6.832389700159115]}}, {"id": "38", "type": "Feature", "properties": {"node_id": "J0039", "jtype": "three_way", "gn_name": "Mount Lavinia"}, "geometry": {"type": "Point", "coordinates": [79.86442009860946, 6.832409399929283]}}, {"id": "39", "type": "Feature", "properties": {"node_id": "J0040", "jtype": "three_way", "gn_name": "Mount Lavinia"}, "geometry": {"type": "Point", "coordinates": [79.86561530034324, 6.832441600019073]}}, {"id": "40", "type": "Feature", "properties": {"node_id": "J0041", "jtype": "three_way", "gn_name": "Mount Lavinia"}, "geometry": {"type": "Point", "coordinates": [79.86608320097106, 6.832467600053371]}}, {"id": "41", "type": "Feature", "properties": {"node_id": "J0042", "jtype": "three_way", "gn_name": "Mount Lavinia"}, "geometry": {"type": "Point", "coordinates": [79.86656099734292, 6.832525499650061]}}, {"id": "42", "type": "Feature", "properties": {"node_id": "J0043", "jtype": "three_way", "gn_name": "Mount Lavinia"}, "geometry": {"type": "Point", "coordinates": [79.8667482025266, 6.8325310001312785]}}, {"id": "43", "type": "Feature", "properties": {"node_id": "J0044", "jtype": "three_way", "gn_name": "Mount Lavinia"}, "geometry": {"type": "Point", "coordinates": [79.86733520204976, 6.832561500668088]}}, {"id": "46", "type": "Feature", "properties": {"node_id": "J0047", "jtype": "three_way", "gn_name": "Mount Lavinia"}, "geometry": {"type": "Point", "coordinates": [79.8642949000143, 6.83311449991944]}}, {"id": "50", "type": "Feature", "properties": {"node_id": "J0051", "jtype": "three_way", "gn_name": "Mount Lavinia"}, "geometry": {"type": "Point", "coordinates": [79.86257870000001, 6.8332384]}}, {"id": "51", "type": "Feature", "properties": {"node_id": "J0052", "jtype": "three_way", "gn_name": "Mount Lavinia"}, "geometry": {"type": "Point", "coordinates": [79.86379509838972, 6.833376299935276]}}, {"id": "52", "type": "Feature", "properties": {"node_id": "J0053", "jtype": "three_way", "gn_name": "Mount Lavinia"}, "geometry": {"type": "Point", "coordinates": [79.86423349849831, 6.833460399711924]}}, {"id": "55", "type": "Feature", "properties": {"node_id": "J0056", "jtype": "three_way", "gn_name": "Mount Lavinia"}, "geometry": {"type": "Point", "coordinates": [79.86474600023455, 6.833872500515611]}}, {"id": "56", "type": "Feature", "properties": {"node_id": "J0057", "jtype": "three_way", "gn_name": "Mount Lavinia"}, "geometry": {"type": "Point", "coordinates": [79.86731183808924, 6.8340731569306055]}}, {"id": "58", "type": "Feature", "properties": {"node_id": "J0059", "jtype": "three_way", "gn_name": "Mount Lavinia"}, "geometry": {"type": "Point", "coordinates": [79.86574620009213, 6.8342561008564395]}}, {"id": "60", "type": "Feature", "properties": {"node_id": "J0061", "jtype": "three_way", "gn_name": "Mount Lavinia"}, "geometry": {"type": "Point", "coordinates": [79.86305379925993, 6.8349451998958735]}}, {"id": "61", "type": "Feature", "properties": {"node_id": "J0062", "jtype": "three_way", "gn_name": "Mount Lavinia"}, "geometry": {"type": "Point", "coordinates": [79.86366949996581, 6.835030099995403]}}, {"id": "62", "type": "Feature", "properties": {"node_id": "J0063", "jtype": "three_way", "gn_name": "Mount Lavinia"}, "geometry": {"type": "Point", "coordinates": [79.86534969979782, 6.835043999884212]}}, {"id": "63", "type": "Feature", "properties": {"node_id": "J0064", "jtype": "three_way", "gn_name": "Mount Lavinia"}, "geometry": {"type": "Point", "coordinates": [79.86394509797111, 6.835064299748227]}}, {"id": "64", "type": "Feature", "properties": {"node_id": "J0065", "jtype": "four_way", "gn_name": "Mount Lavinia"}, "geometry": {"type": "Point", "coordinates": [79.86731919995546, 6.835089601498817]}}, {"id": "66", "type": "Feature", "properties": {"node_id": "J0067", "jtype": "three_way", "gn_name": "Mount Lavinia"}, "geometry": {"type": "Point", "coordinates": [79.86675459737599, 6.8351135006454635]}}, {"id": "67", "type": "Feature", "properties": {"node_id": "J0068", "jtype": "three_way", "gn_name": "Mount Lavinia"}, "geometry": {"type": "Point", "coordinates": [79.8665306, 6.8351686]}}, {"id": "68", "type": "Feature", "properties": {"node_id": "J0069", "jtype": "three_way", "gn_name": "Mount Lavinia"}, "geometry": {"type": "Point", "coordinates": [79.86630710012352, 6.835198999983195]}}, {"id": "69", "type": "Feature", "properties": {"node_id": "J0070", "jtype": "three_way", "gn_name": "Mount Lavinia"}, "geometry": {"type": "Point", "coordinates": [79.8652746, 6.835214299999998]}}, {"id": "70", "type": "Feature", "properties": {"node_id": "J0071", "jtype": "four_way", "gn_name": "Mount Lavinia"}, "geometry": {"type": "Point", "coordinates": [79.8657208, 6.835270799999999]}}, {"id": "73", "type": "Feature", "properties": {"node_id": "J0074", "jtype": "three_way", "gn_name": "Mount Lavinia"}, "geometry": {"type": "Point", "coordinates": [79.86524299987362, 6.835410700784827]}}, {"id": "77", "type": "Feature", "properties": {"node_id": "J0078", "jtype": "three_way", "gn_name": "Mount Lavinia"}, "geometry": {"type": "Point", "coordinates": [79.86514510040459, 6.836018797486865]}}, {"id": "81", "type": "Feature", "properties": {"node_id": "J0082", "jtype": "three_way", "gn_name": "Mount Lavinia"}, "geometry": {"type": "Point", "coordinates": [79.8674111001678, 6.837340102205353]}}, {"id": "82", "type": "Feature", "properties": {"node_id": "J0083", "jtype": "three_way", "gn_name": "Mount Lavinia"}, "geometry": {"type": "Point", "coordinates": [79.86491939987634, 6.838027701334558]}}, {"id": "83", "type": "Feature", "properties": {"node_id": "J0084", "jtype": "three_way", "gn_name": "Mount Lavinia"}, "geometry": {"type": "Point", "coordinates": [79.86491220003319, 6.838105399641925]}}, {"id": "87", "type": "Feature", "properties": {"node_id": "J0088", "jtype": "three_way", "gn_name": "Mount Lavinia"}, "geometry": {"type": "Point", "coordinates": [79.86392289819807, 6.838518599770716]}}, {"id": "88", "type": "Feature", "properties": {"node_id": "J0089", "jtype": "four_way", "gn_name": "Mount Lavinia"}, "geometry": {"type": "Point", "coordinates": [79.86484020048503, 6.83863960006242]}}, {"id": "89", "type": "Feature", "properties": {"node_id": "J0090", "jtype": "four_way", "gn_name": "Mount Lavinia"}, "geometry": {"type": "Point", "coordinates": [79.86668880153883, 6.8388997001627025]}}, {"id": "91", "type": "Feature", "properties": {"node_id": "J0092", "jtype": "three_way", "gn_name": "Mount Lavinia"}, "geometry": {"type": "Point", "coordinates": [79.86748509976599, 6.838976297771773]}}, {"id": "92", "type": "Feature", "properties": {"node_id": "J0093", "jtype": "three_way", "gn_name": "Mount Lavinia"}, "geometry": {"type": "Point", "coordinates": [79.86477959989817, 6.839092401849832]}}, {"id": "94", "type": "Feature", "properties": {"node_id": "J0095", "jtype": "three_way", "gn_name": "Mount Lavinia"}, "geometry": {"type": "Point", "coordinates": [79.86476780016294, 6.8393067970399315]}}, {"id": "96", "type": "Feature", "properties": {"node_id": "J0097", "jtype": "three_way", "gn_name": "Mount Lavinia"}, "geometry": {"type": "Point", "coordinates": [79.86678170015509, 6.839333300829636]}}, {"id": "100", "type": "Feature", "properties": {"node_id": "J0101", "jtype": "three_way", "gn_name": "Mount Lavinia"}, "geometry": {"type": "Point", "coordinates": [79.86469929965452, 6.83978910166777]}}, {"id": "102", "type": "Feature", "properties": {"node_id": "J0103", "jtype": "three_way", "gn_name": "Mount Lavinia"}, "geometry": {"type": "Point", "coordinates": [79.86465599973774, 6.840045002058461]}}, {"id": "103", "type": "Feature", "properties": {"node_id": "J0104", "jtype": "four_way", "gn_name": "Mount Lavinia"}, "geometry": {"type": "Point", "coordinates": [79.8655865982846, 6.840153501972455]}}, {"id": "104", "type": "Feature", "properties": {"node_id": "J0105", "jtype": "three_way", "gn_name": "Mount Lavinia"}, "geometry": {"type": "Point", "coordinates": [79.86463600025512, 6.840201997997313]}}, {"id": "106", "type": "Feature", "properties": {"node_id": "J0107", "jtype": "three_way", "gn_name": "Mount Lavinia"}, "geometry": {"type": "Point", "coordinates": [79.86690979987858, 6.840286798140343]}}, {"id": "107", "type": "Feature", "properties": {"node_id": "J0108", "jtype": "three_way", "gn_name": "Mount Lavinia"}, "geometry": {"type": "Point", "coordinates": [79.86460440029211, 6.840449397712812]}}, {"id": "110", "type": "Feature", "properties": {"node_id": "J0111", "jtype": "four_way", "gn_name": "Mount Lavinia"}, "geometry": {"type": "Point", "coordinates": [79.86458810041904, 6.84071130005643]}}, {"id": "111", "type": "Feature", "properties": {"node_id": "J0112", "jtype": "three_way", "gn_name": "Mount Lavinia"}, "geometry": {"type": "Point", "coordinates": [79.86693249998899, 6.841026999294919]}}, {"id": "113", "type": "Feature", "properties": {"node_id": "J0114", "jtype": "three_way", "gn_name": "Mount Lavinia"}, "geometry": {"type": "Point", "coordinates": [79.86452990008107, 6.841069699500805]}}, {"id": "114", "type": "Feature", "properties": {"node_id": "J0115", "jtype": "three_way", "gn_name": "Mount Lavinia"}, "geometry": {"type": "Point", "coordinates": [79.86450649997202, 6.841171800341637]}}, {"id": "115", "type": "Feature", "properties": {"node_id": "J0116", "jtype": "three_way", "gn_name": "Mount Lavinia"}, "geometry": {"type": "Point", "coordinates": [79.866938, 6.841286]}}, {"id": "118", "type": "Feature", "properties": {"node_id": "J0119", "jtype": "three_way", "gn_name": "Mount Lavinia"}, "geometry": {"type": "Point", "coordinates": [79.86448849991459, 6.8413916014401766]}}, {"id": "119", "type": "Feature", "properties": {"node_id": "J0120", "jtype": "three_way", "gn_name": "Mount Lavinia"}, "geometry": {"type": "Point", "coordinates": [79.86493479807496, 6.841536099031419]}}, {"id": "124", "type": "Feature", "properties": {"node_id": "J0125", "jtype": "three_way", "gn_name": "Mount Lavinia"}, "geometry": {"type": "Point", "coordinates": [79.86446969972071, 6.841708601911656]}}, {"id": "127", "type": "Feature", "properties": {"node_id": "J0128", "jtype": "three_way", "gn_name": "Mount Lavinia"}, "geometry": {"type": "Point", "coordinates": [79.86688859996457, 6.841843600108501]}}, {"id": "130", "type": "Feature", "properties": {"node_id": "J0131", "jtype": "three_way", "gn_name": "Mount Lavinia"}, "geometry": {"type": "Point", "coordinates": [79.86640229971385, 6.842007099978591]}}, {"id": "131", "type": "Feature", "properties": {"node_id": "J0132", "jtype": "three_way", "gn_name": "Mount Lavinia"}, "geometry": {"type": "Point", "coordinates": [79.86669619732272, 6.842047599631068]}}, {"id": "132", "type": "Feature", "properties": {"node_id": "J0133", "jtype": "three_way", "gn_name": "Mount Lavinia"}, "geometry": {"type": "Point", "coordinates": [79.86682149934936, 6.842064902023007]}}, {"id": "138", "type": "Feature", "properties": {"node_id": "J0139", "jtype": "three_way", "gn_name": "Mount Lavinia"}, "geometry": {"type": "Point", "coordinates": [79.86355829808002, 6.842389899777674]}}, {"id": "139", "type": "Feature", "properties": {"node_id": "J0140", "jtype": "three_way", "gn_name": "Mount Lavinia"}, "geometry": {"type": "Point", "coordinates": [79.86415639870711, 6.8424589998444265]}}, {"id": "140", "type": "Feature", "properties": {"node_id": "J0141", "jtype": "three_way", "gn_name": "Mount Lavinia"}, "geometry": {"type": "Point", "coordinates": [79.86477669943294, 6.842525999938756]}}, {"id": "141", "type": "Feature", "properties": {"node_id": "J0142", "jtype": "three_way", "gn_name": "Mount Lavinia"}, "geometry": {"type": "Point", "coordinates": [79.86561020267874, 6.8426333003282735]}}, {"id": "142", "type": "Feature", "properties": {"node_id": "J0143", "jtype": "three_way", "gn_name": "Mount Lavinia"}, "geometry": {"type": "Point", "coordinates": [79.86659919987162, 6.842754500456323]}}, {"id": "144", "type": "Feature", "properties": {"node_id": "J0145", "jtype": "three_way", "gn_name": "Mount Lavinia"}, "geometry": {"type": "Point", "coordinates": [79.86648300054564, 6.843167598060204]}}, {"id": "147", "type": "Feature", "properties": {"node_id": "J0148", "jtype": "three_way", "gn_name": "Mount Lavinia"}, "geometry": {"type": "Point", "coordinates": [79.86320489931471, 6.843593799985416]}}, {"id": "148", "type": "Feature", "properties": {"node_id": "J0149", "jtype": "three_way", "gn_name": "Mount Lavinia"}, "geometry": {"type": "Point", "coordinates": [79.86637989990298, 6.843644800809757]}}, {"id": "149", "type": "Feature", "properties": {"node_id": "J0150", "jtype": "three_way", "gn_name": "Mount Lavinia"}, "geometry": {"type": "Point", "coordinates": [79.8644122012504, 6.843660300069516]}}, {"id": "152", "type": "Feature", "properties": {"node_id": "J0153", "jtype": "three_way", "gn_name": "Mount Lavinia"}, "geometry": {"type": "Point", "coordinates": [79.8663406998045, 6.843972002276011]}}, {"id": "156", "type": "Feature", "properties": {"node_id": "J0157", "jtype": "three_way", "gn_name": "Mount Lavinia"}, "geometry": {"type": "Point", "coordinates": [79.86314880024402, 6.844320300016985]}}, {"id": "157", "type": "Feature", "properties": {"node_id": "J0158", "jtype": "three_way", "gn_name": "Mount Lavinia"}, "geometry": {"type": "Point", "coordinates": [79.86340170161493, 6.844337900116517]}}, {"id": "158", "type": "Feature", "properties": {"node_id": "J0159", "jtype": "three_way", "gn_name": "Mount Lavinia"}, "geometry": {"type": "Point", "coordinates": [79.8637883971221, 6.84436579979236]}}, {"id": "159", "type": "Feature", "properties": {"node_id": "J0160", "jtype": "three_way", "gn_name": "Mount Lavinia"}, "geometry": {"type": "Point", "coordinates": [79.86392219960999, 6.844375299972308]}}, {"id": "160", "type": "Feature", "properties": {"node_id": "J0161", "jtype": "three_way", "gn_name": "Mount Lavinia"}, "geometry": {"type": "Point", "coordinates": [79.86405830220154, 6.844385000156565]}}, {"id": "161", "type": "Feature", "properties": {"node_id": "J0162", "jtype": "three_way", "gn_name": "Mount Lavinia"}, "geometry": {"type": "Point", "coordinates": [79.86435500156067, 6.844406100099143]}}, {"id": "162", "type": "Feature", "properties": {"node_id": "J0163", "jtype": "three_way", "gn_name": "Mount Lavinia"}, "geometry": {"type": "Point", "coordinates": [79.86516570012705, 6.844457600003009]}}, {"id": "163", "type": "Feature", "properties": {"node_id": "J0164", "jtype": "three_way", "gn_name": "Mount Lavinia"}, "geometry": {"type": "Point", "coordinates": [79.86561680281932, 6.844468300066347]}}, {"id": "164", "type": "Feature", "properties": {"node_id": "J0165", "jtype": "three_way", "gn_name": "Mount Lavinia"}, "geometry": {"type": "Point", "coordinates": [79.86629670018819, 6.844484297808347]}}, {"id": "167", "type": "Feature", "properties": {"node_id": "J0168", "jtype": "three_way", "gn_name": "Mount Lavinia"}, "geometry": {"type": "Point", "coordinates": [79.86402779998252, 6.844752702369807]}}, {"id": "168", "type": "Feature", "properties": {"node_id": "J0169", "jtype": "three_way", "gn_name": "Mount Lavinia"}, "geometry": {"type": "Point", "coordinates": [79.86515489993116, 6.844766201971562]}}, {"id": "170", "type": "Feature", "properties": {"node_id": "J0171", "jtype": "three_way", "gn_name": "Mount Lavinia"}, "geometry": {"type": "Point", "coordinates": [79.8640266, 6.844915499999999]}}, {"id": "172", "type": "Feature", "properties": {"node_id": "J0173", "jtype": "three_way", "gn_name": "Mount Lavinia"}, "geometry": {"type": "Point", "coordinates": [79.8636347, 6.8450299]}}, {"id": "174", "type": "Feature", "properties": {"node_id": "J0175", "jtype": "three_way", "gn_name": "Mount Lavinia"}, "geometry": {"type": "Point", "coordinates": [79.86406680078005, 6.845236500029134]}}, {"id": "175", "type": "Feature", "properties": {"node_id": "J0176", "jtype": "three_way", "gn_name": "Mount Lavinia"}, "geometry": {"type": "Point", "coordinates": [79.86492269996579, 6.845244998959537]}}, {"id": "176", "type": "Feature", "properties": {"node_id": "J0177", "jtype": "three_way", "gn_name": "Mount Lavinia"}, "geometry": {"type": "Point", "coordinates": [79.86363619998914, 6.8452450984442805]}}, {"id": "177", "type": "Feature", "properties": {"node_id": "J0178", "jtype": "three_way", "gn_name": "Mount Lavinia"}, "geometry": {"type": "Point", "coordinates": [79.86621760003074, 6.84533059967123]}}, {"id": "178", "type": "Feature", "properties": {"node_id": "J0179", "jtype": "three_way", "gn_name": "Mount Lavinia"}, "geometry": {"type": "Point", "coordinates": [79.86305269986273, 6.845339502868524]}}, {"id": "179", "type": "Feature", "properties": {"node_id": "J0180", "jtype": "three_way", "gn_name": "Mount Lavinia"}, "geometry": {"type": "Point", "coordinates": [79.86363509998033, 6.8453403019860595]}}, {"id": "183", "type": "Feature", "properties": {"node_id": "J0184", "jtype": "three_way", "gn_name": "Mount Lavinia"}, "geometry": {"type": "Point", "coordinates": [79.8661987995778, 6.8455321016701065]}}, {"id": "184", "type": "Feature", "properties": {"node_id": "J0185", "jtype": "three_way", "gn_name": "Mount Lavinia"}, "geometry": {"type": "Point", "coordinates": [79.86618749991092, 6.845576800749651]}}, {"id": "186", "type": "Feature", "properties": {"node_id": "J0187", "jtype": "three_way", "gn_name": "Mount Lavinia"}, "geometry": {"type": "Point", "coordinates": [79.86363159987518, 6.8456943022374945]}}, {"id": "187", "type": "Feature", "properties": {"node_id": "J0188", "jtype": "three_way", "gn_name": "Mount Lavinia"}, "geometry": {"type": "Point", "coordinates": [79.86495069904501, 6.845745599962376]}}, {"id": "188", "type": "Feature", "properties": {"node_id": "J0189", "jtype": "three_way", "gn_name": "Mount Lavinia"}, "geometry": {"type": "Point", "coordinates": [79.86291979999999, 6.8461231]}}, {"id": "189", "type": "Feature", "properties": {"node_id": "J0190", "jtype": "four_way", "gn_name": "Mount Lavinia"}, "geometry": {"type": "Point", "coordinates": [79.86360569830272, 6.8461586981738645]}}, {"id": "190", "type": "Feature", "properties": {"node_id": "J0191", "jtype": "three_way", "gn_name": "Mount Lavinia"}, "geometry": {"type": "Point", "coordinates": [79.86409290017929, 6.84622490001672]}}, {"id": "192", "type": "Feature", "properties": {"node_id": "J0193", "jtype": "three_way", "gn_name": "Mount Lavinia"}, "geometry": {"type": "Point", "coordinates": [79.86608690013438, 6.846423498869042]}}, {"id": "195", "type": "Feature", "properties": {"node_id": "J0196", "jtype": "three_way", "gn_name": "Mount Lavinia"}, "geometry": {"type": "Point", "coordinates": [79.86314279706187, 6.846681899542483]}}, {"id": "196", "type": "Feature", "properties": {"node_id": "J0197", "jtype": "three_way", "gn_name": "Mount Lavinia"}, "geometry": {"type": "Point", "coordinates": [79.8635331009563, 6.846744000104088]}}, {"id": "197", "type": "Feature", "properties": {"node_id": "J0198", "jtype": "three_way", "gn_name": "Mount Lavinia"}, "geometry": {"type": "Point", "coordinates": [79.86403840248565, 6.846799000302266]}}, {"id": "198", "type": "Feature", "properties": {"node_id": "J0199", "jtype": "three_way", "gn_name": "Mount Lavinia"}, "geometry": {"type": "Point", "coordinates": [79.86460169746441, 6.846867499691661]}}, {"id": "199", "type": "Feature", "properties": {"node_id": "J0200", "jtype": "three_way", "gn_name": "Mount Lavinia"}, "geometry": {"type": "Point", "coordinates": [79.86503879801977, 6.8469103998056475]}}, {"id": "200", "type": "Feature", "properties": {"node_id": "J0201", "jtype": "three_way", "gn_name": "Mount Lavinia"}, "geometry": {"type": "Point", "coordinates": [79.86533529795489, 6.846945499757903]}}, {"id": "201", "type": "Feature", "properties": {"node_id": "J0202", "jtype": "three_way", "gn_name": "Mount Lavinia"}, "geometry": {"type": "Point", "coordinates": [79.86602770016593, 6.84700109816521]}}, {"id": "202", "type": "Feature", "properties": {"node_id": "J0203", "jtype": "three_way", "gn_name": "Mount Lavinia"}, "geometry": {"type": "Point", "coordinates": [79.86305979960068, 6.8473122028627795]}}, {"id": "207", "type": "Feature", "properties": {"node_id": "J0208", "jtype": "three_way", "gn_name": "Mount Lavinia"}, "geometry": {"type": "Point", "coordinates": [79.86598999996059, 6.847517101041051]}}, {"id": "209", "type": "Feature", "properties": {"node_id": "J0210", "jtype": "three_way", "gn_name": "Mount Lavinia"}, "geometry": {"type": "Point", "coordinates": [79.86479039991984, 6.847581000722279]}}, {"id": "212", "type": "Feature", "properties": {"node_id": "J0213", "jtype": "three_way", "gn_name": "Mount Lavinia"}, "geometry": {"type": "Point", "coordinates": [79.86357430002188, 6.847955600001918]}}, {"id": "213", "type": "Feature", "properties": {"node_id": "J0214", "jtype": "three_way", "gn_name": "Mount Lavinia"}, "geometry": {"type": "Point", "coordinates": [79.86408919999998, 6.848000800000001]}}, {"id": "214", "type": "Feature", "properties": {"node_id": "J0215", "jtype": "three_way", "gn_name": "Mount Lavinia"}, "geometry": {"type": "Point", "coordinates": [79.86474050091884, 6.848030700032687]}}, {"id": "215", "type": "Feature", "properties": {"node_id": "J0216", "jtype": "three_way", "gn_name": "Mount Lavinia"}, "geometry": {"type": "Point", "coordinates": [79.86596890001037, 6.848074399725604]}}, {"id": "218", "type": "Feature", "properties": {"node_id": "J0219", "jtype": "four_way", "gn_name": "Mount Lavinia"}, "geometry": {"type": "Point", "coordinates": [79.86405949983495, 6.848638499980035]}}, {"id": "220", "type": "Feature", "properties": {"node_id": "J0221", "jtype": "three_way", "gn_name": "Mount Lavinia"}, "geometry": {"type": "Point", "coordinates": [79.86596719997513, 6.848741701501443]}}, {"id": "222", "type": "Feature", "properties": {"node_id": "J0223", "jtype": "three_way", "gn_name": "Mount Lavinia"}, "geometry": {"type": "Point", "coordinates": [79.86549869897232, 6.848773702721982]}}, {"id": "224", "type": "Feature", "properties": {"node_id": "J0225", "jtype": "three_way", "gn_name": "Mount Lavinia"}, "geometry": {"type": "Point", "coordinates": [79.86595839994364, 6.849393802544413]}}, {"id": "232", "type": "Feature", "properties": {"node_id": "J0233", "jtype": "three_way", "gn_name": "Kawdana West"}, "geometry": {"type": "Point", "coordinates": [79.8739633012761, 6.840328998383487]}}, {"id": "241", "type": "Feature", "properties": {"node_id": "J0242", "jtype": "three_way", "gn_name": "Kawdana West"}, "geometry": {"type": "Point", "coordinates": [79.87348139839663, 6.84090580172553]}}, {"id": "244", "type": "Feature", "properties": {"node_id": "J0245", "jtype": "three_way", "gn_name": "Kawdana West"}, "geometry": {"type": "Point", "coordinates": [79.87324909887946, 6.84115580120611]}}, {"id": "250", "type": "Feature", "properties": {"node_id": "J0251", "jtype": "three_way", "gn_name": "Kawdana West"}, "geometry": {"type": "Point", "coordinates": [79.8745827978681, 6.84142350094187]}}, {"id": "254", "type": "Feature", "properties": {"node_id": "J0255", "jtype": "three_way", "gn_name": "Kawdana West"}, "geometry": {"type": "Point", "coordinates": [79.87292439885609, 6.841505299090837]}}, {"id": "255", "type": "Feature", "properties": {"node_id": "J0256", "jtype": "three_way", "gn_name": "Kawdana West"}, "geometry": {"type": "Point", "coordinates": [79.87435940178467, 6.841522199211502]}}, {"id": "264", "type": "Feature", "properties": {"node_id": "J0265", "jtype": "three_way", "gn_name": "Kawdana West"}, "geometry": {"type": "Point", "coordinates": [79.87348599870089, 6.842155398527175]}}, {"id": "266", "type": "Feature", "properties": {"node_id": "J0267", "jtype": "three_way", "gn_name": "Kawdana West"}, "geometry": {"type": "Point", "coordinates": [79.8668497997474, 6.842231900720736]}}, {"id": "276", "type": "Feature", "properties": {"node_id": "J0277", "jtype": "three_way", "gn_name": "Kawdana West"}, "geometry": {"type": "Point", "coordinates": [79.87363350063096, 6.842461702701521]}}, {"id": "279", "type": "Feature", "properties": {"node_id": "J0280", "jtype": "three_way", "gn_name": "Kawdana West"}, "geometry": {"type": "Point", "coordinates": [79.86675010027132, 6.842516399225725]}}, {"id": "284", "type": "Feature", "properties": {"node_id": "J0285", "jtype": "three_way", "gn_name": "Kawdana West"}, "geometry": {"type": "Point", "coordinates": [79.872628800018, 6.842616099980567]}}, {"id": "286", "type": "Feature", "properties": {"node_id": "J0287", "jtype": "three_way", "gn_name": "Kawdana West"}, "geometry": {"type": "Point", "coordinates": [79.86667699927355, 6.842717502270167]}}, {"id": "289", "type": "Feature", "properties": {"node_id": "J0290", "jtype": "three_way", "gn_name": "Kawdana West"}, "geometry": {"type": "Point", "coordinates": [79.87252879999997, 6.8427707]}}, {"id": "292", "type": "Feature", "properties": {"node_id": "J0293", "jtype": "three_way", "gn_name": "Kawdana West"}, "geometry": {"type": "Point", "coordinates": [79.87374139983704, 6.842822800395508]}}, {"id": "295", "type": "Feature", "properties": {"node_id": "J0296", "jtype": "three_way", "gn_name": "Kawdana West"}, "geometry": {"type": "Point", "coordinates": [79.8736761, 6.842899199999998]}}, {"id": "296", "type": "Feature", "properties": {"node_id": "J0297", "jtype": "three_way", "gn_name": "Kawdana West"}, "geometry": {"type": "Point", "coordinates": [79.87227469999998, 6.8429196999999995]}}, {"id": "298", "type": "Feature", "properties": {"node_id": "J0299", "jtype": "three_way", "gn_name": "Kawdana West"}, "geometry": {"type": "Point", "coordinates": [79.86786959835347, 6.842993899094778]}}, {"id": "299", "type": "Feature", "properties": {"node_id": "J0300", "jtype": "three_way", "gn_name": "Kawdana West"}, "geometry": {"type": "Point", "coordinates": [79.87327330275983, 6.843039199040761]}}, {"id": "301", "type": "Feature", "properties": {"node_id": "J0302", "jtype": "three_way", "gn_name": "Kawdana West"}, "geometry": {"type": "Point", "coordinates": [79.87302710114766, 6.8431775993548465]}}, {"id": "302", "type": "Feature", "properties": {"node_id": "J0303", "jtype": "three_way", "gn_name": "Kawdana West"}, "geometry": {"type": "Point", "coordinates": [79.86968879940208, 6.843182897994884]}}, {"id": "303", "type": "Feature", "properties": {"node_id": "J0304", "jtype": "three_way", "gn_name": "Kawdana West"}, "geometry": {"type": "Point", "coordinates": [79.87381019936647, 6.843206998545996]}}, {"id": "307", "type": "Feature", "properties": {"node_id": "J0308", "jtype": "three_way", "gn_name": "Kawdana West"}, "geometry": {"type": "Point", "coordinates": [79.87122319901043, 6.843324499731573]}}, {"id": "309", "type": "Feature", "properties": {"node_id": "J0310", "jtype": "three_way", "gn_name": "Kawdana West"}, "geometry": {"type": "Point", "coordinates": [79.86649190072, 6.843357997322226]}}, {"id": "312", "type": "Feature", "properties": {"node_id": "J0313", "jtype": "three_way", "gn_name": "Kawdana West"}, "geometry": {"type": "Point", "coordinates": [79.87142239941313, 6.84353369938371]}}, {"id": "314", "type": "Feature", "properties": {"node_id": "J0315", "jtype": "three_way", "gn_name": "Kawdana West"}, "geometry": {"type": "Point", "coordinates": [79.87393599986584, 6.843632499467942]}}, {"id": "321", "type": "Feature", "properties": {"node_id": "J0322", "jtype": "three_way", "gn_name": "Kawdana West"}, "geometry": {"type": "Point", "coordinates": [79.87170120096728, 6.843849101300932]}}, {"id": "324", "type": "Feature", "properties": {"node_id": "J0325", "jtype": "three_way", "gn_name": "Kawdana West"}, "geometry": {"type": "Point", "coordinates": [79.87063579814205, 6.843960802174933]}}, {"id": "326", "type": "Feature", "properties": {"node_id": "J0327", "jtype": "three_way", "gn_name": "Kawdana West"}, "geometry": {"type": "Point", "coordinates": [79.86640320016308, 6.843982798544365]}}, {"id": "331", "type": "Feature", "properties": {"node_id": "J0332", "jtype": "three_way", "gn_name": "Kawdana West"}, "geometry": {"type": "Point", "coordinates": [79.87198120058609, 6.844140800571312]}}, {"id": "334", "type": "Feature", "properties": {"node_id": "J0335", "jtype": "three_way", "gn_name": "Kawdana West"}, "geometry": {"type": "Point", "coordinates": [79.86638879998776, 6.8442042001606875]}}, {"id": "335", "type": "Feature", "properties": {"node_id": "J0336", "jtype": "three_way", "gn_name": "Kawdana West"}, "geometry": {"type": "Point", "coordinates": [79.86917389971957, 6.844240099987737]}}, {"id": "336", "type": "Feature", "properties": {"node_id": "J0337", "jtype": "four_way", "gn_name": "Kawdana West"}, "geometry": {"type": "Point", "coordinates": [79.86926040121486, 6.844253500735555]}}, {"id": "340", "type": "Feature", "properties": {"node_id": "J0341", "jtype": "three_way", "gn_name": "Kawdana West"}, "geometry": {"type": "Point", "coordinates": [79.87222329845387, 6.844369198579668]}}, {"id": "343", "type": "Feature", "properties": {"node_id": "J0344", "jtype": "three_way", "gn_name": "Kawdana West"}, "geometry": {"type": "Point", "coordinates": [79.87489310284148, 6.8444579994365276]}}, {"id": "344", "type": "Feature", "properties": {"node_id": "J0345", "jtype": "three_way", "gn_name": "Kawdana West"}, "geometry": {"type": "Point", "coordinates": [79.87483179793537, 6.844471100524394]}}, {"id": "346", "type": "Feature", "properties": {"node_id": "J0347", "jtype": "three_way", "gn_name": "Kawdana West"}, "geometry": {"type": "Point", "coordinates": [79.86764860037046, 6.844475299901058]}}, {"id": "349", "type": "Feature", "properties": {"node_id": "J0350", "jtype": "three_way", "gn_name": "Kawdana West"}, "geometry": {"type": "Point", "coordinates": [79.87469400257248, 6.844506099346616]}}, {"id": "350", "type": "Feature", "properties": {"node_id": "J0351", "jtype": "three_way", "gn_name": "Kawdana West"}, "geometry": {"type": "Point", "coordinates": [79.86965709805962, 6.8445391983897235]}}, {"id": "352", "type": "Feature", "properties": {"node_id": "J0353", "jtype": "three_way", "gn_name": "Kawdana West"}, "geometry": {"type": "Point", "coordinates": [79.87049920081782, 6.844588099144211]}}, {"id": "353", "type": "Feature", "properties": {"node_id": "J0354", "jtype": "three_way", "gn_name": "Kawdana West"}, "geometry": {"type": "Point", "coordinates": [79.86709570259265, 6.844622999307391]}}, {"id": "355", "type": "Feature", "properties": {"node_id": "J0356", "jtype": "three_way", "gn_name": "Kawdana West"}, "geometry": {"type": "Point", "coordinates": [79.86634909987848, 6.844649901176403]}}, {"id": "356", "type": "Feature", "properties": {"node_id": "J0357", "jtype": "three_way", "gn_name": "Kawdana West"}, "geometry": {"type": "Point", "coordinates": [79.87408349891746, 6.844669600300301]}}, {"id": "357", "type": "Feature", "properties": {"node_id": "J0358", "jtype": "three_way", "gn_name": "Kawdana West"}, "geometry": {"type": "Point", "coordinates": [79.8698027999296, 6.8447026999209895]}}, {"id": "359", "type": "Feature", "properties": {"node_id": "J0360", "jtype": "three_way", "gn_name": "Kawdana West"}, "geometry": {"type": "Point", "coordinates": [79.87379619879911, 6.844749300330773]}}, {"id": "361", "type": "Feature", "properties": {"node_id": "J0362", "jtype": "three_way", "gn_name": "Kawdana West"}, "geometry": {"type": "Point", "coordinates": [79.86988389922918, 6.844792799143646]}}, {"id": "362", "type": "Feature", "properties": {"node_id": "J0363", "jtype": "three_way", "gn_name": "Kawdana West"}, "geometry": {"type": "Point", "coordinates": [79.86991220200066, 6.844828701983123]}}, {"id": "363", "type": "Feature", "properties": {"node_id": "J0364", "jtype": "three_way", "gn_name": "Kawdana West"}, "geometry": {"type": "Point", "coordinates": [79.87320369792174, 6.84491250068222]}}, {"id": "365", "type": "Feature", "properties": {"node_id": "J0366", "jtype": "three_way", "gn_name": "Kawdana West"}, "geometry": {"type": "Point", "coordinates": [79.87008280187813, 6.8449971016456805]}}, {"id": "366", "type": "Feature", "properties": {"node_id": "J0367", "jtype": "three_way", "gn_name": "Kawdana West"}, "geometry": {"type": "Point", "coordinates": [79.87286859826814, 6.845022500642293]}}, {"id": "368", "type": "Feature", "properties": {"node_id": "J0369", "jtype": "three_way", "gn_name": "Kawdana West"}, "geometry": {"type": "Point", "coordinates": [79.87014340039467, 6.845050200229795]}}, {"id": "369", "type": "Feature", "properties": {"node_id": "J0370", "jtype": "four_way", "gn_name": "Kawdana West"}, "geometry": {"type": "Point", "coordinates": [79.87253909917438, 6.84514470059748]}}, {"id": "375", "type": "Feature", "properties": {"node_id": "J0376", "jtype": "three_way", "gn_name": "Kawdana West"}, "geometry": {"type": "Point", "coordinates": [79.86781989714198, 6.845458300870434]}}, {"id": "376", "type": "Feature", "properties": {"node_id": "J0377", "jtype": "three_way", "gn_name": "Kawdana West"}, "geometry": {"type": "Point", "coordinates": [79.87075290097859, 6.845543300747079]}}, {"id": "378", "type": "Feature", "properties": {"node_id": "J0379", "jtype": "four_way", "gn_name": "Kawdana West"}, "geometry": {"type": "Point", "coordinates": [79.86625299816146, 6.845580299335725]}}, {"id": "379", "type": "Feature", "properties": {"node_id": "J0380", "jtype": "three_way", "gn_name": "Kawdana West"}, "geometry": {"type": "Point", "coordinates": [79.86732779901921, 6.845592700068145]}}, {"id": "380", "type": "Feature", "properties": {"node_id": "J0381", "jtype": "three_way", "gn_name": "Kawdana West"}, "geometry": {"type": "Point", "coordinates": [79.86672929893913, 6.845600899954116]}}, {"id": "381", "type": "Feature", "properties": {"node_id": "J0382", "jtype": "three_way", "gn_name": "Kawdana West"}, "geometry": {"type": "Point", "coordinates": [79.86679839884809, 6.8456023999749975]}}, {"id": "384", "type": "Feature", "properties": {"node_id": "J0385", "jtype": "three_way", "gn_name": "Kawdana West"}, "geometry": {"type": "Point", "coordinates": [79.86739670141361, 6.846082499507636]}}, {"id": "385", "type": "Feature", "properties": {"node_id": "J0386", "jtype": "three_way", "gn_name": "Kawdana West"}, "geometry": {"type": "Point", "coordinates": [79.86720530215986, 6.846146099282305]}}, {"id": "386", "type": "Feature", "properties": {"node_id": "J0387", "jtype": "three_way", "gn_name": "Kawdana West"}, "geometry": {"type": "Point", "coordinates": [79.8669719, 6.8462167]}}, {"id": "387", "type": "Feature", "properties": {"node_id": "J0388", "jtype": "three_way", "gn_name": "Kawdana West"}, "geometry": {"type": "Point", "coordinates": [79.866174499878, 6.846241801266164]}}, {"id": "392", "type": "Feature", "properties": {"node_id": "J0393", "jtype": "three_way", "gn_name": "Kawdana West"}, "geometry": {"type": "Point", "coordinates": [79.86862390028035, 6.846369599221948]}}, {"id": "395", "type": "Feature", "properties": {"node_id": "J0396", "jtype": "three_way", "gn_name": "Kawdana West"}, "geometry": {"type": "Point", "coordinates": [79.87087370011857, 6.846485199888682]}}, {"id": "396", "type": "Feature", "properties": {"node_id": "J0397", "jtype": "three_way", "gn_name": "Kawdana West"}, "geometry": {"type": "Point", "coordinates": [79.86790459990804, 6.846492100029056]}}, {"id": "401", "type": "Feature", "properties": {"node_id": "J0402", "jtype": "three_way", "gn_name": "Kawdana West"}, "geometry": {"type": "Point", "coordinates": [79.86669419802509, 6.846787400182192]}}, {"id": "402", "type": "Feature", "properties": {"node_id": "J0403", "jtype": "three_way", "gn_name": "Kawdana West"}, "geometry": {"type": "Point", "coordinates": [79.86657280042202, 6.846798599961061]}}, {"id": "403", "type": "Feature", "properties": {"node_id": "J0404", "jtype": "three_way", "gn_name": "Kawdana West"}, "geometry": {"type": "Point", "coordinates": [79.86643539730811, 6.8468114002500124]}}, {"id": "404", "type": "Feature", "properties": {"node_id": "J0405", "jtype": "three_way", "gn_name": "Kawdana West"}, "geometry": {"type": "Point", "coordinates": [79.86611669996068, 6.84684100051736]}}, {"id": "414", "type": "Feature", "properties": {"node_id": "J0415", "jtype": "three_way", "gn_name": "Kawdana West"}, "geometry": {"type": "Point", "coordinates": [79.86658159730587, 6.847598499211583]}}, {"id": "417", "type": "Feature", "properties": {"node_id": "J0418", "jtype": "three_way", "gn_name": "Kawdana West"}, "geometry": {"type": "Point", "coordinates": [79.8676834970116, 6.847639399883801]}}, {"id": "419", "type": "Feature", "properties": {"node_id": "J0420", "jtype": "three_way", "gn_name": "Kawdana West"}, "geometry": {"type": "Point", "coordinates": [79.86685370075658, 6.847670499953224]}}, {"id": "423", "type": "Feature", "properties": {"node_id": "J0424", "jtype": "three_way", "gn_name": "Kawdana West"}, "geometry": {"type": "Point", "coordinates": [79.86830430206156, 6.847738200324908]}}, {"id": "424", "type": "Feature", "properties": {"node_id": "J0425", "jtype": "three_way", "gn_name": "Kawdana West"}, "geometry": {"type": "Point", "coordinates": [79.86883030106773, 6.847821100169236]}}, {"id": "430", "type": "Feature", "properties": {"node_id": "J0431", "jtype": "three_way", "gn_name": "Watarappala"}, "geometry": {"type": "Point", "coordinates": [79.8701981974377, 6.83686139952208]}}, {"id": "431", "type": "Feature", "properties": {"node_id": "J0432", "jtype": "three_way", "gn_name": "Watarappala"}, "geometry": {"type": "Point", "coordinates": [79.86999120109532, 6.836875099707921]}}, {"id": "432", "type": "Feature", "properties": {"node_id": "J0433", "jtype": "three_way", "gn_name": "Watarappala"}, "geometry": {"type": "Point", "coordinates": [79.87057109757902, 6.836930799549438]}}, {"id": "434", "type": "Feature", "properties": {"node_id": "J0435", "jtype": "three_way", "gn_name": "Watarappala"}, "geometry": {"type": "Point", "coordinates": [79.87121329968045, 6.8369733998186195]}}, {"id": "439", "type": "Feature", "properties": {"node_id": "J0440", "jtype": "three_way", "gn_name": "Watarappala"}, "geometry": {"type": "Point", "coordinates": [79.87134779748322, 6.837055598649955]}}, {"id": "442", "type": "Feature", "properties": {"node_id": "J0443", "jtype": "three_way", "gn_name": "Watarappala"}, "geometry": {"type": "Point", "coordinates": [79.87142200193409, 6.837067400577533]}}, {"id": "443", "type": "Feature", "properties": {"node_id": "J0444", "jtype": "three_way", "gn_name": "Watarappala"}, "geometry": {"type": "Point", "coordinates": [79.86941310156878, 6.837078499750328]}}, {"id": "445", "type": "Feature", "properties": {"node_id": "J0446", "jtype": "three_way", "gn_name": "Watarappala"}, "geometry": {"type": "Point", "coordinates": [79.86989749949183, 6.837176801499198]}}, {"id": "447", "type": "Feature", "properties": {"node_id": "J0448", "jtype": "four_way", "gn_name": "Watarappala"}, "geometry": {"type": "Point", "coordinates": [79.87185870116373, 6.837197800322666]}}, {"id": "451", "type": "Feature", "properties": {"node_id": "J0452", "jtype": "three_way", "gn_name": "Watarappala"}, "geometry": {"type": "Point", "coordinates": [79.86749306388333, 6.837332547992094]}}, {"id": "457", "type": "Feature", "properties": {"node_id": "J0458", "jtype": "three_way", "gn_name": "Watarappala"}, "geometry": {"type": "Point", "coordinates": [79.87238839997488, 6.837434598802225]}}, {"id": "458", "type": "Feature", "properties": {"node_id": "J0459", "jtype": "three_way", "gn_name": "Watarappala"}, "geometry": {"type": "Point", "coordinates": [79.86750990006358, 6.837474501229332]}}, {"id": "459", "type": "Feature", "properties": {"node_id": "J0460", "jtype": "three_way", "gn_name": "Watarappala"}, "geometry": {"type": "Point", "coordinates": [79.87256330255428, 6.837530001392633]}}, {"id": "462", "type": "Feature", "properties": {"node_id": "J0463", "jtype": "three_way", "gn_name": "Watarappala"}, "geometry": {"type": "Point", "coordinates": [79.86970059977895, 6.837757700787755]}}, {"id": "467", "type": "Feature", "properties": {"node_id": "J0468", "jtype": "three_way", "gn_name": "Watarappala"}, "geometry": {"type": "Point", "coordinates": [79.87177570017957, 6.8378475992977465]}}, {"id": "468", "type": "Feature", "properties": {"node_id": "J0469", "jtype": "three_way", "gn_name": "Watarappala"}, "geometry": {"type": "Point", "coordinates": [79.87198010107693, 6.837884899886469]}}, {"id": "473", "type": "Feature", "properties": {"node_id": "J0474", "jtype": "three_way", "gn_name": "Watarappala"}, "geometry": {"type": "Point", "coordinates": [79.87167099999999, 6.8379728]}}, {"id": "474", "type": "Feature", "properties": {"node_id": "J0475", "jtype": "three_way", "gn_name": "Watarappala"}, "geometry": {"type": "Point", "coordinates": [79.87129990174063, 6.837986499778214]}}, {"id": "475", "type": "Feature", "properties": {"node_id": "J0476", "jtype": "three_way", "gn_name": "Watarappala"}, "geometry": {"type": "Point", "coordinates": [79.87071240269722, 6.838120799383422]}}, {"id": "477", "type": "Feature", "properties": {"node_id": "J0478", "jtype": "three_way", "gn_name": "Watarappala"}, "geometry": {"type": "Point", "coordinates": [79.86754549999462, 6.838246699751234]}}, {"id": "481", "type": "Feature", "properties": {"node_id": "J0482", "jtype": "three_way", "gn_name": "Watarappala"}, "geometry": {"type": "Point", "coordinates": [79.87068660008133, 6.838349599278522]}}, {"id": "482", "type": "Feature", "properties": {"node_id": "J0483", "jtype": "three_way", "gn_name": "Watarappala"}, "geometry": {"type": "Point", "coordinates": [79.87159870039763, 6.838351097079553]}}, {"id": "483", "type": "Feature", "properties": {"node_id": "J0484", "jtype": "three_way", "gn_name": "Watarappala"}, "geometry": {"type": "Point", "coordinates": [79.86928260040283, 6.838563500109232]}}, {"id": "484", "type": "Feature", "properties": {"node_id": "J0485", "jtype": "three_way", "gn_name": "Watarappala"}, "geometry": {"type": "Point", "coordinates": [79.86755679993708, 6.838585098117016]}}, {"id": "485", "type": "Feature", "properties": {"node_id": "J0486", "jtype": "three_way", "gn_name": "Watarappala"}, "geometry": {"type": "Point", "coordinates": [79.87321319966733, 6.838594101498212]}}, {"id": "487", "type": "Feature", "properties": {"node_id": "J0488", "jtype": "three_way", "gn_name": "Watarappala"}, "geometry": {"type": "Point", "coordinates": [79.86952599789605, 6.8386294994295005]}}, {"id": "489", "type": "Feature", "properties": {"node_id": "J0490", "jtype": "three_way", "gn_name": "Watarappala"}, "geometry": {"type": "Point", "coordinates": [79.86977010210518, 6.838696500371759]}}, {"id": "491", "type": "Feature", "properties": {"node_id": "J0492", "jtype": "four_way", "gn_name": "Watarappala"}, "geometry": {"type": "Point", "coordinates": [79.87203229861049, 6.838772200926898]}}, {"id": "493", "type": "Feature", "properties": {"node_id": "J0494", "jtype": "three_way", "gn_name": "Watarappala"}, "geometry": {"type": "Point", "coordinates": [79.87059070237957, 6.8388450016210225]}}, {"id": "494", "type": "Feature", "properties": {"node_id": "J0495", "jtype": "three_way", "gn_name": "Watarappala"}, "geometry": {"type": "Point", "coordinates": [79.87064339962046, 6.838880899741448]}}, {"id": "496", "type": "Feature", "properties": {"node_id": "J0497", "jtype": "three_way", "gn_name": "Watarappala"}, "geometry": {"type": "Point", "coordinates": [79.86755409999249, 6.838958601353437]}}, {"id": "500", "type": "Feature", "properties": {"node_id": "J0501", "jtype": "three_way", "gn_name": "Watarappala"}, "geometry": {"type": "Point", "coordinates": [79.87139400273234, 6.839142900721212]}}, {"id": "504", "type": "Feature", "properties": {"node_id": "J0505", "jtype": "three_way", "gn_name": "Watarappala"}, "geometry": {"type": "Point", "coordinates": [79.87159289990171, 6.839195399974065]}}, {"id": "505", "type": "Feature", "properties": {"node_id": "J0506", "jtype": "three_way", "gn_name": "Watarappala"}, "geometry": {"type": "Point", "coordinates": [79.87195460078463, 6.839226900113285]}}, {"id": "507", "type": "Feature", "properties": {"node_id": "J0508", "jtype": "three_way", "gn_name": "Watarappala"}, "geometry": {"type": "Point", "coordinates": [79.87240409840231, 6.839291799769324]}}, {"id": "508", "type": "Feature", "properties": {"node_id": "J0509", "jtype": "three_way", "gn_name": "Watarappala"}, "geometry": {"type": "Point", "coordinates": [79.87269619999998, 6.8393517]}}, {"id": "509", "type": "Feature", "properties": {"node_id": "J0510", "jtype": "three_way", "gn_name": "Watarappala"}, "geometry": {"type": "Point", "coordinates": [79.87275560071204, 6.8393779003144255]}}, {"id": "511", "type": "Feature", "properties": {"node_id": "J0512", "jtype": "three_way", "gn_name": "Watarappala"}, "geometry": {"type": "Point", "coordinates": [79.86917419907982, 6.839460199907184]}}, {"id": "514", "type": "Feature", "properties": {"node_id": "J0515", "jtype": "three_way", "gn_name": "Watarappala"}, "geometry": {"type": "Point", "coordinates": [79.8731057, 6.839533699999999]}}, {"id": "515", "type": "Feature", "properties": {"node_id": "J0516", "jtype": "three_way", "gn_name": "Watarappala"}, "geometry": {"type": "Point", "coordinates": [79.8739219489242, 6.839557261597852]}}, {"id": "516", "type": "Feature", "properties": {"node_id": "J0517", "jtype": "three_way", "gn_name": "Watarappala"}, "geometry": {"type": "Point", "coordinates": [79.86992869780886, 6.839568399543293]}}, {"id": "517", "type": "Feature", "properties": {"node_id": "J0518", "jtype": "three_way", "gn_name": "Watarappala"}, "geometry": {"type": "Point", "coordinates": [79.86842070053683, 6.839575200049153]}}, {"id": "518", "type": "Feature", "properties": {"node_id": "J0519", "jtype": "three_way", "gn_name": "Watarappala"}, "geometry": {"type": "Point", "coordinates": [79.86751310007274, 6.839590899303763]}}, {"id": "519", "type": "Feature", "properties": {"node_id": "J0520", "jtype": "three_way", "gn_name": "Watarappala"}, "geometry": {"type": "Point", "coordinates": [79.8703200004841, 6.839691500170574]}}, {"id": "520", "type": "Feature", "properties": {"node_id": "J0521", "jtype": "three_way", "gn_name": "Watarappala"}, "geometry": {"type": "Point", "coordinates": [79.87419439891217, 6.8397486992397285]}}, {"id": "524", "type": "Feature", "properties": {"node_id": "J0525", "jtype": "three_way", "gn_name": "Watarappala"}, "geometry": {"type": "Point", "coordinates": [79.87291070094871, 6.839881698275815]}}, {"id": "525", "type": "Feature", "properties": {"node_id": "J0526", "jtype": "four_way", "gn_name": "Watarappala"}, "geometry": {"type": "Point", "coordinates": [79.871235399976, 6.839938900039376]}}, {"id": "530", "type": "Feature", "properties": {"node_id": "J0531", "jtype": "three_way", "gn_name": "Watarappala"}, "geometry": {"type": "Point", "coordinates": [79.87014030085257, 6.840121197961298]}}, {"id": "531", "type": "Feature", "properties": {"node_id": "J0532", "jtype": "three_way", "gn_name": "Watarappala"}, "geometry": {"type": "Point", "coordinates": [79.86742410023177, 6.840173598570919]}}, {"id": "534", "type": "Feature", "properties": {"node_id": "J0535", "jtype": "three_way", "gn_name": "Watarappala"}, "geometry": {"type": "Point", "coordinates": [79.87265170084159, 6.840352398470493]}}, {"id": "536", "type": "Feature", "properties": {"node_id": "J0537", "jtype": "three_way", "gn_name": "Watarappala"}, "geometry": {"type": "Point", "coordinates": [79.86932989721062, 6.840534100139879]}}, {"id": "538", "type": "Feature", "properties": {"node_id": "J0539", "jtype": "three_way", "gn_name": "Watarappala"}, "geometry": {"type": "Point", "coordinates": [79.86909260191736, 6.840545999903848]}}, {"id": "539", "type": "Feature", "properties": {"node_id": "J0540", "jtype": "three_way", "gn_name": "Watarappala"}, "geometry": {"type": "Point", "coordinates": [79.8696315011415, 6.840553500176366]}}, {"id": "540", "type": "Feature", "properties": {"node_id": "J0541", "jtype": "three_way", "gn_name": "Watarappala"}, "geometry": {"type": "Point", "coordinates": [79.87253179999092, 6.840570300016506]}}, {"id": "541", "type": "Feature", "properties": {"node_id": "J0542", "jtype": "three_way", "gn_name": "Watarappala"}, "geometry": {"type": "Point", "coordinates": [79.86855719762717, 6.840573000119672]}}, {"id": "542", "type": "Feature", "properties": {"node_id": "J0543", "jtype": "three_way", "gn_name": "Watarappala"}, "geometry": {"type": "Point", "coordinates": [79.87086229871382, 6.840584302480336]}}, {"id": "543", "type": "Feature", "properties": {"node_id": "J0544", "jtype": "three_way", "gn_name": "Watarappala"}, "geometry": {"type": "Point", "coordinates": [79.8681486975635, 6.840585900011693]}}, {"id": "544", "type": "Feature", "properties": {"node_id": "J0545", "jtype": "three_way", "gn_name": "Watarappala"}, "geometry": {"type": "Point", "coordinates": [79.86733599941637, 6.840589802263895]}}, {"id": "545", "type": "Feature", "properties": {"node_id": "J0546", "jtype": "three_way", "gn_name": "Watarappala"}, "geometry": {"type": "Point", "coordinates": [79.86993439822069, 6.840600299725082]}}, {"id": "550", "type": "Feature", "properties": {"node_id": "J0551", "jtype": "three_way", "gn_name": "Watarappala"}, "geometry": {"type": "Point", "coordinates": [79.87241930091078, 6.840774798344354]}}, {"id": "551", "type": "Feature", "properties": {"node_id": "J0552", "jtype": "four_way", "gn_name": "Watarappala"}, "geometry": {"type": "Point", "coordinates": [79.87125480098881, 6.840817401288193]}}, {"id": "556", "type": "Feature", "properties": {"node_id": "J0557", "jtype": "three_way", "gn_name": "Watarappala"}, "geometry": {"type": "Point", "coordinates": [79.87319029994056, 6.841056400051409]}}, {"id": "557", "type": "Feature", "properties": {"node_id": "J0558", "jtype": "three_way", "gn_name": "Watarappala"}, "geometry": {"type": "Point", "coordinates": [79.87172570101066, 6.841066698829352]}}, {"id": "560", "type": "Feature", "properties": {"node_id": "J0561", "jtype": "three_way", "gn_name": "Watarappala"}, "geometry": {"type": "Point", "coordinates": [79.87057419903198, 6.8412706024854595]}}, {"id": "563", "type": "Feature", "properties": {"node_id": "J0564", "jtype": "three_way", "gn_name": "Watarappala"}, "geometry": {"type": "Point", "coordinates": [79.86712420027092, 6.841336099035382]}}, {"id": "565", "type": "Feature", "properties": {"node_id": "J0566", "jtype": "four_way", "gn_name": "Watarappala"}, "geometry": {"type": "Point", "coordinates": [79.8728090998981, 6.841433199995248]}}, {"id": "569", "type": "Feature", "properties": {"node_id": "J0570", "jtype": "three_way", "gn_name": "Watarappala"}, "geometry": {"type": "Point", "coordinates": [79.86960319997594, 6.841538500714551]}}, {"id": "574", "type": "Feature", "properties": {"node_id": "J0575", "jtype": "three_way", "gn_name": "Watarappala"}, "geometry": {"type": "Point", "coordinates": [79.87168660140502, 6.8417074985528625]}}, {"id": "575", "type": "Feature", "properties": {"node_id": "J0576", "jtype": "three_way", "gn_name": "Watarappala"}, "geometry": {"type": "Point", "coordinates": [79.87164810021554, 6.84174189980742]}}, {"id": "576", "type": "Feature", "properties": {"node_id": "J0577", "jtype": "three_way", "gn_name": "Watarappala"}, "geometry": {"type": "Point", "coordinates": [79.87038919940954, 6.841745601535451]}}, {"id": "577", "type": "Feature", "properties": {"node_id": "J0578", "jtype": "three_way", "gn_name": "Watarappala"}, "geometry": {"type": "Point", "coordinates": [79.87179480000682, 6.841802800006667]}}, {"id": "578", "type": "Feature", "properties": {"node_id": "J0579", "jtype": "three_way", "gn_name": "Watarappala"}, "geometry": {"type": "Point", "coordinates": [79.86796149972109, 6.841882401306176]}}, {"id": "580", "type": "Feature", "properties": {"node_id": "J0581", "jtype": "three_way", "gn_name": "Watarappala"}, "geometry": {"type": "Point", "coordinates": [79.86693280015687, 6.841950899496216]}}, {"id": "585", "type": "Feature", "properties": {"node_id": "J0586", "jtype": "four_way", "gn_name": "Watarappala"}, "geometry": {"type": "Point", "coordinates": [79.87133679800232, 6.842076399343769]}}, {"id": "589", "type": "Feature", "properties": {"node_id": "J0590", "jtype": "three_way", "gn_name": "Watarappala"}, "geometry": {"type": "Point", "coordinates": [79.86791049969708, 6.842152899969719]}}, {"id": "592", "type": "Feature", "properties": {"node_id": "J0593", "jtype": "three_way", "gn_name": "Watarappala"}, "geometry": {"type": "Point", "coordinates": [79.87061489979908, 6.842234900053642]}}, {"id": "593", "type": "Feature", "properties": {"node_id": "J0594", "jtype": "three_way", "gn_name": "Watarappala"}, "geometry": {"type": "Point", "coordinates": [79.86866349815797, 6.842302799749749]}}, {"id": "594", "type": "Feature", "properties": {"node_id": "J0595", "jtype": "three_way", "gn_name": "Watarappala"}, "geometry": {"type": "Point", "coordinates": [79.87113890130014, 6.842307598481059]}}, {"id": "595", "type": "Feature", "properties": {"node_id": "J0596", "jtype": "three_way", "gn_name": "Watarappala"}, "geometry": {"type": "Point", "coordinates": [79.87017630024799, 6.842351999147177]}}, {"id": "597", "type": "Feature", "properties": {"node_id": "J0598", "jtype": "three_way", "gn_name": "Watarappala"}, "geometry": {"type": "Point", "coordinates": [79.86919949933313, 6.842386800006246]}}, {"id": "598", "type": "Feature", "properties": {"node_id": "J0599", "jtype": "three_way", "gn_name": "Watarappala"}, "geometry": {"type": "Point", "coordinates": [79.86891129756881, 6.842389499999995]}}, {"id": "599", "type": "Feature", "properties": {"node_id": "J0600", "jtype": "four_way", "gn_name": "Watarappala"}, "geometry": {"type": "Point", "coordinates": [79.86957429999997, 6.842397]}}, {"id": "611", "type": "Feature", "properties": {"node_id": "J0612", "jtype": "four_way", "gn_name": "Watarappala"}, "geometry": {"type": "Point", "coordinates": [79.8705103000285, 6.842854800018746]}}, {"id": "613", "type": "Feature", "properties": {"node_id": "J0614", "jtype": "three_way", "gn_name": "Watarappala"}, "geometry": {"type": "Point", "coordinates": [79.87103220135681, 6.843199200985638]}}, {"id": "618", "type": "Feature", "properties": {"node_id": "J0619", "jtype": "three_way", "gn_name": "Wathumulla"}, "geometry": {"type": "Point", "coordinates": [79.87014709994007, 6.828076899993133]}}, {"id": "619", "type": "Feature", "properties": {"node_id": "J0620", "jtype": "three_way", "gn_name": "Wathumulla"}, "geometry": {"type": "Point", "coordinates": [79.86962439973478, 6.828085800107732]}}, {"id": "623", "type": "Feature", "properties": {"node_id": "J0624", "jtype": "three_way", "gn_name": "Wathumulla"}, "geometry": {"type": "Point", "coordinates": [79.87082400035291, 6.828190200253758]}}, {"id": "627", "type": "Feature", "properties": {"node_id": "J0628", "jtype": "three_way", "gn_name": "Wathumulla"}, "geometry": {"type": "Point", "coordinates": [79.87018290013806, 6.828436600005393]}}, {"id": "630", "type": "Feature", "properties": {"node_id": "J0631", "jtype": "four_way", "gn_name": "Wathumulla"}, "geometry": {"type": "Point", "coordinates": [79.8715377, 6.8284953]}}, {"id": "632", "type": "Feature", "properties": {"node_id": "J0633", "jtype": "three_way", "gn_name": "Wathumulla"}, "geometry": {"type": "Point", "coordinates": [79.86855490020265, 6.828651899445395]}}, {"id": "634", "type": "Feature", "properties": {"node_id": "J0635", "jtype": "three_way", "gn_name": "Wathumulla"}, "geometry": {"type": "Point", "coordinates": [79.87259430075953, 6.828669300027347]}}, {"id": "635", "type": "Feature", "properties": {"node_id": "J0636", "jtype": "three_way", "gn_name": "Wathumulla"}, "geometry": {"type": "Point", "coordinates": [79.87283869856434, 6.828678099948306]}}, {"id": "638", "type": "Feature", "properties": {"node_id": "J0639", "jtype": "three_way", "gn_name": "Wathumulla"}, "geometry": {"type": "Point", "coordinates": [79.86849480008358, 6.8287935998029266]}}, {"id": "643", "type": "Feature", "properties": {"node_id": "J0644", "jtype": "three_way", "gn_name": "Wathumulla"}, "geometry": {"type": "Point", "coordinates": [79.87137199999998, 6.8291324]}}, {"id": "644", "type": "Feature", "properties": {"node_id": "J0645", "jtype": "three_way", "gn_name": "Wathumulla"}, "geometry": {"type": "Point", "coordinates": [79.86834540071054, 6.829170298208316]}}, {"id": "648", "type": "Feature", "properties": {"node_id": "J0649", "jtype": "three_way", "gn_name": "Wathumulla"}, "geometry": {"type": "Point", "coordinates": [79.86823320021193, 6.829442899489069]}}, {"id": "652", "type": "Feature", "properties": {"node_id": "J0653", "jtype": "three_way", "gn_name": "Wathumulla"}, "geometry": {"type": "Point", "coordinates": [79.86817909936555, 6.829573301530206]}}, {"id": "659", "type": "Feature", "properties": {"node_id": "J0660", "jtype": "three_way", "gn_name": "Wathumulla"}, "geometry": {"type": "Point", "coordinates": [79.8699928004205, 6.830102700108689]}}, {"id": "661", "type": "Feature", "properties": {"node_id": "J0662", "jtype": "three_way", "gn_name": "Wathumulla"}, "geometry": {"type": "Point", "coordinates": [79.8702051987683, 6.830157599681638]}}, {"id": "664", "type": "Feature", "properties": {"node_id": "J0665", "jtype": "three_way", "gn_name": "Wathumulla"}, "geometry": {"type": "Point", "coordinates": [79.87103849888132, 6.830506899050692]}}, {"id": "665", "type": "Feature", "properties": {"node_id": "J0666", "jtype": "four_way", "gn_name": "Wathumulla"}, "geometry": {"type": "Point", "coordinates": [79.8678375, 6.8305117]}}, {"id": "667", "type": "Feature", "properties": {"node_id": "J0668", "jtype": "three_way", "gn_name": "Wathumulla"}, "geometry": {"type": "Point", "coordinates": [79.86900820190866, 6.830871300326301]}}, {"id": "668", "type": "Feature", "properties": {"node_id": "J0669", "jtype": "three_way", "gn_name": "Wathumulla"}, "geometry": {"type": "Point", "coordinates": [79.8690899984165, 6.830879299971647]}}, {"id": "669", "type": "Feature", "properties": {"node_id": "J0670", "jtype": "three_way", "gn_name": "Wathumulla"}, "geometry": {"type": "Point", "coordinates": [79.86978069847108, 6.831036499554849]}}, {"id": "670", "type": "Feature", "properties": {"node_id": "J0671", "jtype": "three_way", "gn_name": "Wathumulla"}, "geometry": {"type": "Point", "coordinates": [79.87074029809618, 6.831213999647845]}}, {"id": "671", "type": "Feature", "properties": {"node_id": "J0672", "jtype": "three_way", "gn_name": "Wathumulla"}, "geometry": {"type": "Point", "coordinates": [79.87098810079848, 6.831243500197214]}}, {"id": "672", "type": "Feature", "properties": {"node_id": "J0673", "jtype": "four_way", "gn_name": "Wathumulla"}, "geometry": {"type": "Point", "coordinates": [79.87147719720973, 6.831364301490077]}}, {"id": "675", "type": "Feature", "properties": {"node_id": "J0676", "jtype": "three_way", "gn_name": "Wathumulla"}, "geometry": {"type": "Point", "coordinates": [79.86754610033468, 6.831603098126533]}}, {"id": "676", "type": "Feature", "properties": {"node_id": "J0677", "jtype": "three_way", "gn_name": "Wathumulla"}, "geometry": {"type": "Point", "coordinates": [79.87216090240258, 6.831645700691296]}}, {"id": "678", "type": "Feature", "properties": {"node_id": "J0679", "jtype": "three_way", "gn_name": "Wathumulla"}, "geometry": {"type": "Point", "coordinates": [79.87128559988173, 6.831760500241512]}}, {"id": "679", "type": "Feature", "properties": {"node_id": "J0680", "jtype": "three_way", "gn_name": "Wathumulla"}, "geometry": {"type": "Point", "coordinates": [79.87268659906329, 6.831783999774274]}}, {"id": "681", "type": "Feature", "properties": {"node_id": "J0682", "jtype": "three_way", "gn_name": "Wathumulla"}, "geometry": {"type": "Point", "coordinates": [79.86895540006199, 6.831964300702672]}}, {"id": "684", "type": "Feature", "properties": {"node_id": "J0685", "jtype": "three_way", "gn_name": "Wathumulla"}, "geometry": {"type": "Point", "coordinates": [79.8705109014791, 6.83218190136314]}}, {"id": "685", "type": "Feature", "properties": {"node_id": "J0686", "jtype": "three_way", "gn_name": "Wathumulla"}, "geometry": {"type": "Point", "coordinates": [79.87281960009282, 6.832285400697941]}}, {"id": "687", "type": "Feature", "properties": {"node_id": "J0688", "jtype": "three_way", "gn_name": "Wathumulla"}, "geometry": {"type": "Point", "coordinates": [79.87162939999999, 6.8324322]}}, {"id": "689", "type": "Feature", "properties": {"node_id": "J0690", "jtype": "three_way", "gn_name": "Wathumulla"}, "geometry": {"type": "Point", "coordinates": [79.87079989866159, 6.832495798378469]}}, {"id": "691", "type": "Feature", "properties": {"node_id": "J0692", "jtype": "three_way", "gn_name": "Wathumulla"}, "geometry": {"type": "Point", "coordinates": [79.86740530007408, 6.832565199215131]}}, {"id": "693", "type": "Feature", "properties": {"node_id": "J0694", "jtype": "three_way", "gn_name": "Wathumulla"}, "geometry": {"type": "Point", "coordinates": [79.870940999254, 6.832713900575146]}}, {"id": "694", "type": "Feature", "properties": {"node_id": "J0695", "jtype": "three_way", "gn_name": "Wathumulla"}, "geometry": {"type": "Point", "coordinates": [79.87167120057296, 6.832714198889273]}}, {"id": "695", "type": "Feature", "properties": {"node_id": "J0696", "jtype": "three_way", "gn_name": "Wathumulla"}, "geometry": {"type": "Point", "coordinates": [79.86897790126204, 6.832897600022251]}}, {"id": "696", "type": "Feature", "properties": {"node_id": "J0697", "jtype": "three_way", "gn_name": "Wathumulla"}, "geometry": {"type": "Point", "coordinates": [79.86738020001322, 6.832901299788127]}}, {"id": "698", "type": "Feature", "properties": {"node_id": "J0699", "jtype": "three_way", "gn_name": "Wathumulla"}, "geometry": {"type": "Point", "coordinates": [79.86931409939397, 6.833028298607611]}}, {"id": "699", "type": "Feature", "properties": {"node_id": "J0700", "jtype": "three_way", "gn_name": "Wathumulla"}, "geometry": {"type": "Point", "coordinates": [79.87060789817286, 6.833056801976516]}}, {"id": "704", "type": "Feature", "properties": {"node_id": "J0705", "jtype": "three_way", "gn_name": "Wathumulla"}, "geometry": {"type": "Point", "coordinates": [79.87028129999999, 6.8334100999999965]}}, {"id": "705", "type": "Feature", "properties": {"node_id": "J0706", "jtype": "three_way", "gn_name": "Wathumulla"}, "geometry": {"type": "Point", "coordinates": [79.86919980053437, 6.833416998182669]}}, {"id": "708", "type": "Feature", "properties": {"node_id": "J0709", "jtype": "three_way", "gn_name": "Wathumulla"}, "geometry": {"type": "Point", "coordinates": [79.86913010043732, 6.833604298824883]}}, {"id": "710", "type": "Feature", "properties": {"node_id": "J0711", "jtype": "three_way", "gn_name": "Wathumulla"}, "geometry": {"type": "Point", "coordinates": [79.87051909980845, 6.8337698003960465]}}, {"id": "713", "type": "Feature", "properties": {"node_id": "J0714", "jtype": "three_way", "gn_name": "Wathumulla"}, "geometry": {"type": "Point", "coordinates": [79.87193340076189, 6.834111800233612]}}, {"id": "715", "type": "Feature", "properties": {"node_id": "J0716", "jtype": "three_way", "gn_name": "Wathumulla"}, "geometry": {"type": "Point", "coordinates": [79.87204949804904, 6.834147399401775]}}, {"id": "718", "type": "Feature", "properties": {"node_id": "J0719", "jtype": "three_way", "gn_name": "Wathumulla"}, "geometry": {"type": "Point", "coordinates": [79.86898910018036, 6.8341871992542575]}}, {"id": "719", "type": "Feature", "properties": {"node_id": "J0720", "jtype": "three_way", "gn_name": "Wathumulla"}, "geometry": {"type": "Point", "coordinates": [79.87256530016062, 6.834236398309069]}}, {"id": "722", "type": "Feature", "properties": {"node_id": "J0723", "jtype": "three_way", "gn_name": "Wathumulla"}, "geometry": {"type": "Point", "coordinates": [79.87249869984953, 6.834833802525833]}}, {"id": "725", "type": "Feature", "properties": {"node_id": "J0726", "jtype": "three_way", "gn_name": "Wathumulla"}, "geometry": {"type": "Point", "coordinates": [79.86887469995014, 6.835045201462265]}}, {"id": "726", "type": "Feature", "properties": {"node_id": "J0727", "jtype": "three_way", "gn_name": "Wathumulla"}, "geometry": {"type": "Point", "coordinates": [79.87134579956272, 6.835052401045258]}}, {"id": "729", "type": "Feature", "properties": {"node_id": "J0730", "jtype": "four_way", "gn_name": "Wathumulla"}, "geometry": {"type": "Point", "coordinates": [79.86738629781411, 6.83510319936836]}}, {"id": "732", "type": "Feature", "properties": {"node_id": "J0733", "jtype": "three_way", "gn_name": "Wathumulla"}, "geometry": {"type": "Point", "coordinates": [79.86807520115886, 6.835239800214448]}}, {"id": "735", "type": "Feature", "properties": {"node_id": "J0736", "jtype": "three_way", "gn_name": "Wathumulla"}, "geometry": {"type": "Point", "coordinates": [79.87004419963363, 6.83536270000581]}}, {"id": "736", "type": "Feature", "properties": {"node_id": "J0737", "jtype": "three_way", "gn_name": "Wathumulla"}, "geometry": {"type": "Point", "coordinates": [79.86886310173064, 6.835385600062927]}}, {"id": "737", "type": "Feature", "properties": {"node_id": "J0738", "jtype": "three_way", "gn_name": "Wathumulla"}, "geometry": {"type": "Point", "coordinates": [79.86923989994676, 6.8353992999980635]}}, {"id": "738", "type": "Feature", "properties": {"node_id": "J0739", "jtype": "three_way", "gn_name": "Wathumulla"}, "geometry": {"type": "Point", "coordinates": [79.86954880248861, 6.835440098590302]}}, {"id": "742", "type": "Feature", "properties": {"node_id": "J0743", "jtype": "three_way", "gn_name": "Wathumulla"}, "geometry": {"type": "Point", "coordinates": [79.8695378996282, 6.835759502692374]}}, {"id": "747", "type": "Feature", "properties": {"node_id": "J0748", "jtype": "three_way", "gn_name": "Wathumulla"}, "geometry": {"type": "Point", "coordinates": [79.8674081999027, 6.836234197508416]}}, {"id": "755", "type": "Feature", "properties": {"node_id": "J0756", "jtype": "three_way", "gn_name": "Wathumulla"}, "geometry": {"type": "Point", "coordinates": [79.86744179980609, 6.836712697238349]}}, {"id": "758", "type": "Feature", "properties": {"node_id": "J0759", "jtype": "three_way", "gn_name": "Wathumulla"}, "geometry": {"type": "Point", "coordinates": [79.867452899988, 6.8368701998295185]}}, {"id": "773", "type": "Feature", "properties": {"node_id": "J0774", "jtype": "four_way", "gn_name": "Wedikanda"}, "geometry": {"type": "Point", "coordinates": [79.86603379815257, 6.819787299371267]}}, {"id": "774", "type": "Feature", "properties": {"node_id": "J0775", "jtype": "three_way", "gn_name": "Wedikanda"}, "geometry": {"type": "Point", "coordinates": [79.86627049750392, 6.8198651991785155]}}, {"id": "775", "type": "Feature", "properties": {"node_id": "J0776", "jtype": "three_way", "gn_name": "Wedikanda"}, "geometry": {"type": "Point", "coordinates": [79.86651479770417, 6.81994679931125]}}, {"id": "776", "type": "Feature", "properties": {"node_id": "J0777", "jtype": "three_way", "gn_name": "Wedikanda"}, "geometry": {"type": "Point", "coordinates": [79.86668650149052, 6.8200094005074305]}}, {"id": "778", "type": "Feature", "properties": {"node_id": "J0779", "jtype": "three_way", "gn_name": "Wedikanda"}, "geometry": {"type": "Point", "coordinates": [79.86686949999999, 6.8200717]}}, {"id": "782", "type": "Feature", "properties": {"node_id": "J0783", "jtype": "three_way", "gn_name": "Wedikanda"}, "geometry": {"type": "Point", "coordinates": [79.86728797425623, 6.82025148396022]}}, {"id": "785", "type": "Feature", "properties": {"node_id": "J0786", "jtype": "three_way", "gn_name": "Wedikanda"}, "geometry": {"type": "Point", "coordinates": [79.86754519795706, 6.820434798349783]}}, {"id": "786", "type": "Feature", "properties": {"node_id": "J0787", "jtype": "three_way", "gn_name": "Wedikanda"}, "geometry": {"type": "Point", "coordinates": [79.86550469941875, 6.820483601497763]}}, {"id": "787", "type": "Feature", "properties": {"node_id": "J0788", "jtype": "three_way", "gn_name": "Wedikanda"}, "geometry": {"type": "Point", "coordinates": [79.86547539984221, 6.8205591004057196]}}, {"id": "788", "type": "Feature", "properties": {"node_id": "J0789", "jtype": "four_way", "gn_name": "Wedikanda"}, "geometry": {"type": "Point", "coordinates": [79.86574139868195, 6.820566497875774]}}, {"id": "790", "type": "Feature", "properties": {"node_id": "J0791", "jtype": "three_way", "gn_name": "Wedikanda"}, "geometry": {"type": "Point", "coordinates": [79.86658560014625, 6.820610499469496]}}, {"id": "792", "type": "Feature", "properties": {"node_id": "J0793", "jtype": "three_way", "gn_name": "Wedikanda"}, "geometry": {"type": "Point", "coordinates": [79.8659907, 6.8206623]}}, {"id": "793", "type": "Feature", "properties": {"node_id": "J0794", "jtype": "three_way", "gn_name": "Wedikanda"}, "geometry": {"type": "Point", "coordinates": [79.86538810061516, 6.820783598418048]}}, {"id": "797", "type": "Feature", "properties": {"node_id": "J0798", "jtype": "three_way", "gn_name": "Wedikanda"}, "geometry": {"type": "Point", "coordinates": [79.86529220065346, 6.8210334982971395]}}, {"id": "799", "type": "Feature", "properties": {"node_id": "J0800", "jtype": "three_way", "gn_name": "Wedikanda"}, "geometry": {"type": "Point", "coordinates": [79.86813790002878, 6.8210872000252545]}}, {"id": "800", "type": "Feature", "properties": {"node_id": "J0801", "jtype": "three_way", "gn_name": "Wedikanda"}, "geometry": {"type": "Point", "coordinates": [79.86526119919803, 6.821114202167854]}}, {"id": "802", "type": "Feature", "properties": {"node_id": "J0803", "jtype": "three_way", "gn_name": "Wedikanda"}, "geometry": {"type": "Point", "coordinates": [79.86554029838764, 6.821222199376095]}}, {"id": "803", "type": "Feature", "properties": {"node_id": "J0804", "jtype": "three_way", "gn_name": "Wedikanda"}, "geometry": {"type": "Point", "coordinates": [79.8683053999932, 6.821234099994042]}}, {"id": "805", "type": "Feature", "properties": {"node_id": "J0806", "jtype": "three_way", "gn_name": "Wedikanda"}, "geometry": {"type": "Point", "coordinates": [79.86844179909087, 6.821375299058906]}}, {"id": "806", "type": "Feature", "properties": {"node_id": "J0807", "jtype": "three_way", "gn_name": "Wedikanda"}, "geometry": {"type": "Point", "coordinates": [79.86611870145536, 6.821431700516829]}}, {"id": "807", "type": "Feature", "properties": {"node_id": "J0808", "jtype": "three_way", "gn_name": "Wedikanda"}, "geometry": {"type": "Point", "coordinates": [79.86862900025058, 6.821471600074725]}}, {"id": "811", "type": "Feature", "properties": {"node_id": "J0812", "jtype": "three_way", "gn_name": "Wedikanda"}, "geometry": {"type": "Point", "coordinates": [79.86880740189257, 6.821524800498204]}}, {"id": "812", "type": "Feature", "properties": {"node_id": "J0813", "jtype": "three_way", "gn_name": "Wedikanda"}, "geometry": {"type": "Point", "coordinates": [79.86926060263153, 6.8216441008555915]}}, {"id": "816", "type": "Feature", "properties": {"node_id": "J0817", "jtype": "three_way", "gn_name": "Wedikanda"}, "geometry": {"type": "Point", "coordinates": [79.86501729910302, 6.8217735023570185]}}, {"id": "825", "type": "Feature", "properties": {"node_id": "J0826", "jtype": "three_way", "gn_name": "Wedikanda"}, "geometry": {"type": "Point", "coordinates": [79.86570110088934, 6.822060300403972]}}, {"id": "827", "type": "Feature", "properties": {"node_id": "J0828", "jtype": "three_way", "gn_name": "Wedikanda"}, "geometry": {"type": "Point", "coordinates": [79.86798370004892, 6.822191799778104]}}, {"id": "828", "type": "Feature", "properties": {"node_id": "J0829", "jtype": "three_way", "gn_name": "Wedikanda"}, "geometry": {"type": "Point", "coordinates": [79.8677329001639, 6.822266999559978]}}, {"id": "833", "type": "Feature", "properties": {"node_id": "J0834", "jtype": "three_way", "gn_name": "Wedikanda"}, "geometry": {"type": "Point", "coordinates": [79.86694329957758, 6.822463299949609]}}, {"id": "834", "type": "Feature", "properties": {"node_id": "J0835", "jtype": "three_way", "gn_name": "Wedikanda"}, "geometry": {"type": "Point", "coordinates": [79.86478699998756, 6.822531600058517]}}, {"id": "835", "type": "Feature", "properties": {"node_id": "J0836", "jtype": "three_way", "gn_name": "Wedikanda"}, "geometry": {"type": "Point", "coordinates": [79.86963509918746, 6.822547700940364]}}, {"id": "839", "type": "Feature", "properties": {"node_id": "J0840", "jtype": "three_way", "gn_name": "Wedikanda"}, "geometry": {"type": "Point", "coordinates": [79.86519950178669, 6.822677100745086]}}, {"id": "840", "type": "Feature", "properties": {"node_id": "J0841", "jtype": "three_way", "gn_name": "Wedikanda"}, "geometry": {"type": "Point", "coordinates": [79.8652229997472, 6.8226868998945776]}}, {"id": "844", "type": "Feature", "properties": {"node_id": "J0845", "jtype": "three_way", "gn_name": "Wedikanda"}, "geometry": {"type": "Point", "coordinates": [79.86688259999998, 6.822996600000003]}}, {"id": "846", "type": "Feature", "properties": {"node_id": "J0847", "jtype": "three_way", "gn_name": "Wedikanda"}, "geometry": {"type": "Point", "coordinates": [79.86656409999999, 6.823017899999999]}}, {"id": "847", "type": "Feature", "properties": {"node_id": "J0848", "jtype": "four_way", "gn_name": "Wedikanda"}, "geometry": {"type": "Point", "coordinates": [79.86706080207489, 6.82302250038409]}}, {"id": "850", "type": "Feature", "properties": {"node_id": "J0851", "jtype": "three_way", "gn_name": "Wedikanda"}, "geometry": {"type": "Point", "coordinates": [79.86514930051294, 6.823070698388113]}}, {"id": "851", "type": "Feature", "properties": {"node_id": "J0852", "jtype": "three_way", "gn_name": "Wedikanda"}, "geometry": {"type": "Point", "coordinates": [79.86819669834318, 6.823130299262091]}}, {"id": "857", "type": "Feature", "properties": {"node_id": "J0858", "jtype": "three_way", "gn_name": "Wedikanda"}, "geometry": {"type": "Point", "coordinates": [79.86639089999998, 6.823535400000002]}}, {"id": "860", "type": "Feature", "properties": {"node_id": "J0861", "jtype": "three_way", "gn_name": "Wedikanda"}, "geometry": {"type": "Point", "coordinates": [79.8677216993595, 6.823728302309222]}}, {"id": "866", "type": "Feature", "properties": {"node_id": "J0867", "jtype": "three_way", "gn_name": "Wedikanda"}, "geometry": {"type": "Point", "coordinates": [79.86465770000629, 6.824083500259293]}}, {"id": "868", "type": "Feature", "properties": {"node_id": "J0869", "jtype": "three_way", "gn_name": "Wedikanda"}, "geometry": {"type": "Point", "coordinates": [79.86849449998479, 6.824170400107897]}}, {"id": "872", "type": "Feature", "properties": {"node_id": "J0873", "jtype": "three_way", "gn_name": "Wedikanda"}, "geometry": {"type": "Point", "coordinates": [79.86461490002416, 6.824781999875126]}}, {"id": "874", "type": "Feature", "properties": {"node_id": "J0875", "jtype": "three_way", "gn_name": "Wedikanda"}, "geometry": {"type": "Point", "coordinates": [79.86826299993642, 6.824808500170377]}}, {"id": "876", "type": "Feature", "properties": {"node_id": "J0877", "jtype": "three_way", "gn_name": "Wedikanda"}, "geometry": {"type": "Point", "coordinates": [79.86650630028034, 6.824831500090257]}}, {"id": "877", "type": "Feature", "properties": {"node_id": "J0878", "jtype": "three_way", "gn_name": "Wedikanda"}, "geometry": {"type": "Point", "coordinates": [79.8645781999503, 6.824902500194932]}}, {"id": "880", "type": "Feature", "properties": {"node_id": "J0881", "jtype": "three_way", "gn_name": "Wedikanda"}, "geometry": {"type": "Point", "coordinates": [79.8671525004259, 6.825101600216901]}}, {"id": "882", "type": "Feature", "properties": {"node_id": "J0883", "jtype": "four_way", "gn_name": "Wedikanda"}, "geometry": {"type": "Point", "coordinates": [79.86449579993277, 6.825225900338787]}}, {"id": "884", "type": "Feature", "properties": {"node_id": "J0885", "jtype": "three_way", "gn_name": "Wedikanda"}, "geometry": {"type": "Point", "coordinates": [79.86759939965647, 6.82532919982505]}}, {"id": "886", "type": "Feature", "properties": {"node_id": "J0887", "jtype": "three_way", "gn_name": "Wedikanda"}, "geometry": {"type": "Point", "coordinates": [79.86780750185886, 6.8254796011307555]}}, {"id": "897", "type": "Feature", "properties": {"node_id": "J0898", "jtype": "three_way", "gn_name": "Wedikanda"}, "geometry": {"type": "Point", "coordinates": [79.86657759956027, 6.826253797653652]}}, {"id": "899", "type": "Feature", "properties": {"node_id": "J0900", "jtype": "three_way", "gn_name": "Wedikanda"}, "geometry": {"type": "Point", "coordinates": [79.86390990210155, 6.826465900256733]}}, {"id": "900", "type": "Feature", "properties": {"node_id": "J0901", "jtype": "four_way", "gn_name": "Wedikanda"}, "geometry": {"type": "Point", "coordinates": [79.8642667993187, 6.826509499916774]}}, {"id": "901", "type": "Feature", "properties": {"node_id": "J0902", "jtype": "three_way", "gn_name": "Wedikanda"}, "geometry": {"type": "Point", "coordinates": [79.8650091995469, 6.826612399937198]}}, {"id": "903", "type": "Feature", "properties": {"node_id": "J0904", "jtype": "three_way", "gn_name": "Wedikanda"}, "geometry": {"type": "Point", "coordinates": [79.86743529882285, 6.826876899888978]}}, {"id": "906", "type": "Feature", "properties": {"node_id": "J0907", "jtype": "three_way", "gn_name": "Wedikanda"}, "geometry": {"type": "Point", "coordinates": [79.86698849725539, 6.82690600103223]}}, {"id": "907", "type": "Feature", "properties": {"node_id": "J0908", "jtype": "three_way", "gn_name": "Wedikanda"}, "geometry": {"type": "Point", "coordinates": [79.8658192023559, 6.82700380154296]}}, {"id": "910", "type": "Feature", "properties": {"node_id": "J0911", "jtype": "three_way", "gn_name": "Wedikanda"}, "geometry": {"type": "Point", "coordinates": [79.86658940265285, 6.827056099002269]}}, {"id": "911", "type": "Feature", "properties": {"node_id": "J0912", "jtype": "three_way", "gn_name": "Wedikanda"}, "geometry": {"type": "Point", "coordinates": [79.8640350999647, 6.8270710003891315]}}, {"id": "912", "type": "Feature", "properties": {"node_id": "J0913", "jtype": "three_way", "gn_name": "Wedikanda"}, "geometry": {"type": "Point", "coordinates": [79.86653190008913, 6.827073499973021]}}, {"id": "914", "type": "Feature", "properties": {"node_id": "J0915", "jtype": "three_way", "gn_name": "Wedikanda"}, "geometry": {"type": "Point", "coordinates": [79.866035100465, 6.827145199997027]}}, {"id": "916", "type": "Feature", "properties": {"node_id": "J0917", "jtype": "three_way", "gn_name": "Wedikanda"}, "geometry": {"type": "Point", "coordinates": [79.86904248571246, 6.827193666542132]}}, {"id": "919", "type": "Feature", "properties": {"node_id": "J0920", "jtype": "three_way", "gn_name": "Wedikanda"}, "geometry": {"type": "Point", "coordinates": [79.86900089966436, 6.827303100825133]}}, {"id": "924", "type": "Feature", "properties": {"node_id": "J0925", "jtype": "three_way", "gn_name": "Wedikanda"}, "geometry": {"type": "Point", "coordinates": [79.86893350031745, 6.827468799219459]}}, {"id": "930", "type": "Feature", "properties": {"node_id": "J0931", "jtype": "three_way", "gn_name": "Wedikanda"}, "geometry": {"type": "Point", "coordinates": [79.86395449976604, 6.827960200104285]}}, {"id": "931", "type": "Feature", "properties": {"node_id": "J0932", "jtype": "three_way", "gn_name": "Wedikanda"}, "geometry": {"type": "Point", "coordinates": [79.86872250019124, 6.828030699494834]}}, {"id": "932", "type": "Feature", "properties": {"node_id": "J0933", "jtype": "three_way", "gn_name": "Wedikanda"}, "geometry": {"type": "Point", "coordinates": [79.8679714011243, 6.828035500039765]}}, {"id": "933", "type": "Feature", "properties": {"node_id": "J0934", "jtype": "three_way", "gn_name": "Wedikanda"}, "geometry": {"type": "Point", "coordinates": [79.86817780161108, 6.828042800271145]}}, {"id": "935", "type": "Feature", "properties": {"node_id": "J0936", "jtype": "three_way", "gn_name": "Wedikanda"}, "geometry": {"type": "Point", "coordinates": [79.8686613991134, 6.828184102228341]}}, {"id": "936", "type": "Feature", "properties": {"node_id": "J0937", "jtype": "three_way", "gn_name": "Wedikanda"}, "geometry": {"type": "Point", "coordinates": [79.8663302985691, 6.828188399895301]}}, {"id": "938", "type": "Feature", "properties": {"node_id": "J0939", "jtype": "four_way", "gn_name": "Wedikanda"}, "geometry": {"type": "Point", "coordinates": [79.86785840018952, 6.82844920005232]}}, {"id": "940", "type": "Feature", "properties": {"node_id": "J0941", "jtype": "three_way", "gn_name": "Wedikanda"}, "geometry": {"type": "Point", "coordinates": [79.86632160032343, 6.8285665971492]}}, {"id": "941", "type": "Feature", "properties": {"node_id": "J0942", "jtype": "three_way", "gn_name": "Wedikanda"}, "geometry": {"type": "Point", "coordinates": [79.86848689980866, 6.828622700446922]}}, {"id": "944", "type": "Feature", "properties": {"node_id": "J0945", "jtype": "three_way", "gn_name": "Wedikanda"}, "geometry": {"type": "Point", "coordinates": [79.86845060087448, 6.828707497957195]}}, {"id": "945", "type": "Feature", "properties": {"node_id": "J0946", "jtype": "three_way", "gn_name": "Wedikanda"}, "geometry": {"type": "Point", "coordinates": [79.86624169908856, 6.828797902317638]}}, {"id": "947", "type": "Feature", "properties": {"node_id": "J0948", "jtype": "three_way", "gn_name": "Wedikanda"}, "geometry": {"type": "Point", "coordinates": [79.86456729939903, 6.828941199964572]}}, {"id": "950", "type": "Feature", "properties": {"node_id": "J0951", "jtype": "three_way", "gn_name": "Wedikanda"}, "geometry": {"type": "Point", "coordinates": [79.86607540213505, 6.829174497990509]}}, {"id": "952", "type": "Feature", "properties": {"node_id": "J0953", "jtype": "four_way", "gn_name": "Wedikanda"}, "geometry": {"type": "Point", "coordinates": [79.86371299958097, 6.829398699331849]}}, {"id": "954", "type": "Feature", "properties": {"node_id": "J0955", "jtype": "three_way", "gn_name": "Wedikanda"}, "geometry": {"type": "Point", "coordinates": [79.86811640085358, 6.829539297875519]}}, {"id": "958", "type": "Feature", "properties": {"node_id": "J0959", "jtype": "three_way", "gn_name": "Wedikanda"}, "geometry": {"type": "Point", "coordinates": [79.86800880035132, 6.829816499048383]}}, {"id": "962", "type": "Feature", "properties": {"node_id": "J0963", "jtype": "three_way", "gn_name": "Wedikanda"}, "geometry": {"type": "Point", "coordinates": [79.8670796004521, 6.829940400089884]}}, {"id": "965", "type": "Feature", "properties": {"node_id": "J0966", "jtype": "three_way", "gn_name": "Wedikanda"}, "geometry": {"type": "Point", "coordinates": [79.86504939899025, 6.830103799904912]}}, {"id": "966", "type": "Feature", "properties": {"node_id": "J0967", "jtype": "three_way", "gn_name": "Wedikanda"}, "geometry": {"type": "Point", "coordinates": [79.86790249942216, 6.830104001562845]}}, {"id": "974", "type": "Feature", "properties": {"node_id": "J0975", "jtype": "three_way", "gn_name": "Wedikanda"}, "geometry": {"type": "Point", "coordinates": [79.86608850085096, 6.830285100513538]}}, {"id": "976", "type": "Feature", "properties": {"node_id": "J0977", "jtype": "three_way", "gn_name": "Wedikanda"}, "geometry": {"type": "Point", "coordinates": [79.86776579916828, 6.830481702535046]}}]}