{"type":"FeatureCollection","features":[{"type":"Feature","properties":{"node_id":35,"degree":4,"jtype":"four_way","gn_name":"Mount Lavinia","gn_pcode":"LK1131005","on_boundary":false,"marshall_cul":false,"exclusion_reason":null},"geometry":{"type":"Point","coordinates":[79.86360642369374,6.846159662696297]}},{"type":"Feature","properties":{"node_id":45,"degree":4,"jtype":"four_way","gn_name":"Mount Lavinia","gn_pcode":"LK1131005","on_boundary":false,"marshall_cul":false,"exclusion_reason":null},"geometry":{"type":"Point","coordinates":[79.86366032261078,6.830756126659615]}},{"type":"Feature","properties":{"node_id":50,"degree":4,"jtype":"four_way","gn_name":"Mount Lavinia","gn_pcode":"LK1131005","on_boundary":false,"marshall_cul":false,"exclusion_reason":null},"geometry":{"type":"Point","coordinates":[79.86375913729204,6.831576709714479]}},{"type":"Feature","properties":{"node_id":66,"degree":4,"jtype":"four_way","gn_name":"Mount Lavinia","gn_pcode":"LK1131005","on_boundary":false,"marshall_cul":false,"exclusion_reason":null},"geometry":{"type":"Point","coordinates":[79.8640555813358,6.848639166365822]}},{"type":"Feature","properties":{"node_id":84,"degree":4,"jtype":"four_way","gn_name":"Mount Lavinia","gn_pcode":"LK1131005","on_boundary":false,"marshall_cul":false,"exclusion_reason":null},"geometry":{"type":"Point","coordinates":[79.86458558735343,6.840710060804428]}},{"type":"Feature","properties":{"node_id":106,"degree":4,"jtype":"four_way","gn_name":"Mount Lavinia","gn_pcode":"LK1131005","on_boundary":false,"marshall_cul":false,"exclusion_reason":null},"geometry":{"type":"Point","coordinates":[79.86483711563298,6.8386408012423905]}},{"type":"Feature","properties":{"node_id":137,"degree":4,"jtype":"four_way","gn_name":"Mount Lavinia","gn_pcode":"LK1131005","on_boundary":false,"marshall_cul":false,"exclusion_reason":null},"geometry":{"type":"Point","coordinates":[79.86558271731882,6.8401570699025935]}},{"type":"Feature","properties":{"node_id":149,"degree":4,"jtype":"four_way","gn_name":"Mount Lavinia","gn_pcode":"LK1131005","on_boundary":false,"marshall_cul":false,"exclusion_reason":null},"geometry":{"type":"Point","coordinates":[79.86571746461142,6.835269316035679]}},{"type":"Feature","properties":{"node_id":178,"degree":4,"jtype":"four_way","gn_name":"Mount Lavinia","gn_pcode":"LK1131005","on_boundary":false,"marshall_cul":false,"exclusion_reason":null},"geometry":{"type":"Point","coordinates":[79.86637323476883,6.834136563022746]}},{"type":"Feature","properties":{"node_id":189,"degree":4,"jtype":"four_way","gn_name":"Mount Lavinia","gn_pcode":"LK1131005","on_boundary":false,"marshall_cul":false,"exclusion_reason":null},"geometry":{"type":"Point","coordinates":[79.86668764511828,6.838899459177833]}},{"type":"Feature","properties":{"node_id":201,"degree":4,"jtype":"four_way","gn_name":"Mount Lavinia","gn_pcode":"LK1131005","on_boundary":false,"marshall_cul":false,"exclusion_reason":null},"geometry":{"type":"Point","coordinates":[79.86694815655066,6.841280889450866]}},{"type":"Feature","properties":{"node_id":206,"degree":4,"jtype":"four_way","gn_name":"Mount Lavinia","gn_pcode":"LK1131005","on_boundary":false,"marshall_cul":false,"exclusion_reason":null},"geometry":{"type":"Point","coordinates":[79.86703798807908,6.841307647026928]}},{"type":"Feature","properties":{"node_id":210,"degree":4,"jtype":"four_way","gn_name":"Mount Lavinia","gn_pcode":"LK1131005","on_boundary":false,"marshall_cul":false,"exclusion_reason":null},"geometry":{"type":"Point","coordinates":[79.86731646581715,6.835090929912502]}},{"type":"Feature","properties":{"node_id":211,"degree":4,"jtype":"four_way","gn_name":"Mount Lavinia","gn_pcode":"LK1131005","on_boundary":false,"marshall_cul":false,"exclusion_reason":null},"geometry":{"type":"Point","coordinates":[79.86733443212285,6.832557839779798]}},{"type":"Feature","properties":{"node_id":217,"degree":4,"jtype":"four_way","gn_name":"Mount Lavinia","gn_pcode":"LK1131005","on_boundary":false,"marshall_cul":false,"exclusion_reason":null},"geometry":{"type":"Point","coordinates":[79.86748714572114,6.838979732301737]}}]}