{
"type": "FeatureCollection",
"name": "hex_grid_500m",
"crs": { "type": "name", "properties": { "name": "urn:ogc:def:crs:OGC:1.3:CRS84" } },
"features": [
{ "type": "Feature", "properties": { "id": 108.0, "left": 399301.18050189223, "top": 481510.3994, "right": 399416.65055573016, "bottom": 481410.3994, "row_index": 7.0, "col_index": 5.0 }, "geometry": { "type": "MultiPolygon", "coordinates": [ [ [ [ 79.863545473277213, 6.832003752092684 ], [ 79.863595449548427, 6.832136705548312 ], [ 79.863649579458709, 6.832268024395087 ], [ 79.86368193198517, 6.832340004660557 ], [ 79.863716138585573, 6.832281045361944 ], [ 79.863529241542949, 6.831956072181217 ], [ 79.863545473277213, 6.832003752092684 ] ] ] ] } },
{ "type": "Feature", "properties": { "id": 109.0, "left": 399301.18050189223, "top": 481410.3994, "right": 399416.65055573016, "bottom": 481310.3994, "row_index": 8.0, "col_index": 5.0 }, "geometry": { "type": "MultiPolygon", "coordinates": [ [ [ [ 79.863315556013617, 6.831038500806738 ], [ 79.863335311100215, 6.83117914880609 ], [ 79.863359476525645, 6.831319107193151 ], [ 79.863388028445442, 6.83145823784574 ], [ 79.863420938686119, 6.83159640345841 ], [ 79.863458174773029, 6.831733467677982 ], [ 79.863476385934703, 6.831793035810461 ], [ 79.863717853305545, 6.83137683635939 ], [ 79.863457556967518, 6.830924237092474 ], [ 79.863303122442076, 6.830923944451321 ], [ 79.863315556013617, 6.831038500806738 ] ] ] ] } },
{ "type": "Feature", "properties": { "id": 110.0, "left": 399301.18050189223, "top": 481310.3994, "right": 399416.65055573016, "bottom": 481210.3994, "row_index": 9.0, "col_index": 5.0 }, "geometry": { "type": "MultiPolygon", "coordinates": [ [ [ [ 79.863301844864665, 6.830046366207294 ], [ 79.863290427423095, 6.830187934230411 ], [ 79.863283464587468, 6.83032979084795 ], [ 79.863280963233152, 6.83047179606527 ], [ 79.863282925832578, 6.83061380974095 ], [ 79.863289350452916, 6.830755691725115 ], [ 79.863300230757787, 6.830897301997717 ], [ 79.863303122442076, 6.830923944451321 ], [ 79.863457556967518, 6.830924237092474 ], [ 79.863719567794192, 6.830472627322464 ], [ 79.863459271830735, 6.830020028104181 ], [ 79.8633048375291, 6.830019735501832 ], [ 79.863301844864665, 6.830046366207294 ] ] ] ] } },
{ "type": "Feature", "properties": { "id": 111.0, "left": 399301.18050189223, "top": 481210.3994, "right": 399416.65055573016, "bottom": 481110.3994, "row_index": 10.0, "col_index": 5.0 }, "geometry": { "type": "MultiPolygon", "coordinates": [ [ [ [ 79.863462959077623, 6.829210805019128 ], [ 79.863425203542519, 6.829347727167847 ], [ 79.863391769584226, 6.829485767087352 ], [ 79.863362690201257, 6.829624788550258 ], [ 79.863337994094906, 6.82976465436042 ], [ 79.863317705640739, 6.829905226488322 ], [ 79.8633048375291, 6.830019735501832 ], [ 79.863459271830735, 6.830020028104181 ], [ 79.863721282051472, 6.829568418251179 ], [ 79.863481395831627, 6.829151306704328 ], [ 79.863462959077623, 6.829210805019128 ] ] ] ] } },
{ "type": "Feature", "properties": { "id": 112.0, "left": 399301.18050189223, "top": 481110.3994, "right": 399416.65055573016, "bottom": 481010.3994, "row_index": 11.0, "col_index": 5.0 }, "geometry": { "type": "MultiPolygon", "coordinates": [ [ [ [ 79.863656388551178, 6.828676977276419 ], [ 79.863601761412141, 6.828808090124765 ], [ 79.86355128159714, 6.828940853294269 ], [ 79.863534868738824, 6.828988472838209 ], [ 79.863722996077414, 6.828664209145535 ], [ 79.863689013407836, 6.828605120415944 ], [ 79.863656388551178, 6.828676977276419 ] ] ] ] } },
{ "type": "Feature", "properties": { "id": 127.0, "left": 399387.78304227063, "top": 481660.3994, "right": 399503.25309610862, "bottom": 481560.3994, "row_index": 6.0, "col_index": 6.0 }, "geometry": { "type": "MultiPolygon", "coordinates": [ [ [ [ 79.864224905091547, 6.833244574625826 ], [ 79.864313541306444, 6.833355585057751 ], [ 79.864376996355659, 6.833430129244011 ], [ 79.864236733366511, 6.833186243740148 ], [ 79.864181180792244, 6.833186138533955 ], [ 79.864224905091547, 6.833244574625826 ] ] ] ] } },
{ "type": "Feature", "properties": { "id": 128.0, "left": 399387.78304227063, "top": 481560.3994, "right": 399503.25309610862, "bottom": 481460.3994, "row_index": 7.0, "col_index": 6.0 }, "geometry": { "type": "MultiPolygon", "coordinates": [ [ [ [ 79.863707809591574, 6.832397579036162 ], [ 79.86377008248391, 6.832525241615656 ], [ 79.863836336682724, 6.832650886144809 ], [ 79.863906506805819, 6.832774388626341 ], [ 79.86398052360623, 6.83289562717681 ], [ 79.864058314040534, 6.833014482146934 ], [ 79.864139801341068, 6.833130836239633 ], [ 79.864181180792244, 6.833186138533955 ], [ 79.864236733366511, 6.833186243740148 ], [ 79.864498745030446, 6.832734633654432 ], [ 79.864238447336973, 6.832282034640397 ], [ 79.863716138585573, 6.832281045361944 ], [ 79.86368193198517, 6.832340004660557 ], [ 79.863707809591574, 6.832397579036162 ] ] ] ] } },
{ "type": "Feature", "properties": { "id": 129.0, "left": 399387.78304227063, "top": 481460.3994, "right": 399503.25309610862, "bottom": 481360.3994, "row_index": 8.0, "col_index": 6.0 }, "geometry": { "type": "MultiPolygon", "coordinates": [ [ [ [ 79.863499699962347, 6.831869295238089 ], [ 79.863529241542949, 6.83195607218122 ], [ 79.863716138585573, 6.832281045361944 ], [ 79.864238447336973, 6.832282034640397 ], [ 79.864500458394915, 6.831830424471737 ], [ 79.864240161076225, 6.831377825506275 ], [ 79.863717853305545, 6.83137683635939 ], [ 79.863476385934703, 6.831793035810461 ], [ 79.863499699962347, 6.831869295238089 ] ] ] ] } },
{ "type": "Feature", "properties": { "id": 130.0, "left": 399387.78304227063, "top": 481360.3994, "right": 399503.25309610862, "bottom": 481260.3994, "row_index": 9.0, "col_index": 6.0 }, "geometry": { "type": "MultiPolygon", "coordinates": [ [ [ [ 79.863457556967518, 6.830924237092474 ], [ 79.863717853305545, 6.83137683635939 ], [ 79.864240161076225, 6.831377825506275 ], [ 79.864502171528244, 6.830926215254676 ], [ 79.864241874584266, 6.830473616337784 ], [ 79.863719567794192, 6.830472627322464 ], [ 79.863457556967518, 6.830924237092474 ] ] ] ] } },
{ "type": "Feature", "properties": { "id": 131.0, "left": 399387.78304227063, "top": 481260.3994, "right": 399503.25309610862, "bottom": 481160.3994, "row_index": 10.0, "col_index": 6.0 }, "geometry": { "type": "MultiPolygon", "coordinates": [ [ [ [ 79.863459271830735, 6.830020028104181 ], [ 79.863719567794192, 6.830472627322464 ], [ 79.864241874584266, 6.830473616337784 ], [ 79.86450388443042, 6.830022006003248 ], [ 79.864243587861097, 6.829569407134931 ], [ 79.863721282051472, 6.829568418251179 ], [ 79.863459271830735, 6.830020028104181 ] ] ] ] } },
{ "type": "Feature", "properties": { "id": 132.0, "left": 399387.78304227063, "top": 481160.3994, "right": 399503.25309610862, "bottom": 481060.3994, "row_index": 11.0, "col_index": 6.0 }, "geometry": { "type": "MultiPolygon", "coordinates": [ [ [ [ 79.863504998926217, 6.829075135765389 ], [ 79.863481395831627, 6.82915130670433 ], [ 79.863721282051472, 6.829568418251179 ], [ 79.864243587861097, 6.829569407134931 ], [ 79.864505597101456, 6.829117796717465 ], [ 79.864245300906731, 6.828665197897721 ], [ 79.863722996077414, 6.828664209145535 ], [ 79.863534868738824, 6.828988472838207 ], [ 79.863504998926217, 6.829075135765389 ] ] ] ] } },
{ "type": "Feature", "properties": { "id": 133.0, "left": 399387.78304227063, "top": 481060.3994, "right": 399503.25309610862, "bottom": 480960.3994, "row_index": 12.0, "col_index": 6.0 }, "geometry": { "type": "MultiPolygon", "coordinates": [ [ [ [ 79.864149873479889, 6.82781602814006 ], [ 79.864067946620722, 6.827932072866324 ], [ 79.863989707004748, 6.828050632423854 ], [ 79.863915231846093, 6.828171589810665 ], [ 79.863844594644064, 6.828294825658378 ], [ 79.863777865110578, 6.828420218350018 ], [ 79.86371510910142, 6.828547644140039 ], [ 79.863689013407836, 6.828605120415944 ], [ 79.863722996077414, 6.828664209145535 ], [ 79.864245300906731, 6.828665197897721 ], [ 79.864507309541338, 6.828213587397322 ], [ 79.864247013721155, 6.827760988626157 ], [ 79.864191461323031, 6.827760883503052 ], [ 79.864149873479889, 6.82781602814006 ] ] ] ] } },
{ "type": "Feature", "properties": { "id": 134.0, "left": 399387.78304227063, "top": 480960.3994, "right": 399503.25309610862, "bottom": 480860.3994, "row_index": 13.0, "col_index": 6.0 }, "geometry": { "type": "MultiPolygon", "coordinates": [ [ [ [ 79.864324461957963, 6.827591938667016 ], [ 79.864235406729492, 6.827702612765196 ], [ 79.864191461323031, 6.827760883503052 ], [ 79.864247013721155, 6.827760988626157 ], [ 79.86438819932431, 6.827517633961894 ], [ 79.864324461957963, 6.827591938667016 ] ] ] ] } },
{ "type": "Feature", "properties": { "id": 146.0, "left": 399474.38558264909, "top": 481710.3994, "right": 399589.85563648702, "bottom": 481610.3994, "row_index": 5.0, "col_index": 7.0 }, "geometry": { "type": "MultiPolygon", "coordinates": [ [ [ [ 79.864599753108678, 6.833671167177727 ], [ 79.864701610914082, 6.833770198762098 ], [ 79.86480653073734, 6.833865983655291 ], [ 79.864914409035393, 6.833958427327206 ], [ 79.865025139345349, 6.834047438545107 ], [ 79.865138612389387, 6.834132929463666 ], [ 79.865222016473311, 6.834191753106858 ], [ 79.865279640822465, 6.834092430190324 ], [ 79.865019341773134, 6.833639831429427 ], [ 79.864568662269633, 6.833638978418779 ], [ 79.864599753108678, 6.833671167177727 ] ] ] ] } },
{ "type": "Feature", "properties": { "id": 147.0, "left": 399474.38558264909, "top": 481610.3994, "right": 399589.85563648702, "bottom": 481510.3994, "row_index": 6.0, "col_index": 7.0 }, "geometry": { "type": "MultiPolygon", "coordinates": [ [ [ [ 79.864405622513914, 6.83346375797974 ], [ 79.864501057842062, 6.833568986636349 ], [ 79.864568662269633, 6.833638978418779 ], [ 79.865019341773134, 6.833639831429427 ], [ 79.865281353062173, 6.83318822086204 ], [ 79.865021054387839, 6.832735622149652 ], [ 79.864498745030446, 6.832734633654432 ], [ 79.864236733366511, 6.833186243740148 ], [ 79.864376996355659, 6.833430129244011 ], [ 79.864405622513914, 6.83346375797974 ] ] ] ] } },
{ "type": "Feature", "properties": { "id": 148.0, "left": 399474.38558264909, "top": 481510.3994, "right": 399589.85563648702, "bottom": 481410.3994, "row_index": 7.0, "col_index": 7.0 }, "geometry": { "type": "MultiPolygon", "coordinates": [ [ [ [ 79.864238447336973, 6.832282034640397 ], [ 79.864498745030446, 6.832734633654432 ], [ 79.865021054387839, 6.832735622149652 ], [ 79.86528306507094, 6.832284011499379 ], [ 79.865022766771517, 6.831831412835505 ], [ 79.864500458394915, 6.831830424471737 ], [ 79.864238447336973, 6.832282034640397 ] ] ] ] } },
{ "type": "Feature", "properties": { "id": 149.0, "left": 399474.38558264909, "top": 481410.3994, "right": 399589.85563648702, "bottom": 481310.3994, "row_index": 8.0, "col_index": 7.0 }, "geometry": { "type": "MultiPolygon", "coordinates": [ [ [ [ 79.864240161076225, 6.831377825506275 ], [ 79.864500458394915, 6.831830424471737 ], [ 79.865022766771517, 6.831831412835505 ], [ 79.865284776848753, 6.831379802102346 ], [ 79.865024478924198, 6.830927203486989 ], [ 79.864502171528244, 6.830926215254676 ], [ 79.864240161076225, 6.831377825506275 ] ] ] ] } },
{ "type": "Feature", "properties": { "id": 150.0, "left": 399474.38558264909, "top": 481310.3994, "right": 399589.85563648702, "bottom": 481210.3994, "row_index": 9.0, "col_index": 7.0 }, "geometry": { "type": "MultiPolygon", "coordinates": [ [ [ [ 79.864241874584266, 6.830473616337784 ], [ 79.864502171528244, 6.830926215254676 ], [ 79.865024478924198, 6.830927203486989 ], [ 79.865286488395611, 6.830475592670951 ], [ 79.865026190845839, 6.830022994104111 ], [ 79.86450388443042, 6.830022006003248 ], [ 79.864241874584266, 6.830473616337784 ] ] ] ] } },
{ "type": "Feature", "properties": { "id": 151.0, "left": 399474.38558264909, "top": 481210.3994, "right": 399589.85563648702, "bottom": 481110.3994, "row_index": 10.0, "col_index": 7.0 }, "geometry": { "type": "MultiPolygon", "coordinates": [ [ [ [ 79.864243587861097, 6.829569407134931 ], [ 79.86450388443042, 6.830022006003248 ], [ 79.865026190845839, 6.830022994104111 ], [ 79.865288199711543, 6.829571383205193 ], [ 79.865027902536497, 6.82911878468687 ], [ 79.864505597101456, 6.829117796717465 ], [ 79.864243587861097, 6.829569407134931 ] ] ] ] } },
{ "type": "Feature", "properties": { "id": 152.0, "left": 399474.38558264909, "top": 481110.3994, "right": 399589.85563648702, "bottom": 481010.3994, "row_index": 11.0, "col_index": 7.0 }, "geometry": { "type": "MultiPolygon", "coordinates": [ [ [ [ 79.864245300906731, 6.828665197897721 ], [ 79.864505597101456, 6.829117796717465 ], [ 79.865027902536497, 6.82911878468687 ], [ 79.86528991079652, 6.828667173705082 ], [ 79.865029613996143, 6.828214575235276 ], [ 79.864507309541338, 6.828213587397322 ], [ 79.864245300906731, 6.828665197897721 ] ] ] ] } },
{ "type": "Feature", "properties": { "id": 153.0, "left": 399474.38558264909, "top": 481010.3994, "right": 399589.85563648702, "bottom": 480910.3994, "row_index": 12.0, "col_index": 7.0 }, "geometry": { "type": "MultiPolygon", "coordinates": [ [ [ [ 79.864512783414341, 6.827379248367519 ], [ 79.864416951278201, 6.827484115065497 ], [ 79.86438819932431, 6.827517633961894 ], [ 79.864247013721155, 6.827760988626157 ], [ 79.864507309541338, 6.828213587397322 ], [ 79.865029613996143, 6.828214575235276 ], [ 79.86529162165057, 6.827762964170613 ], [ 79.865031325224777, 6.827310365749331 ], [ 79.864580651063307, 6.827309513531533 ], [ 79.864512783414341, 6.827379248367519 ] ] ] ] } },
{ "type": "Feature", "properties": { "id": 154.0, "left": 399474.38558264909, "top": 480910.3994, "right": 399589.85563648702, "bottom": 480810.3994, "row_index": 13.0, "col_index": 7.0 }, "geometry": { "type": "MultiPolygon", "coordinates": [ [ [ [ 79.865152460300962, 6.826817721646873 ], [ 79.865038666082725, 6.826902782770943 ], [ 79.86492760112759, 6.826991374492049 ], [ 79.864819375041918, 6.827083409382628 ], [ 79.8647140946306, 6.827178796617175 ], [ 79.864611863791794, 6.827277442061882 ], [ 79.864580651063307, 6.827309513531533 ], [ 79.865031325224777, 6.827310365749331 ], [ 79.86529333227368, 6.826858754601798 ], [ 79.86523608496158, 6.826759214018077 ], [ 79.865152460300962, 6.826817721646873 ] ] ] ] } },
{ "type": "Feature", "properties": { "id": 166.0, "left": 399560.98812302755, "top": 481760.3994, "right": 399676.45817686548, "bottom": 481660.3994, "row_index": 5.0, "col_index": 8.0 }, "geometry": { "type": "MultiPolygon", "coordinates": [ [ [ [ 79.865254716182733, 6.83421481571166 ], [ 79.865373336144131, 6.834293016475253 ], [ 79.865494355208909, 6.834367454577745 ], [ 79.865617653944582, 6.834438056555747 ], [ 79.865743110668603, 6.834504752731701 ], [ 79.865870601568574, 6.834567477282635 ], [ 79.866000000824357, 6.834626168305139 ], [ 79.866012686731409, 6.834631448422805 ], [ 79.866062251797132, 6.834546016492593 ], [ 79.86580195176677, 6.83409341803354 ], [ 79.865279640822465, 6.834092430190324 ], [ 79.865222016473311, 6.834191753106858 ], [ 79.865254716182733, 6.83421481571166 ] ] ] ] } },
{ "type": "Feature", "properties": { "id": 167.0, "left": 399560.98812302755, "top": 481660.3994, "right": 399676.45817686548, "bottom": 481560.3994, "row_index": 6.0, "col_index": 8.0 }, "geometry": { "type": "MultiPolygon", "coordinates": [ [ [ [ 79.865019341773134, 6.833639831429427 ], [ 79.865279640822465, 6.834092430190324 ], [ 79.86580195176677, 6.83409341803354 ], [ 79.866063962680741, 6.83364180698451 ], [ 79.865803663025503, 6.83318920857391 ], [ 79.865281353062173, 6.83318822086204 ], [ 79.865019341773134, 6.833639831429427 ] ] ] ] } },
{ "type": "Feature", "properties": { "id": 168.0, "left": 399560.98812302755, "top": 481560.3994, "right": 399676.45817686548, "bottom": 481460.3994, "row_index": 7.0, "col_index": 8.0 }, "geometry": { "type": "MultiPolygon", "coordinates": [ [ [ [ 79.865021054387839, 6.832735622149652 ], [ 79.865281353062173, 6.83318822086204 ], [ 79.865803663025503, 6.83318920857391 ], [ 79.866065673333608, 6.832737597442053 ], [ 79.865805374053423, 6.832284999079912 ], [ 79.86528306507094, 6.832284011499379 ], [ 79.865021054387839, 6.832735622149652 ] ] ] ] } },
{ "type": "Feature", "properties": { "id": 169.0, "left": 399560.98812302755, "top": 481460.3994, "right": 399676.45817686548, "bottom": 481360.3994, "row_index": 8.0, "col_index": 8.0 }, "geometry": { "type": "MultiPolygon", "coordinates": [ [ [ [ 79.865022766771517, 6.831831412835505 ], [ 79.86528306507094, 6.832284011499379 ], [ 79.865805374053423, 6.832284999079912 ], [ 79.866067383755706, 6.831833387865223 ], [ 79.865807084850516, 6.831380789551538 ], [ 79.865284776848753, 6.831379802102346 ], [ 79.865022766771517, 6.831831412835505 ] ] ] ] } },
{ "type": "Feature", "properties": { "id": 170.0, "left": 399560.98812302755, "top": 481360.3994, "right": 399676.45817686548, "bottom": 481260.3994, "row_index": 9.0, "col_index": 8.0 }, "geometry": { "type": "MultiPolygon", "coordinates": [ [ [ [ 79.865024478924198, 6.830927203486989 ], [ 79.865284776848753, 6.831379802102346 ], [ 79.865807084850516, 6.831380789551538 ], [ 79.866069093947075, 6.83092917825403 ], [ 79.865808795416783, 6.830476579988801 ], [ 79.865286488395611, 6.830475592670951 ], [ 79.865024478924198, 6.830927203486989 ] ] ] ] } },
{ "type": "Feature", "properties": { "id": 171.0, "left": 399560.98812302755, "top": 481260.3994, "right": 399676.45817686548, "bottom": 481160.3994, "row_index": 10.0, "col_index": 8.0 }, "geometry": { "type": "MultiPolygon", "coordinates": [ [ [ [ 79.865026190845839, 6.830022994104111 ], [ 79.865286488395611, 6.830475592670951 ], [ 79.865808795416783, 6.830476579988801 ], [ 79.866070803907689, 6.830024968608468 ], [ 79.86581050575225, 6.829572370391703 ], [ 79.865288199711543, 6.829571383205193 ], [ 79.865026190845839, 6.830022994104111 ] ] ] ] } },
{ "type": "Feature", "properties": { "id": 172.0, "left": 399560.98812302755, "top": 481160.3994, "right": 399676.45817686548, "bottom": 481060.3994, "row_index": 11.0, "col_index": 8.0 }, "geometry": { "type": "MultiPolygon", "coordinates": [ [ [ [ 79.865027902536497, 6.82911878468687 ], [ 79.865288199711543, 6.829571383205193 ], [ 79.86581050575225, 6.829572370391703 ], [ 79.866072513637562, 6.829120758928553 ], [ 79.86581221585692, 6.828668160760249 ], [ 79.86528991079652, 6.828667173705082 ], [ 79.865027902536497, 6.82911878468687 ] ] ] ] } },
{ "type": "Feature", "properties": { "id": 173.0, "left": 399560.98812302755, "top": 481060.3994, "right": 399676.45817686548, "bottom": 480960.3994, "row_index": 12.0, "col_index": 8.0 }, "geometry": { "type": "MultiPolygon", "coordinates": [ [ [ [ 79.865029613996143, 6.828214575235276 ], [ 79.86528991079652, 6.828667173705082 ], [ 79.86581221585692, 6.828668160760249 ], [ 79.866074223136678, 6.82821654921428 ], [ 79.865813925730762, 6.827763951094444 ], [ 79.86529162165057, 6.827762964170613 ], [ 79.865029613996143, 6.828214575235276 ] ] ] ] } },
{ "type": "Feature", "properties": { "id": 174.0, "left": 399560.98812302755, "top": 480960.3994, "right": 399676.45817686548, "bottom": 480860.3994, "row_index": 13.0, "col_index": 8.0 }, "geometry": { "type": "MultiPolygon", "coordinates": [ [ [ [ 79.865031325224777, 6.827310365749331 ], [ 79.86529162165057, 6.827762964170613 ], [ 79.865813925730762, 6.827763951094444 ], [ 79.866075932405067, 6.827312339465659 ], [ 79.865815635373806, 6.826859741394294 ], [ 79.86529333227368, 6.826858754601798 ], [ 79.865031325224777, 6.827310365749331 ] ] ] ] } },
{ "type": "Feature", "properties": { "id": 175.0, "left": 399560.98812302755, "top": 480860.3994, "right": 399676.45817686548, "bottom": 480760.3994, "row_index": 14.0, "col_index": 8.0 }, "geometry": { "type": "MultiPolygon", "coordinates": [ [ [ [ 79.866015695136937, 6.826327742600517 ], [ 79.865886077009549, 6.826385944234502 ], [ 79.865758351868749, 6.826448186512486 ], [ 79.865632645761011, 6.826514408010051 ], [ 79.865509082740402, 6.826584543375875 ], [ 79.865387784746275, 6.826658523396213 ], [ 79.865268871482797, 6.826736275063197 ], [ 79.86523608496158, 6.826759214018077 ], [ 79.86529333227368, 6.826858754601798 ], [ 79.865815635373806, 6.826859741394294 ], [ 79.866077641442729, 6.826408129682695 ], [ 79.866028400426913, 6.826322510568993 ], [ 79.866015695136937, 6.826327742600517 ] ] ] ] } },
{ "type": "Feature", "properties": { "id": 185.0, "left": 399647.59066340601, "top": 481810.3994, "right": 399763.06071724393, "bottom": 481710.3994, "row_index": 4.0, "col_index": 9.0 }, "geometry": { "type": "MultiPolygon", "coordinates": [ [ [ [ 79.86613118073231, 6.834680767876455 ], [ 79.866264011831305, 6.834731222111659 ], [ 79.866398363030413, 6.834777481216835 ], [ 79.866534101738495, 6.834819499538229 ], [ 79.866671093994839, 6.834857235607304 ], [ 79.866777840074349, 6.834883063376159 ], [ 79.866584563347388, 6.834547003552228 ], [ 79.866062251797132, 6.834546016492593 ], [ 79.866012686731409, 6.834631448422805 ], [ 79.86613118073231, 6.834680767876455 ] ] ] ] } },
{ "type": "Feature", "properties": { "id": 186.0, "left": 399647.59066340601, "top": 481710.3994, "right": 399763.06071724393, "bottom": 481610.3994, "row_index": 5.0, "col_index": 9.0 }, "geometry": { "type": "MultiPolygon", "coordinates": [ [ [ [ 79.86580195176677, 6.83409341803354 ], [ 79.866062251797132, 6.834546016492593 ], [ 79.866584563347388, 6.834547003552228 ], [ 79.866846573886193, 6.834095392021586 ], [ 79.866586273249951, 6.83364279391292 ], [ 79.866063962680741, 6.83364180698451 ], [ 79.86580195176677, 6.83409341803354 ] ] ] ] } },
{ "type": "Feature", "properties": { "id": 187.0, "left": 399647.59066340601, "top": 481610.3994, "right": 399763.06071724393, "bottom": 481510.3994, "row_index": 6.0, "col_index": 9.0 }, "geometry": { "type": "MultiPolygon", "coordinates": [ [ [ [ 79.865803663025503, 6.83318920857391 ], [ 79.866063962680741, 6.83364180698451 ], [ 79.866586273249951, 6.83364279391292 ], [ 79.866848283182932, 6.833191182299504 ], [ 79.866587982921885, 6.832738584239233 ], [ 79.866065673333608, 6.832737597442053 ], [ 79.865803663025503, 6.83318920857391 ] ] ] ] } },
{ "type": "Feature", "properties": { "id": 188.0, "left": 399647.59066340601, "top": 481510.3994, "right": 399763.06071724393, "bottom": 481410.3994, "row_index": 7.0, "col_index": 9.0 }, "geometry": { "type": "MultiPolygon", "coordinates": [ [ [ [ 79.865805374053423, 6.832284999079912 ], [ 79.866065673333608, 6.832737597442053 ], [ 79.866587982921885, 6.832738584239233 ], [ 79.866849992249129, 6.832286972543049 ], [ 79.866589692363206, 6.831834374531178 ], [ 79.866067383755706, 6.831833387865223 ], [ 79.865805374053423, 6.832284999079912 ] ] ] ] } },
{ "type": "Feature", "properties": { "id": 189.0, "left": 399647.59066340601, "top": 481410.3994, "right": 399763.06071724393, "bottom": 481310.3994, "row_index": 8.0, "col_index": 9.0 }, "geometry": { "type": "MultiPolygon", "coordinates": [ [ [ [ 79.865807084850516, 6.831380789551538 ], [ 79.866067383755706, 6.831833387865223 ], [ 79.866589692363206, 6.831834374531178 ], [ 79.866851701084798, 6.831382762752219 ], [ 79.866591401573913, 6.830930164788755 ], [ 79.866069093947075, 6.83092917825403 ], [ 79.865807084850516, 6.831380789551538 ] ] ] ] } },
{ "type": "Feature", "properties": { "id": 190.0, "left": 399647.59066340601, "top": 481310.3994, "right": 399763.06071724393, "bottom": 481210.3994, "row_index": 9.0, "col_index": 9.0 }, "geometry": { "type": "MultiPolygon", "coordinates": [ [ [ [ 79.865808795416783, 6.830476579988801 ], [ 79.866069093947075, 6.83092917825403 ], [ 79.866591401573913, 6.830930164788755 ], [ 79.866853409689895, 6.830478552927032 ], [ 79.866593110554007, 6.830025955011969 ], [ 79.866070803907689, 6.830024968608468 ], [ 79.865808795416783, 6.830476579988801 ] ] ] ] } },
{ "type": "Feature", "properties": { "id": 191.0, "left": 399647.59066340601, "top": 481210.3994, "right": 399763.06071724393, "bottom": 481110.3994, "row_index": 10.0, "col_index": 9.0 }, "geometry": { "type": "MultiPolygon", "coordinates": [ [ [ [ 79.86581050575225, 6.829572370391703 ], [ 79.866070803907689, 6.830024968608468 ], [ 79.866593110554007, 6.830025955011969 ], [ 79.866855118064436, 6.829574343067482 ], [ 79.866594819303486, 6.829121745200825 ], [ 79.866072513637562, 6.829120758928553 ], [ 79.86581050575225, 6.829572370391703 ] ] ] ] } },
{ "type": "Feature", "properties": { "id": 192.0, "left": 399647.59066340601, "top": 481110.3994, "right": 399763.06071724393, "bottom": 481010.3994, "row_index": 11.0, "col_index": 9.0 }, "geometry": { "type": "MultiPolygon", "coordinates": [ [ [ [ 79.86581221585692, 6.828668160760249 ], [ 79.866072513637562, 6.829120758928553 ], [ 79.866594819303486, 6.829121745200825 ], [ 79.866856826208476, 6.828670133173578 ], [ 79.866596527822338, 6.828217535355331 ], [ 79.866074223136678, 6.82821654921428 ], [ 79.86581221585692, 6.828668160760249 ] ] ] ] } },
{ "type": "Feature", "properties": { "id": 193.0, "left": 399647.59066340601, "top": 481010.3994, "right": 399763.06071724393, "bottom": 480910.3994, "row_index": 12.0, "col_index": 9.0 }, "geometry": { "type": "MultiPolygon", "coordinates": [ [ [ [ 79.865813925730762, 6.827763951094444 ], [ 79.866074223136678, 6.82821654921428 ], [ 79.866596527822338, 6.828217535355331 ], [ 79.866858534121931, 6.827765923245322 ], [ 79.866598236110619, 6.827313325475485 ], [ 79.866075932405067, 6.827312339465659 ], [ 79.865813925730762, 6.827763951094444 ] ] ] ] } },
{ "type": "Feature", "properties": { "id": 194.0, "left": 399647.59066340601, "top": 480910.3994, "right": 399763.06071724393, "bottom": 480810.3994, "row_index": 13.0, "col_index": 9.0 }, "geometry": { "type": "MultiPolygon", "coordinates": [ [ [ [ 79.865815635373806, 6.826859741394294 ], [ 79.866075932405067, 6.827312339465659 ], [ 79.866598236110619, 6.827313325475485 ], [ 79.866860241804872, 6.82686171328272 ], [ 79.866599944168271, 6.826409115561295 ], [ 79.866077641442729, 6.826408129682695 ], [ 79.865815635373806, 6.826859741394294 ] ] ] ] } },
{ "type": "Feature", "properties": { "id": 195.0, "left": 399647.59066340601, "top": 480810.3994, "right": 399763.06071724393, "bottom": 480710.3994, "row_index": 14.0, "col_index": 9.0 }, "geometry": { "type": "MultiPolygon", "coordinates": [ [ [ [ 79.866687645304268, 6.826099211756322 ], [ 79.866550513866883, 6.826136430267118 ], [ 79.866414619713623, 6.826177935657688 ], [ 79.866280096952096, 6.82622368696787 ], [ 79.866147078336525, 6.826273639047408 ], [ 79.866028400426913, 6.826322510568993 ], [ 79.866077641442729, 6.826408129682695 ], [ 79.866599944168271, 6.826409115561295 ], [ 79.866794486690566, 6.826073787101421 ], [ 79.866687645304268, 6.826099211756322 ] ] ] ] } },
{ "type": "Feature", "properties": { "id": 206.0, "left": 399734.19320378441, "top": 481760.3994, "right": 399849.66325762233, "bottom": 481660.3994, "row_index": 5.0, "col_index": 10.0 }, "geometry": { "type": "MultiPolygon", "coordinates": [ [ [ [ 79.866809204601509, 6.834890652181675 ], [ 79.866948297256727, 6.834919716281873 ], [ 79.867088234689419, 6.834944399223888 ], [ 79.867228878794705, 6.834964676647473 ], [ 79.867370090770194, 6.834980528540224 ], [ 79.867378424821766, 6.834981199941979 ], [ 79.867629186678485, 6.834548975973013 ], [ 79.867368885061182, 6.834096378166421 ], [ 79.866846573886193, 6.834095392021586 ], [ 79.866584563347388, 6.834547003552228 ], [ 79.866777840074349, 6.834883063376159 ], [ 79.866809204601509, 6.834890652181675 ] ] ] ] } },
{ "type": "Feature", "properties": { "id": 207.0, "left": 399734.19320378441, "top": 481660.3994, "right": 399849.66325762233, "bottom": 481560.3994, "row_index": 6.0, "col_index": 10.0 }, "geometry": { "type": "MultiPolygon", "coordinates": [ [ [ [ 79.866586273249951, 6.83364279391292 ], [ 79.866846573886193, 6.834095392021586 ], [ 79.867368885061182, 6.834096378166421 ], [ 79.867630894618941, 6.833644766071472 ], [ 79.867370593376961, 6.833192168313222 ], [ 79.866848283182932, 6.833191182299504 ], [ 79.866586273249951, 6.83364279391292 ] ] ] ] } },
{ "type": "Feature", "properties": { "id": 208.0, "left": 399734.19320378441, "top": 481560.3994, "right": 399849.66325762233, "bottom": 481460.3994, "row_index": 7.0, "col_index": 10.0 }, "geometry": { "type": "MultiPolygon", "coordinates": [ [ [ [ 79.866587982921885, 6.832738584239233 ], [ 79.866848283182932, 6.833191182299504 ], [ 79.867370593376961, 6.833192168313222 ], [ 79.867632602329024, 6.832740556135559 ], [ 79.867372301462311, 6.832287958425652 ], [ 79.866849992249129, 6.832286972543049 ], [ 79.866587982921885, 6.832738584239233 ] ] ] ] } },
{ "type": "Feature", "properties": { "id": 209.0, "left": 399734.19320378441, "top": 481460.3994, "right": 399849.66325762233, "bottom": 481360.3994, "row_index": 8.0, "col_index": 10.0 }, "geometry": { "type": "MultiPolygon", "coordinates": [ [ [ [ 79.866589692363206, 6.831834374531178 ], [ 79.866849992249129, 6.832286972543049 ], [ 79.867372301462311, 6.832287958425652 ], [ 79.867634309808764, 6.831836346165276 ], [ 79.867374009317217, 6.831383748503712 ], [ 79.866851701084798, 6.831382762752219 ], [ 79.866589692363206, 6.831834374531178 ] ] ] ] } },
{ "type": "Feature", "properties": { "id": 210.0, "left": 399734.19320378441, "top": 481360.3994, "right": 399849.66325762233, "bottom": 481260.3994, "row_index": 9.0, "col_index": 10.0 }, "geometry": { "type": "MultiPolygon", "coordinates": [ [ [ [ 79.866591401573913, 6.830930164788755 ], [ 79.866851701084798, 6.831382762752219 ], [ 79.867374009317217, 6.831383748503712 ], [ 79.867636017058146, 6.830932136160627 ], [ 79.867375716941737, 6.830479538547409 ], [ 79.866853409689895, 6.830478552927032 ], [ 79.866591401573913, 6.830930164788755 ] ] ] ] } },
{ "type": "Feature", "properties": { "id": 211.0, "left": 399734.19320378441, "top": 481260.3994, "right": 399849.66325762233, "bottom": 481160.3994, "row_index": 10.0, "col_index": 10.0 }, "geometry": { "type": "MultiPolygon", "coordinates": [ [ [ [ 79.866593110554007, 6.830025955011969 ], [ 79.866853409689895, 6.830478552927032 ], [ 79.867375716941737, 6.830479538547409 ], [ 79.867637724077198, 6.830027926121613 ], [ 79.867377424335842, 6.829575328556749 ], [ 79.866855118064436, 6.829574343067482 ], [ 79.866593110554007, 6.830025955011969 ] ] ] ] } },
{ "type": "Feature", "properties": { "id": 212.0, "left": 399734.19320378441, "top": 481160.3994, "right": 399849.66325762233, "bottom": 481060.3994, "row_index": 11.0, "col_index": 10.0 }, "geometry": { "type": "MultiPolygon", "coordinates": [ [ [ [ 79.866594819303486, 6.829121745200825 ], [ 79.866855118064436, 6.829574343067482 ], [ 79.867377424335842, 6.829575328556749 ], [ 79.867639430865879, 6.829123716048247 ], [ 79.867379131499519, 6.82867111853173 ], [ 79.866856826208476, 6.828670133173578 ], [ 79.866594819303486, 6.829121745200825 ] ] ] ] } },
{ "type": "Feature", "properties": { "id": 213.0, "left": 399734.19320378441, "top": 481060.3994, "right": 399849.66325762233, "bottom": 480960.3994, "row_index": 12.0, "col_index": 10.0 }, "geometry": { "type": "MultiPolygon", "coordinates": [ [ [ [ 79.866596527822338, 6.828217535355331 ], [ 79.866856826208476, 6.828670133173578 ], [ 79.867379131499519, 6.82867111853173 ], [ 79.867641137424258, 6.828219505940524 ], [ 79.867380838432823, 6.827766908472364 ], [ 79.866858534121931, 6.827765923245322 ], [ 79.866596527822338, 6.828217535355331 ] ] ] ] } },
{ "type": "Feature", "properties": { "id": 214.0, "left": 399734.19320378441, "top": 480960.3994, "right": 399849.66325762233, "bottom": 480860.3994, "row_index": 13.0, "col_index": 10.0 }, "geometry": { "type": "MultiPolygon", "coordinates": [ [ [ [ 79.866598236110619, 6.827313325475485 ], [ 79.866858534121931, 6.827765923245322 ], [ 79.867380838432823, 6.827766908472364 ], [ 79.867642843752279, 6.827315295798457 ], [ 79.867382545135683, 6.826862698378649 ], [ 79.866860241804872, 6.82686171328272 ], [ 79.866598236110619, 6.827313325475485 ] ] ] ] } },
{ "type": "Feature", "properties": { "id": 215.0, "left": 399734.19320378441, "top": 480860.3994, "right": 399849.66325762233, "bottom": 480760.3994, "row_index": 14.0, "col_index": 10.0 }, "geometry": { "type": "MultiPolygon", "coordinates": [ [ [ [ 79.867387090029709, 6.825978557957073 ], [ 79.867245821822664, 6.825993876914493 ], [ 79.867105104733824, 6.826013623433229 ], [ 79.866965077630041, 6.826037778025881 ], [ 79.866825878697298, 6.826066316854948 ], [ 79.866794486690566, 6.826073787101421 ], [ 79.866599944168271, 6.826409115561295 ], [ 79.866860241804872, 6.82686171328272 ], [ 79.867382545135683, 6.826862698378649 ], [ 79.867644549849942, 6.826411085622043 ], [ 79.86739542607107, 6.825977918029128 ], [ 79.867387090029709, 6.825978557957073 ] ] ] ] } },
{ "type": "Feature", "properties": { "id": 225.0, "left": 399820.79574416287, "top": 481810.3994, "right": 399936.26579800079, "bottom": 481710.3994, "row_index": 4.0, "col_index": 11.0 }, "geometry": { "type": "MultiPolygon", "coordinates": [ [ [ [ 79.867511731252961, 6.834991939257295 ], [ 79.867653660457151, 6.834998897536865 ], [ 79.867795738311898, 6.83500139651124 ], [ 79.867937824599522, 6.834999433713644 ], [ 79.868079779094131, 6.834993011080669 ], [ 79.868221461699719, 6.834982134950316 ], [ 79.868362732588722, 6.83496681605581 ], [ 79.868389115070173, 6.834963113929579 ], [ 79.868151498459241, 6.834549961334157 ], [ 79.867629186678485, 6.834548975973013 ], [ 79.867378424821766, 6.834981199941979 ], [ 79.867511731252961, 6.834991939257295 ] ] ] ] } },
{ "type": "Feature", "properties": { "id": 226.0, "left": 399820.79574416287, "top": 481710.3994, "right": 399936.26579800079, "bottom": 481610.3994, "row_index": 5.0, "col_index": 11.0 }, "geometry": { "type": "MultiPolygon", "coordinates": [ [ [ [ 79.867368885061182, 6.834096378166421 ], [ 79.867629186678485, 6.834548975973013 ], [ 79.868151498459241, 6.834549961334157 ], [ 79.868413507641577, 6.834098348757707 ], [ 79.868153205418622, 6.83364575130162 ], [ 79.867630894618941, 6.833644766071472 ], [ 79.867368885061182, 6.834096378166421 ] ] ] ] } },
{ "type": "Feature", "properties": { "id": 227.0, "left": 399820.79574416287, "top": 481610.3994, "right": 399936.26579800079, "bottom": 481510.3994, "row_index": 6.0, "col_index": 11.0 }, "geometry": { "type": "MultiPolygon", "coordinates": [ [ [ [ 79.867370593376961, 6.833192168313222 ], [ 79.867630894618941, 6.833644766071472 ], [ 79.868153205418622, 6.83364575130162 ], [ 79.868415213995362, 6.833194138642508 ], [ 79.868154912147787, 6.832741541234703 ], [ 79.867632602329024, 6.832740556135559 ], [ 79.867370593376961, 6.833192168313222 ] ] ] ] } },
{ "type": "Feature", "properties": { "id": 228.0, "left": 399820.79574416287, "top": 481510.3994, "right": 399936.26579800079, "bottom": 481410.3994, "row_index": 7.0, "col_index": 11.0 }, "geometry": { "type": "MultiPolygon", "coordinates": [ [ [ [ 79.867372301462311, 6.832287958425652 ], [ 79.867632602329024, 6.832740556135559 ], [ 79.868154912147787, 6.832741541234703 ], [ 79.868416920119003, 6.832289928492938 ], [ 79.868156618646736, 6.83183733113342 ], [ 79.867634309808764, 6.831836346165276 ], [ 79.867372301462311, 6.832287958425652 ] ] ] ] } },
{ "type": "Feature", "properties": { "id": 229.0, "left": 399820.79574416287, "top": 481410.3994, "right": 399936.26579800079, "bottom": 481310.3994, "row_index": 8.0, "col_index": 11.0 }, "geometry": { "type": "MultiPolygon", "coordinates": [ [ [ [ 79.867374009317217, 6.831383748503712 ], [ 79.867634309808764, 6.831836346165276 ], [ 79.868156618646736, 6.83183733113342 ], [ 79.868418626012485, 6.831385718308995 ], [ 79.868158324915484, 6.830933120997766 ], [ 79.867636017058146, 6.830932136160627 ], [ 79.867374009317217, 6.831383748503712 ] ] ] ] } },
{ "type": "Feature", "properties": { "id": 230.0, "left": 399820.79574416287, "top": 481310.3994, "right": 399936.26579800079, "bottom": 481210.3994, "row_index": 9.0, "col_index": 11.0 }, "geometry": { "type": "MultiPolygon", "coordinates": [ [ [ [ 79.867375716941737, 6.830479538547409 ], [ 79.867636017058146, 6.830932136160627 ], [ 79.868158324915484, 6.830933120997766 ], [ 79.868420331675821, 6.830481508090695 ], [ 79.868160030953987, 6.830028910827757 ], [ 79.867637724077198, 6.830027926121613 ], [ 79.867375716941737, 6.830479538547409 ] ] ] ] } },
{ "type": "Feature", "properties": { "id": 231.0, "left": 399820.79574416287, "top": 481210.3994, "right": 399936.26579800079, "bottom": 481110.3994, "row_index": 10.0, "col_index": 11.0 }, "geometry": { "type": "MultiPolygon", "coordinates": [ [ [ [ 79.867377424335842, 6.829575328556749 ], [ 79.867637724077198, 6.830027926121613 ], [ 79.868160030953987, 6.830028910827757 ], [ 79.868422037108999, 6.829577297838032 ], [ 79.868161736762303, 6.829124700623389 ], [ 79.867639430865879, 6.829123716048247 ], [ 79.867377424335842, 6.829575328556749 ] ] ] ] } },
{ "type": "Feature", "properties": { "id": 232.0, "left": 399820.79574416287, "top": 481110.3994, "right": 399936.26579800079, "bottom": 481010.3994, "row_index": 11.0, "col_index": 11.0 }, "geometry": { "type": "MultiPolygon", "coordinates": [ [ [ [ 79.867379131499519, 6.82867111853173 ], [ 79.867639430865879, 6.829123716048247 ], [ 79.868161736762303, 6.829124700623389 ], [ 79.868423742312032, 6.828673087551021 ], [ 79.868163442340389, 6.828220490384671 ], [ 79.867641137424258, 6.828219505940524 ], [ 79.867379131499519, 6.82867111853173 ] ] ] ] } },
{ "type": "Feature", "properties": { "id": 233.0, "left": 399820.79574416287, "top": 481010.3994, "right": 399936.26579800079, "bottom": 480910.3994, "row_index": 12.0, "col_index": 11.0 }, "geometry": { "type": "MultiPolygon", "coordinates": [ [ [ [ 79.867380838432823, 6.827766908472364 ], [ 79.867641137424258, 6.828219505940524 ], [ 79.868163442340389, 6.828220490384671 ], [ 79.868425447284935, 6.827768877229654 ], [ 79.868165147688288, 6.827316280111606 ], [ 79.867642843752279, 6.827315295798457 ], [ 79.867380838432823, 6.827766908472364 ] ] ] ] } },
{ "type": "Feature", "properties": { "id": 234.0, "left": 399820.79574416287, "top": 480910.3994, "right": 399936.26579800079, "bottom": 480810.3994, "row_index": 13.0, "col_index": 11.0 }, "geometry": { "type": "MultiPolygon", "coordinates": [ [ [ [ 79.867382545135683, 6.826862698378649 ], [ 79.867642843752279, 6.827315295798457 ], [ 79.868165147688288, 6.827316280111606 ], [ 79.868427152027678, 6.826864666873945 ], [ 79.868166852805956, 6.826412069804197 ], [ 79.867644549849942, 6.826411085622043 ], [ 79.867382545135683, 6.826862698378649 ] ] ] ] } },
{ "type": "Feature", "properties": { "id": 235.0, "left": 399820.79574416287, "top": 480810.3994, "right": 399936.26579800079, "bottom": 480710.3994, "row_index": 14.0, "col_index": 11.0 }, "geometry": { "type": "MultiPolygon", "coordinates": [ [ [ [ 79.868379654498924, 6.825996013501176 ], [ 79.868238445047567, 6.825980162241124 ], [ 79.868096807142649, 6.825968752080355 ], [ 79.867954880559864, 6.825961794278501 ], [ 79.867812805359748, 6.825959295701361 ], [ 79.86767072174942, 6.825961258814144 ], [ 79.8675287699443, 6.825967681679026 ], [ 79.86739542607107, 6.825977918029128 ], [ 79.867644549849942, 6.826411085622043 ], [ 79.868166852805956, 6.826412069804197 ], [ 79.86840602265444, 6.825999815078418 ], [ 79.868379654498924, 6.825996013501176 ] ] ] ] } },
{ "type": "Feature", "properties": { "id": 246.0, "left": 399907.39828454127, "top": 481760.3994, "right": 400022.86833837925, "bottom": 481660.3994, "row_index": 5.0, "col_index": 12.0 }, "geometry": { "type": "MultiPolygon", "coordinates": [ [ [ [ 79.868503452339837, 6.834947069514951 ], [ 79.868643482075711, 6.834922914815227 ], [ 79.868782683600017, 6.834894375794569 ], [ 79.868920919533807, 6.834861480617832 ], [ 79.869034401789733, 6.834830680938023 ], [ 79.869196122250912, 6.83455193035795 ], [ 79.868935819046882, 6.834099333204163 ], [ 79.868413507641577, 6.834098348757707 ], [ 79.868151498459241, 6.834549961334157 ], [ 79.868389115070173, 6.834963113929579 ], [ 79.868503452339837, 6.834947069514951 ] ] ] ] } },
{ "type": "Feature", "properties": { "id": 247.0, "left": 399907.39828454127, "top": 481660.3994, "right": 400022.86833837925, "bottom": 481560.3994, "row_index": 6.0, "col_index": 12.0 }, "geometry": { "type": "MultiPolygon", "coordinates": [ [ [ [ 79.868153205418622, 6.83364575130162 ], [ 79.868413507641577, 6.834098348757707 ], [ 79.868935819046882, 6.834099333204163 ], [ 79.869197827248172, 6.833647720063635 ], [ 79.868937524419678, 6.833195122958077 ], [ 79.868415213995362, 6.833194138642508 ], [ 79.868153205418622, 6.83364575130162 ] ] ] ] } },
{ "type": "Feature", "properties": { "id": 248.0, "left": 399907.39828454127, "top": 481560.3994, "right": 400022.86833837925, "bottom": 481460.3994, "row_index": 7.0, "col_index": 12.0 }, "geometry": { "type": "MultiPolygon", "coordinates": [ [ [ [ 79.868154912147787, 6.832741541234703 ], [ 79.868415213995362, 6.833194138642508 ], [ 79.868937524419678, 6.833195122958077 ], [ 79.8691995320155, 6.832743509734945 ], [ 79.868939229562443, 6.832290912677616 ], [ 79.868416920119003, 6.832289928492938 ], [ 79.868154912147787, 6.832741541234703 ] ] ] ] } },
{ "type": "Feature", "properties": { "id": 249.0, "left": 399907.39828454127, "top": 481460.3994, "right": 400022.86833837925, "bottom": 481360.3994, "row_index": 8.0, "col_index": 12.0 }, "geometry": { "type": "MultiPolygon", "coordinates": [ [ [ [ 79.868156618646736, 6.83183733113342 ], [ 79.868416920119003, 6.832289928492938 ], [ 79.868939229562443, 6.832290912677616 ], [ 79.869201236552868, 6.831839299371884 ], [ 79.868940934475205, 6.831386702362789 ], [ 79.868418626012485, 6.831385718308995 ], [ 79.868156618646736, 6.83183733113342 ] ] ] ] } },
{ "type": "Feature", "properties": { "id": 250.0, "left": 399907.39828454127, "top": 481360.3994, "right": 400022.86833837925, "bottom": 481260.3994, "row_index": 9.0, "col_index": 12.0 }, "geometry": { "type": "MultiPolygon", "coordinates": [ [ [ [ 79.868158324915484, 6.830933120997766 ], [ 79.868418626012485, 6.831385718308995 ], [ 79.868940934475205, 6.831386702362789 ], [ 79.869202940860276, 6.830935088974462 ], [ 79.868942639157936, 6.830482492013599 ], [ 79.868420331675821, 6.830481508090695 ], [ 79.868158324915484, 6.830933120997766 ] ] ] ] } },
{ "type": "Feature", "properties": { "id": 251.0, "left": 399907.39828454127, "top": 481260.3994, "right": 400022.86833837925, "bottom": 481160.3994, "row_index": 10.0, "col_index": 12.0 }, "geometry": { "type": "MultiPolygon", "coordinates": [ [ [ [ 79.868160030953987, 6.830028910827757 ], [ 79.868420331675821, 6.830481508090695 ], [ 79.868942639157936, 6.830482492013599 ], [ 79.869204644937753, 6.830030878542677 ], [ 79.868944343610664, 6.829578281630049 ], [ 79.868422037108999, 6.829577297838032 ], [ 79.868160030953987, 6.830028910827757 ] ] ] ] } },
{ "type": "Feature", "properties": { "id": 252.0, "left": 399907.39828454127, "top": 481160.3994, "right": 400022.86833837925, "bottom": 481060.3994, "row_index": 11.0, "col_index": 12.0 }, "geometry": { "type": "MultiPolygon", "coordinates": [ [ [ [ 79.868161736762303, 6.829124700623389 ], [ 79.868422037108999, 6.829577297838032 ], [ 79.868944343610664, 6.829578281630049 ], [ 79.869206348785269, 6.829126668076539 ], [ 79.868946047833376, 6.828674071212151 ], [ 79.868423742312032, 6.828673087551021 ], [ 79.868161736762303, 6.829124700623389 ] ] ] ] } },
{ "type": "Feature", "properties": { "id": 253.0, "left": 399907.39828454127, "top": 481060.3994, "right": 400022.86833837925, "bottom": 480960.3994, "row_index": 12.0, "col_index": 12.0 }, "geometry": { "type": "MultiPolygon", "coordinates": [ [ [ [ 79.868163442340389, 6.828220490384671 ], [ 79.868423742312032, 6.828673087551021 ], [ 79.868946047833376, 6.828674071212151 ], [ 79.869208052402854, 6.828222457576049 ], [ 79.868947751826084, 6.8277698607599 ], [ 79.868425447284935, 6.827768877229654 ], [ 79.868163442340389, 6.828220490384671 ] ] ] ] } },
{ "type": "Feature", "properties": { "id": 254.0, "left": 399907.39828454127, "top": 480960.3994, "right": 400022.86833837925, "bottom": 480860.3994, "row_index": 13.0, "col_index": 12.0 }, "geometry": { "type": "MultiPolygon", "coordinates": [ [ [ [ 79.868165147688288, 6.827316280111606 ], [ 79.868425447284935, 6.827768877229654 ], [ 79.868947751826084, 6.8277698607599 ], [ 79.869209755790479, 6.827318247041215 ], [ 79.868949455588776, 6.826865650273309 ], [ 79.868427152027678, 6.826864666873945 ], [ 79.868165147688288, 6.827316280111606 ] ] ] ] } },
{ "type": "Feature", "properties": { "id": 255.0, "left": 399907.39828454127, "top": 480860.3994, "right": 400022.86833837925, "bottom": 480760.3994, "row_index": 14.0, "col_index": 12.0 }, "geometry": { "type": "MultiPolygon", "coordinates": [ [ [ [ 79.868937429934689, 6.826103451300838 ], [ 79.868799321540365, 6.826070035636918 ], [ 79.868660231189395, 6.82604097238247 ], [ 79.868520296143771, 6.826016290218168 ], [ 79.86840602265444, 6.825999815078418 ], [ 79.868166852805956, 6.826412069804197 ], [ 79.868427152027678, 6.826864666873945 ], [ 79.868949455588776, 6.826865650273309 ], [ 79.869211458948172, 6.826414036472038 ], [ 79.869050792801147, 6.826134678067224 ], [ 79.868937429934689, 6.826103451300838 ] ] ] ] } },
{ "type": "Feature", "properties": { "id": 265.0, "left": 399994.00082491979, "top": 481810.3994, "right": 400109.47087875771, "bottom": 481710.3994, "row_index": 4.0, "col_index": 13.0 }, "geometry": { "type": "MultiPolygon", "coordinates": [ [ [ [ 79.86905805345117, 6.834824261748987 ], [ 79.869193950013766, 6.834782755919102 ], [ 79.869328475104567, 6.83473700409007 ], [ 79.869461495960067, 6.834687051414191 ], [ 79.869592881301458, 6.834632947189617 ], [ 79.869722501464082, 6.834574744811671 ], [ 79.869729131651596, 6.834571513834633 ], [ 79.869718434261756, 6.834552914020599 ], [ 79.869196122250912, 6.83455193035795 ], [ 79.869034401789733, 6.834830680938023 ], [ 79.86905805345117, 6.834824261748987 ] ] ] ] } },
{ "type": "Feature", "properties": { "id": 266.0, "left": 399994.00082491979, "top": 481710.3994, "right": 400109.47087875771, "bottom": 481610.3994, "row_index": 5.0, "col_index": 13.0 }, "geometry": { "type": "MultiPolygon", "coordinates": [ [ [ [ 79.868935819046882, 6.834099333204163 ], [ 79.869196122250912, 6.83455193035795 ], [ 79.869718434261756, 6.834552914020599 ], [ 79.869980442087467, 6.834101300398682 ], [ 79.86972013827797, 6.833648703595507 ], [ 79.869197827248172, 6.833647720063635 ], [ 79.868935819046882, 6.834099333204163 ] ] ] ] } },
{ "type": "Feature", "properties": { "id": 267.0, "left": 399994.00082491979, "top": 481610.3994, "right": 400109.47087875771, "bottom": 481510.3994, "row_index": 6.0, "col_index": 13.0 }, "geometry": { "type": "MultiPolygon", "coordinates": [ [ [ [ 79.868937524419678, 6.833195122958077 ], [ 79.869197827248172, 6.833647720063635 ], [ 79.86972013827797, 6.833648703595507 ], [ 79.86998214549827, 6.833197089891045 ], [ 79.869721842064351, 6.832744493136042 ], [ 79.8691995320155, 6.832743509734945 ], [ 79.868937524419678, 6.833195122958077 ] ] ] ] } },
{ "type": "Feature", "properties": { "id": 268.0, "left": 399994.00082491979, "top": 481510.3994, "right": 400109.47087875771, "bottom": 481410.3994, "row_index": 7.0, "col_index": 13.0 }, "geometry": { "type": "MultiPolygon", "coordinates": [ [ [ [ 79.868939229562443, 6.832290912677616 ], [ 79.8691995320155, 6.832743509734945 ], [ 79.869721842064351, 6.832744493136042 ], [ 79.869983848679311, 6.832292879349038 ], [ 79.869723545620928, 6.831840282642213 ], [ 79.869201236552868, 6.831839299371884 ], [ 79.868939229562443, 6.832290912677616 ] ] ] ] } },
{ "type": "Feature", "properties": { "id": 269.0, "left": 399994.00082491979, "top": 481410.3994, "right": 400109.47087875771, "bottom": 481310.3994, "row_index": 8.0, "col_index": 13.0 }, "geometry": { "type": "MultiPolygon", "coordinates": [ [ [ [ 79.868940934475205, 6.831386702362789 ], [ 79.869201236552868, 6.831839299371884 ], [ 79.869723545620928, 6.831840282642213 ], [ 79.869985551630634, 6.831388668772663 ], [ 79.869725248947674, 6.830936072114015 ], [ 79.869202940860276, 6.830935088974462 ], [ 79.868940934475205, 6.831386702362789 ] ] ] ] } },
{ "type": "Feature", "properties": { "id": 270.0, "left": 399994.00082491979, "top": 481310.3994, "right": 400109.47087875771, "bottom": 481210.3994, "row_index": 9.0, "col_index": 13.0 }, "geometry": { "type": "MultiPolygon", "coordinates": [ [ [ [ 79.868942639157936, 6.830482492013599 ], [ 79.869202940860276, 6.830935088974462 ], [ 79.869725248947674, 6.830936072114015 ], [ 79.869987254352168, 6.830484458161927 ], [ 79.869726952044616, 6.830031861551458 ], [ 79.869204644937753, 6.830030878542677 ], [ 79.868942639157936, 6.830482492013599 ] ] ] ] } },
{ "type": "Feature", "properties": { "id": 271.0, "left": 399994.00082491979, "top": 481210.3994, "right": 400109.47087875771, "bottom": 481110.3994, "row_index": 10.0, "col_index": 13.0 }, "geometry": { "type": "MultiPolygon", "coordinates": [ [ [ [ 79.868944343610664, 6.829578281630049 ], [ 79.869204644937753, 6.830030878542677 ], [ 79.869726952044616, 6.830031861551458 ], [ 79.869988956843983, 6.829580247516838 ], [ 79.869728654911754, 6.829127650954547 ], [ 79.869206348785269, 6.829126668076539 ], [ 79.868944343610664, 6.829578281630049 ] ] ] ] } },
{ "type": "Feature", "properties": { "id": 272.0, "left": 399994.00082491979, "top": 481110.3994, "right": 400109.47087875771, "bottom": 481010.3994, "row_index": 11.0, "col_index": 13.0 }, "geometry": { "type": "MultiPolygon", "coordinates": [ [ [ [ 79.868946047833376, 6.828674071212151 ], [ 79.869206348785269, 6.829126668076539 ], [ 79.869728654911754, 6.829127650954547 ], [ 79.869990659106037, 6.82867603683739 ], [ 79.869730357549074, 6.828223440323287 ], [ 79.869208052402854, 6.828222457576049 ], [ 79.868946047833376, 6.828674071212151 ] ] ] ] } },
{ "type": "Feature", "properties": { "id": 273.0, "left": 399994.00082491979, "top": 481010.3994, "right": 400109.47087875771, "bottom": 480910.3994, "row_index": 12.0, "col_index": 13.0 }, "geometry": { "type": "MultiPolygon", "coordinates": [ [ [ [ 79.868947751826084, 6.8277698607599 ], [ 79.869208052402854, 6.828222457576049 ], [ 79.869730357549074, 6.828223440323287 ], [ 79.869992361138358, 6.827771826123596 ], [ 79.869732059956576, 6.82731922965768 ], [ 79.869209755790479, 6.827318247041215 ], [ 79.868947751826084, 6.8277698607599 ] ] ] ] } },
{ "type": "Feature", "properties": { "id": 274.0, "left": 399994.00082491979, "top": 480910.3994, "right": 400109.47087875771, "bottom": 480810.3994, "row_index": 13.0, "col_index": 13.0 }, "geometry": { "type": "MultiPolygon", "coordinates": [ [ [ [ 79.868949455588776, 6.826865650273309 ], [ 79.869209755790479, 6.827318247041215 ], [ 79.869732059956576, 6.82731922965768 ], [ 79.869994062940918, 6.826867615375463 ], [ 79.86973376213426, 6.82641501895773 ], [ 79.869211458948172, 6.826414036472038 ], [ 79.868949455588776, 6.826865650273309 ] ] ] ] } },
{ "type": "Feature", "properties": { "id": 275.0, "left": 399994.00082491979, "top": 480810.3994, "right": 400109.47087875771, "bottom": 480710.3994, "row_index": 14.0, "col_index": 13.0 }, "geometry": { "type": "MultiPolygon", "coordinates": [ [ [ [ 79.869737911476193, 6.826393203021242 ], [ 79.869608513713004, 6.826334513214062 ], [ 79.869477335435334, 6.826279914818226 ], [ 79.869344506097903, 6.826229461714022 ], [ 79.869210156784661, 6.8261832036909 ], [ 79.869074420079315, 6.826141186398347 ], [ 79.869050792801147, 6.826134678067224 ], [ 79.869211458948172, 6.826414036472038 ], [ 79.86973376213426, 6.82641501895773 ], [ 79.869744529602414, 6.826396459059602 ], [ 79.869737911476193, 6.826393203021242 ] ] ] ] } },
{ "type": "Feature", "properties": { "id": 286.0, "left": 400080.60336529819, "top": 481760.3994, "right": 400196.07341913611, "bottom": 481660.3994, "row_index": 5.0, "col_index": 14.0 }, "geometry": { "type": "MultiPolygon", "coordinates": [ [ [ [ 79.869850228525479, 6.834512501720186 ], [ 79.869975936431587, 6.834446279342778 ], [ 79.870099501121274, 6.834376143034248 ], [ 79.87022080064861, 6.834302162012057 ], [ 79.870339715303331, 6.834224409288034 ], [ 79.870456127728986, 6.834142961596294 ], [ 79.870505096800173, 6.83410635710058 ], [ 79.870502753722647, 6.834102283146749 ], [ 79.869980442087467, 6.834101300398682 ], [ 79.869718434261756, 6.834552914020599 ], [ 79.869729131651596, 6.834571513834634 ], [ 79.869850228525479, 6.834512501720186 ] ] ] ] } },
{ "type": "Feature", "properties": { "id": 287.0, "left": 400080.60336529819, "top": 481660.3994, "right": 400196.07341913611, "bottom": 481560.3994, "row_index": 6.0, "col_index": 14.0 }, "geometry": { "type": "MultiPolygon", "coordinates": [ [ [ [ 79.86972013827797, 6.833648703595507 ], [ 79.869980442087467, 6.834101300398682 ], [ 79.870502753722647, 6.834102283146749 ], [ 79.870764760567297, 6.83365066896098 ], [ 79.870504456152474, 6.833198072508451 ], [ 79.86998214549827, 6.833197089891045 ], [ 79.86972013827797, 6.833648703595507 ] ] ] ] } },
{ "type": "Feature", "properties": { "id": 288.0, "left": 400080.60336529819, "top": 481560.3994, "right": 400196.07341913611, "bottom": 481460.3994, "row_index": 7.0, "col_index": 14.0 }, "geometry": { "type": "MultiPolygon", "coordinates": [ [ [ [ 79.869721842064351, 6.832744493136042 ], [ 79.86998214549827, 6.833197089891045 ], [ 79.870504456152474, 6.833198072508451 ], [ 79.870766462391842, 6.832746458240193 ], [ 79.870506158352669, 6.832293861835784 ], [ 79.869983848679311, 6.832292879349038 ], [ 79.869721842064351, 6.832744493136042 ] ] ] ] } },
{ "type": "Feature", "properties": { "id": 289.0, "left": 400080.60336529819, "top": 481460.3994, "right": 400196.07341913611, "bottom": 481360.3994, "row_index": 8.0, "col_index": 14.0 }, "geometry": { "type": "MultiPolygon", "coordinates": [ [ [ [ 79.869723545620928, 6.831840282642213 ], [ 79.869983848679311, 6.832292879349038 ], [ 79.870506158352669, 6.832293861835784 ], [ 79.870768163986838, 6.83184224748504 ], [ 79.870507860323229, 6.831389651128749 ], [ 79.869985551630634, 6.831388668772663 ], [ 79.869723545620928, 6.831840282642213 ] ] ] ] } },
{ "type": "Feature", "properties": { "id": 290.0, "left": 400080.60336529819, "top": 481360.3994, "right": 400196.07341913611, "bottom": 481260.3994, "row_index": 9.0, "col_index": 14.0 }, "geometry": { "type": "MultiPolygon", "coordinates": [ [ [ [ 79.869725248947674, 6.830936072114015 ], [ 79.869985551630634, 6.831388668772663 ], [ 79.870507860323229, 6.831389651128749 ], [ 79.870769865352273, 6.830938036695525 ], [ 79.870509562064186, 6.830485440387354 ], [ 79.869987254352168, 6.830484458161927 ], [ 79.869725248947674, 6.830936072114015 ] ] ] ] } },
{ "type": "Feature", "properties": { "id": 291.0, "left": 400080.60336529819, "top": 481260.3994, "right": 400196.07341913611, "bottom": 481160.3994, "row_index": 10.0, "col_index": 14.0 }, "geometry": { "type": "MultiPolygon", "coordinates": [ [ [ [ 79.869726952044616, 6.830031861551458 ], [ 79.869987254352168, 6.830484458161927 ], [ 79.870509562064186, 6.830485440387354 ], [ 79.870771566488145, 6.830033825871649 ], [ 79.870511263575537, 6.829581229611601 ], [ 79.869988956843983, 6.829580247516838 ], [ 79.869726952044616, 6.830031861551458 ] ] ] ] } },
{ "type": "Feature", "properties": { "id": 292.0, "left": 400080.60336529819, "top": 481160.3994, "right": 400196.07341913611, "bottom": 481060.3994, "row_index": 11.0, "col_index": 14.0 }, "geometry": { "type": "MultiPolygon", "coordinates": [ [ [ [ 79.869728654911754, 6.829127650954547 ], [ 79.869988956843983, 6.829580247516838 ], [ 79.870511263575537, 6.829581229611601 ], [ 79.870773267394483, 6.829129615013423 ], [ 79.870512964857255, 6.828677018801501 ], [ 79.869990659106037, 6.82867603683739 ], [ 79.869728654911754, 6.829127650954547 ] ] ] ] } },
{ "type": "Feature", "properties": { "id": 293.0, "left": 400080.60336529819, "top": 481060.3994, "right": 400196.07341913611, "bottom": 480960.3994, "row_index": 12.0, "col_index": 14.0 }, "geometry": { "type": "MultiPolygon", "coordinates": [ [ [ [ 79.869730357549074, 6.828223440323287 ], [ 79.869990659106037, 6.82867603683739 ], [ 79.870512964857255, 6.828677018801501 ], [ 79.870774968071274, 6.828225404120842 ], [ 79.870514665909383, 6.827772807957047 ], [ 79.869992361138358, 6.827771826123596 ], [ 79.869730357549074, 6.828223440323287 ] ] ] ] } },
{ "type": "Feature", "properties": { "id": 294.0, "left": 400080.60336529819, "top": 480960.3994, "right": 400196.07341913611, "bottom": 480860.3994, "row_index": 13.0, "col_index": 14.0 }, "geometry": { "type": "MultiPolygon", "coordinates": [ [ [ [ 79.869732059956576, 6.82731922965768 ], [ 79.869992361138358, 6.827771826123596 ], [ 79.870514665909383, 6.827772807957047 ], [ 79.870776668518531, 6.827321193193919 ], [ 79.870516366731877, 6.826868597078255 ], [ 79.869994062940918, 6.826867615375463 ], [ 79.869732059956576, 6.82731922965768 ] ] ] ] } },
{ "type": "Feature", "properties": { "id": 295.0, "left": 400080.60336529819, "top": 480860.3994, "right": 400196.07341913611, "bottom": 480760.3994, "row_index": 14.0, "col_index": 14.0 }, "geometry": { "type": "MultiPolygon", "coordinates": [ [ [ [ 79.870469894880742, 6.826827742988748 ], [ 79.870353791650587, 6.826745858090255 ], [ 79.870235172416528, 6.826667658666785 ], [ 79.870114154240369, 6.826593221889741 ], [ 79.869990856551141, 6.826522621217276 ], [ 79.869865401027184, 6.826455926321808 ], [ 79.869744529602414, 6.8263964590596 ], [ 79.86973376213426, 6.82641501895773 ], [ 79.869994062940918, 6.826867615375463 ], [ 79.870516366731877, 6.826868597078255 ], [ 79.870518725332857, 6.82686453154486 ], [ 79.870469894880742, 6.826827742988748 ] ] ] ] } },
{ "type": "Feature", "properties": { "id": 306.0, "left": 400167.20590567664, "top": 481710.3994, "right": 400282.67595951457, "bottom": 481610.3994, "row_index": 5.0, "col_index": 15.0 }, "geometry": { "type": "MultiPolygon", "coordinates": [ [ [ [ 79.87056992303873, 6.834057899317516 ], [ 79.870680988928697, 6.833969306399617 ], [ 79.870789215788875, 6.833877270274874 ], [ 79.870894496811303, 6.833781881773667 ], [ 79.87099672809542, 6.833683235034805 ], [ 79.871027940339047, 6.83365116375351 ], [ 79.870764760567297, 6.83365066896098 ], [ 79.870502753722647, 6.834102283146749 ], [ 79.870505096800173, 6.83410635710058 ], [ 79.87056992303873, 6.834057899317516 ] ] ] ] } },
{ "type": "Feature", "properties": { "id": 307.0, "left": 400167.20590567664, "top": 481610.3994, "right": 400282.67595951457, "bottom": 481510.3994, "row_index": 6.0, "col_index": 15.0 }, "geometry": { "type": "MultiPolygon", "coordinates": [ [ [ [ 79.871095808750596, 6.833581427412621 ], [ 79.871191640995832, 6.833476559380912 ], [ 79.871284130256058, 6.833368734433725 ], [ 79.871373185255678, 6.833258058983263 ], [ 79.871458718108485, 6.833144642254835 ], [ 79.871490955742104, 6.833098978648734 ], [ 79.871288772670383, 6.832747439943246 ], [ 79.870766462391842, 6.832746458240193 ], [ 79.870504456152474, 6.833198072508451 ], [ 79.870764760567297, 6.83365066896098 ], [ 79.871027940339047, 6.83365116375351 ], [ 79.871095808750596, 6.833581427412621 ] ] ] ] } },
{ "type": "Feature", "properties": { "id": 308.0, "left": 400167.20590567664, "top": 481510.3994, "right": 400282.67595951457, "bottom": 481410.3994, "row_index": 7.0, "col_index": 15.0 }, "geometry": { "type": "MultiPolygon", "coordinates": [ [ [ [ 79.870506158352669, 6.832293861835784 ], [ 79.870766462391842, 6.832746458240193 ], [ 79.871288772670383, 6.832747439943246 ], [ 79.871550777928903, 6.83229582511134 ], [ 79.871290473284589, 6.831843229057546 ], [ 79.870768163986838, 6.83184224748504 ], [ 79.870506158352669, 6.832293861835784 ] ] ] ] } },
{ "type": "Feature", "properties": { "id": 309.0, "left": 400167.20590567664, "top": 481410.3994, "right": 400282.67595951457, "bottom": 481310.3994, "row_index": 8.0, "col_index": 15.0 }, "geometry": { "type": "MultiPolygon", "coordinates": [ [ [ [ 79.870507860323229, 6.831389651128749 ], [ 79.870768163986838, 6.83184224748504 ], [ 79.871290473284589, 6.831843229057546 ], [ 79.871552477938025, 6.83139161414321 ], [ 79.87129217366936, 6.830939018137484 ], [ 79.870769865352273, 6.830938036695525 ], [ 79.870507860323229, 6.831389651128749 ] ] ] ] } },
{ "type": "Feature", "properties": { "id": 310.0, "left": 400167.20590567664, "top": 481310.3994, "right": 400282.67595951457, "bottom": 481210.3994, "row_index": 9.0, "col_index": 15.0 }, "geometry": { "type": "MultiPolygon", "coordinates": [ [ [ [ 79.870509562064186, 6.830485440387354 ], [ 79.870769865352273, 6.830938036695525 ], [ 79.87129217366936, 6.830939018137484 ], [ 79.871554177717798, 6.830487403140726 ], [ 79.871293873824726, 6.830034807183059 ], [ 79.870771566488145, 6.830033825871649 ], [ 79.870509562064186, 6.830485440387354 ] ] ] ] } },
{ "type": "Feature", "properties": { "id": 311.0, "left": 400167.20590567664, "top": 481210.3994, "right": 400282.67595951457, "bottom": 481110.3994, "row_index": 10.0, "col_index": 15.0 }, "geometry": { "type": "MultiPolygon", "coordinates": [ [ [ [ 79.870511263575537, 6.829581229611601 ], [ 79.870771566488145, 6.830033825871649 ], [ 79.871293873824726, 6.830034807183059 ], [ 79.871555877268207, 6.829583192103881 ], [ 79.871295573750658, 6.829130596194286 ], [ 79.870773267394483, 6.829129615013423 ], [ 79.870511263575537, 6.829581229611601 ] ] ] ] } },
{ "type": "Feature", "properties": { "id": 312.0, "left": 400167.20590567664, "top": 481110.3994, "right": 400282.67595951457, "bottom": 481010.3994, "row_index": 11.0, "col_index": 15.0 }, "geometry": { "type": "MultiPolygon", "coordinates": [ [ [ [ 79.870512964857255, 6.828677018801501 ], [ 79.870773267394483, 6.829129615013423 ], [ 79.871295573750658, 6.829130596194286 ], [ 79.871557576589282, 6.828678981032684 ], [ 79.871297273447169, 6.828226385171165 ], [ 79.870774968071274, 6.828225404120842 ], [ 79.870512964857255, 6.828677018801501 ] ] ] ] } },
{ "type": "Feature", "properties": { "id": 313.0, "left": 400167.20590567664, "top": 481010.3994, "right": 400282.67595951457, "bottom": 480910.3994, "row_index": 12.0, "col_index": 15.0 }, "geometry": { "type": "MultiPolygon", "coordinates": [ [ [ [ 79.871468709487445, 6.827829823364506 ], [ 79.871383604645501, 6.827716086133018 ], [ 79.871294967495757, 6.82760507689789 ], [ 79.871202885513782, 6.827496905210063 ], [ 79.871107449574509, 6.827391677820113 ], [ 79.871039845412099, 6.82732168752702 ], [ 79.870776668518531, 6.827321193193919 ], [ 79.870514665909383, 6.827772807957047 ], [ 79.870774968071274, 6.828225404120842 ], [ 79.871297273447169, 6.828226385171165 ], [ 79.871500775047664, 6.827875608011587 ], [ 79.871468709487445, 6.827829823364506 ] ] ] ] } },
{ "type": "Feature", "properties": { "id": 314.0, "left": 400167.20590567664, "top": 480910.3994, "right": 400282.67595951457, "bottom": 480810.3994, "row_index": 13.0, "col_index": 15.0 }, "geometry": { "type": "MultiPolygon", "coordinates": [ [ [ [ 79.871008753862611, 6.82728949857289 ], [ 79.870906895779456, 6.827190468305064 ], [ 79.870801975847115, 6.827094684745607 ], [ 79.870694097609046, 6.827002242419359 ], [ 79.870583367527956, 6.826913232553737 ], [ 79.870518725332857, 6.82686453154486 ], [ 79.870516366731877, 6.826868597078255 ], [ 79.870776668518531, 6.827321193193919 ], [ 79.871039845412099, 6.82732168752702 ], [ 79.871008753862611, 6.82728949857289 ] ] ] ] } },
{ "type": "Feature", "properties": { "id": 328.0, "left": 400253.8084460551, "top": 481560.3994, "right": 400369.27849989303, "bottom": 481460.3994, "row_index": 7.0, "col_index": 16.0 }, "geometry": { "type": "MultiPolygon", "coordinates": [ [ [ [ 79.871540644404448, 6.833028596179063 ], [ 79.871618883293081, 6.832910035281412 ], [ 79.871693357563103, 6.832789076569155 ], [ 79.871763993718716, 6.832665839415905 ], [ 79.871830722052124, 6.83254044544378 ], [ 79.871893476712302, 6.832413018403389 ], [ 79.87194634635253, 6.832296567958164 ], [ 79.871550777928903, 6.83229582511134 ], [ 79.871288772670383, 6.832747439943246 ], [ 79.871490955742104, 6.833098978648734 ], [ 79.871540644404448, 6.833028596179063 ] ] ] ] } },
{ "type": "Feature", "properties": { "id": 329.0, "left": 400253.8084460551, "top": 481460.3994, "right": 400369.27849989303, "bottom": 481360.3994, "row_index": 8.0, "col_index": 16.0 }, "geometry": { "type": "MultiPolygon", "coordinates": [ [ [ [ 79.871952195769964, 6.832283684051685 ], [ 79.872006821278703, 6.832152570027854 ], [ 79.87205729933217, 6.832019805727351 ], [ 79.872103580117198, 6.831885522174181 ], [ 79.872145617963056, 6.831749851891604 ], [ 79.872183371386456, 6.831612928771321 ], [ 79.872188745974469, 6.831590736919434 ], [ 79.872074786860125, 6.831392594801588 ], [ 79.871552477938025, 6.83139161414321 ], [ 79.871290473284589, 6.831843229057546 ], [ 79.871550777928903, 6.83229582511134 ], [ 79.87194634635253, 6.832296567958164 ], [ 79.871952195769964, 6.832283684051685 ] ] ] ] } },
{ "type": "Feature", "properties": { "id": 330.0, "left": 400253.8084460551, "top": 481360.3994, "right": 400369.27849989303, "bottom": 481260.3994, "row_index": 9.0, "col_index": 16.0 }, "geometry": { "type": "MultiPolygon", "coordinates": [ [ [ [ 79.872306718176063, 6.830914285858664 ], [ 79.872308528091352, 6.830891839071058 ], [ 79.872076485659292, 6.830488383668668 ], [ 79.871554177717798, 6.830487403140726 ], [ 79.87129217366936, 6.830939018137484 ], [ 79.871552477938025, 6.83139161414321 ], [ 79.872074786860125, 6.831392594801588 ], [ 79.872295775505108, 6.831011676961994 ], [ 79.872306718176063, 6.830914285858664 ] ] ] ] } },
{ "type": "Feature", "properties": { "id": 331.0, "left": 400253.8084460551, "top": 481260.3994, "right": 400369.27849989303, "bottom": 481160.3994, "row_index": 10.0, "col_index": 16.0 }, "geometry": { "type": "MultiPolygon", "coordinates": [ [ [ [ 79.872308316371289, 6.830063347942199 ], [ 79.872297739711499, 6.82996591719858 ], [ 79.872078184229238, 6.829584172501391 ], [ 79.871555877268207, 6.829583192103881 ], [ 79.871293873824726, 6.830034807183059 ], [ 79.871554177717798, 6.830487403140726 ], [ 79.872076485659292, 6.830488383668668 ], [ 79.872310041994453, 6.830085801890936 ], [ 79.872308316371289, 6.830063347942199 ] ] ] ] } },
{ "type": "Feature", "properties": { "id": 332.0, "left": 400253.8084460551, "top": 481160.3994, "right": 400369.27849989303, "bottom": 481060.3994, "row_index": 11.0, "col_index": 16.0 }, "geometry": { "type": "MultiPolygon", "coordinates": [ [ [ [ 79.872187595334282, 6.829364247014746 ], [ 79.872150356767406, 6.829227183153217 ], [ 79.872108829168766, 6.829091356032423 ], [ 79.872063053524641, 6.828956899696681 ], [ 79.87201307501347, 6.82882394683739 ], [ 79.871958942961371, 6.828692628662091 ], [ 79.871953142312876, 6.828679723484863 ], [ 79.871557576589282, 6.828678981032684 ], [ 79.871295573750658, 6.829130596194286 ], [ 79.871555877268207, 6.829583192103881 ], [ 79.872078184229238, 6.829584172501391 ], [ 79.872192886590213, 6.829386459306133 ], [ 79.872187595334282, 6.829364247014746 ] ] ] ] } },
{ "type": "Feature", "properties": { "id": 333.0, "left": 400253.8084460551, "top": 481060.3994, "right": 400369.27849989303, "bottom": 480960.3994, "row_index": 12.0, "col_index": 16.0 }, "geometry": { "type": "MultiPolygon", "coordinates": [ [ [ [ 79.871900710793284, 6.828563074764967 ], [ 79.871838435980365, 6.828435412998978 ], [ 79.871772179983154, 6.828309769349664 ], [ 79.871702008190965, 6.828186267810842 ], [ 79.871627989857387, 6.828065030262218 ], [ 79.871550198031812, 6.827946176349141 ], [ 79.871500775047664, 6.827875608011587 ], [ 79.871297273447169, 6.828226385171165 ], [ 79.871557576589282, 6.828678981032684 ], [ 79.871953142312876, 6.828679723484863 ], [ 79.871900710793284, 6.828563074764967 ] ] ] ] } },
{ "type": "Feature", "properties": { "id": 349.0, "left": 400340.41098643356, "top": 481410.3994, "right": 400455.88104027149, "bottom": 481310.3994, "row_index": 8.0, "col_index": 17.0 }, "geometry": { "type": "MultiPolygon", "coordinates": [ [ [ [ 79.872216803132403, 6.831474887941363 ], [ 79.872245880211096, 6.831335865632705 ], [ 79.872270573930408, 6.831195999044832 ], [ 79.872290859924121, 6.831055426210335 ], [ 79.872295775505108, 6.831011676961994 ], [ 79.872074786860125, 6.831392594801588 ], [ 79.872188745974469, 6.831590736919434 ], [ 79.872216803132403, 6.831474887941363 ] ] ] ] } },
{ "type": "Feature", "properties": { "id": 350.0, "left": 400340.41098643356, "top": 481310.3994, "right": 400455.88104027149, "bottom": 481210.3994, "row_index": 9.0, "col_index": 17.0 }, "geometry": { "type": "MultiPolygon", "coordinates": [ [ [ [ 79.872325626676968, 6.830346840578564 ], [ 79.872319199367155, 6.830204958362498 ], [ 79.872310041994453, 6.830085801890936 ], [ 79.872076485659292, 6.830488383668668 ], [ 79.872308528091352, 6.830891839071058 ], [ 79.872318133039784, 6.830772717279243 ], [ 79.872325093254005, 6.830630860183994 ], [ 79.872327591953734, 6.830488854569438 ], [ 79.872325626676968, 6.830346840578564 ] ] ] ] } },
{ "type": "Feature", "properties": { "id": 351.0, "left": 400340.41098643356, "top": 481210.3994, "right": 400455.88104027149, "bottom": 481110.3994, "row_index": 10.0, "col_index": 17.0 }, "geometry": { "type": "MultiPolygon", "coordinates": [ [ [ [ 79.872292988433514, 6.829922149070265 ], [ 79.872273230684613, 6.829781501093033 ], [ 79.872249062627077, 6.829641542813042 ], [ 79.87222050811576, 6.829502412352051 ], [ 79.872192886590213, 6.829386459306133 ], [ 79.872078184229238, 6.829584172501391 ], [ 79.872297739711499, 6.82996591719858 ], [ 79.872292988433514, 6.829922149070265 ] ] ] ] } }
]
}
