{
"type": "FeatureCollection",
"name": "Accessibility_analysis",
"crs": { "type": "name", "properties": { "name": "urn:ogc:def:crs:OGC:1.3:CRS84" } },
"xy_coordinate_resolution": 1e-15,
"features": [
{ "type": "Feature", "properties": { "id": 108.0, "left": 399301.18050189223, "top": 481510.3994, "right": 399416.65055573016, "bottom": 481410.3994, "row_index": 7.0, "col_index": 5.0, "area": 152, "1entropy_i": 0.0, "1average_c": 0.0, "1landuse_d": 0.0, "1normalize": 0.0, "1normali_1": 0.0, "1normali_2": 0.0, "1urban mat": 0.0 }, "geometry": { "type": "MultiPolygon", "coordinates": [ [ [ [ 79.863545473277213, 6.832003752092681 ], [ 79.863595449548427, 6.832136705548312 ], [ 79.863649579458709, 6.832268024395087 ], [ 79.86368193198517, 6.832340004660555 ], [ 79.863716138585573, 6.832281045361944 ], [ 79.863529241542949, 6.831956072181216 ], [ 79.863545473277213, 6.832003752092681 ] ] ] ] } },
{ "type": "Feature", "properties": { "id": 109.0, "left": 399301.18050189223, "top": 481410.3994, "right": 399416.65055573016, "bottom": 481310.3994, "row_index": 8.0, "col_index": 5.0, "area": 2308, "1entropy_i": 0.481264063, "1average_c": 0.055433328, "1landuse_d": 0.1122, "1normalize": 0.722052576, "1normali_1": 0.055433328, "1normali_2": 0.1122, "1urban mat": 0.296561968 }, "geometry": { "type": "MultiPolygon", "coordinates": [ [ [ [ 79.863315556013617, 6.831038500806737 ], [ 79.863335311100215, 6.83117914880609 ], [ 79.863359476525645, 6.831319107193151 ], [ 79.863388028445442, 6.831458237845739 ], [ 79.863420938686119, 6.831596403458409 ], [ 79.863458174773029, 6.831733467677982 ], [ 79.863476385934703, 6.83179303581046 ], [ 79.863717853305545, 6.831376836359389 ], [ 79.863457556967518, 6.830924237092474 ], [ 79.863303122442076, 6.830923944451321 ], [ 79.863315556013617, 6.831038500806737 ] ] ] ] } },
{ "type": "Feature", "properties": { "id": 110.0, "left": 399301.18050189223, "top": 481310.3994, "right": 399416.65055573016, "bottom": 481210.3994, "row_index": 9.0, "col_index": 5.0, "area": 3317, "1entropy_i": 0.121437574, "1average_c": 0.006153067, "1landuse_d": 0.1479, "1normalize": 0.182195846, "1normali_1": 0.006153067, "1normali_2": 0.1479, "1urban mat": 0.112082971 }, "geometry": { "type": "MultiPolygon", "coordinates": [ [ [ [ 79.863301844864665, 6.830046366207292 ], [ 79.863290427423095, 6.830187934230411 ], [ 79.863283464587468, 6.83032979084795 ], [ 79.863280963233152, 6.83047179606527 ], [ 79.863282925832578, 6.830613809740949 ], [ 79.863289350452916, 6.830755691725114 ], [ 79.863300230757787, 6.830897301997716 ], [ 79.863303122442076, 6.830923944451321 ], [ 79.863457556967518, 6.830924237092474 ], [ 79.863719567794192, 6.830472627322464 ], [ 79.863459271830735, 6.830020028104181 ], [ 79.8633048375291, 6.830019735501832 ], [ 79.863301844864665, 6.830046366207292 ] ] ] ] } },
{ "type": "Feature", "properties": { "id": 111.0, "left": 399301.18050189223, "top": 481210.3994, "right": 399416.65055573016, "bottom": 481110.3994, "row_index": 10.0, "col_index": 5.0, "area": 2308, "1entropy_i": 0.152433373, "1average_c": 0.006427831, "1landuse_d": 0.0677, "1normalize": 0.228699622, "1normali_1": 0.006427831, "1normali_2": 0.0677, "1urban mat": 0.100942484 }, "geometry": { "type": "MultiPolygon", "coordinates": [ [ [ [ 79.863462959077623, 6.829210805019128 ], [ 79.863425203542519, 6.829347727167845 ], [ 79.863391769584226, 6.829485767087352 ], [ 79.863362690201257, 6.829624788550257 ], [ 79.863337994094906, 6.829764654360421 ], [ 79.863317705640739, 6.829905226488322 ], [ 79.8633048375291, 6.830019735501832 ], [ 79.863459271830735, 6.830020028104181 ], [ 79.863721282051472, 6.829568418251177 ], [ 79.863481395831627, 6.829151306704329 ], [ 79.863462959077623, 6.829210805019128 ] ] ] ] } },
{ "type": "Feature", "properties": { "id": 112.0, "left": 399301.18050189223, "top": 481110.3994, "right": 399416.65055573016, "bottom": 481010.3994, "row_index": 11.0, "col_index": 5.0, "area": 152, "1entropy_i": 0.33533437, "1average_c": 0.0, "1landuse_d": 0.0, "1normalize": 0.503110589, "1normali_1": 0.0, "1normali_2": 0.0, "1urban mat": 0.16770353 }, "geometry": { "type": "MultiPolygon", "coordinates": [ [ [ [ 79.863656388551178, 6.828676977276418 ], [ 79.863601761412141, 6.828808090124765 ], [ 79.86355128159714, 6.828940853294269 ], [ 79.863534868738824, 6.828988472838211 ], [ 79.863722996077414, 6.828664209145535 ], [ 79.863689013407836, 6.828605120415944 ], [ 79.863656388551178, 6.828676977276418 ] ] ] ] } },
{ "type": "Feature", "properties": { "id": 127.0, "left": 399387.78304227063, "top": 481660.3994, "right": 399503.25309610862, "bottom": 481560.3994, "row_index": 6.0, "col_index": 6.0, "area": 90, "1entropy_i": 0.0, "1average_c": 0.019272232, "1landuse_d": 1.0, "1normalize": 0.0, "1normali_1": 0.019272232, "1normali_2": 1.0, "1urban mat": 0.339757411 }, "geometry": { "type": "MultiPolygon", "coordinates": [ [ [ [ 79.864224905091547, 6.833244574625827 ], [ 79.864313541306444, 6.833355585057748 ], [ 79.864376996355659, 6.833430129244011 ], [ 79.864236733366511, 6.833186243740148 ], [ 79.864181180792244, 6.833186138533954 ], [ 79.864224905091547, 6.833244574625827 ] ] ] ] } },
{ "type": "Feature", "properties": { "id": 128.0, "left": 399387.78304227063, "top": 481560.3994, "right": 399503.25309610862, "bottom": 481460.3994, "row_index": 7.0, "col_index": 6.0, "area": 5210, "1entropy_i": 0.666522188, "1average_c": 0.018165631, "1landuse_d": 0.1148, "1normalize": 1.0, "1normali_1": 0.018165631, "1normali_2": 0.1148, "1urban mat": 0.37765521 }, "geometry": { "type": "MultiPolygon", "coordinates": [ [ [ [ 79.863707809591574, 6.832397579036162 ], [ 79.86377008248391, 6.832525241615656 ], [ 79.863836336682724, 6.832650886144809 ], [ 79.863906506805819, 6.832774388626341 ], [ 79.86398052360623, 6.832895627176808 ], [ 79.864058314040534, 6.833014482146934 ], [ 79.864139801341068, 6.833130836239633 ], [ 79.864181180792244, 6.833186138533954 ], [ 79.864236733366511, 6.833186243740148 ], [ 79.864498745030446, 6.832734633654431 ], [ 79.864238447336973, 6.832282034640397 ], [ 79.863716138585573, 6.832281045361944 ], [ 79.86368193198517, 6.832340004660555 ], [ 79.863707809591574, 6.832397579036162 ] ] ] ] } },
{ "type": "Feature", "properties": { "id": 129.0, "left": 399387.78304227063, "top": 481460.3994, "right": 399503.25309610862, "bottom": 481360.3994, "row_index": 8.0, "col_index": 6.0, "area": 8629, "1entropy_i": 0.351266257, "1average_c": 0.040114953, "1landuse_d": 0.0719, "1normalize": 0.527013599, "1normali_1": 0.040114953, "1normali_2": 0.0719, "1urban mat": 0.213009517 }, "geometry": { "type": "MultiPolygon", "coordinates": [ [ [ [ 79.863499699962347, 6.831869295238088 ], [ 79.863529241542949, 6.831956072181219 ], [ 79.863716138585573, 6.832281045361944 ], [ 79.864238447336973, 6.832282034640397 ], [ 79.864500458394915, 6.831830424471736 ], [ 79.864240161076225, 6.831377825506274 ], [ 79.863717853305545, 6.831376836359389 ], [ 79.863476385934703, 6.83179303581046 ], [ 79.863499699962347, 6.831869295238088 ] ] ] ] } },
{ "type": "Feature", "properties": { "id": 130.0, "left": 399387.78304227063, "top": 481360.3994, "right": 399503.25309610862, "bottom": 481260.3994, "row_index": 9.0, "col_index": 6.0, "area": 8659, "1entropy_i": 0.287198439, "1average_c": 0.007632165, "1landuse_d": 0.1306, "1normalize": 0.43089104, "1normali_1": 0.007632165, "1normali_2": 0.1306, "1urban mat": 0.189707735 }, "geometry": { "type": "MultiPolygon", "coordinates": [ [ [ [ 79.863457556967518, 6.830924237092474 ], [ 79.863717853305545, 6.831376836359389 ], [ 79.864240161076225, 6.831377825506274 ], [ 79.864502171528244, 6.830926215254676 ], [ 79.864241874584266, 6.830473616337784 ], [ 79.863719567794192, 6.830472627322464 ], [ 79.863457556967518, 6.830924237092474 ] ] ] ] } },
{ "type": "Feature", "properties": { "id": 131.0, "left": 399387.78304227063, "top": 481260.3994, "right": 399503.25309610862, "bottom": 481160.3994, "row_index": 10.0, "col_index": 6.0, "area": 8659, "1entropy_i": 0.047665408, "1average_c": 0.007412042, "1landuse_d": 0.1235, "1normalize": 0.07151361, "1normali_1": 0.007412042, "1normali_2": 0.1235, "1urban mat": 0.067475217 }, "geometry": { "type": "MultiPolygon", "coordinates": [ [ [ [ 79.863459271830735, 6.830020028104181 ], [ 79.863719567794192, 6.830472627322464 ], [ 79.864241874584266, 6.830473616337784 ], [ 79.86450388443042, 6.830022006003247 ], [ 79.864243587861097, 6.82956940713493 ], [ 79.863721282051472, 6.829568418251177 ], [ 79.863459271830735, 6.830020028104181 ] ] ] ] } },
{ "type": "Feature", "properties": { "id": 132.0, "left": 399387.78304227063, "top": 481160.3994, "right": 399503.25309610862, "bottom": 481060.3994, "row_index": 11.0, "col_index": 6.0, "area": 8629, "1entropy_i": 0.454398948, "1average_c": 0.006427831, "1landuse_d": 0.0406, "1normalize": 0.68174617, "1normali_1": 0.006427831, "1normali_2": 0.0406, "1urban mat": 0.242924667 }, "geometry": { "type": "MultiPolygon", "coordinates": [ [ [ [ 79.863504998926217, 6.829075135765387 ], [ 79.863481395831627, 6.82915130670433 ], [ 79.863721282051472, 6.829568418251177 ], [ 79.864243587861097, 6.82956940713493 ], [ 79.864505597101456, 6.829117796717465 ], [ 79.864245300906731, 6.82866519789772 ], [ 79.863722996077414, 6.828664209145535 ], [ 79.863534868738824, 6.828988472838208 ], [ 79.863504998926217, 6.829075135765387 ] ] ] ] } },
{ "type": "Feature", "properties": { "id": 133.0, "left": 399387.78304227063, "top": 481060.3994, "right": 399503.25309610862, "bottom": 480960.3994, "row_index": 12.0, "col_index": 6.0, "area": 5210, "1entropy_i": 0.288180107, "1average_c": 0.006571581, "1landuse_d": 0.054, "1normalize": 0.432363862, "1normali_1": 0.006571581, "1normali_2": 0.054, "1urban mat": 0.164311814 }, "geometry": { "type": "MultiPolygon", "coordinates": [ [ [ [ 79.864149873479889, 6.827816028140059 ], [ 79.864067946620722, 6.827932072866322 ], [ 79.863989707004748, 6.828050632423854 ], [ 79.863915231846093, 6.828171589810665 ], [ 79.863844594644064, 6.828294825658377 ], [ 79.863777865110578, 6.828420218350018 ], [ 79.86371510910142, 6.828547644140039 ], [ 79.863689013407836, 6.828605120415946 ], [ 79.863722996077414, 6.828664209145535 ], [ 79.864245300906731, 6.82866519789772 ], [ 79.864507309541338, 6.828213587397322 ], [ 79.864247013721155, 6.827760988626157 ], [ 79.864191461323031, 6.827760883503051 ], [ 79.864149873479889, 6.827816028140059 ] ] ] ] } },
{ "type": "Feature", "properties": { "id": 134.0, "left": 399387.78304227063, "top": 480960.3994, "right": 399503.25309610862, "bottom": 480860.3994, "row_index": 13.0, "col_index": 6.0, "area": 90, "1entropy_i": 0.0, "1average_c": 0.0, "1landuse_d": 0.1157, "1normalize": 0.0, "1normali_1": 0.0, "1normali_2": 0.1157, "1urban mat": 0.038566667 }, "geometry": { "type": "MultiPolygon", "coordinates": [ [ [ [ 79.864324461957963, 6.827591938667015 ], [ 79.864235406729492, 6.827702612765194 ], [ 79.864191461323031, 6.827760883503051 ], [ 79.864247013721155, 6.827760988626157 ], [ 79.86438819932431, 6.827517633961894 ], [ 79.864324461957963, 6.827591938667015 ] ] ] ] } },
{ "type": "Feature", "properties": { "id": 146.0, "left": 399474.38558264909, "top": 481710.3994, "right": 399589.85563648702, "bottom": 481610.3994, "row_index": 5.0, "col_index": 7.0, "area": 1979, "1entropy_i": 0.053986743, "1average_c": 0.237149967, "1landuse_d": 0.1338, "1normalize": 0.080997669, "1normali_1": 0.237149967, "1normali_2": 0.1338, "1urban mat": 0.150649212 }, "geometry": { "type": "MultiPolygon", "coordinates": [ [ [ [ 79.864599753108678, 6.833671167177727 ], [ 79.864701610914082, 6.833770198762097 ], [ 79.86480653073734, 6.833865983655291 ], [ 79.864914409035393, 6.833958427327204 ], [ 79.865025139345349, 6.834047438545107 ], [ 79.865138612389387, 6.834132929463667 ], [ 79.865222016473311, 6.834191753106858 ], [ 79.865279640822465, 6.834092430190323 ], [ 79.865019341773134, 6.833639831429426 ], [ 79.864568662269633, 6.83363897841878 ], [ 79.864599753108678, 6.833671167177727 ] ] ] ] } },
{ "type": "Feature", "properties": { "id": 147.0, "left": 399474.38558264909, "top": 481610.3994, "right": 399589.85563648702, "bottom": 481510.3994, "row_index": 6.0, "col_index": 7.0, "area": 8574, "1entropy_i": 0.290795028, "1average_c": 0.01927237, "1landuse_d": 0.1338, "1normalize": 0.436287094, "1normali_1": 0.01927237, "1normali_2": 0.1338, "1urban mat": 0.196453155 }, "geometry": { "type": "MultiPolygon", "coordinates": [ [ [ [ 79.864405622513914, 6.833463757979739 ], [ 79.864501057842062, 6.833568986636349 ], [ 79.864568662269633, 6.83363897841878 ], [ 79.865019341773134, 6.833639831429426 ], [ 79.865281353062173, 6.833188220862039 ], [ 79.865021054387839, 6.832735622149651 ], [ 79.864498745030446, 6.832734633654431 ], [ 79.864236733366511, 6.833186243740148 ], [ 79.864376996355659, 6.833430129244011 ], [ 79.864405622513914, 6.833463757979739 ] ] ] ] } },
{ "type": "Feature", "properties": { "id": 148.0, "left": 399474.38558264909, "top": 481510.3994, "right": 399589.85563648702, "bottom": 481410.3994, "row_index": 7.0, "col_index": 7.0, "area": 8659, "1entropy_i": 0.332624777, "1average_c": 0.04809075, "1landuse_d": 0.0982, "1normalize": 0.499045318, "1normali_1": 0.04809075, "1normali_2": 0.0982, "1urban mat": 0.215112022 }, "geometry": { "type": "MultiPolygon", "coordinates": [ [ [ [ 79.864238447336973, 6.832282034640397 ], [ 79.864498745030446, 6.832734633654431 ], [ 79.865021054387839, 6.832735622149651 ], [ 79.86528306507094, 6.832284011499378 ], [ 79.865022766771517, 6.831831412835505 ], [ 79.864500458394915, 6.831830424471736 ], [ 79.864238447336973, 6.832282034640397 ] ] ] ] } },
{ "type": "Feature", "properties": { "id": 149.0, "left": 399474.38558264909, "top": 481410.3994, "right": 399589.85563648702, "bottom": 481310.3994, "row_index": 8.0, "col_index": 7.0, "area": 8659, "1entropy_i": 0.0, "1average_c": 0.009220614, "1landuse_d": 0.1077, "1normalize": 0.0, "1normali_1": 0.009220614, "1normali_2": 0.1077, "1urban mat": 0.038973538 }, "geometry": { "type": "MultiPolygon", "coordinates": [ [ [ [ 79.864240161076225, 6.831377825506274 ], [ 79.864500458394915, 6.831830424471736 ], [ 79.865022766771517, 6.831831412835505 ], [ 79.865284776848753, 6.831379802102345 ], [ 79.865024478924198, 6.830927203486989 ], [ 79.864502171528244, 6.830926215254676 ], [ 79.864240161076225, 6.831377825506274 ] ] ] ] } },
{ "type": "Feature", "properties": { "id": 150.0, "left": 399474.38558264909, "top": 481310.3994, "right": 399589.85563648702, "bottom": 481210.3994, "row_index": 9.0, "col_index": 7.0, "area": 8659, "1entropy_i": 0.03777334, "1average_c": 0.014302846, "1landuse_d": 0.108, "1normalize": 0.056672292, "1normali_1": 0.014302846, "1normali_2": 0.108, "1urban mat": 0.059658379 }, "geometry": { "type": "MultiPolygon", "coordinates": [ [ [ [ 79.864241874584266, 6.830473616337784 ], [ 79.864502171528244, 6.830926215254676 ], [ 79.865024478924198, 6.830927203486989 ], [ 79.865286488395611, 6.83047559267095 ], [ 79.865026190845839, 6.830022994104112 ], [ 79.86450388443042, 6.830022006003247 ], [ 79.864241874584266, 6.830473616337784 ] ] ] ] } },
{ "type": "Feature", "properties": { "id": 151.0, "left": 399474.38558264909, "top": 481210.3994, "right": 399589.85563648702, "bottom": 481110.3994, "row_index": 10.0, "col_index": 7.0, "area": 8659, "1entropy_i": 0.07623557, "1average_c": 0.008907427, "1landuse_d": 0.0886, "1normalize": 0.114378142, "1normali_1": 0.008907427, "1normali_2": 0.0886, "1urban mat": 0.070628523 }, "geometry": { "type": "MultiPolygon", "coordinates": [ [ [ [ 79.864243587861097, 6.82956940713493 ], [ 79.86450388443042, 6.830022006003247 ], [ 79.865026190845839, 6.830022994104112 ], [ 79.865288199711543, 6.829571383205193 ], [ 79.865027902536497, 6.829118784686869 ], [ 79.864505597101456, 6.829117796717465 ], [ 79.864243587861097, 6.82956940713493 ] ] ] ] } },
{ "type": "Feature", "properties": { "id": 152.0, "left": 399474.38558264909, "top": 481110.3994, "right": 399589.85563648702, "bottom": 481010.3994, "row_index": 11.0, "col_index": 7.0, "area": 8659, "1entropy_i": 0.348306613, "1average_c": 0.010795782, "1landuse_d": 0.071, "1normalize": 0.52257317, "1normali_1": 0.010795782, "1normali_2": 0.071, "1urban mat": 0.201456317 }, "geometry": { "type": "MultiPolygon", "coordinates": [ [ [ [ 79.864245300906731, 6.82866519789772 ], [ 79.864505597101456, 6.829117796717465 ], [ 79.865027902536497, 6.829118784686869 ], [ 79.86528991079652, 6.828667173705082 ], [ 79.865029613996143, 6.828214575235278 ], [ 79.864507309541338, 6.828213587397322 ], [ 79.864245300906731, 6.82866519789772 ] ] ] ] } },
{ "type": "Feature", "properties": { "id": 153.0, "left": 399474.38558264909, "top": 481010.3994, "right": 399589.85563648702, "bottom": 480910.3994, "row_index": 12.0, "col_index": 7.0, "area": 8574, "1entropy_i": 0.14928476, "1average_c": 0.010217493, "1landuse_d": 0.1011, "1normalize": 0.22397568, "1normali_1": 0.010217493, "1normali_2": 0.1011, "1urban mat": 0.111764391 }, "geometry": { "type": "MultiPolygon", "coordinates": [ [ [ [ 79.864512783414341, 6.827379248367516 ], [ 79.864416951278201, 6.827484115065498 ], [ 79.86438819932431, 6.827517633961894 ], [ 79.864247013721155, 6.827760988626157 ], [ 79.864507309541338, 6.828213587397322 ], [ 79.865029613996143, 6.828214575235278 ], [ 79.86529162165057, 6.827762964170612 ], [ 79.865031325224777, 6.827310365749331 ], [ 79.864580651063307, 6.827309513531533 ], [ 79.864512783414341, 6.827379248367516 ] ] ] ] } },
{ "type": "Feature", "properties": { "id": 154.0, "left": 399474.38558264909, "top": 480910.3994, "right": 399589.85563648702, "bottom": 480810.3994, "row_index": 13.0, "col_index": 7.0, "area": 1979, "1entropy_i": 0.180969215, "1average_c": 0.011634872, "1landuse_d": 0.0841, "1normalize": 0.271512664, "1normali_1": 0.011634872, "1normali_2": 0.0841, "1urban mat": 0.122415845 }, "geometry": { "type": "MultiPolygon", "coordinates": [ [ [ [ 79.865152460300962, 6.826817721646872 ], [ 79.865038666082725, 6.826902782770941 ], [ 79.86492760112759, 6.826991374492049 ], [ 79.864819375041918, 6.827083409382628 ], [ 79.8647140946306, 6.827178796617174 ], [ 79.864611863791794, 6.827277442061881 ], [ 79.864580651063307, 6.827309513531533 ], [ 79.865031325224777, 6.827310365749331 ], [ 79.86529333227368, 6.826858754601796 ], [ 79.86523608496158, 6.826759214018077 ], [ 79.865152460300962, 6.826817721646872 ] ] ] ] } },
{ "type": "Feature", "properties": { "id": 166.0, "left": 399560.98812302755, "top": 481760.3994, "right": 399676.45817686548, "bottom": 481660.3994, "row_index": 5.0, "col_index": 8.0, "area": 2791, "1entropy_i": 0.183770323, "1average_c": 0.140342042, "1landuse_d": 0.1723, "1normalize": 0.275715237, "1normali_1": 0.140342042, "1normali_2": 0.1723, "1urban mat": 0.196119093 }, "geometry": { "type": "MultiPolygon", "coordinates": [ [ [ [ 79.865254716182733, 6.834214815711659 ], [ 79.865373336144131, 6.834293016475252 ], [ 79.865494355208909, 6.834367454577743 ], [ 79.865617653944582, 6.834438056555747 ], [ 79.865743110668603, 6.834504752731699 ], [ 79.865870601568574, 6.834567477282636 ], [ 79.866000000824357, 6.834626168305139 ], [ 79.866012686731409, 6.834631448422805 ], [ 79.866062251797132, 6.834546016492591 ], [ 79.86580195176677, 6.83409341803354 ], [ 79.865279640822465, 6.834092430190323 ], [ 79.865222016473311, 6.834191753106858 ], [ 79.865254716182733, 6.834214815711659 ] ] ] ] } },
{ "type": "Feature", "properties": { "id": 167.0, "left": 399560.98812302755, "top": 481660.3994, "right": 399676.45817686548, "bottom": 481560.3994, "row_index": 6.0, "col_index": 8.0, "area": 8659, "1entropy_i": 0.151365312, "1average_c": 0.249470118, "1landuse_d": 0.1351, "1normalize": 0.227097184, "1normali_1": 0.249470118, "1normali_2": 0.1351, "1urban mat": 0.203889101 }, "geometry": { "type": "MultiPolygon", "coordinates": [ [ [ [ 79.865019341773134, 6.833639831429426 ], [ 79.865279640822465, 6.834092430190323 ], [ 79.86580195176677, 6.83409341803354 ], [ 79.866063962680741, 6.83364180698451 ], [ 79.865803663025503, 6.83318920857391 ], [ 79.865281353062173, 6.833188220862039 ], [ 79.865019341773134, 6.833639831429426 ] ] ] ] } },
{ "type": "Feature", "properties": { "id": 168.0, "left": 399560.98812302755, "top": 481560.3994, "right": 399676.45817686548, "bottom": 481460.3994, "row_index": 7.0, "col_index": 8.0, "area": 8659, "1entropy_i": 0.318447367, "1average_c": 0.014696111, "1landuse_d": 0.1061, "1normalize": 0.477774593, "1normali_1": 0.014696111, "1normali_2": 0.1061, "1urban mat": 0.199523568 }, "geometry": { "type": "MultiPolygon", "coordinates": [ [ [ [ 79.865021054387839, 6.832735622149651 ], [ 79.865281353062173, 6.833188220862039 ], [ 79.865803663025503, 6.83318920857391 ], [ 79.866065673333608, 6.832737597442053 ], [ 79.865805374053423, 6.832284999079911 ], [ 79.86528306507094, 6.832284011499378 ], [ 79.865021054387839, 6.832735622149651 ] ] ] ] } },
{ "type": "Feature", "properties": { "id": 169.0, "left": 399560.98812302755, "top": 481460.3994, "right": 399676.45817686548, "bottom": 481360.3994, "row_index": 8.0, "col_index": 8.0, "area": 8659, "1entropy_i": 0.266902593, "1average_c": 0.009478203, "1landuse_d": 0.1018, "1normalize": 0.400440672, "1normali_1": 0.009478203, "1normali_2": 0.1018, "1urban mat": 0.170572958 }, "geometry": { "type": "MultiPolygon", "coordinates": [ [ [ [ 79.865022766771517, 6.831831412835505 ], [ 79.86528306507094, 6.832284011499378 ], [ 79.865805374053423, 6.832284999079911 ], [ 79.866067383755706, 6.831833387865222 ], [ 79.865807084850516, 6.831380789551537 ], [ 79.865284776848753, 6.831379802102345 ], [ 79.865022766771517, 6.831831412835505 ] ] ] ] } },
{ "type": "Feature", "properties": { "id": 170.0, "left": 399560.98812302755, "top": 481360.3994, "right": 399676.45817686548, "bottom": 481260.3994, "row_index": 9.0, "col_index": 8.0, "area": 8659, "1entropy_i": 0.063839152, "1average_c": 0.016772988, "1landuse_d": 0.1485, "1normalize": 0.095779486, "1normali_1": 0.016772988, "1normali_2": 0.1485, "1urban mat": 0.087017491 }, "geometry": { "type": "MultiPolygon", "coordinates": [ [ [ [ 79.865024478924198, 6.830927203486989 ], [ 79.865284776848753, 6.831379802102345 ], [ 79.865807084850516, 6.831380789551537 ], [ 79.866069093947075, 6.83092917825403 ], [ 79.865808795416783, 6.830476579988802 ], [ 79.865286488395611, 6.83047559267095 ], [ 79.865024478924198, 6.830927203486989 ] ] ] ] } },
{ "type": "Feature", "properties": { "id": 171.0, "left": 399560.98812302755, "top": 481260.3994, "right": 399676.45817686548, "bottom": 481160.3994, "row_index": 10.0, "col_index": 8.0, "area": 8659, "1entropy_i": 0.04808799, "1average_c": 0.008385351, "1landuse_d": 0.1022, "1normalize": 0.07214762, "1normali_1": 0.008385351, "1normali_2": 0.1022, "1urban mat": 0.06091099 }, "geometry": { "type": "MultiPolygon", "coordinates": [ [ [ [ 79.865026190845839, 6.830022994104112 ], [ 79.865286488395611, 6.83047559267095 ], [ 79.865808795416783, 6.830476579988802 ], [ 79.866070803907689, 6.830024968608467 ], [ 79.86581050575225, 6.829572370391703 ], [ 79.865288199711543, 6.829571383205193 ], [ 79.865026190845839, 6.830022994104112 ] ] ] ] } },
{ "type": "Feature", "properties": { "id": 172.0, "left": 399560.98812302755, "top": 481160.3994, "right": 399676.45817686548, "bottom": 481060.3994, "row_index": 11.0, "col_index": 8.0, "area": 8659, "1entropy_i": 0.056102854, "1average_c": 0.002925669, "1landuse_d": 0.1078, "1normalize": 0.084172523, "1normali_1": 0.002925669, "1normali_2": 0.1078, "1urban mat": 0.064966064 }, "geometry": { "type": "MultiPolygon", "coordinates": [ [ [ [ 79.865027902536497, 6.829118784686869 ], [ 79.865288199711543, 6.829571383205193 ], [ 79.86581050575225, 6.829572370391703 ], [ 79.866072513637562, 6.829120758928553 ], [ 79.86581221585692, 6.82866816076025 ], [ 79.86528991079652, 6.828667173705082 ], [ 79.865027902536497, 6.829118784686869 ] ] ] ] } },
{ "type": "Feature", "properties": { "id": 173.0, "left": 399560.98812302755, "top": 481060.3994, "right": 399676.45817686548, "bottom": 480960.3994, "row_index": 12.0, "col_index": 8.0, "area": 8659, "1entropy_i": 0.0, "1average_c": 0.010217493, "1landuse_d": 0.1172, "1normalize": 0.0, "1normali_1": 0.010217493, "1normali_2": 0.1172, "1urban mat": 0.042472498 }, "geometry": { "type": "MultiPolygon", "coordinates": [ [ [ [ 79.865029613996143, 6.828214575235278 ], [ 79.86528991079652, 6.828667173705082 ], [ 79.86581221585692, 6.82866816076025 ], [ 79.866074223136678, 6.828216549214278 ], [ 79.865813925730762, 6.827763951094443 ], [ 79.86529162165057, 6.827762964170612 ], [ 79.865029613996143, 6.828214575235278 ] ] ] ] } },
{ "type": "Feature", "properties": { "id": 174.0, "left": 399560.98812302755, "top": 480960.3994, "right": 399676.45817686548, "bottom": 480860.3994, "row_index": 13.0, "col_index": 8.0, "area": 8659, "1entropy_i": 0.156730019, "1average_c": 0.074583102, "1landuse_d": 0.1217, "1normalize": 0.235145989, "1normali_1": 0.074583102, "1normali_2": 0.1217, "1urban mat": 0.143809697 }, "geometry": { "type": "MultiPolygon", "coordinates": [ [ [ [ 79.865031325224777, 6.827310365749331 ], [ 79.86529162165057, 6.827762964170612 ], [ 79.865813925730762, 6.827763951094443 ], [ 79.866075932405067, 6.827312339465658 ], [ 79.865815635373806, 6.826859741394293 ], [ 79.86529333227368, 6.826858754601796 ], [ 79.865031325224777, 6.827310365749331 ] ] ] ] } },
{ "type": "Feature", "properties": { "id": 175.0, "left": 399560.98812302755, "top": 480860.3994, "right": 399676.45817686548, "bottom": 480760.3994, "row_index": 14.0, "col_index": 8.0, "area": 2791, "1entropy_i": 0.156730019, "1average_c": 0.191713502, "1landuse_d": 0.0949, "1normalize": 0.235145989, "1normali_1": 0.191713502, "1normali_2": 0.0949, "1urban mat": 0.17391983 }, "geometry": { "type": "MultiPolygon", "coordinates": [ [ [ [ 79.866015695136937, 6.826327742600515 ], [ 79.865886077009549, 6.826385944234503 ], [ 79.865758351868749, 6.826448186512486 ], [ 79.865632645761011, 6.826514408010051 ], [ 79.865509082740402, 6.826584543375875 ], [ 79.865387784746275, 6.826658523396212 ], [ 79.865268871482797, 6.826736275063197 ], [ 79.86523608496158, 6.826759214018077 ], [ 79.86529333227368, 6.826858754601796 ], [ 79.865815635373806, 6.826859741394293 ], [ 79.866077641442729, 6.826408129682694 ], [ 79.866028400426913, 6.826322510568992 ], [ 79.866015695136937, 6.826327742600515 ] ] ] ] } },
{ "type": "Feature", "properties": { "id": 185.0, "left": 399647.59066340601, "top": 481810.3994, "right": 399763.06071724393, "bottom": 481710.3994, "row_index": 4.0, "col_index": 9.0, "area": 1664, "1entropy_i": 0.0, "1average_c": 0.24908809, "1landuse_d": 0.1054, "1normalize": 0.0, "1normali_1": 0.24908809, "1normali_2": 0.1054, "1urban mat": 0.118162697 }, "geometry": { "type": "MultiPolygon", "coordinates": [ [ [ [ 79.86613118073231, 6.834680767876455 ], [ 79.866264011831305, 6.834731222111659 ], [ 79.866398363030413, 6.834777481216835 ], [ 79.866534101738495, 6.834819499538227 ], [ 79.866671093994839, 6.834857235607304 ], [ 79.866777840074349, 6.834883063376159 ], [ 79.866584563347388, 6.834547003552226 ], [ 79.866062251797132, 6.834546016492591 ], [ 79.866012686731409, 6.834631448422805 ], [ 79.86613118073231, 6.834680767876455 ] ] ] ] } },
{ "type": "Feature", "properties": { "id": 186.0, "left": 399647.59066340601, "top": 481710.3994, "right": 399763.06071724393, "bottom": 481610.3994, "row_index": 5.0, "col_index": 9.0, "area": 8659, "1entropy_i": 0.156233946, "1average_c": 0.133990953, "1landuse_d": 0.1361, "1normalize": 0.234401718, "1normali_1": 0.133990953, "1normali_2": 0.1361, "1urban mat": 0.168164223 }, "geometry": { "type": "MultiPolygon", "coordinates": [ [ [ [ 79.86580195176677, 6.83409341803354 ], [ 79.866062251797132, 6.834546016492591 ], [ 79.866584563347388, 6.834547003552226 ], [ 79.866846573886193, 6.834095392021586 ], [ 79.866586273249951, 6.833642793912918 ], [ 79.866063962680741, 6.83364180698451 ], [ 79.86580195176677, 6.83409341803354 ] ] ] ] } },
{ "type": "Feature", "properties": { "id": 187.0, "left": 399647.59066340601, "top": 481610.3994, "right": 399763.06071724393, "bottom": 481510.3994, "row_index": 6.0, "col_index": 9.0, "area": 8659, "1entropy_i": 0.417302914, "1average_c": 0.13071064, "1landuse_d": 0.2181, "1normalize": 0.626090057, "1normali_1": 0.13071064, "1normali_2": 0.2181, "1urban mat": 0.324966899 }, "geometry": { "type": "MultiPolygon", "coordinates": [ [ [ [ 79.865803663025503, 6.83318920857391 ], [ 79.866063962680741, 6.83364180698451 ], [ 79.866586273249951, 6.833642793912918 ], [ 79.866848283182932, 6.833191182299504 ], [ 79.866587982921885, 6.832738584239232 ], [ 79.866065673333608, 6.832737597442053 ], [ 79.865803663025503, 6.83318920857391 ] ] ] ] } },
{ "type": "Feature", "properties": { "id": 188.0, "left": 399647.59066340601, "top": 481510.3994, "right": 399763.06071724393, "bottom": 481410.3994, "row_index": 7.0, "col_index": 9.0, "area": 8659, "1entropy_i": 0.499532364, "1average_c": 0.075057978, "1landuse_d": 0.1937, "1normalize": 0.749460968, "1normali_1": 0.075057978, "1normali_2": 0.1937, "1urban mat": 0.339406316 }, "geometry": { "type": "MultiPolygon", "coordinates": [ [ [ [ 79.865805374053423, 6.832284999079911 ], [ 79.866065673333608, 6.832737597442053 ], [ 79.866587982921885, 6.832738584239232 ], [ 79.866849992249129, 6.832286972543047 ], [ 79.866589692363206, 6.831834374531177 ], [ 79.866067383755706, 6.831833387865222 ], [ 79.865805374053423, 6.832284999079911 ] ] ] ] } },
{ "type": "Feature", "properties": { "id": 189.0, "left": 399647.59066340601, "top": 481410.3994, "right": 399763.06071724393, "bottom": 481310.3994, "row_index": 8.0, "col_index": 9.0, "area": 8659, "1entropy_i": 0.142427492, "1average_c": 0.015705725, "1landuse_d": 0.1511, "1normalize": 0.213687548, "1normali_1": 0.015705725, "1normali_2": 0.1511, "1urban mat": 0.126831091 }, "geometry": { "type": "MultiPolygon", "coordinates": [ [ [ [ 79.865807084850516, 6.831380789551537 ], [ 79.866067383755706, 6.831833387865222 ], [ 79.866589692363206, 6.831834374531177 ], [ 79.866851701084798, 6.831382762752217 ], [ 79.866591401573913, 6.830930164788755 ], [ 79.866069093947075, 6.83092917825403 ], [ 79.865807084850516, 6.831380789551537 ] ] ] ] } },
{ "type": "Feature", "properties": { "id": 190.0, "left": 399647.59066340601, "top": 481310.3994, "right": 399763.06071724393, "bottom": 481210.3994, "row_index": 9.0, "col_index": 9.0, "area": 8659, "1entropy_i": 0.0, "1average_c": 0.009930753, "1landuse_d": 0.1335, "1normalize": 0.0, "1normali_1": 0.009930753, "1normali_2": 0.1335, "1urban mat": 0.047810251 }, "geometry": { "type": "MultiPolygon", "coordinates": [ [ [ [ 79.865808795416783, 6.830476579988802 ], [ 79.866069093947075, 6.83092917825403 ], [ 79.866591401573913, 6.830930164788755 ], [ 79.866853409689895, 6.830478552927032 ], [ 79.866593110554007, 6.830025955011969 ], [ 79.866070803907689, 6.830024968608467 ], [ 79.865808795416783, 6.830476579988802 ] ] ] ] } },
{ "type": "Feature", "properties": { "id": 191.0, "left": 399647.59066340601, "top": 481210.3994, "right": 399763.06071724393, "bottom": 481110.3994, "row_index": 10.0, "col_index": 9.0, "area": 8659, "1entropy_i": 0.0, "1average_c": 0.009371629, "1landuse_d": 0.1399, "1normalize": 0.0, "1normali_1": 0.009371629, "1normali_2": 0.1399, "1urban mat": 0.04975721 }, "geometry": { "type": "MultiPolygon", "coordinates": [ [ [ [ 79.86581050575225, 6.829572370391703 ], [ 79.866070803907689, 6.830024968608467 ], [ 79.866593110554007, 6.830025955011969 ], [ 79.866855118064436, 6.829574343067481 ], [ 79.866594819303486, 6.829121745200824 ], [ 79.866072513637562, 6.829120758928553 ], [ 79.86581050575225, 6.829572370391703 ] ] ] ] } },
{ "type": "Feature", "properties": { "id": 192.0, "left": 399647.59066340601, "top": 481110.3994, "right": 399763.06071724393, "bottom": 481010.3994, "row_index": 11.0, "col_index": 9.0, "area": 8659, "1entropy_i": 0.020536474, "1average_c": 0.014184052, "1landuse_d": 0.1044, "1normalize": 0.030811388, "1normali_1": 0.014184052, "1normali_2": 0.1044, "1urban mat": 0.04979848 }, "geometry": { "type": "MultiPolygon", "coordinates": [ [ [ [ 79.86581221585692, 6.82866816076025 ], [ 79.866072513637562, 6.829120758928553 ], [ 79.866594819303486, 6.829121745200824 ], [ 79.866856826208476, 6.828670133173577 ], [ 79.866596527822338, 6.828217535355333 ], [ 79.866074223136678, 6.828216549214278 ], [ 79.86581221585692, 6.82866816076025 ] ] ] ] } },
{ "type": "Feature", "properties": { "id": 193.0, "left": 399647.59066340601, "top": 481010.3994, "right": 399763.06071724393, "bottom": 480910.3994, "row_index": 12.0, "col_index": 9.0, "area": 8659, "1entropy_i": 0.040727039, "1average_c": 0.012665476, "1landuse_d": 0.1548, "1normalize": 0.061103801, "1normali_1": 0.012665476, "1normali_2": 0.1548, "1urban mat": 0.076189759 }, "geometry": { "type": "MultiPolygon", "coordinates": [ [ [ [ 79.865813925730762, 6.827763951094443 ], [ 79.866074223136678, 6.828216549214278 ], [ 79.866596527822338, 6.828217535355333 ], [ 79.866858534121931, 6.827765923245322 ], [ 79.866598236110619, 6.827313325475484 ], [ 79.866075932405067, 6.827312339465658 ], [ 79.865813925730762, 6.827763951094443 ] ] ] ] } },
{ "type": "Feature", "properties": { "id": 194.0, "left": 399647.59066340601, "top": 480910.3994, "right": 399763.06071724393, "bottom": 480810.3994, "row_index": 13.0, "col_index": 9.0, "area": 8659, "1entropy_i": 0.018313658, "1average_c": 0.060899634, "1landuse_d": 0.1069, "1normalize": 0.027476442, "1normali_1": 0.060899634, "1normali_2": 0.1069, "1urban mat": 0.065092025 }, "geometry": { "type": "MultiPolygon", "coordinates": [ [ [ [ 79.865815635373806, 6.826859741394293 ], [ 79.866075932405067, 6.827312339465658 ], [ 79.866598236110619, 6.827313325475484 ], [ 79.866860241804872, 6.826861713282718 ], [ 79.866599944168271, 6.826409115561294 ], [ 79.866077641442729, 6.826408129682694 ], [ 79.865815635373806, 6.826859741394293 ] ] ] ] } },
{ "type": "Feature", "properties": { "id": 195.0, "left": 399647.59066340601, "top": 480810.3994, "right": 399763.06071724393, "bottom": 480710.3994, "row_index": 14.0, "col_index": 9.0, "area": 1664, "1entropy_i": 0.0, "1average_c": 0.016306263, "1landuse_d": 0.1227, "1normalize": 0.0, "1normali_1": 0.016306263, "1normali_2": 0.1227, "1urban mat": 0.046335421 }, "geometry": { "type": "MultiPolygon", "coordinates": [ [ [ [ 79.866687645304268, 6.826099211756321 ], [ 79.866550513866883, 6.826136430267118 ], [ 79.866414619713623, 6.826177935657688 ], [ 79.866280096952096, 6.826223686967869 ], [ 79.866147078336525, 6.826273639047409 ], [ 79.866028400426913, 6.826322510568992 ], [ 79.866077641442729, 6.826408129682694 ], [ 79.866599944168271, 6.826409115561294 ], [ 79.866794486690566, 6.82607378710142 ], [ 79.866687645304268, 6.826099211756321 ] ] ] ] } },
{ "type": "Feature", "properties": { "id": 206.0, "left": 399734.19320378441, "top": 481760.3994, "right": 399849.66325762233, "bottom": 481660.3994, "row_index": 5.0, "col_index": 10.0, "area": 8260, "1entropy_i": 0.338901088, "1average_c": 1.0, "1landuse_d": 0.1767, "1normalize": 0.508461825, "1normali_1": 1.0, "1normali_2": 0.1767, "1urban mat": 0.561720608 }, "geometry": { "type": "MultiPolygon", "coordinates": [ [ [ [ 79.866809204601509, 6.834890652181675 ], [ 79.866948297256727, 6.834919716281871 ], [ 79.867088234689419, 6.834944399223888 ], [ 79.867228878794705, 6.834964676647473 ], [ 79.867370090770194, 6.834980528540224 ], [ 79.867378424821766, 6.834981199941979 ], [ 79.867629186678485, 6.834548975973014 ], [ 79.867368885061182, 6.834096378166421 ], [ 79.866846573886193, 6.834095392021586 ], [ 79.866584563347388, 6.834547003552226 ], [ 79.866777840074349, 6.834883063376159 ], [ 79.866809204601509, 6.834890652181675 ] ] ] ] } },
{ "type": "Feature", "properties": { "id": 207.0, "left": 399734.19320378441, "top": 481660.3994, "right": 399849.66325762233, "bottom": 481560.3994, "row_index": 6.0, "col_index": 10.0, "area": 8659, "1entropy_i": 0.281197854, "1average_c": 0.672964605, "1landuse_d": 0.1581, "1normalize": 0.421888212, "1normali_1": 0.672964605, "1normali_2": 0.1581, "1urban mat": 0.417650939 }, "geometry": { "type": "MultiPolygon", "coordinates": [ [ [ [ 79.866586273249951, 6.833642793912918 ], [ 79.866846573886193, 6.834095392021586 ], [ 79.867368885061182, 6.834096378166421 ], [ 79.867630894618941, 6.833644766071472 ], [ 79.867370593376961, 6.833192168313222 ], [ 79.866848283182932, 6.833191182299504 ], [ 79.866586273249951, 6.833642793912918 ] ] ] ] } },
{ "type": "Feature", "properties": { "id": 208.0, "left": 399734.19320378441, "top": 481560.3994, "right": 399849.66325762233, "bottom": 481460.3994, "row_index": 7.0, "col_index": 10.0, "area": 8659, "1entropy_i": 0.261268283, "1average_c": 0.371208835, "1landuse_d": 0.1824, "1normalize": 0.391987375, "1normali_1": 0.371208835, "1normali_2": 0.1824, "1urban mat": 0.315198737 }, "geometry": { "type": "MultiPolygon", "coordinates": [ [ [ [ 79.866587982921885, 6.832738584239232 ], [ 79.866848283182932, 6.833191182299504 ], [ 79.867370593376961, 6.833192168313222 ], [ 79.867632602329024, 6.832740556135559 ], [ 79.867372301462311, 6.832287958425651 ], [ 79.866849992249129, 6.832286972543047 ], [ 79.866587982921885, 6.832738584239232 ] ] ] ] } },
{ "type": "Feature", "properties": { "id": 209.0, "left": 399734.19320378441, "top": 481460.3994, "right": 399849.66325762233, "bottom": 481360.3994, "row_index": 8.0, "col_index": 10.0, "area": 8659, "1entropy_i": 0.318244769, "1average_c": 0.4085315, "1landuse_d": 0.1162, "1normalize": 0.47747063, "1normali_1": 0.4085315, "1normali_2": 0.1162, "1urban mat": 0.334067377 }, "geometry": { "type": "MultiPolygon", "coordinates": [ [ [ [ 79.866589692363206, 6.831834374531177 ], [ 79.866849992249129, 6.832286972543047 ], [ 79.867372301462311, 6.832287958425651 ], [ 79.867634309808764, 6.831836346165274 ], [ 79.867374009317217, 6.831383748503712 ], [ 79.866851701084798, 6.831382762752217 ], [ 79.866589692363206, 6.831834374531177 ] ] ] ] } },
{ "type": "Feature", "properties": { "id": 210.0, "left": 399734.19320378441, "top": 481360.3994, "right": 399849.66325762233, "bottom": 481260.3994, "row_index": 9.0, "col_index": 10.0, "area": 8659, "1entropy_i": 0.165170047, "1average_c": 0.285034631, "1landuse_d": 0.1804, "1normalize": 0.247808775, "1normali_1": 0.285034631, "1normali_2": 0.1804, "1urban mat": 0.237747802 }, "geometry": { "type": "MultiPolygon", "coordinates": [ [ [ [ 79.866591401573913, 6.830930164788755 ], [ 79.866851701084798, 6.831382762752217 ], [ 79.867374009317217, 6.831383748503712 ], [ 79.867636017058146, 6.830932136160627 ], [ 79.867375716941737, 6.830479538547408 ], [ 79.866853409689895, 6.830478552927032 ], [ 79.866591401573913, 6.830930164788755 ] ] ] ] } },
{ "type": "Feature", "properties": { "id": 211.0, "left": 399734.19320378441, "top": 481260.3994, "right": 399849.66325762233, "bottom": 481160.3994, "row_index": 10.0, "col_index": 10.0, "area": 8659, "1entropy_i": 0.248101228, "1average_c": 0.018888392, "1landuse_d": 0.1511, "1normalize": 0.372232511, "1normali_1": 0.018888392, "1normali_2": 0.1511, "1urban mat": 0.180740301 }, "geometry": { "type": "MultiPolygon", "coordinates": [ [ [ [ 79.866593110554007, 6.830025955011969 ], [ 79.866853409689895, 6.830478552927032 ], [ 79.867375716941737, 6.830479538547408 ], [ 79.867637724077198, 6.830027926121613 ], [ 79.867377424335842, 6.829575328556748 ], [ 79.866855118064436, 6.829574343067481 ], [ 79.866593110554007, 6.830025955011969 ] ] ] ] } },
{ "type": "Feature", "properties": { "id": 212.0, "left": 399734.19320378441, "top": 481160.3994, "right": 399849.66325762233, "bottom": 481060.3994, "row_index": 11.0, "col_index": 10.0, "area": 8659, "1entropy_i": 0.0, "1average_c": 0.018234937, "1landuse_d": 0.0515, "1normalize": 0.0, "1normali_1": 0.018234937, "1normali_2": 0.0515, "1urban mat": 0.023244979 }, "geometry": { "type": "MultiPolygon", "coordinates": [ [ [ [ 79.866594819303486, 6.829121745200824 ], [ 79.866855118064436, 6.829574343067481 ], [ 79.867377424335842, 6.829575328556748 ], [ 79.867639430865879, 6.829123716048247 ], [ 79.867379131499519, 6.82867111853173 ], [ 79.866856826208476, 6.828670133173577 ], [ 79.866594819303486, 6.829121745200824 ] ] ] ] } },
{ "type": "Feature", "properties": { "id": 213.0, "left": 399734.19320378441, "top": 481060.3994, "right": 399849.66325762233, "bottom": 480960.3994, "row_index": 12.0, "col_index": 10.0, "area": 8659, "1entropy_i": 0.014721568, "1average_c": 0.013191899, "1landuse_d": 0.1501, "1normalize": 0.022087139, "1normali_1": 0.013191899, "1normali_2": 0.1501, "1urban mat": 0.061793013 }, "geometry": { "type": "MultiPolygon", "coordinates": [ [ [ [ 79.866596527822338, 6.828217535355333 ], [ 79.866856826208476, 6.828670133173577 ], [ 79.867379131499519, 6.82867111853173 ], [ 79.867641137424258, 6.828219505940523 ], [ 79.867380838432823, 6.827766908472364 ], [ 79.866858534121931, 6.827765923245322 ], [ 79.866596527822338, 6.828217535355333 ] ] ] ] } },
{ "type": "Feature", "properties": { "id": 214.0, "left": 399734.19320378441, "top": 480960.3994, "right": 399849.66325762233, "bottom": 480860.3994, "row_index": 13.0, "col_index": 10.0, "area": 8659, "1entropy_i": 0.095882395, "1average_c": 0.155488589, "1landuse_d": 0.1047, "1normalize": 0.143854769, "1normali_1": 0.155488589, "1normali_2": 0.1047, "1urban mat": 0.134681119 }, "geometry": { "type": "MultiPolygon", "coordinates": [ [ [ [ 79.866598236110619, 6.827313325475484 ], [ 79.866858534121931, 6.827765923245322 ], [ 79.867380838432823, 6.827766908472364 ], [ 79.867642843752279, 6.827315295798457 ], [ 79.867382545135683, 6.826862698378648 ], [ 79.866860241804872, 6.826861713282718 ], [ 79.866598236110619, 6.827313325475484 ] ] ] ] } },
{ "type": "Feature", "properties": { "id": 215.0, "left": 399734.19320378441, "top": 480860.3994, "right": 399849.66325762233, "bottom": 480760.3994, "row_index": 14.0, "col_index": 10.0, "area": 8260, "1entropy_i": 0.19362816, "1average_c": 0.539312491, "1landuse_d": 0.0927, "1normalize": 0.290505198, "1normali_1": 0.539312491, "1normali_2": 0.0927, "1urban mat": 0.307505896 }, "geometry": { "type": "MultiPolygon", "coordinates": [ [ [ [ 79.867387090029709, 6.825978557957072 ], [ 79.867245821822664, 6.825993876914493 ], [ 79.867105104733824, 6.826013623433227 ], [ 79.866965077630041, 6.826037778025881 ], [ 79.866825878697298, 6.826066316854948 ], [ 79.866794486690566, 6.826073787101421 ], [ 79.866599944168271, 6.826409115561294 ], [ 79.866860241804872, 6.826861713282718 ], [ 79.867382545135683, 6.826862698378648 ], [ 79.867644549849942, 6.826411085622043 ], [ 79.86739542607107, 6.825977918029127 ], [ 79.867387090029709, 6.825978557957072 ] ] ] ] } },
{ "type": "Feature", "properties": { "id": 225.0, "left": 399820.79574416287, "top": 481810.3994, "right": 399936.26579800079, "bottom": 481710.3994, "row_index": 4.0, "col_index": 11.0, "area": 4191, "1entropy_i": 0.297283643, "1average_c": 0.905902903, "1landuse_d": 0.1631, "1normalize": 0.446022126, "1normali_1": 0.905902903, "1normali_2": 0.1631, "1urban mat": 0.505008343 }, "geometry": { "type": "MultiPolygon", "coordinates": [ [ [ [ 79.867511731252961, 6.834991939257296 ], [ 79.867653660457151, 6.834998897536864 ], [ 79.867795738311898, 6.83500139651124 ], [ 79.867937824599522, 6.834999433713645 ], [ 79.868079779094131, 6.834993011080669 ], [ 79.868221461699719, 6.834982134950316 ], [ 79.868362732588722, 6.834966816055809 ], [ 79.868389115070173, 6.834963113929579 ], [ 79.868151498459241, 6.834549961334156 ], [ 79.867629186678485, 6.834548975973014 ], [ 79.867378424821766, 6.834981199941979 ], [ 79.867511731252961, 6.834991939257296 ] ] ] ] } },
{ "type": "Feature", "properties": { "id": 226.0, "left": 399820.79574416287, "top": 481710.3994, "right": 399936.26579800079, "bottom": 481610.3994, "row_index": 5.0, "col_index": 11.0, "area": 8659, "1entropy_i": 0.297283643, "1average_c": 0.805902903, "1landuse_d": 0.1954, "1normalize": 0.446022126, "1normali_1": 0.805902903, "1normali_2": 0.1954, "1urban mat": 0.482441677 }, "geometry": { "type": "MultiPolygon", "coordinates": [ [ [ [ 79.867368885061182, 6.834096378166421 ], [ 79.867629186678485, 6.834548975973014 ], [ 79.868151498459241, 6.834549961334156 ], [ 79.868413507641577, 6.834098348757707 ], [ 79.868153205418622, 6.833645751301618 ], [ 79.867630894618941, 6.833644766071472 ], [ 79.867368885061182, 6.834096378166421 ] ] ] ] } },
{ "type": "Feature", "properties": { "id": 227.0, "left": 399820.79574416287, "top": 481610.3994, "right": 399936.26579800079, "bottom": 481510.3994, "row_index": 6.0, "col_index": 11.0, "area": 8659, "1entropy_i": 0.350951866, "1average_c": 0.176108641, "1landuse_d": 0.1065, "1normalize": 0.526541911, "1normali_1": 0.176108641, "1normali_2": 0.1065, "1urban mat": 0.269716851 }, "geometry": { "type": "MultiPolygon", "coordinates": [ [ [ [ 79.867370593376961, 6.833192168313222 ], [ 79.867630894618941, 6.833644766071472 ], [ 79.868153205418622, 6.833645751301618 ], [ 79.868415213995362, 6.833194138642506 ], [ 79.868154912147787, 6.832741541234702 ], [ 79.867632602329024, 6.832740556135559 ], [ 79.867370593376961, 6.833192168313222 ] ] ] ] } },
{ "type": "Feature", "properties": { "id": 228.0, "left": 399820.79574416287, "top": 481510.3994, "right": 399936.26579800079, "bottom": 481410.3994, "row_index": 7.0, "col_index": 11.0, "area": 8659, "1entropy_i": 0.484259753, "1average_c": 0.905902903, "1landuse_d": 0.0862, "1normalize": 0.726547086, "1normali_1": 0.905902903, "1normali_2": 0.0862, "1urban mat": 0.57288333 }, "geometry": { "type": "MultiPolygon", "coordinates": [ [ [ [ 79.867372301462311, 6.832287958425651 ], [ 79.867632602329024, 6.832740556135559 ], [ 79.868154912147787, 6.832741541234702 ], [ 79.868416920119003, 6.832289928492937 ], [ 79.868156618646736, 6.831837331133418 ], [ 79.867634309808764, 6.831836346165274 ], [ 79.867372301462311, 6.832287958425651 ] ] ] ] } },
{ "type": "Feature", "properties": { "id": 229.0, "left": 399820.79574416287, "top": 481410.3994, "right": 399936.26579800079, "bottom": 481310.3994, "row_index": 8.0, "col_index": 11.0, "area": 8659, "1entropy_i": 0.410783012, "1average_c": 0.672250496, "1landuse_d": 0.1062, "1normalize": 0.616308084, "1normali_1": 0.672250496, "1normali_2": 0.1062, "1urban mat": 0.464919527 }, "geometry": { "type": "MultiPolygon", "coordinates": [ [ [ [ 79.867374009317217, 6.831383748503712 ], [ 79.867634309808764, 6.831836346165274 ], [ 79.868156618646736, 6.831837331133418 ], [ 79.868418626012485, 6.831385718308994 ], [ 79.868158324915484, 6.830933120997766 ], [ 79.867636017058146, 6.830932136160627 ], [ 79.867374009317217, 6.831383748503712 ] ] ] ] } },
{ "type": "Feature", "properties": { "id": 230.0, "left": 399820.79574416287, "top": 481310.3994, "right": 399936.26579800079, "bottom": 481210.3994, "row_index": 9.0, "col_index": 11.0, "area": 8659, "1entropy_i": 0.455136412, "1average_c": 0.342242051, "1landuse_d": 0.1335, "1normalize": 0.682852604, "1normali_1": 0.342242051, "1normali_2": 0.1335, "1urban mat": 0.386198218 }, "geometry": { "type": "MultiPolygon", "coordinates": [ [ [ [ 79.867375716941737, 6.830479538547408 ], [ 79.867636017058146, 6.830932136160627 ], [ 79.868158324915484, 6.830933120997766 ], [ 79.868420331675821, 6.830481508090694 ], [ 79.868160030953987, 6.830028910827757 ], [ 79.867637724077198, 6.830027926121613 ], [ 79.867375716941737, 6.830479538547408 ] ] ] ] } },
{ "type": "Feature", "properties": { "id": 231.0, "left": 399820.79574416287, "top": 481210.3994, "right": 399936.26579800079, "bottom": 481110.3994, "row_index": 10.0, "col_index": 11.0, "area": 8659, "1entropy_i": 0.229129296, "1average_c": 0.344992083, "1landuse_d": 0.0879, "1normalize": 0.343768445, "1normali_1": 0.344992083, "1normali_2": 0.0879, "1urban mat": 0.258886843 }, "geometry": { "type": "MultiPolygon", "coordinates": [ [ [ [ 79.867377424335842, 6.829575328556748 ], [ 79.867637724077198, 6.830027926121613 ], [ 79.868160030953987, 6.830028910827757 ], [ 79.868422037108999, 6.829577297838032 ], [ 79.868161736762303, 6.829124700623389 ], [ 79.867639430865879, 6.829123716048247 ], [ 79.867377424335842, 6.829575328556748 ] ] ] ] } },
{ "type": "Feature", "properties": { "id": 232.0, "left": 399820.79574416287, "top": 481110.3994, "right": 399936.26579800079, "bottom": 481010.3994, "row_index": 11.0, "col_index": 11.0, "area": 8659, "1entropy_i": 0.1970523, "1average_c": 0.010194095, "1landuse_d": 0.0973, "1normalize": 0.295642521, "1normali_1": 0.010194095, "1normali_2": 0.0973, "1urban mat": 0.134378872 }, "geometry": { "type": "MultiPolygon", "coordinates": [ [ [ [ 79.867379131499519, 6.82867111853173 ], [ 79.867639430865879, 6.829123716048247 ], [ 79.868161736762303, 6.829124700623389 ], [ 79.868423742312032, 6.828673087551021 ], [ 79.868163442340389, 6.828220490384672 ], [ 79.867641137424258, 6.828219505940523 ], [ 79.867379131499519, 6.82867111853173 ] ] ] ] } },
{ "type": "Feature", "properties": { "id": 233.0, "left": 399820.79574416287, "top": 481010.3994, "right": 399936.26579800079, "bottom": 480910.3994, "row_index": 12.0, "col_index": 11.0, "area": 8659, "1entropy_i": 0.179754474, "1average_c": 0.008953238, "1landuse_d": 0.1149, "1normalize": 0.269690157, "1normali_1": 0.008953238, "1normali_2": 0.1149, "1urban mat": 0.131181132 }, "geometry": { "type": "MultiPolygon", "coordinates": [ [ [ [ 79.867380838432823, 6.827766908472364 ], [ 79.867641137424258, 6.828219505940523 ], [ 79.868163442340389, 6.828220490384672 ], [ 79.868425447284935, 6.827768877229651 ], [ 79.868165147688288, 6.827316280111607 ], [ 79.867642843752279, 6.827315295798457 ], [ 79.867380838432823, 6.827766908472364 ] ] ] ] } },
{ "type": "Feature", "properties": { "id": 234.0, "left": 399820.79574416287, "top": 480910.3994, "right": 399936.26579800079, "bottom": 480810.3994, "row_index": 13.0, "col_index": 11.0, "area": 8659, "1entropy_i": 0.101129892, "1average_c": 0.200692604, "1landuse_d": 0.099, "1normalize": 0.15172772, "1normali_1": 0.200692604, "1normali_2": 0.099, "1urban mat": 0.150473441 }, "geometry": { "type": "MultiPolygon", "coordinates": [ [ [ [ 79.867382545135683, 6.826862698378648 ], [ 79.867642843752279, 6.827315295798457 ], [ 79.868165147688288, 6.827316280111607 ], [ 79.868427152027678, 6.826864666873943 ], [ 79.868166852805956, 6.826412069804197 ], [ 79.867644549849942, 6.826411085622043 ], [ 79.867382545135683, 6.826862698378648 ] ] ] ] } },
{ "type": "Feature", "properties": { "id": 235.0, "left": 399820.79574416287, "top": 480810.3994, "right": 399936.26579800079, "bottom": 480710.3994, "row_index": 14.0, "col_index": 11.0, "area": 4191, "1entropy_i": 0.216809742, "1average_c": 0.008338387, "1landuse_d": 0.1364, "1normalize": 0.325285108, "1normali_1": 0.008338387, "1normali_2": 0.1364, "1urban mat": 0.156674498 }, "geometry": { "type": "MultiPolygon", "coordinates": [ [ [ [ 79.868379654498924, 6.825996013501177 ], [ 79.868238445047567, 6.825980162241124 ], [ 79.868096807142649, 6.825968752080353 ], [ 79.867954880559864, 6.825961794278502 ], [ 79.867812805359748, 6.825959295701361 ], [ 79.86767072174942, 6.825961258814142 ], [ 79.8675287699443, 6.825967681679026 ], [ 79.86739542607107, 6.825977918029127 ], [ 79.867644549849942, 6.826411085622043 ], [ 79.868166852805956, 6.826412069804197 ], [ 79.86840602265444, 6.825999815078417 ], [ 79.868379654498924, 6.825996013501177 ] ] ] ] } },
{ "type": "Feature", "properties": { "id": 246.0, "left": 399907.39828454127, "top": 481760.3994, "right": 400022.86833837925, "bottom": 481660.3994, "row_index": 5.0, "col_index": 12.0, "area": 7997, "1entropy_i": 0.0, "1average_c": 0.017073847, "1landuse_d": 0.112, "1normalize": 0.0, "1normali_1": 0.017073847, "1normali_2": 0.112, "1urban mat": 0.043024616 }, "geometry": { "type": "MultiPolygon", "coordinates": [ [ [ [ 79.868503452339837, 6.834947069514951 ], [ 79.868643482075711, 6.834922914815227 ], [ 79.868782683600017, 6.834894375794569 ], [ 79.868920919533807, 6.834861480617832 ], [ 79.869034401789733, 6.834830680938023 ], [ 79.869196122250912, 6.83455193035795 ], [ 79.868935819046882, 6.834099333204163 ], [ 79.868413507641577, 6.834098348757707 ], [ 79.868151498459241, 6.834549961334156 ], [ 79.868389115070173, 6.834963113929579 ], [ 79.868503452339837, 6.834947069514951 ] ] ] ] } },
{ "type": "Feature", "properties": { "id": 247.0, "left": 399907.39828454127, "top": 481660.3994, "right": 400022.86833837925, "bottom": 481560.3994, "row_index": 6.0, "col_index": 12.0, "area": 8659, "1entropy_i": 0.254416376, "1average_c": 0.018539621, "1landuse_d": 0.1574, "1normalize": 0.381707287, "1normali_1": 0.018539621, "1normali_2": 0.1574, "1urban mat": 0.185882303 }, "geometry": { "type": "MultiPolygon", "coordinates": [ [ [ [ 79.868153205418622, 6.833645751301618 ], [ 79.868413507641577, 6.834098348757707 ], [ 79.868935819046882, 6.834099333204163 ], [ 79.869197827248172, 6.833647720063635 ], [ 79.868937524419678, 6.833195122958077 ], [ 79.868415213995362, 6.833194138642506 ], [ 79.868153205418622, 6.833645751301618 ] ] ] ] } },
{ "type": "Feature", "properties": { "id": 248.0, "left": 399907.39828454127, "top": 481560.3994, "right": 400022.86833837925, "bottom": 481460.3994, "row_index": 7.0, "col_index": 12.0, "area": 8659, "1entropy_i": 0.040226103, "1average_c": 0.096754594, "1landuse_d": 0.0816, "1normalize": 0.060352234, "1normali_1": 0.096754594, "1normali_2": 0.0816, "1urban mat": 0.079568943 }, "geometry": { "type": "MultiPolygon", "coordinates": [ [ [ [ 79.868154912147787, 6.832741541234702 ], [ 79.868415213995362, 6.833194138642506 ], [ 79.868937524419678, 6.833195122958077 ], [ 79.8691995320155, 6.832743509734944 ], [ 79.868939229562443, 6.832290912677615 ], [ 79.868416920119003, 6.832289928492937 ], [ 79.868154912147787, 6.832741541234702 ] ] ] ] } },
{ "type": "Feature", "properties": { "id": 249.0, "left": 399907.39828454127, "top": 481460.3994, "right": 400022.86833837925, "bottom": 481360.3994, "row_index": 8.0, "col_index": 12.0, "area": 8659, "1entropy_i": 0.150201392, "1average_c": 0.01601413, "1landuse_d": 0.1012, "1normalize": 0.225350925, "1normali_1": 0.01601413, "1normali_2": 0.1012, "1urban mat": 0.114188352 }, "geometry": { "type": "MultiPolygon", "coordinates": [ [ [ [ 79.868156618646736, 6.831837331133418 ], [ 79.868416920119003, 6.832289928492937 ], [ 79.868939229562443, 6.832290912677615 ], [ 79.869201236552868, 6.831839299371884 ], [ 79.868940934475205, 6.831386702362789 ], [ 79.868418626012485, 6.831385718308994 ], [ 79.868156618646736, 6.831837331133418 ] ] ] ] } },
{ "type": "Feature", "properties": { "id": 250.0, "left": 399907.39828454127, "top": 481360.3994, "right": 400022.86833837925, "bottom": 481260.3994, "row_index": 9.0, "col_index": 12.0, "area": 8659, "1entropy_i": 0.312621718, "1average_c": 0.012328763, "1landuse_d": 0.0924, "1normalize": 0.469034225, "1normali_1": 0.012328763, "1normali_2": 0.0924, "1urban mat": 0.191254329 }, "geometry": { "type": "MultiPolygon", "coordinates": [ [ [ [ 79.868158324915484, 6.830933120997766 ], [ 79.868418626012485, 6.831385718308994 ], [ 79.868940934475205, 6.831386702362789 ], [ 79.869202940860276, 6.830935088974461 ], [ 79.868942639157936, 6.830482492013598 ], [ 79.868420331675821, 6.830481508090694 ], [ 79.868158324915484, 6.830933120997766 ] ] ] ] } },
{ "type": "Feature", "properties": { "id": 251.0, "left": 399907.39828454127, "top": 481260.3994, "right": 400022.86833837925, "bottom": 481160.3994, "row_index": 10.0, "col_index": 12.0, "area": 8659, "1entropy_i": 0.212498506, "1average_c": 0.018849984, "1landuse_d": 0.1237, "1normalize": 0.318816853, "1normali_1": 0.018849984, "1normali_2": 0.1237, "1urban mat": 0.153788945 }, "geometry": { "type": "MultiPolygon", "coordinates": [ [ [ [ 79.868160030953987, 6.830028910827757 ], [ 79.868420331675821, 6.830481508090694 ], [ 79.868942639157936, 6.830482492013598 ], [ 79.869204644937753, 6.830030878542677 ], [ 79.868944343610664, 6.829578281630048 ], [ 79.868422037108999, 6.829577297838032 ], [ 79.868160030953987, 6.830028910827757 ] ] ] ] } },
{ "type": "Feature", "properties": { "id": 252.0, "left": 399907.39828454127, "top": 481160.3994, "right": 400022.86833837925, "bottom": 481060.3994, "row_index": 11.0, "col_index": 12.0, "area": 8659, "1entropy_i": 0.270154299, "1average_c": 0.298477144, "1landuse_d": 0.0899, "1normalize": 0.405319289, "1normali_1": 0.298477144, "1normali_2": 0.0899, "1urban mat": 0.264565478 }, "geometry": { "type": "MultiPolygon", "coordinates": [ [ [ [ 79.868161736762303, 6.829124700623389 ], [ 79.868422037108999, 6.829577297838032 ], [ 79.868944343610664, 6.829578281630048 ], [ 79.869206348785269, 6.82912666807654 ], [ 79.868946047833376, 6.82867407121215 ], [ 79.868423742312032, 6.828673087551021 ], [ 79.868161736762303, 6.829124700623389 ] ] ] ] } },
{ "type": "Feature", "properties": { "id": 253.0, "left": 399907.39828454127, "top": 481060.3994, "right": 400022.86833837925, "bottom": 480960.3994, "row_index": 12.0, "col_index": 12.0, "area": 8659, "1entropy_i": 0.173013885, "1average_c": 0.382002277, "1landuse_d": 0.091, "1normalize": 0.259577083, "1normali_1": 0.382002277, "1normali_2": 0.091, "1urban mat": 0.24419312 }, "geometry": { "type": "MultiPolygon", "coordinates": [ [ [ [ 79.868163442340389, 6.828220490384672 ], [ 79.868423742312032, 6.828673087551021 ], [ 79.868946047833376, 6.82867407121215 ], [ 79.869208052402854, 6.828222457576048 ], [ 79.868947751826084, 6.8277698607599 ], [ 79.868425447284935, 6.827768877229651 ], [ 79.868163442340389, 6.828220490384672 ] ] ] ] } },
{ "type": "Feature", "properties": { "id": 254.0, "left": 399907.39828454127, "top": 480960.3994, "right": 400022.86833837925, "bottom": 480860.3994, "row_index": 13.0, "col_index": 12.0, "area": 8659, "1entropy_i": 0.090094879, "1average_c": 0.422011485, "1landuse_d": 0.1223, "1normalize": 0.135171613, "1normali_1": 0.422011485, "1normali_2": 0.1223, "1urban mat": 0.226494366 }, "geometry": { "type": "MultiPolygon", "coordinates": [ [ [ [ 79.868165147688288, 6.827316280111607 ], [ 79.868425447284935, 6.827768877229651 ], [ 79.868947751826084, 6.8277698607599 ], [ 79.869209755790479, 6.827318247041214 ], [ 79.868949455588776, 6.826865650273308 ], [ 79.868427152027678, 6.826864666873943 ], [ 79.868165147688288, 6.827316280111607 ] ] ] ] } },
{ "type": "Feature", "properties": { "id": 255.0, "left": 399907.39828454127, "top": 480860.3994, "right": 400022.86833837925, "bottom": 480760.3994, "row_index": 14.0, "col_index": 12.0, "area": 7997, "1entropy_i": 0.0, "1average_c": 0.012273417, "1landuse_d": 0.097, "1normalize": 0.0, "1normali_1": 0.012273417, "1normali_2": 0.097, "1urban mat": 0.036424472 }, "geometry": { "type": "MultiPolygon", "coordinates": [ [ [ [ 79.868937429934689, 6.826103451300838 ], [ 79.868799321540365, 6.826070035636918 ], [ 79.868660231189395, 6.826040972382468 ], [ 79.868520296143771, 6.826016290218168 ], [ 79.86840602265444, 6.825999815078417 ], [ 79.868166852805956, 6.826412069804197 ], [ 79.868427152027678, 6.826864666873943 ], [ 79.868949455588776, 6.826865650273308 ], [ 79.869211458948172, 6.826414036472038 ], [ 79.869050792801147, 6.826134678067224 ], [ 79.868937429934689, 6.826103451300838 ] ] ] ] } },
{ "type": "Feature", "properties": { "id": 265.0, "left": 399994.00082491979, "top": 481810.3994, "right": 400109.47087875771, "bottom": 481710.3994, "row_index": 4.0, "col_index": 13.0, "area": 1077, "1entropy_i": 0.0, "1average_c": 0.0, "1landuse_d": 0.1953, "1normalize": 0.0, "1normali_1": 0.0, "1normali_2": 0.1953, "1urban mat": 0.0651 }, "geometry": { "type": "MultiPolygon", "coordinates": [ [ [ [ 79.86905805345117, 6.834824261748985 ], [ 79.869193950013766, 6.834782755919102 ], [ 79.869328475104567, 6.83473700409007 ], [ 79.869461495960067, 6.834687051414189 ], [ 79.869592881301458, 6.834632947189616 ], [ 79.869722501464082, 6.83457474481167 ], [ 79.869729131651596, 6.834571513834633 ], [ 79.869718434261756, 6.834552914020598 ], [ 79.869196122250912, 6.83455193035795 ], [ 79.869034401789733, 6.834830680938023 ], [ 79.86905805345117, 6.834824261748985 ] ] ] ] } },
{ "type": "Feature", "properties": { "id": 266.0, "left": 399994.00082491979, "top": 481710.3994, "right": 400109.47087875771, "bottom": 481610.3994, "row_index": 5.0, "col_index": 13.0, "area": 8659, "1entropy_i": 0.0, "1average_c": 0.01487203, "1landuse_d": 0.108, "1normalize": 0.0, "1normali_1": 0.01487203, "1normali_2": 0.108, "1urban mat": 0.040957343 }, "geometry": { "type": "MultiPolygon", "coordinates": [ [ [ [ 79.868935819046882, 6.834099333204163 ], [ 79.869196122250912, 6.83455193035795 ], [ 79.869718434261756, 6.834552914020598 ], [ 79.869980442087467, 6.834101300398682 ], [ 79.86972013827797, 6.833648703595506 ], [ 79.869197827248172, 6.833647720063635 ], [ 79.868935819046882, 6.834099333204163 ] ] ] ] } },
{ "type": "Feature", "properties": { "id": 267.0, "left": 399994.00082491979, "top": 481610.3994, "right": 400109.47087875771, "bottom": 481510.3994, "row_index": 6.0, "col_index": 13.0, "area": 8659, "1entropy_i": 0.061788382, "1average_c": 0.057931876, "1landuse_d": 0.0876, "1normalize": 0.092702664, "1normali_1": 0.057931876, "1normali_2": 0.0876, "1urban mat": 0.079411513 }, "geometry": { "type": "MultiPolygon", "coordinates": [ [ [ [ 79.868937524419678, 6.833195122958077 ], [ 79.869197827248172, 6.833647720063635 ], [ 79.86972013827797, 6.833648703595506 ], [ 79.86998214549827, 6.833197089891045 ], [ 79.869721842064351, 6.832744493136043 ], [ 79.8691995320155, 6.832743509734944 ], [ 79.868937524419678, 6.833195122958077 ] ] ] ] } },
{ "type": "Feature", "properties": { "id": 268.0, "left": 399994.00082491979, "top": 481510.3994, "right": 400109.47087875771, "bottom": 481410.3994, "row_index": 7.0, "col_index": 13.0, "area": 8659, "1entropy_i": 0.036356343, "1average_c": 0.006267704, "1landuse_d": 0.0992, "1normalize": 0.054546336, "1normali_1": 0.006267704, "1normali_2": 0.0992, "1urban mat": 0.053338013 }, "geometry": { "type": "MultiPolygon", "coordinates": [ [ [ [ 79.868939229562443, 6.832290912677615 ], [ 79.8691995320155, 6.832743509734944 ], [ 79.869721842064351, 6.832744493136043 ], [ 79.869983848679311, 6.832292879349037 ], [ 79.869723545620928, 6.831840282642212 ], [ 79.869201236552868, 6.831839299371884 ], [ 79.868939229562443, 6.832290912677615 ] ] ] ] } },
{ "type": "Feature", "properties": { "id": 269.0, "left": 399994.00082491979, "top": 481410.3994, "right": 400109.47087875771, "bottom": 481310.3994, "row_index": 8.0, "col_index": 13.0, "area": 8659, "1entropy_i": 0.124768793, "1average_c": 0.010031915, "1landuse_d": 0.1606, "1normalize": 0.187193757, "1normali_1": 0.010031915, "1normali_2": 0.1606, "1urban mat": 0.119275224 }, "geometry": { "type": "MultiPolygon", "coordinates": [ [ [ [ 79.868940934475205, 6.831386702362789 ], [ 79.869201236552868, 6.831839299371884 ], [ 79.869723545620928, 6.831840282642212 ], [ 79.869985551630634, 6.831388668772664 ], [ 79.869725248947674, 6.830936072114014 ], [ 79.869202940860276, 6.830935088974461 ], [ 79.868940934475205, 6.831386702362789 ] ] ] ] } },
{ "type": "Feature", "properties": { "id": 270.0, "left": 399994.00082491979, "top": 481310.3994, "right": 400109.47087875771, "bottom": 481210.3994, "row_index": 9.0, "col_index": 13.0, "area": 8659, "1entropy_i": 0.03023148, "1average_c": 0.008859927, "1landuse_d": 0.0881, "1normalize": 0.04535705, "1normali_1": 0.008859927, "1normali_2": 0.0881, "1urban mat": 0.047438993 }, "geometry": { "type": "MultiPolygon", "coordinates": [ [ [ [ 79.868942639157936, 6.830482492013598 ], [ 79.869202940860276, 6.830935088974461 ], [ 79.869725248947674, 6.830936072114014 ], [ 79.869987254352168, 6.830484458161926 ], [ 79.869726952044616, 6.830031861551455 ], [ 79.869204644937753, 6.830030878542677 ], [ 79.868942639157936, 6.830482492013598 ] ] ] ] } },
{ "type": "Feature", "properties": { "id": 271.0, "left": 399994.00082491979, "top": 481210.3994, "right": 400109.47087875771, "bottom": 481110.3994, "row_index": 10.0, "col_index": 13.0, "area": 8659, "1entropy_i": 0.0, "1average_c": 0.098185112, "1landuse_d": 0.1055, "1normalize": 0.0, "1normali_1": 0.098185112, "1normali_2": 0.1055, "1urban mat": 0.067895037 }, "geometry": { "type": "MultiPolygon", "coordinates": [ [ [ [ 79.868944343610664, 6.829578281630048 ], [ 79.869204644937753, 6.830030878542677 ], [ 79.869726952044616, 6.830031861551455 ], [ 79.869988956843983, 6.829580247516838 ], [ 79.869728654911754, 6.829127650954547 ], [ 79.869206348785269, 6.82912666807654 ], [ 79.868944343610664, 6.829578281630048 ] ] ] ] } },
{ "type": "Feature", "properties": { "id": 272.0, "left": 399994.00082491979, "top": 481110.3994, "right": 400109.47087875771, "bottom": 481010.3994, "row_index": 11.0, "col_index": 13.0, "area": 8659, "1entropy_i": 0.1762411, "1average_c": 0.12524895, "1landuse_d": 0.1068, "1normalize": 0.264418955, "1normali_1": 0.12524895, "1normali_2": 0.1068, "1urban mat": 0.165489302 }, "geometry": { "type": "MultiPolygon", "coordinates": [ [ [ [ 79.868946047833376, 6.82867407121215 ], [ 79.869206348785269, 6.82912666807654 ], [ 79.869728654911754, 6.829127650954547 ], [ 79.869990659106037, 6.828676036837389 ], [ 79.869730357549074, 6.828223440323286 ], [ 79.869208052402854, 6.828222457576048 ], [ 79.868946047833376, 6.82867407121215 ] ] ] ] } },
{ "type": "Feature", "properties": { "id": 273.0, "left": 399994.00082491979, "top": 481010.3994, "right": 400109.47087875771, "bottom": 480910.3994, "row_index": 12.0, "col_index": 13.0, "area": 8659, "1entropy_i": 0.074938693, "1average_c": 0.143308728, "1landuse_d": 0.1044, "1normalize": 0.112432405, "1normali_1": 0.143308728, "1normali_2": 0.1044, "1urban mat": 0.120047044 }, "geometry": { "type": "MultiPolygon", "coordinates": [ [ [ [ 79.868947751826084, 6.8277698607599 ], [ 79.869208052402854, 6.828222457576048 ], [ 79.869730357549074, 6.828223440323286 ], [ 79.869992361138358, 6.827771826123596 ], [ 79.869732059956576, 6.827319229657679 ], [ 79.869209755790479, 6.827318247041214 ], [ 79.868947751826084, 6.8277698607599 ] ] ] ] } },
{ "type": "Feature", "properties": { "id": 274.0, "left": 399994.00082491979, "top": 480910.3994, "right": 400109.47087875771, "bottom": 480810.3994, "row_index": 13.0, "col_index": 13.0, "area": 8659, "1entropy_i": 0.159676279, "1average_c": 0.518342375, "1landuse_d": 0.1269, "1normalize": 0.239566337, "1normali_1": 0.518342375, "1normali_2": 0.1269, "1urban mat": 0.294936237 }, "geometry": { "type": "MultiPolygon", "coordinates": [ [ [ [ 79.868949455588776, 6.826865650273308 ], [ 79.869209755790479, 6.827318247041214 ], [ 79.869732059956576, 6.827319229657679 ], [ 79.869994062940918, 6.826867615375463 ], [ 79.86973376213426, 6.82641501895773 ], [ 79.869211458948172, 6.826414036472038 ], [ 79.868949455588776, 6.826865650273308 ] ] ] ] } },
{ "type": "Feature", "properties": { "id": 275.0, "left": 399994.00082491979, "top": 480810.3994, "right": 400109.47087875771, "bottom": 480710.3994, "row_index": 14.0, "col_index": 13.0, "area": 1077, "1entropy_i": 0.0, "1average_c": 0.499724731, "1landuse_d": 0.0721, "1normalize": 0.0, "1normali_1": 0.499724731, "1normali_2": 0.0721, "1urban mat": 0.190608244 }, "geometry": { "type": "MultiPolygon", "coordinates": [ [ [ [ 79.869737911476193, 6.826393203021242 ], [ 79.869608513713004, 6.826334513214061 ], [ 79.869477335435334, 6.826279914818225 ], [ 79.869344506097903, 6.826229461714021 ], [ 79.869210156784661, 6.826183203690899 ], [ 79.869074420079315, 6.826141186398346 ], [ 79.869050792801147, 6.826134678067224 ], [ 79.869211458948172, 6.826414036472038 ], [ 79.86973376213426, 6.82641501895773 ], [ 79.869744529602414, 6.826396459059602 ], [ 79.869737911476193, 6.826393203021242 ] ] ] ] } },
{ "type": "Feature", "properties": { "id": 286.0, "left": 400080.60336529819, "top": 481760.3994, "right": 400196.07341913611, "bottom": 481660.3994, "row_index": 5.0, "col_index": 14.0, "area": 1755, "1entropy_i": 0.149640237, "1average_c": 0.009856934, "1landuse_d": 0.0796, "1normalize": 0.224509011, "1normali_1": 0.009856934, "1normali_2": 0.0796, "1urban mat": 0.104655315 }, "geometry": { "type": "MultiPolygon", "coordinates": [ [ [ [ 79.869850228525479, 6.834512501720185 ], [ 79.869975936431587, 6.834446279342777 ], [ 79.870099501121274, 6.834376143034249 ], [ 79.87022080064861, 6.834302162012057 ], [ 79.870339715303331, 6.834224409288034 ], [ 79.870456127728986, 6.834142961596294 ], [ 79.870505096800173, 6.834106357100578 ], [ 79.870502753722647, 6.834102283146748 ], [ 79.869980442087467, 6.834101300398682 ], [ 79.869718434261756, 6.834552914020598 ], [ 79.869729131651596, 6.834571513834633 ], [ 79.869850228525479, 6.834512501720185 ] ] ] ] } },
{ "type": "Feature", "properties": { "id": 287.0, "left": 400080.60336529819, "top": 481660.3994, "right": 400196.07341913611, "bottom": 481560.3994, "row_index": 6.0, "col_index": 14.0, "area": 8659, "1entropy_i": 0.0, "1average_c": 0.116021971, "1landuse_d": 0.0987, "1normalize": 0.0, "1normali_1": 0.116021971, "1normali_2": 0.0987, "1urban mat": 0.07157399 }, "geometry": { "type": "MultiPolygon", "coordinates": [ [ [ [ 79.86972013827797, 6.833648703595506 ], [ 79.869980442087467, 6.834101300398682 ], [ 79.870502753722647, 6.834102283146748 ], [ 79.870764760567297, 6.83365066896098 ], [ 79.870504456152474, 6.83319807250845 ], [ 79.86998214549827, 6.833197089891045 ], [ 79.86972013827797, 6.833648703595506 ] ] ] ] } },
{ "type": "Feature", "properties": { "id": 288.0, "left": 400080.60336529819, "top": 481560.3994, "right": 400196.07341913611, "bottom": 481460.3994, "row_index": 7.0, "col_index": 14.0, "area": 8659, "1entropy_i": 0.0, "1average_c": 0.10649859, "1landuse_d": 0.1123, "1normalize": 0.0, "1normali_1": 0.10649859, "1normali_2": 0.1123, "1urban mat": 0.072932863 }, "geometry": { "type": "MultiPolygon", "coordinates": [ [ [ [ 79.869721842064351, 6.832744493136043 ], [ 79.86998214549827, 6.833197089891045 ], [ 79.870504456152474, 6.83319807250845 ], [ 79.870766462391842, 6.832746458240194 ], [ 79.870506158352669, 6.832293861835783 ], [ 79.869983848679311, 6.832292879349037 ], [ 79.869721842064351, 6.832744493136043 ] ] ] ] } },
{ "type": "Feature", "properties": { "id": 289.0, "left": 400080.60336529819, "top": 481460.3994, "right": 400196.07341913611, "bottom": 481360.3994, "row_index": 8.0, "col_index": 14.0, "area": 8659, "1entropy_i": 0.167323604, "1average_c": 0.016572352, "1landuse_d": 0.1577, "1normalize": 0.251039811, "1normali_1": 0.016572352, "1normali_2": 0.1577, "1urban mat": 0.141770721 }, "geometry": { "type": "MultiPolygon", "coordinates": [ [ [ [ 79.869723545620928, 6.831840282642212 ], [ 79.869983848679311, 6.832292879349037 ], [ 79.870506158352669, 6.832293861835783 ], [ 79.870768163986838, 6.83184224748504 ], [ 79.870507860323229, 6.831389651128751 ], [ 79.869985551630634, 6.831388668772664 ], [ 79.869723545620928, 6.831840282642212 ] ] ] ] } },
{ "type": "Feature", "properties": { "id": 290.0, "left": 400080.60336529819, "top": 481360.3994, "right": 400196.07341913611, "bottom": 481260.3994, "row_index": 9.0, "col_index": 14.0, "area": 8659, "1entropy_i": 0.110454864, "1average_c": 0.006347599, "1landuse_d": 0.1465, "1normalize": 0.16571821, "1normali_1": 0.006347599, "1normali_2": 0.1465, "1urban mat": 0.106188603 }, "geometry": { "type": "MultiPolygon", "coordinates": [ [ [ [ 79.869725248947674, 6.830936072114014 ], [ 79.869985551630634, 6.831388668772664 ], [ 79.870507860323229, 6.831389651128751 ], [ 79.870769865352273, 6.830938036695524 ], [ 79.870509562064186, 6.830485440387352 ], [ 79.869987254352168, 6.830484458161926 ], [ 79.869725248947674, 6.830936072114014 ] ] ] ] } },
{ "type": "Feature", "properties": { "id": 291.0, "left": 400080.60336529819, "top": 481260.3994, "right": 400196.07341913611, "bottom": 481160.3994, "row_index": 10.0, "col_index": 14.0, "area": 8659, "1entropy_i": 0.0, "1average_c": 0.072851554, "1landuse_d": 0.1039, "1normalize": 0.0, "1normali_1": 0.072851554, "1normali_2": 0.1039, "1urban mat": 0.058917185 }, "geometry": { "type": "MultiPolygon", "coordinates": [ [ [ [ 79.869726952044616, 6.830031861551455 ], [ 79.869987254352168, 6.830484458161926 ], [ 79.870509562064186, 6.830485440387352 ], [ 79.870771566488145, 6.830033825871649 ], [ 79.870511263575537, 6.829581229611601 ], [ 79.869988956843983, 6.829580247516838 ], [ 79.869726952044616, 6.830031861551455 ] ] ] ] } },
{ "type": "Feature", "properties": { "id": 292.0, "left": 400080.60336529819, "top": 481160.3994, "right": 400196.07341913611, "bottom": 481060.3994, "row_index": 11.0, "col_index": 14.0, "area": 8659, "1entropy_i": 0.0, "1average_c": 0.101070571, "1landuse_d": 0.0902, "1normalize": 0.0, "1normali_1": 0.101070571, "1normali_2": 0.0902, "1urban mat": 0.063756857 }, "geometry": { "type": "MultiPolygon", "coordinates": [ [ [ [ 79.869728654911754, 6.829127650954547 ], [ 79.869988956843983, 6.829580247516838 ], [ 79.870511263575537, 6.829581229611601 ], [ 79.870773267394483, 6.829129615013423 ], [ 79.870512964857255, 6.828677018801501 ], [ 79.869990659106037, 6.828676036837389 ], [ 79.869728654911754, 6.829127650954547 ] ] ] ] } },
{ "type": "Feature", "properties": { "id": 293.0, "left": 400080.60336529819, "top": 481060.3994, "right": 400196.07341913611, "bottom": 480960.3994, "row_index": 12.0, "col_index": 14.0, "area": 8659, "1entropy_i": 0.012184138, "1average_c": 0.076975847, "1landuse_d": 0.0881, "1normalize": 0.018280169, "1normali_1": 0.076975847, "1normali_2": 0.0881, "1urban mat": 0.061118672 }, "geometry": { "type": "MultiPolygon", "coordinates": [ [ [ [ 79.869730357549074, 6.828223440323286 ], [ 79.869990659106037, 6.828676036837389 ], [ 79.870512964857255, 6.828677018801501 ], [ 79.870774968071274, 6.828225404120843 ], [ 79.870514665909383, 6.827772807957047 ], [ 79.869992361138358, 6.827771826123596 ], [ 79.869730357549074, 6.828223440323286 ] ] ] ] } },
{ "type": "Feature", "properties": { "id": 294.0, "left": 400080.60336529819, "top": 480960.3994, "right": 400196.07341913611, "bottom": 480860.3994, "row_index": 13.0, "col_index": 14.0, "area": 8659, "1entropy_i": 0.0, "1average_c": 0.005866793, "1landuse_d": 0.1053, "1normalize": 0.0, "1normali_1": 0.005866793, "1normali_2": 0.1053, "1urban mat": 0.037055598 }, "geometry": { "type": "MultiPolygon", "coordinates": [ [ [ [ 79.869732059956576, 6.827319229657679 ], [ 79.869992361138358, 6.827771826123596 ], [ 79.870514665909383, 6.827772807957047 ], [ 79.870776668518531, 6.827321193193919 ], [ 79.870516366731877, 6.826868597078255 ], [ 79.869994062940918, 6.826867615375463 ], [ 79.869732059956576, 6.827319229657679 ] ] ] ] } },
{ "type": "Feature", "properties": { "id": 295.0, "left": 400080.60336529819, "top": 480860.3994, "right": 400196.07341913611, "bottom": 480760.3994, "row_index": 14.0, "col_index": 14.0, "area": 1755, "1entropy_i": 0.106389389, "1average_c": 0.011098224, "1landuse_d": 0.0954, "1normalize": 0.159618675, "1normali_1": 0.011098224, "1normali_2": 0.0954, "1urban mat": 0.088705633 }, "geometry": { "type": "MultiPolygon", "coordinates": [ [ [ [ 79.870469894880742, 6.826827742988748 ], [ 79.870353791650587, 6.826745858090253 ], [ 79.870235172416528, 6.826667658666785 ], [ 79.870114154240369, 6.826593221889741 ], [ 79.869990856551141, 6.826522621217276 ], [ 79.869865401027184, 6.826455926321807 ], [ 79.869744529602414, 6.826396459059601 ], [ 79.86973376213426, 6.82641501895773 ], [ 79.869994062940918, 6.826867615375463 ], [ 79.870516366731877, 6.826868597078255 ], [ 79.870518725332857, 6.826864531544859 ], [ 79.870469894880742, 6.826827742988748 ] ] ] ] } },
{ "type": "Feature", "properties": { "id": 306.0, "left": 400167.20590567664, "top": 481710.3994, "right": 400282.67595951457, "bottom": 481610.3994, "row_index": 5.0, "col_index": 15.0, "area": 823, "1entropy_i": 0.0, "1average_c": 0.092818568, "1landuse_d": 0.075, "1normalize": 0.0, "1normali_1": 0.092818568, "1normali_2": 0.075, "1urban mat": 0.055939523 }, "geometry": { "type": "MultiPolygon", "coordinates": [ [ [ [ 79.87056992303873, 6.834057899317515 ], [ 79.870680988928697, 6.833969306399615 ], [ 79.870789215788875, 6.833877270274874 ], [ 79.870894496811303, 6.833781881773666 ], [ 79.87099672809542, 6.833683235034805 ], [ 79.871027940339047, 6.83365116375351 ], [ 79.870764760567297, 6.83365066896098 ], [ 79.870502753722647, 6.834102283146748 ], [ 79.870505096800173, 6.834106357100578 ], [ 79.87056992303873, 6.834057899317515 ] ] ] ] } },
{ "type": "Feature", "properties": { "id": 307.0, "left": 400167.20590567664, "top": 481610.3994, "right": 400282.67595951457, "bottom": 481510.3994, "row_index": 6.0, "col_index": 15.0, "area": 7547, "1entropy_i": 0.0, "1average_c": 0.176096962, "1landuse_d": 0.1059, "1normalize": 0.0, "1normali_1": 0.176096962, "1normali_2": 0.1059, "1urban mat": 0.093998987 }, "geometry": { "type": "MultiPolygon", "coordinates": [ [ [ [ 79.871095808750596, 6.833581427412621 ], [ 79.871191640995832, 6.833476559380911 ], [ 79.871284130256058, 6.833368734433725 ], [ 79.871373185255678, 6.833258058983262 ], [ 79.871458718108485, 6.833144642254834 ], [ 79.871490955742104, 6.833098978648734 ], [ 79.871288772670383, 6.832747439943246 ], [ 79.870766462391842, 6.832746458240194 ], [ 79.870504456152474, 6.83319807250845 ], [ 79.870764760567297, 6.83365066896098 ], [ 79.871027940339047, 6.83365116375351 ], [ 79.871095808750596, 6.833581427412621 ] ] ] ] } },
{ "type": "Feature", "properties": { "id": 308.0, "left": 400167.20590567664, "top": 481510.3994, "right": 400282.67595951457, "bottom": 481410.3994, "row_index": 7.0, "col_index": 15.0, "area": 8659, "1entropy_i": 0.175372096, "1average_c": 0.076161605, "1landuse_d": 0.1481, "1normalize": 0.263115165, "1normali_1": 0.076161605, "1normali_2": 0.1481, "1urban mat": 0.162458923 }, "geometry": { "type": "MultiPolygon", "coordinates": [ [ [ [ 79.870506158352669, 6.832293861835783 ], [ 79.870766462391842, 6.832746458240194 ], [ 79.871288772670383, 6.832747439943246 ], [ 79.871550777928903, 6.832295825111339 ], [ 79.871290473284589, 6.831843229057546 ], [ 79.870768163986838, 6.83184224748504 ], [ 79.870506158352669, 6.832293861835783 ] ] ] ] } },
{ "type": "Feature", "properties": { "id": 309.0, "left": 400167.20590567664, "top": 481410.3994, "right": 400282.67595951457, "bottom": 481310.3994, "row_index": 8.0, "col_index": 15.0, "area": 8659, "1entropy_i": 0.221965748, "1average_c": 0.045284717, "1landuse_d": 0.1134, "1normalize": 0.333020794, "1normali_1": 0.045284717, "1normali_2": 0.1134, "1urban mat": 0.163901837 }, "geometry": { "type": "MultiPolygon", "coordinates": [ [ [ [ 79.870507860323229, 6.831389651128751 ], [ 79.870768163986838, 6.83184224748504 ], [ 79.871290473284589, 6.831843229057546 ], [ 79.871552477938025, 6.831391614143211 ], [ 79.87129217366936, 6.830939018137482 ], [ 79.870769865352273, 6.830938036695524 ], [ 79.870507860323229, 6.831389651128751 ] ] ] ] } },
{ "type": "Feature", "properties": { "id": 310.0, "left": 400167.20590567664, "top": 481310.3994, "right": 400282.67595951457, "bottom": 481210.3994, "row_index": 9.0, "col_index": 15.0, "area": 8659, "1entropy_i": 0.100340932, "1average_c": 0.006476507, "1landuse_d": 0.1285, "1normalize": 0.150544024, "1normali_1": 0.006476507, "1normali_2": 0.1285, "1urban mat": 0.09517351 }, "geometry": { "type": "MultiPolygon", "coordinates": [ [ [ [ 79.870509562064186, 6.830485440387352 ], [ 79.870769865352273, 6.830938036695524 ], [ 79.87129217366936, 6.830939018137482 ], [ 79.871554177717798, 6.830487403140726 ], [ 79.871293873824726, 6.830034807183057 ], [ 79.870771566488145, 6.830033825871649 ], [ 79.870509562064186, 6.830485440387352 ] ] ] ] } },
{ "type": "Feature", "properties": { "id": 311.0, "left": 400167.20590567664, "top": 481210.3994, "right": 400282.67595951457, "bottom": 481110.3994, "row_index": 10.0, "col_index": 15.0, "area": 8659, "1entropy_i": 0.232145073, "1average_c": 0.182868635, "1landuse_d": 0.0968, "1normalize": 0.348293092, "1normali_1": 0.182868635, "1normali_2": 0.0968, "1urban mat": 0.209320576 }, "geometry": { "type": "MultiPolygon", "coordinates": [ [ [ [ 79.870511263575537, 6.829581229611601 ], [ 79.870771566488145, 6.830033825871649 ], [ 79.871293873824726, 6.830034807183057 ], [ 79.871555877268207, 6.829583192103879 ], [ 79.871295573750658, 6.829130596194286 ], [ 79.870773267394483, 6.829129615013423 ], [ 79.870511263575537, 6.829581229611601 ] ] ] ] } },
{ "type": "Feature", "properties": { "id": 312.0, "left": 400167.20590567664, "top": 481110.3994, "right": 400282.67595951457, "bottom": 481010.3994, "row_index": 11.0, "col_index": 15.0, "area": 8659, "1entropy_i": 0.147322028, "1average_c": 0.203683427, "1landuse_d": 0.0808, "1normalize": 0.221030943, "1normali_1": 0.203683427, "1normali_2": 0.0808, "1urban mat": 0.16850479 }, "geometry": { "type": "MultiPolygon", "coordinates": [ [ [ [ 79.870512964857255, 6.828677018801501 ], [ 79.870773267394483, 6.829129615013423 ], [ 79.871295573750658, 6.829130596194286 ], [ 79.871557576589282, 6.828678981032684 ], [ 79.871297273447169, 6.828226385171164 ], [ 79.870774968071274, 6.828225404120843 ], [ 79.870512964857255, 6.828677018801501 ] ] ] ] } },
{ "type": "Feature", "properties": { "id": 313.0, "left": 400167.20590567664, "top": 481010.3994, "right": 400282.67595951457, "bottom": 480910.3994, "row_index": 12.0, "col_index": 15.0, "area": 7547, "1entropy_i": 0.012184138, "1average_c": 0.09830471, "1landuse_d": 0.073, "1normalize": 0.018280169, "1normali_1": 0.09830471, "1normali_2": 0.073, "1urban mat": 0.06319496 }, "geometry": { "type": "MultiPolygon", "coordinates": [ [ [ [ 79.871468709487445, 6.827829823364506 ], [ 79.871383604645501, 6.827716086133017 ], [ 79.871294967495757, 6.827605076897889 ], [ 79.871202885513782, 6.827496905210062 ], [ 79.871107449574509, 6.827391677820112 ], [ 79.871039845412099, 6.82732168752702 ], [ 79.870776668518531, 6.827321193193919 ], [ 79.870514665909383, 6.827772807957047 ], [ 79.870774968071274, 6.828225404120843 ], [ 79.871297273447169, 6.828226385171164 ], [ 79.871500775047664, 6.827875608011587 ], [ 79.871468709487445, 6.827829823364506 ] ] ] ] } },
{ "type": "Feature", "properties": { "id": 314.0, "left": 400167.20590567664, "top": 480910.3994, "right": 400282.67595951457, "bottom": 480810.3994, "row_index": 13.0, "col_index": 15.0, "area": 823, "1entropy_i": 0.0, "1average_c": 0.0, "1landuse_d": 0.2076, "1normalize": 0.0, "1normali_1": 0.0, "1normali_2": 0.2076, "1urban mat": 0.0692 }, "geometry": { "type": "MultiPolygon", "coordinates": [ [ [ [ 79.871008753862611, 6.82728949857289 ], [ 79.870906895779456, 6.827190468305064 ], [ 79.870801975847115, 6.827094684745608 ], [ 79.870694097609046, 6.827002242419358 ], [ 79.870583367527956, 6.826913232553736 ], [ 79.870518725332857, 6.826864531544859 ], [ 79.870516366731877, 6.826868597078255 ], [ 79.870776668518531, 6.827321193193919 ], [ 79.871039845412099, 6.82732168752702 ], [ 79.871008753862611, 6.82728949857289 ] ] ] ] } },
{ "type": "Feature", "properties": { "id": 328.0, "left": 400253.8084460551, "top": 481560.3994, "right": 400369.27849989303, "bottom": 481460.3994, "row_index": 7.0, "col_index": 16.0, "area": 3240, "1entropy_i": 0.0, "1average_c": 0.142690614, "1landuse_d": 0.1243, "1normalize": 0.0, "1normali_1": 0.142690614, "1normali_2": 0.1243, "1urban mat": 0.088996871 }, "geometry": { "type": "MultiPolygon", "coordinates": [ [ [ [ 79.871540644404448, 6.833028596179062 ], [ 79.871618883293081, 6.832910035281412 ], [ 79.871693357563103, 6.832789076569155 ], [ 79.871763993718716, 6.832665839415904 ], [ 79.871830722052124, 6.832540445443781 ], [ 79.871893476712302, 6.832413018403389 ], [ 79.87194634635253, 6.832296567958163 ], [ 79.871550777928903, 6.832295825111339 ], [ 79.871288772670383, 6.832747439943246 ], [ 79.871490955742104, 6.833098978648734 ], [ 79.871540644404448, 6.833028596179062 ] ] ] ] } },
{ "type": "Feature", "properties": { "id": 329.0, "left": 400253.8084460551, "top": 481460.3994, "right": 400369.27849989303, "bottom": 481360.3994, "row_index": 8.0, "col_index": 16.0, "area": 7394, "1entropy_i": 0.224178931, "1average_c": 0.087250672, "1landuse_d": 0.0948, "1normalize": 0.336341287, "1normali_1": 0.087250672, "1normali_2": 0.0948, "1urban mat": 0.17279732 }, "geometry": { "type": "MultiPolygon", "coordinates": [ [ [ [ 79.871952195769964, 6.832283684051686 ], [ 79.872006821278703, 6.832152570027853 ], [ 79.87205729933217, 6.832019805727351 ], [ 79.872103580117198, 6.831885522174181 ], [ 79.872145617963056, 6.831749851891604 ], [ 79.872183371386456, 6.831612928771321 ], [ 79.872188745974469, 6.831590736919433 ], [ 79.872074786860125, 6.831392594801587 ], [ 79.871552477938025, 6.831391614143211 ], [ 79.871290473284589, 6.831843229057546 ], [ 79.871550777928903, 6.832295825111339 ], [ 79.87194634635253, 6.832296567958163 ], [ 79.871952195769964, 6.832283684051686 ] ] ] ] } },
{ "type": "Feature", "properties": { "id": 330.0, "left": 400253.8084460551, "top": 481360.3994, "right": 400369.27849989303, "bottom": 481260.3994, "row_index": 9.0, "col_index": 16.0, "area": 8635, "1entropy_i": 0.322497224, "1average_c": 0.080038993, "1landuse_d": 0.0815, "1normalize": 0.483850695, "1normali_1": 0.080038993, "1normali_2": 0.0815, "1urban mat": 0.215129896 }, "geometry": { "type": "MultiPolygon", "coordinates": [ [ [ [ 79.872306718176063, 6.830914285858663 ], [ 79.872308528091352, 6.830891839071057 ], [ 79.872076485659292, 6.830488383668667 ], [ 79.871554177717798, 6.830487403140726 ], [ 79.87129217366936, 6.830939018137482 ], [ 79.871552477938025, 6.831391614143211 ], [ 79.872074786860125, 6.831392594801587 ], [ 79.872295775505108, 6.831011676961994 ], [ 79.872306718176063, 6.830914285858663 ] ] ] ] } },
{ "type": "Feature", "properties": { "id": 331.0, "left": 400253.8084460551, "top": 481260.3994, "right": 400369.27849989303, "bottom": 481160.3994, "row_index": 10.0, "col_index": 16.0, "area": 8635, "1entropy_i": 0.373082391, "1average_c": 0.075635715, "1landuse_d": 0.1134, "1normalize": 0.559744893, "1normali_1": 0.075635715, "1normali_2": 0.1134, "1urban mat": 0.249593536 }, "geometry": { "type": "MultiPolygon", "coordinates": [ [ [ [ 79.872308316371289, 6.830063347942199 ], [ 79.872297739711499, 6.82996591719858 ], [ 79.872078184229238, 6.829584172501391 ], [ 79.871555877268207, 6.829583192103879 ], [ 79.871293873824726, 6.830034807183057 ], [ 79.871554177717798, 6.830487403140726 ], [ 79.872076485659292, 6.830488383668667 ], [ 79.872310041994453, 6.830085801890939 ], [ 79.872308316371289, 6.830063347942199 ] ] ] ] } },
{ "type": "Feature", "properties": { "id": 332.0, "left": 400253.8084460551, "top": 481160.3994, "right": 400369.27849989303, "bottom": 481060.3994, "row_index": 11.0, "col_index": 16.0, "area": 7394, "1entropy_i": 0.237806483, "1average_c": 0.243984928, "1landuse_d": 0.0711, "1normalize": 0.356787047, "1normali_1": 0.243984928, "1normali_2": 0.0711, "1urban mat": 0.223957325 }, "geometry": { "type": "MultiPolygon", "coordinates": [ [ [ [ 79.872187595334282, 6.829364247014745 ], [ 79.872150356767406, 6.829227183153217 ], [ 79.872108829168766, 6.829091356032421 ], [ 79.872063053524641, 6.82895689969668 ], [ 79.87201307501347, 6.82882394683739 ], [ 79.871958942961371, 6.82869262866209 ], [ 79.871953142312876, 6.828679723484862 ], [ 79.871557576589282, 6.828678981032684 ], [ 79.871295573750658, 6.829130596194286 ], [ 79.871555877268207, 6.829583192103879 ], [ 79.872078184229238, 6.829584172501391 ], [ 79.872192886590213, 6.829386459306132 ], [ 79.872187595334282, 6.829364247014745 ] ] ] ] } },
{ "type": "Feature", "properties": { "id": 333.0, "left": 400253.8084460551, "top": 481060.3994, "right": 400369.27849989303, "bottom": 480960.3994, "row_index": 12.0, "col_index": 16.0, "area": 3240, "1entropy_i": 0.0, "1average_c": 0.2697125, "1landuse_d": 0.0974, "1normalize": 0.0, "1normali_1": 0.2697125, "1normali_2": 0.0974, "1urban mat": 0.122370833 }, "geometry": { "type": "MultiPolygon", "coordinates": [ [ [ [ 79.871900710793284, 6.828563074764968 ], [ 79.871838435980365, 6.828435412998978 ], [ 79.871772179983154, 6.828309769349663 ], [ 79.871702008190965, 6.828186267810842 ], [ 79.871627989857387, 6.828065030262218 ], [ 79.871550198031812, 6.827946176349141 ], [ 79.871500775047664, 6.827875608011587 ], [ 79.871297273447169, 6.828226385171164 ], [ 79.871557576589282, 6.828678981032684 ], [ 79.871953142312876, 6.828679723484862 ], [ 79.871900710793284, 6.828563074764968 ] ] ] ] } },
{ "type": "Feature", "properties": { "id": 349.0, "left": 400340.41098643356, "top": 481410.3994, "right": 400455.88104027149, "bottom": 481310.3994, "row_index": 8.0, "col_index": 17.0, "area": 579, "1entropy_i": 0.236016682, "1average_c": 0.145312456, "1landuse_d": 0.1038, "1normalize": 0.354101763, "1normali_1": 0.145312456, "1normali_2": 0.1038, "1urban mat": 0.201071406 }, "geometry": { "type": "MultiPolygon", "coordinates": [ [ [ [ 79.872216803132403, 6.831474887941362 ], [ 79.872245880211096, 6.831335865632706 ], [ 79.872270573930408, 6.83119599904483 ], [ 79.872290859924121, 6.831055426210335 ], [ 79.872295775505108, 6.831011676961994 ], [ 79.872074786860125, 6.831392594801587 ], [ 79.872188745974469, 6.831590736919433 ], [ 79.872216803132403, 6.831474887941362 ] ] ] ] } },
{ "type": "Feature", "properties": { "id": 350.0, "left": 400340.41098643356, "top": 481310.3994, "right": 400455.88104027149, "bottom": 481210.3994, "row_index": 9.0, "col_index": 17.0, "area": 1264, "1entropy_i": 0.0, "1average_c": 0.0, "1landuse_d": 0.1042, "1normalize": 0.0, "1normali_1": 0.0, "1normali_2": 0.1042, "1urban mat": 0.034733333 }, "geometry": { "type": "MultiPolygon", "coordinates": [ [ [ [ 79.872325626676968, 6.830346840578562 ], [ 79.872319199367155, 6.830204958362498 ], [ 79.872310041994453, 6.830085801890939 ], [ 79.872076485659292, 6.830488383668667 ], [ 79.872308528091352, 6.830891839071057 ], [ 79.872318133039784, 6.830772717279242 ], [ 79.872325093254005, 6.830630860183993 ], [ 79.872327591953734, 6.830488854569439 ], [ 79.872325626676968, 6.830346840578562 ] ] ] ] } },
{ "type": "Feature", "properties": { "id": 351.0, "left": 400340.41098643356, "top": 481210.3994, "right": 400455.88104027149, "bottom": 481110.3994, "row_index": 10.0, "col_index": 17.0, "area": 579, "1entropy_i": 0.204928509, "1average_c": 0.145312456, "1landuse_d": 0.377, "1normalize": 0.307459396, "1normali_1": 0.145312456, "1normali_2": 0.377, "1urban mat": 0.276590617 }, "geometry": { "type": "MultiPolygon", "coordinates": [ [ [ [ 79.872292988433514, 6.829922149070264 ], [ 79.872273230684613, 6.829781501093033 ], [ 79.872249062627077, 6.829641542813041 ], [ 79.87222050811576, 6.829502412352049 ], [ 79.872192886590213, 6.829386459306132 ], [ 79.872078184229238, 6.829584172501391 ], [ 79.872297739711499, 6.82996591719858 ], [ 79.872292988433514, 6.829922149070264 ] ] ] ] } }
]
}
