{"type": "FeatureCollection", "name": "pois", "crs": {"type": "name", "properties": {"name": "urn:ogc:def:crs:OGC:1.3:CRS84"}}, "features": [{"type": "Feature", "properties": {"name": null, "name_en": "Salon ovinca mountlavinia", "amenity": null, "shop": "cosmetics", "tourism": null, "man_made": null}, "geometry": {"type": "Point", "coordinates": [79.869748, 6.831242]}}, {"type": "Feature", "properties": {"name": "Sri Sugatha Dharmayathanaya", "name_en": null, "amenity": "place_of_worship", "shop": null, "tourism": null, "man_made": null}, "geometry": {"type": "Point", "coordinates": [79.870858, 6.831599]}}, {"type": "Feature", "properties": {"name": null, "name_en": "Salon wendys mtlavinia", "amenity": null, "shop": "cosmetics", "tourism": null, "man_made": null}, "geometry": {"type": "Point", "coordinates": [79.870269, 6.830953]}}, {"type": "Feature", "properties": {"name": "Lalith Athulathmudali College", "name_en": null, "amenity": "school", "shop": null, "tourism": null, "man_made": null}, "geometry": {"type": "Point", "coordinates": [79.871779, 6.82956]}}, {"type": "Feature", "properties": {"name": "5-Star Bakery", "name_en": null, "amenity": null, "shop": "bakery", "tourism": null, "man_made": null}, "geometry": {"type": "Point", "coordinates": [79.872583, 6.831868]}}, {"type": "Feature", "properties": {"name": "NDB", "name_en": "NDB Bank", "amenity": "bank", "shop": null, "tourism": null, "man_made": null}, "geometry": {"type": "Point", "coordinates": [79.867705, 6.836796]}}, {"type": "Feature", "properties": {"name": "Little Star", "name_en": "Little Star", "amenity": null, "shop": "bakery", "tourism": null, "man_made": null}, "geometry": {"type": "Point", "coordinates": [79.867287, 6.83696]}}, {"type": "Feature", "properties": {"name": null, "name_en": "Bank of Ceylon (BOC)", "amenity": "bank", "shop": null, "tourism": null, "man_made": null}, "geometry": {"type": "Point", "coordinates": [79.867177, 6.835776]}}, {"type": "Feature", "properties": {"name": "Sampath Bank", "name_en": "Sampath Bank", "amenity": "bank", "shop": null, "tourism": null, "man_made": null}, "geometry": {"type": "Point", "coordinates": [79.867149, 6.835413]}}, {"type": "Feature", "properties": {"name": "Big Taste", "name_en": null, "amenity": "restaurant", "shop": null, "tourism": null, "man_made": null}, "geometry": {"type": "Point", "coordinates": [79.867468, 6.835041]}}, {"type": "Feature", "properties": {"name": null, "name_en": "Peoples bank", "amenity": "bank", "shop": null, "tourism": null, "man_made": null}, "geometry": {"type": "Point", "coordinates": [79.867225, 6.833792]}}, {"type": "Feature", "properties": {"name": null, "name_en": "Singer Mega", "amenity": null, "shop": "convenience", "tourism": null, "man_made": null}, "geometry": {"type": "Point", "coordinates": [79.867303, 6.834159]}}, {"type": "Feature", "properties": {"name": "BOC", "name_en": null, "amenity": "atm", "shop": null, "tourism": null, "man_made": null}, "geometry": {"type": "Point", "coordinates": [79.867238, 6.83378]}}, {"type": "Feature", "properties": {"name": "Thapodhanaramaya", "name_en": null, "amenity": "place_of_worship", "shop": null, "tourism": null, "man_made": null}, "geometry": {"type": "Point", "coordinates": [79.868235, 6.831721]}}, {"type": "Feature", "properties": {"name": "Taco Bell", "name_en": null, "amenity": "fast_food", "shop": null, "tourism": null, "man_made": null}, "geometry": {"type": "Point", "coordinates": [79.868337, 6.829573]}}, {"type": "Feature", "properties": {"name": null, "name_en": "Salon dinu mountlavina", "amenity": null, "shop": "cosmetics", "tourism": null, "man_made": null}, "geometry": {"type": "Point", "coordinates": [79.868362, 6.830575]}}, {"type": "Feature", "properties": {"name": "Elite Indian Restaurant", "name_en": null, "amenity": "restaurant", "shop": null, "tourism": null, "man_made": null}, "geometry": {"type": "Point", "coordinates": [79.867878, 6.831182]}}, {"type": "Feature", "properties": {"name": null, "name_en": "New lovers mountlavinia", "amenity": null, "shop": "beauty", "tourism": null, "man_made": null}, "geometry": {"type": "Point", "coordinates": [79.867765, 6.831067]}}, {"type": "Feature", "properties": {"name": null, "name_en": "Salon mirror mountlavinia", "amenity": null, "shop": "cosmetics", "tourism": null, "man_made": null}, "geometry": {"type": "Point", "coordinates": [79.867499, 6.831042]}}, {"type": "Feature", "properties": {"name": null, "name_en": null, "amenity": "atm", "shop": null, "tourism": null, "man_made": null}, "geometry": {"type": "Point", "coordinates": [79.867802, 6.830729]}}, {"type": "Feature", "properties": {"name": "British College of Applied Studies", "name_en": null, "amenity": "college", "shop": null, "tourism": null, "man_made": null}, "geometry": {"type": "Point", "coordinates": [79.867443, 6.830504]}}, {"type": "Feature", "properties": {"name": null, "name_en": null, "amenity": null, "shop": "convenience", "tourism": null, "man_made": null}, "geometry": {"type": "Point", "coordinates": [79.867281, 6.832243]}}, {"type": "Feature", "properties": {"name": null, "name_en": "Salon finesse mountlavinia", "amenity": null, "shop": "cosmetics", "tourism": null, "man_made": null}, "geometry": {"type": "Point", "coordinates": [79.867339, 6.832087]}}, {"type": "Feature", "properties": {"name": "Keells Super, Mount Lavinia.", "name_en": null, "amenity": null, "shop": "supermarket", "tourism": null, "man_made": null}, "geometry": {"type": "Point", "coordinates": [79.867327, 6.831863]}}, {"type": "Feature", "properties": {"name": null, "name_en": null, "amenity": null, "shop": "convenience", "tourism": null, "man_made": null}, "geometry": {"type": "Point", "coordinates": [79.867592, 6.832308]}}, {"type": "Feature", "properties": {"name": null, "name_en": null, "amenity": null, "shop": "convenience", "tourism": null, "man_made": null}, "geometry": {"type": "Point", "coordinates": [79.867509, 6.832303]}}, {"type": "Feature", "properties": {"name": "HNB", "name_en": null, "amenity": "bank", "shop": null, "tourism": null, "man_made": null}, "geometry": {"type": "Point", "coordinates": [79.867555, 6.832478]}}, {"type": "Feature", "properties": {"name": "Mahinda Florists", "name_en": null, "amenity": null, "shop": "florist", "tourism": null, "man_made": null}, "geometry": {"type": "Point", "coordinates": [79.867528, 6.83265]}}, {"type": "Feature", "properties": {"name": "Mount Lavinia Bus Stand", "name_en": null, "amenity": "bus_station", "shop": null, "tourism": null, "man_made": null}, "geometry": {"type": "Point", "coordinates": [79.867273, 6.833009]}}, {"type": "Feature", "properties": {"name": null, "name_en": null, "amenity": null, "shop": "convenience", "tourism": null, "man_made": null}, "geometry": {"type": "Point", "coordinates": [79.867318, 6.832359]}}, {"type": "Feature", "properties": {"name": "Salon Elegance", "name_en": null, "amenity": null, "shop": "beauty", "tourism": null, "man_made": null}, "geometry": {"type": "Point", "coordinates": [79.867245, 6.832464]}}, {"type": "Feature", "properties": {"name": "Food city express", "name_en": null, "amenity": null, "shop": "supermarket", "tourism": null, "man_made": null}, "geometry": {"type": "Point", "coordinates": [79.867167, 6.832772]}}, {"type": "Feature", "properties": {"name": "Bata", "name_en": null, "amenity": null, "shop": "shoes", "tourism": null, "man_made": null}, "geometry": {"type": "Point", "coordinates": [79.867163, 6.832691]}}, {"type": "Feature", "properties": {"name": "Cargills Food City", "name_en": null, "amenity": null, "shop": "supermarket", "tourism": null, "man_made": null}, "geometry": {"type": "Point", "coordinates": [79.867127, 6.832965]}}, {"type": "Feature", "properties": {"name": "mount lavinia post office", "name_en": null, "amenity": "post_office", "shop": null, "tourism": null, "man_made": null}, "geometry": {"type": "Point", "coordinates": [79.866443, 6.832649]}}, {"type": "Feature", "properties": {"name": "Maharhishi Ayurveda Hospital", "name_en": null, "amenity": "hospital", "shop": null, "tourism": null, "man_made": null}, "geometry": {"type": "Point", "coordinates": [79.865675, 6.830397]}}, {"type": "Feature", "properties": {"name": "Prestige Court Residence Hotel", "name_en": null, "amenity": null, "shop": null, "tourism": "hotel", "man_made": null}, "geometry": {"type": "Point", "coordinates": [79.864946, 6.832289]}}, {"type": "Feature", "properties": {"name": "Girls High School", "name_en": null, "amenity": "school", "shop": null, "tourism": null, "man_made": null}, "geometry": {"type": "Point", "coordinates": [79.864985, 6.834606]}}, {"type": "Feature", "properties": {"name": "The Vintage Club Hostel", "name_en": null, "amenity": null, "shop": null, "tourism": "hostel", "man_made": null}, "geometry": {"type": "Point", "coordinates": [79.865915, 6.834661]}}, {"type": "Feature", "properties": {"name": "Golden Bridge Guest House", "name_en": null, "amenity": null, "shop": null, "tourism": "hotel", "man_made": null}, "geometry": {"type": "Point", "coordinates": [79.865868, 6.835499]}}, {"type": "Feature", "properties": {"name": "Softlogic GLOMARK", "name_en": null, "amenity": null, "shop": "supermarket", "tourism": null, "man_made": null}, "geometry": {"type": "Point", "coordinates": [79.866818, 6.836215]}}, {"type": "Feature", "properties": {"name": null, "name_en": null, "amenity": "atm", "shop": null, "tourism": null, "man_made": null}, "geometry": {"type": "Point", "coordinates": [79.866314, 6.83707]}}, {"type": "Feature", "properties": {"name": "Popeyes", "name_en": null, "amenity": "fast_food", "shop": null, "tourism": null, "man_made": null}, "geometry": {"type": "Point", "coordinates": [79.866307, 6.836274]}}, {"type": "Feature", "properties": {"name": "Aqua Marine Holiday Homes", "name_en": null, "amenity": null, "shop": null, "tourism": "hotel", "man_made": null}, "geometry": {"type": "Point", "coordinates": [79.865311, 6.835737]}}, {"type": "Feature", "properties": {"name": "Thilanka beach resort", "name_en": null, "amenity": "restaurant", "shop": null, "tourism": null, "man_made": null}, "geometry": {"type": "Point", "coordinates": [79.864885, 6.835284]}}, {"type": "Feature", "properties": {"name": "Omni Holiday Bungalow", "name_en": null, "amenity": null, "shop": null, "tourism": "hotel", "man_made": null}, "geometry": {"type": "Point", "coordinates": [79.864034, 6.835236]}}, {"type": "Feature", "properties": {"name": "Mount Lodge", "name_en": null, "amenity": null, "shop": null, "tourism": "hotel", "man_made": null}, "geometry": {"type": "Point", "coordinates": [79.864481, 6.833533]}}, {"type": "Feature", "properties": {"name": null, "name_en": null, "amenity": "parking", "shop": null, "tourism": null, "man_made": null}, "geometry": {"type": "Point", "coordinates": [79.863213, 6.833561]}}, {"type": "Feature", "properties": {"name": null, "name_en": "Mini supermarket and Gem Store", "amenity": null, "shop": "supermarket", "tourism": null, "man_made": null}, "geometry": {"type": "Point", "coordinates": [79.862966, 6.833358]}}, {"type": "Feature", "properties": {"name": null, "name_en": null, "amenity": null, "shop": null, "tourism": null, "man_made": "water_tower"}, "geometry": {"type": "Point", "coordinates": [79.862906, 6.83356]}}, {"type": "Feature", "properties": {"name": "Relaxn On Hotel", "name_en": null, "amenity": null, "shop": null, "tourism": "hotel", "man_made": null}, "geometry": {"type": "Point", "coordinates": [79.862563, 6.833473]}}, {"type": "Feature", "properties": {"name": "La Langousterie", "name_en": null, "amenity": "restaurant", "shop": null, "tourism": null, "man_made": null}, "geometry": {"type": "Point", "coordinates": [79.863061, 6.835941]}}, {"type": "Feature", "properties": {"name": "Ranveli Beach Resort", "name_en": null, "amenity": null, "shop": null, "tourism": "hotel", "man_made": null}, "geometry": {"type": "Point", "coordinates": [79.863422, 6.835692]}}, {"type": "Feature", "properties": {"name": "Rivi Ras Hotel", "name_en": null, "amenity": null, "shop": null, "tourism": "hotel", "man_made": null}, "geometry": {"type": "Point", "coordinates": [79.863555, 6.835745]}}, {"type": "Feature", "properties": {"name": "Sunil beach resort", "name_en": null, "amenity": "restaurant", "shop": null, "tourism": null, "man_made": null}, "geometry": {"type": "Point", "coordinates": [79.863301, 6.836661]}}, {"type": "Feature", "properties": {"name": null, "name_en": "Mount Casadi", "amenity": "restaurant", "shop": null, "tourism": null, "man_made": null}, "geometry": {"type": "Point", "coordinates": [79.862603, 6.830025]}}, {"type": "Feature", "properties": {"name": "Hotel Sunhill", "name_en": null, "amenity": null, "shop": null, "tourism": "hotel", "man_made": null}, "geometry": {"type": "Point", "coordinates": [79.863246, 6.831244]}}, {"type": "Feature", "properties": {"name": "Lavinia House", "name_en": null, "amenity": null, "shop": null, "tourism": "hotel", "man_made": null}, "geometry": {"type": "Point", "coordinates": [79.864502, 6.832847]}}, {"type": "Feature", "properties": {"name": null, "name_en": "Okada Temple", "amenity": null, "shop": null, "tourism": "attraction", "man_made": null}, "geometry": {"type": "Point", "coordinates": [79.864012, 6.828522]}}, {"type": "Feature", "properties": {"name": null, "name_en": null, "amenity": "bank", "shop": null, "tourism": null, "man_made": null}, "geometry": {"type": "Point", "coordinates": [79.868192, 6.828519]}}, {"type": "Feature", "properties": {"name": "Pizza Hut", "name_en": null, "amenity": "restaurant", "shop": null, "tourism": null, "man_made": null}, "geometry": {"type": "Point", "coordinates": [79.868071, 6.829428]}}, {"type": "Feature", "properties": {"name": null, "name_en": "Family bakers", "amenity": "cafe", "shop": null, "tourism": null, "man_made": null}, "geometry": {"type": "Point", "coordinates": [79.868558, 6.82872]}}, {"type": "Feature", "properties": {"name": null, "name_en": "Salon 7 mount lavinia", "amenity": null, "shop": "cosmetics", "tourism": null, "man_made": null}, "geometry": {"type": "Point", "coordinates": [79.868708, 6.828451]}}, {"type": "Feature", "properties": {"name": "McDonald's", "name_en": null, "amenity": "fast_food", "shop": null, "tourism": null, "man_made": null}, "geometry": {"type": "Point", "coordinates": [79.868797, 6.827355]}}, {"type": "Feature", "properties": {"name": "Jo-Jo's", "name_en": null, "amenity": "bar", "shop": null, "tourism": null, "man_made": null}, "geometry": {"type": "Point", "coordinates": [79.862881, 6.841054]}}, {"type": "Feature", "properties": {"name": "Lavinia Breeze", "name_en": null, "amenity": "restaurant", "shop": null, "tourism": null, "man_made": null}, "geometry": {"type": "Point", "coordinates": [79.86322, 6.841332]}}, {"type": "Feature", "properties": {"name": "Haus Chandra Hotel", "name_en": null, "amenity": null, "shop": null, "tourism": "hotel", "man_made": null}, "geometry": {"type": "Point", "coordinates": [79.86309, 6.842271]}}, {"type": "Feature", "properties": {"name": "Steam Boat", "name_en": null, "amenity": "restaurant", "shop": null, "tourism": null, "man_made": null}, "geometry": {"type": "Point", "coordinates": [79.862815, 6.842194]}}, {"type": "Feature", "properties": {"name": "Addara beach club", "name_en": null, "amenity": "restaurant", "shop": null, "tourism": null, "man_made": null}, "geometry": {"type": "Point", "coordinates": [79.862781, 6.841947]}}, {"type": "Feature", "properties": {"name": null, "name_en": "Mount Sea Pal", "amenity": "restaurant", "shop": null, "tourism": null, "man_made": null}, "geometry": {"type": "Point", "coordinates": [79.86273, 6.843003]}}, {"type": "Feature", "properties": {"name": "Surf club", "name_en": null, "amenity": "restaurant", "shop": null, "tourism": null, "man_made": null}, "geometry": {"type": "Point", "coordinates": [79.862596, 6.843989]}}, {"type": "Feature", "properties": {"name": "The Villa In Lavinia", "name_en": null, "amenity": null, "shop": null, "tourism": "hotel", "man_made": null}, "geometry": {"type": "Point", "coordinates": [79.863483, 6.844466]}}, {"type": "Feature", "properties": {"name": "Lavinia Beach Hostel", "name_en": null, "amenity": null, "shop": null, "tourism": "hotel", "man_made": null}, "geometry": {"type": "Point", "coordinates": [79.863928, 6.842398]}}, {"type": "Feature", "properties": {"name": "Aurora Holiday House", "name_en": null, "amenity": null, "shop": null, "tourism": "hotel", "man_made": null}, "geometry": {"type": "Point", "coordinates": [79.864669, 6.841689]}}, {"type": "Feature", "properties": {"name": "Colombo Beach Hostel", "name_en": null, "amenity": null, "shop": null, "tourism": "hostel", "man_made": null}, "geometry": {"type": "Point", "coordinates": [79.86452, 6.840087]}}, {"type": "Feature", "properties": {"name": "Barnes Garden Caf\u00e9", "name_en": null, "amenity": "cafe", "shop": null, "tourism": null, "man_made": null}, "geometry": {"type": "Point", "coordinates": [79.864578, 6.840148]}}, {"type": "Feature", "properties": {"name": "Mount breeze hotel", "name_en": null, "amenity": "restaurant", "shop": null, "tourism": null, "man_made": null}, "geometry": {"type": "Point", "coordinates": [79.863354, 6.840673]}}, {"type": "Feature", "properties": {"name": "Mount Bay Guest House", "name_en": null, "amenity": null, "shop": null, "tourism": "guest_house", "man_made": null}, "geometry": {"type": "Point", "coordinates": [79.863502, 6.840242]}}, {"type": "Feature", "properties": {"name": "Mount Bay Hotel", "name_en": null, "amenity": null, "shop": null, "tourism": "hotel", "man_made": null}, "geometry": {"type": "Point", "coordinates": [79.863607, 6.840219]}}, {"type": "Feature", "properties": {"name": "Mount Breeze Hotel", "name_en": null, "amenity": null, "shop": null, "tourism": "motel", "man_made": null}, "geometry": {"type": "Point", "coordinates": [79.86324, 6.84048]}}, {"type": "Feature", "properties": {"name": "Sawadee Beach Front", "name_en": null, "amenity": "restaurant", "shop": null, "tourism": null, "man_made": null}, "geometry": {"type": "Point", "coordinates": [79.862988, 6.840448]}}, {"type": "Feature", "properties": {"name": null, "name_en": "La Voile Blanche", "amenity": "restaurant", "shop": null, "tourism": null, "man_made": null}, "geometry": {"type": "Point", "coordinates": [79.86297, 6.840172]}}, {"type": "Feature", "properties": {"name": "Berjaya Mount Royal Beach Hotel", "name_en": null, "amenity": null, "shop": null, "tourism": "hotel", "man_made": null}, "geometry": {"type": "Point", "coordinates": [79.863535, 6.838679]}}, {"type": "Feature", "properties": {"name": null, "name_en": null, "amenity": "parking", "shop": null, "tourism": null, "man_made": null}, "geometry": {"type": "Point", "coordinates": [79.863538, 6.838386]}}, {"type": "Feature", "properties": {"name": "The Shore by O", "name_en": null, "amenity": "restaurant", "shop": null, "tourism": null, "man_made": null}, "geometry": {"type": "Point", "coordinates": [79.863272, 6.838083]}}, {"type": "Feature", "properties": {"name": "Catamaran Seafood Restaurant", "name_en": null, "amenity": "restaurant", "shop": null, "tourism": null, "man_made": null}, "geometry": {"type": "Point", "coordinates": [79.8633, 6.837819]}}, {"type": "Feature", "properties": {"name": "Shelton Sea Food Restaurant", "name_en": null, "amenity": "restaurant", "shop": null, "tourism": null, "man_made": null}, "geometry": {"type": "Point", "coordinates": [79.86335, 6.837724]}}, {"type": "Feature", "properties": {"name": "The Regent Hotel", "name_en": null, "amenity": null, "shop": null, "tourism": "hotel", "man_made": null}, "geometry": {"type": "Point", "coordinates": [79.864224, 6.838489]}}, {"type": "Feature", "properties": {"name": "Cottage Garden Bungalows", "name_en": null, "amenity": null, "shop": null, "tourism": "guest_house", "man_made": null}, "geometry": {"type": "Point", "coordinates": [79.864184, 6.838686]}}, {"type": "Feature", "properties": {"name": null, "name_en": null, "amenity": "parking", "shop": null, "tourism": null, "man_made": null}, "geometry": {"type": "Point", "coordinates": [79.864516, 6.838477]}}, {"type": "Feature", "properties": {"name": "Tropic Inn - Mount Lavinia", "name_en": "Tropic Inn - Restaurant", "amenity": null, "shop": null, "tourism": "guest_house", "man_made": null}, "geometry": {"type": "Point", "coordinates": [79.865119, 6.838719]}}, {"type": "Feature", "properties": {"name": null, "name_en": "The Pit Stop", "amenity": "cafe", "shop": null, "tourism": null, "man_made": null}, "geometry": {"type": "Point", "coordinates": [79.864854, 6.838962]}}, {"type": "Feature", "properties": {"name": "Ivory Inn", "name_en": null, "amenity": null, "shop": null, "tourism": "hotel", "man_made": null}, "geometry": {"type": "Point", "coordinates": [79.864782, 6.839802]}}, {"type": "Feature", "properties": {"name": "Royce Hotel", "name_en": null, "amenity": null, "shop": null, "tourism": "hotel", "man_made": null}, "geometry": {"type": "Point", "coordinates": [79.865695, 6.840254]}}, {"type": "Feature", "properties": {"name": null, "name_en": "Hotel Mount Lanka", "amenity": null, "shop": null, "tourism": "hotel", "man_made": null}, "geometry": {"type": "Point", "coordinates": [79.866275, 6.839083]}}, {"type": "Feature", "properties": {"name": "Ocen Blue House", "name_en": null, "amenity": null, "shop": null, "tourism": "hotel", "man_made": null}, "geometry": {"type": "Point", "coordinates": [79.866601, 6.840129]}}, {"type": "Feature", "properties": {"name": null, "name_en": null, "amenity": "atm", "shop": null, "tourism": null, "man_made": null}, "geometry": {"type": "Point", "coordinates": [79.866588, 6.83875]}}, {"type": "Feature", "properties": {"name": "Cargills Food City", "name_en": null, "amenity": null, "shop": "supermarket", "tourism": null, "man_made": null}, "geometry": {"type": "Point", "coordinates": [79.867289, 6.837249]}}, {"type": "Feature", "properties": {"name": "Sri Jinarathana Gilan Bikku Ashramaya", "name_en": "Sri Jinarathana Resident for Ill Monks", "amenity": "place_of_worship", "shop": null, "tourism": null, "man_made": null}, "geometry": {"type": "Point", "coordinates": [79.867027, 6.838499]}}, {"type": "Feature", "properties": {"name": "Sleek saloon", "name_en": null, "amenity": null, "shop": "hairdresser", "tourism": null, "man_made": null}, "geometry": {"type": "Point", "coordinates": [79.86737, 6.83882]}}, {"type": "Feature", "properties": {"name": "Ginsomin", "name_en": null, "amenity": "pharmacy", "shop": null, "tourism": null, "man_made": null}, "geometry": {"type": "Point", "coordinates": [79.867662, 6.838173]}}, {"type": "Feature", "properties": {"name": null, "name_en": "Rf salon mountlaviniya", "amenity": null, "shop": "cosmetics", "tourism": null, "man_made": null}, "geometry": {"type": "Point", "coordinates": [79.867519, 6.839964]}}, {"type": "Feature", "properties": {"name": "DFCV Bank", "name_en": null, "amenity": "bank", "shop": null, "tourism": null, "man_made": null}, "geometry": {"type": "Point", "coordinates": [79.867355, 6.840981]}}, {"type": "Feature", "properties": {"name": "Subway", "name_en": "Subway", "amenity": "fast_food", "shop": null, "tourism": null, "man_made": null}, "geometry": {"type": "Point", "coordinates": [79.867181, 6.841401]}}, {"type": "Feature", "properties": {"name": null, "name_en": "suboda adarsha colleg", "amenity": "college", "shop": null, "tourism": null, "man_made": null}, "geometry": {"type": "Point", "coordinates": [79.867383, 6.841901]}}, {"type": "Feature", "properties": {"name": null, "name_en": "Casserole", "amenity": "restaurant", "shop": null, "tourism": null, "man_made": null}, "geometry": {"type": "Point", "coordinates": [79.86711, 6.841861]}}, {"type": "Feature", "properties": {"name": "Family Super", "name_en": null, "amenity": null, "shop": "supermarket", "tourism": null, "man_made": null}, "geometry": {"type": "Point", "coordinates": [79.867123, 6.841872]}}, {"type": "Feature", "properties": {"name": "Lanka IOC", "name_en": null, "amenity": "fuel", "shop": null, "tourism": null, "man_made": null}, "geometry": {"type": "Point", "coordinates": [79.866925, 6.84237]}}, {"type": "Feature", "properties": {"name": null, "name_en": "Evergreen hostel", "amenity": null, "shop": null, "tourism": "hostel", "man_made": null}, "geometry": {"type": "Point", "coordinates": [79.867569, 6.842807]}}, {"type": "Feature", "properties": {"name": null, "name_en": "Hejaaz International Boys School", "amenity": "school", "shop": null, "tourism": null, "man_made": null}, "geometry": {"type": "Point", "coordinates": [79.868215, 6.843139]}}, {"type": "Feature", "properties": {"name": null, "name_en": "Home as home", "amenity": null, "shop": null, "tourism": "guest_house", "man_made": null}, "geometry": {"type": "Point", "coordinates": [79.869074, 6.842989]}}, {"type": "Feature", "properties": {"name": "St.Anthoney's Church", "name_en": null, "amenity": "place_of_worship", "shop": null, "tourism": null, "man_made": null}, "geometry": {"type": "Point", "coordinates": [79.867556, 6.843859]}}, {"type": "Feature", "properties": {"name": "Odeon", "name_en": null, "amenity": "cinema", "shop": null, "tourism": null, "man_made": null}, "geometry": {"type": "Point", "coordinates": [79.865852, 6.844329]}}, {"type": "Feature", "properties": {"name": null, "name_en": "Cup Cafe", "amenity": "cafe", "shop": null, "tourism": null, "man_made": null}, "geometry": {"type": "Point", "coordinates": [79.866331, 6.843834]}}, {"type": "Feature", "properties": {"name": null, "name_en": "US Car Sale", "amenity": null, "shop": "car", "tourism": null, "man_made": null}, "geometry": {"type": "Point", "coordinates": [79.866721, 6.843262]}}, {"type": "Feature", "properties": {"name": "Burger King", "name_en": null, "amenity": "fast_food", "shop": null, "tourism": null, "man_made": null}, "geometry": {"type": "Point", "coordinates": [79.866639, 6.842183]}}, {"type": "Feature", "properties": {"name": "Arthur's Pizza", "name_en": null, "amenity": "restaurant", "shop": null, "tourism": null, "man_made": null}, "geometry": {"type": "Point", "coordinates": [79.86683, 6.841764]}}, {"type": "Feature", "properties": {"name": "Lion Pub", "name_en": null, "amenity": "pub", "shop": null, "tourism": null, "man_made": null}, "geometry": {"type": "Point", "coordinates": [79.866839, 6.841644]}}, {"type": "Feature", "properties": {"name": "Dinducal Thalapakattu Buriyani", "name_en": null, "amenity": "restaurant", "shop": null, "tourism": null, "man_made": null}, "geometry": {"type": "Point", "coordinates": [79.866877, 6.841404]}}, {"type": "Feature", "properties": {"name": "Fifteen Beach Road House", "name_en": null, "amenity": null, "shop": null, "tourism": "hotel", "man_made": null}, "geometry": {"type": "Point", "coordinates": [79.86491, 6.84244]}}, {"type": "Feature", "properties": {"name": null, "name_en": "CircleCeylon Airbnb", "amenity": null, "shop": null, "tourism": "apartment", "man_made": null}, "geometry": {"type": "Point", "coordinates": [79.864746, 6.842453]}}, {"type": "Feature", "properties": {"name": "Dammika Home", "name_en": null, "amenity": null, "shop": null, "tourism": "hotel", "man_made": null}, "geometry": {"type": "Point", "coordinates": [79.865171, 6.843796]}}, {"type": "Feature", "properties": {"name": null, "name_en": "Lavinia Villa", "amenity": null, "shop": null, "tourism": "hotel", "man_made": null}, "geometry": {"type": "Point", "coordinates": [79.865458, 6.843972]}}, {"type": "Feature", "properties": {"name": "Lavinia Villa", "name_en": null, "amenity": null, "shop": null, "tourism": "hotel", "man_made": null}, "geometry": {"type": "Point", "coordinates": [79.865047, 6.845145]}}, {"type": "Feature", "properties": {"name": null, "name_en": "Tuk Tuk Rental", "amenity": null, "shop": "travel_agency", "tourism": null, "man_made": null}, "geometry": {"type": "Point", "coordinates": [79.864872, 6.847584]}}, {"type": "Feature", "properties": {"name": null, "name_en": null, "amenity": "parking", "shop": null, "tourism": null, "man_made": null}, "geometry": {"type": "Point", "coordinates": [79.866463, 6.846907]}}, {"type": "Feature", "properties": {"name": "Commercial Bank of Ceylon", "name_en": null, "amenity": "bank", "shop": null, "tourism": null, "man_made": null}, "geometry": {"type": "Point", "coordinates": [79.866577, 6.846733]}}, {"type": "Feature", "properties": {"name": "Ceypetco", "name_en": null, "amenity": "fuel", "shop": null, "tourism": null, "man_made": null}, "geometry": {"type": "Point", "coordinates": [79.866003, 6.846339]}}, {"type": "Feature", "properties": {"name": "NOLIMIT Glitz", "name_en": null, "amenity": null, "shop": "clothes", "tourism": null, "man_made": null}, "geometry": {"type": "Point", "coordinates": [79.866426, 6.845324]}}, {"type": "Feature", "properties": {"name": null, "name_en": null, "amenity": "school", "shop": null, "tourism": null, "man_made": null}, "geometry": {"type": "Point", "coordinates": [79.867757, 6.846509]}}, {"type": "Feature", "properties": {"name": "Yum Yum Fine Foods", "name_en": null, "amenity": null, "shop": "confectionery", "tourism": null, "man_made": null}, "geometry": {"type": "Point", "coordinates": [79.867355, 6.846694]}}, {"type": "Feature", "properties": {"name": null, "name_en": "Nippon paint center", "amenity": null, "shop": "variety_store", "tourism": null, "man_made": null}, "geometry": {"type": "Point", "coordinates": [79.865904, 6.848792]}}, {"type": "Feature", "properties": {"name": null, "name_en": null, "amenity": null, "shop": null, "tourism": "apartment", "man_made": null}, "geometry": {"type": "Point", "coordinates": [79.86589, 6.848826]}}, {"type": "Feature", "properties": {"name": null, "name_en": "Nippon paint", "amenity": null, "shop": "variety_store", "tourism": null, "man_made": null}, "geometry": {"type": "Point", "coordinates": [79.865931, 6.848906]}}, {"type": "Feature", "properties": {"name": "Dehiwala Gold House", "name_en": null, "amenity": null, "shop": "jewelry", "tourism": null, "man_made": null}, "geometry": {"type": "Point", "coordinates": [79.865781, 6.849017]}}, {"type": "Feature", "properties": {"name": "no place", "name_en": null, "amenity": "pharmacy", "shop": null, "tourism": null, "man_made": null}, "geometry": {"type": "Point", "coordinates": [79.865342, 6.848993]}}, {"type": "Feature", "properties": {"name": null, "name_en": "AMI Monteaaori housef children", "amenity": "childcare", "shop": null, "tourism": null, "man_made": null}, "geometry": {"type": "Point", "coordinates": [79.863685, 6.848999]}}, {"type": "Feature", "properties": {"name": null, "name_en": "cgr2", "amenity": null, "shop": null, "tourism": "apartment", "man_made": null}, "geometry": {"type": "Point", "coordinates": [79.862409, 6.848476]}}, {"type": "Feature", "properties": {"name": "Anu-Subodharamaya Temple", "name_en": null, "amenity": "place_of_worship", "shop": null, "tourism": null, "man_made": null}, "geometry": {"type": "Point", "coordinates": [79.872097, 6.845057]}}, {"type": "Feature", "properties": {"name": "Summer Soft Cotton", "name_en": null, "amenity": null, "shop": "clothes", "tourism": null, "man_made": null}, "geometry": {"type": "Point", "coordinates": [79.869505, 6.842608]}}, {"type": "Feature", "properties": {"name": "Sumanarama Temple", "name_en": null, "amenity": "place_of_worship", "shop": null, "tourism": null, "man_made": null}, "geometry": {"type": "Point", "coordinates": [79.870117, 6.840718]}}, {"type": "Feature", "properties": {"name": null, "name_en": "34/1/1 Sumanarama", "amenity": null, "shop": null, "tourism": "guest_house", "man_made": null}, "geometry": {"type": "Point", "coordinates": [79.869167, 6.840108]}}, {"type": "Feature", "properties": {"name": "34/1/1 Sumanarama Hostel", "name_en": "H\u00f4tel", "amenity": null, "shop": null, "tourism": "hostel", "man_made": null}, "geometry": {"type": "Point", "coordinates": [79.869326, 6.840157]}}, {"type": "Feature", "properties": {"name": "Najaa International School", "name_en": null, "amenity": "school", "shop": null, "tourism": null, "man_made": null}, "geometry": {"type": "Point", "coordinates": [79.869158, 6.83862]}}, {"type": "Feature", "properties": {"name": "Jumma Mosque", "name_en": null, "amenity": "place_of_worship", "shop": null, "tourism": null, "man_made": null}, "geometry": {"type": "Point", "coordinates": [79.869514, 6.837246]}}, {"type": "Feature", "properties": {"name": "Shashtrananda School", "name_en": null, "amenity": "place_of_worship", "shop": null, "tourism": null, "man_made": null}, "geometry": {"type": "Point", "coordinates": [79.874106, 6.843981]}}, {"type": "Feature", "properties": {"name": null, "name_en": null, "amenity": null, "shop": "convenience", "tourism": null, "man_made": null}, "geometry": {"type": "Point", "coordinates": [79.875554, 6.844228]}}, {"type": "Feature", "properties": {"name": null, "name_en": null, "amenity": null, "shop": null, "tourism": null, "man_made": null, "dest_group": "food", "source": "osm", "poi_id": "poi_0003"}, "geometry": {"type": "Point", "coordinates": [79.86245789999998, 6.8508443]}}, {"type": "Feature", "properties": {"name": null, "name_en": null, "amenity": null, "shop": null, "tourism": null, "man_made": null, "dest_group": "food", "source": "osm", "poi_id": "poi_0004"}, "geometry": {"type": "Point", "coordinates": [79.8657289, 6.851150700000001]}}, {"type": "Feature", "properties": {"name": null, "name_en": null, "amenity": null, "shop": null, "tourism": null, "man_made": null, "dest_group": "food", "source": "osm", "poi_id": "poi_0005"}, "geometry": {"type": "Point", "coordinates": [79.8671846, 6.8334886]}}, {"type": "Feature", "properties": {"name": null, "name_en": null, "amenity": null, "shop": null, "tourism": null, "man_made": null, "dest_group": "food", "source": "osm", "poi_id": "poi_0008"}, "geometry": {"type": "Point", "coordinates": [79.8675933, 6.8338757]}}, {"type": "Feature", "properties": {"name": null, "name_en": null, "amenity": null, "shop": null, "tourism": null, "man_made": null, "dest_group": "food", "source": "osm", "poi_id": "poi_0009"}, "geometry": {"type": "Point", "coordinates": [79.86841419999999, 6.8329838]}}, {"type": "Feature", "properties": {"name": null, "name_en": null, "amenity": null, "shop": null, "tourism": null, "man_made": null, "dest_group": "food", "source": "osm", "poi_id": "poi_0011"}, "geometry": {"type": "Point", "coordinates": [79.86751089999998, 6.8334512]}}, {"type": "Feature", "properties": {"name": null, "name_en": null, "amenity": null, "shop": null, "tourism": null, "man_made": null, "dest_group": "food", "source": "osm", "poi_id": "poi_0012"}, "geometry": {"type": "Point", "coordinates": [79.8675901, 6.8329743999999994]}}, {"type": "Feature", "properties": {"name": null, "name_en": null, "amenity": null, "shop": null, "tourism": null, "man_made": null, "dest_group": "food", "source": "osm", "poi_id": "poi_0013"}, "geometry": {"type": "Point", "coordinates": [79.86789529999999, 6.833024600000001]}}, {"type": "Feature", "properties": {"name": null, "name_en": null, "amenity": null, "shop": null, "tourism": null, "man_made": null, "dest_group": "food", "source": "osm", "poi_id": "poi_0014"}, "geometry": {"type": "Point", "coordinates": [79.86768029999999, 6.8319045]}}, {"type": "Feature", "properties": {"name": "AL-BARAKA", "name_en": "AL-BARAKA", "amenity": null, "shop": null, "tourism": null, "man_made": null, "dest_group": "food", "source": "osm", "poi_id": "poi_0020"}, "geometry": {"type": "Point", "coordinates": [79.86262879999998, 6.851398800000001]}}, {"type": "Feature", "properties": {"name": "Al-baraka", "name_en": "Al-baraka", "amenity": null, "shop": null, "tourism": null, "man_made": null, "dest_group": "food", "source": "osm", "poi_id": "poi_0022"}, "geometry": {"type": "Point", "coordinates": [79.8629631, 6.8510001]}}, {"type": "Feature", "properties": {"name": "Anura's Place", "name_en": "Anura's Place", "amenity": null, "shop": null, "tourism": null, "man_made": null, "dest_group": "food", "source": "osm", "poi_id": "poi_0023"}, "geometry": {"type": "Point", "coordinates": [79.8614268, 6.852808199999999]}}, {"type": "Feature", "properties": {"name": "As'sada", "name_en": "As'sada", "amenity": null, "shop": null, "tourism": null, "man_made": null, "dest_group": "food", "source": "osm", "poi_id": "poi_0025"}, "geometry": {"type": "Point", "coordinates": [79.86722589999998, 6.851238699999999]}}, {"type": "Feature", "properties": {"name": "Barista", "name_en": "Barista", "amenity": null, "shop": null, "tourism": null, "man_made": null, "dest_group": "food", "source": "osm", "poi_id": "poi_0026"}, "geometry": {"type": "Point", "coordinates": [79.8678351, 6.851220900000001]}}, {"type": "Feature", "properties": {"name": "Bloom Kandy", "name_en": "Bloom Kandy", "amenity": null, "shop": null, "tourism": null, "man_made": null, "dest_group": "food", "source": "osm", "poi_id": "poi_0029"}, "geometry": {"type": "Point", "coordinates": [79.86561249999998, 6.853284899999999]}}, {"type": "Feature", "properties": {"name": "Caravan fresh", "name_en": "Caravan fresh", "amenity": null, "shop": null, "tourism": null, "man_made": null, "dest_group": "food", "source": "osm", "poi_id": "poi_0031"}, "geometry": {"type": "Point", "coordinates": [79.8653421, 6.852292499999999]}}, {"type": "Feature", "properties": {"name": "Cargills Food City", "name_en": "Cargills Food City", "amenity": null, "shop": null, "tourism": null, "man_made": null, "dest_group": "food", "source": "osm", "poi_id": "poi_0033"}, "geometry": {"type": "Point", "coordinates": [79.86905319999998, 6.827707800000001]}}, {"type": "Feature", "properties": {"name": "Cargils Express", "name_en": "Cargils Express", "amenity": null, "shop": null, "tourism": null, "man_made": null, "dest_group": "food", "source": "osm", "poi_id": "poi_0035"}, "geometry": {"type": "Point", "coordinates": [79.86655949999998, 6.851318899999999]}}, {"type": "Feature", "properties": {"name": "Cargils foodcity", "name_en": "Cargils foodcity", "amenity": null, "shop": null, "tourism": null, "man_made": null, "dest_group": "food", "source": "osm", "poi_id": "poi_0036"}, "geometry": {"type": "Point", "coordinates": [79.86266819999999, 6.851068099999999]}}, {"type": "Feature", "properties": {"name": "Cargils foodcity", "name_en": "Cargils foodcity", "amenity": null, "shop": null, "tourism": null, "man_made": null, "dest_group": "food", "source": "osm", "poi_id": "poi_0037"}, "geometry": {"type": "Point", "coordinates": [79.8630749, 6.851906999999999]}}, {"type": "Feature", "properties": {"name": "Chamenka Guest House", "name_en": "Chamenka Guest House", "amenity": null, "shop": null, "tourism": null, "man_made": null, "dest_group": "food", "source": "osm", "poi_id": "poi_0040"}, "geometry": {"type": "Point", "coordinates": [79.87418950000001, 6.847246499999999]}}, {"type": "Feature", "properties": {"name": "Clock Inn Dehiwala", "name_en": "Clock Inn Dehiwala", "amenity": null, "shop": null, "tourism": null, "man_made": null, "dest_group": "food", "source": "osm", "poi_id": "poi_0041"}, "geometry": {"type": "Point", "coordinates": [79.8675939, 6.850877800000001]}}, {"type": "Feature", "properties": {"name": "Dehiwala Super Market Complex", "name_en": "Dehiwala Super Market Complex", "amenity": null, "shop": null, "tourism": null, "man_made": null, "dest_group": "food", "source": "osm", "poi_id": "poi_0043"}, "geometry": {"type": "Point", "coordinates": [79.8650976, 6.8510925]}}, {"type": "Feature", "properties": {"name": "Domino's", "name_en": "Domino's", "amenity": null, "shop": null, "tourism": null, "man_made": null, "dest_group": "food", "source": "osm", "poi_id": "poi_0045"}, "geometry": {"type": "Point", "coordinates": [79.86926469999999, 6.8270175]}}, {"type": "Feature", "properties": {"name": "Frangipani", "name_en": "Frangipani", "amenity": null, "shop": null, "tourism": null, "man_made": null, "dest_group": "food", "source": "osm", "poi_id": "poi_0047"}, "geometry": {"type": "Point", "coordinates": [79.8669764, 6.8508325999999995]}}, {"type": "Feature", "properties": {"name": "Gihans beach Resort", "name_en": "Gihans beach Resort", "amenity": null, "shop": null, "tourism": null, "man_made": null, "dest_group": "food", "source": "osm", "poi_id": "poi_0048"}, "geometry": {"type": "Point", "coordinates": [79.8614723, 6.852511499999999]}}, {"type": "Feature", "properties": {"name": "Harpo's Pizza & Pasta", "name_en": "Harpo's Pizza & Pasta", "amenity": null, "shop": null, "tourism": null, "man_made": null, "dest_group": "food", "source": "osm", "poi_id": "poi_0049"}, "geometry": {"type": "Point", "coordinates": [79.86612379999998, 6.850051500000001]}}, {"type": "Feature", "properties": {"name": "KAwdana Sapupakaraya", "name_en": "KAwdana Sapupakaraya", "amenity": null, "shop": null, "tourism": null, "man_made": null, "dest_group": "food", "source": "osm", "poi_id": "poi_0050"}, "geometry": {"type": "Point", "coordinates": [79.87203519999998, 6.845570599999999]}}, {"type": "Feature", "properties": {"name": "KFC", "name_en": "KFC", "amenity": null, "shop": null, "tourism": null, "man_made": null, "dest_group": "food", "source": "osm", "poi_id": "poi_0051"}, "geometry": {"type": "Point", "coordinates": [79.86791170000001, 6.8509393]}}, {"type": "Feature", "properties": {"name": "Keels Super", "name_en": "Keels Super", "amenity": null, "shop": null, "tourism": null, "man_made": null, "dest_group": "food", "source": "osm", "poi_id": "poi_0052"}, "geometry": {"type": "Point", "coordinates": [79.8739314, 6.8194371999999985]}}, {"type": "Feature", "properties": {"name": "Milano Hotel", "name_en": "Milano Hotel", "amenity": null, "shop": null, "tourism": null, "man_made": null, "dest_group": "food", "source": "osm", "poi_id": "poi_0058"}, "geometry": {"type": "Point", "coordinates": [79.8658303, 6.8506979]}}, {"type": "Feature", "properties": {"name": "P&S Bakers", "name_en": "P&S Bakers", "amenity": null, "shop": null, "tourism": null, "man_made": null, "dest_group": "food", "source": "osm", "poi_id": "poi_0063"}, "geometry": {"type": "Point", "coordinates": [79.86617879999999, 6.8497764]}}, {"type": "Feature", "properties": {"name": "Piyasena", "name_en": "Piyasena", "amenity": null, "shop": null, "tourism": null, "man_made": null, "dest_group": "food", "source": "osm", "poi_id": "poi_0064"}, "geometry": {"type": "Point", "coordinates": [79.86608239999998, 6.8492954]}}, {"type": "Feature", "properties": {"name": "Saravana Bawan", "name_en": "Saravana Bawan", "amenity": null, "shop": null, "tourism": null, "man_made": null, "dest_group": "food", "source": "osm", "poi_id": "poi_0068"}, "geometry": {"type": "Point", "coordinates": [79.86584069999999, 6.853660999999999]}}, {"type": "Feature", "properties": {"name": "Sumanadisi Bakery", "name_en": "Sumanadisi Bakery", "amenity": null, "shop": null, "tourism": null, "man_made": null, "dest_group": "food", "source": "osm", "poi_id": "poi_0074"}, "geometry": {"type": "Point", "coordinates": [79.8721663, 6.850891]}}, {"type": "Feature", "properties": {"name": "belta", "name_en": "belta", "amenity": null, "shop": null, "tourism": null, "man_made": null, "dest_group": "food", "source": "osm", "poi_id": "poi_0080"}, "geometry": {"type": "Point", "coordinates": [79.8722983, 6.8210621]}}, {"type": "Feature", "properties": {"name": "caravan fresh", "name_en": "caravan fresh", "amenity": null, "shop": null, "tourism": null, "man_made": null, "dest_group": "food", "source": "osm", "poi_id": "poi_0081"}, "geometry": {"type": "Point", "coordinates": [79.8653481, 6.8513934999999995]}}, {"type": "Feature", "properties": {"name": "foodcity", "name_en": "foodcity", "amenity": null, "shop": null, "tourism": null, "man_made": null, "dest_group": "food", "source": "osm", "poi_id": "poi_0082"}, "geometry": {"type": "Point", "coordinates": [79.86452890000001, 6.849665]}}, {"type": "Feature", "properties": {"name": "88 Spicy Hut", "name_en": "88 Spicy Hut", "amenity": null, "shop": null, "tourism": null, "man_made": null, "dest_group": "food", "source": "gmaps", "poi_id": "poi_0084"}, "geometry": {"type": "Point", "coordinates": [79.86939889999998, 6.831025899999999]}}, {"type": "Feature", "properties": {"name": "Al Bite Restaurant", "name_en": "Al Bite Restaurant", "amenity": null, "shop": null, "tourism": null, "man_made": null, "dest_group": "food", "source": "gmaps", "poi_id": "poi_0085"}, "geometry": {"type": "Point", "coordinates": [79.86624099999999, 6.8461346999999995]}}, {"type": "Feature", "properties": {"name": "Bakesloft", "name_en": "Bakesloft", "amenity": null, "shop": null, "tourism": null, "man_made": null, "dest_group": "food", "source": "gmaps", "poi_id": "poi_0088"}, "geometry": {"type": "Point", "coordinates": [79.8638915, 6.845169800000001]}}, {"type": "Feature", "properties": {"name": "Barista - Mount Lavinia", "name_en": "Barista - Mount Lavinia", "amenity": null, "shop": null, "tourism": null, "man_made": null, "dest_group": "food", "source": "gmaps", "poi_id": "poi_0089"}, "geometry": {"type": "Point", "coordinates": [79.86653619999998, 6.8425708]}}, {"type": "Feature", "properties": {"name": "Buba Beach Seafood Restaurant", "name_en": "Buba Beach Seafood Restaurant", "amenity": null, "shop": null, "tourism": null, "man_made": null, "dest_group": "food", "source": "gmaps", "poi_id": "poi_0091"}, "geometry": {"type": "Point", "coordinates": [79.86284769999999, 6.829500799999999]}}, {"type": "Feature", "properties": {"name": "Cakies cake corner", "name_en": "Cakies cake corner", "amenity": null, "shop": null, "tourism": null, "man_made": null, "dest_group": "food", "source": "gmaps", "poi_id": "poi_0093"}, "geometry": {"type": "Point", "coordinates": [79.86957579999999, 6.841578999999999]}}, {"type": "Feature", "properties": {"name": "Ceylon Tour Tech", "name_en": "Ceylon Tour Tech", "amenity": null, "shop": null, "tourism": null, "man_made": null, "dest_group": "food", "source": "gmaps", "poi_id": "poi_0096"}, "geometry": {"type": "Point", "coordinates": [79.86467149999999, 6.8444494]}}, {"type": "Feature", "properties": {"name": "Cooper", "name_en": "Cooper", "amenity": null, "shop": null, "tourism": null, "man_made": null, "dest_group": "food", "source": "gmaps", "poi_id": "poi_0097"}, "geometry": {"type": "Point", "coordinates": [79.86776479999999, 6.826635599999999]}}, {"type": "Feature", "properties": {"name": "Crepe Runner - Mount Lavinia", "name_en": "Crepe Runner - Mount Lavinia", "amenity": null, "shop": null, "tourism": null, "man_made": null, "dest_group": "food", "source": "gmaps", "poi_id": "poi_0098"}, "geometry": {"type": "Point", "coordinates": [79.86748119999999, 6.8357353]}}, {"type": "Feature", "properties": {"name": "D & G Spicy", "name_en": "D & G Spicy", "amenity": null, "shop": null, "tourism": null, "man_made": null, "dest_group": "food", "source": "gmaps", "poi_id": "poi_0100"}, "geometry": {"type": "Point", "coordinates": [79.86309309999999, 6.8440354999999995]}}, {"type": "Feature", "properties": {"name": "Dwaraka Indian Vegetarian Restaurant - Mount Lavinia", "name_en": "Dwaraka Indian Vegetarian Restaurant - Mount Lavinia", "amenity": null, "shop": null, "tourism": null, "man_made": null, "dest_group": "food", "source": "gmaps", "poi_id": "poi_0102"}, "geometry": {"type": "Point", "coordinates": [79.8663024, 6.831686499999998]}}, {"type": "Feature", "properties": {"name": "Earth Bistro - Mt Lavinia", "name_en": "Earth Bistro - Mt Lavinia", "amenity": null, "shop": null, "tourism": null, "man_made": null, "dest_group": "food", "source": "gmaps", "poi_id": "poi_0103"}, "geometry": {"type": "Point", "coordinates": [79.8709086, 6.832326499999999]}}, {"type": "Feature", "properties": {"name": "FOODADO", "name_en": "FOODADO", "amenity": null, "shop": null, "tourism": null, "man_made": null, "dest_group": "food", "source": "gmaps", "poi_id": "poi_0104"}, "geometry": {"type": "Point", "coordinates": [79.8655643, 6.846930800000001]}}, {"type": "Feature", "properties": {"name": "Fresh Khana", "name_en": "Fresh Khana", "amenity": null, "shop": null, "tourism": null, "man_made": null, "dest_group": "food", "source": "gmaps", "poi_id": "poi_0105"}, "geometry": {"type": "Point", "coordinates": [79.86996579999999, 6.845011499999999]}}, {"type": "Feature", "properties": {"name": "Full Meals Mushroom House", "name_en": "Full Meals Mushroom House", "amenity": null, "shop": null, "tourism": null, "man_made": null, "dest_group": "food", "source": "gmaps", "poi_id": "poi_0106"}, "geometry": {"type": "Point", "coordinates": [79.86516649999999, 6.8456156]}}, {"type": "Feature", "properties": {"name": "Gemi Rasa (\u0d9c\u0dd0\u0db8\u0dd2 \u0dbb\u0dc3) Restaurant", "name_en": "Gemi Rasa (\u0d9c\u0dd0\u0db8\u0dd2 \u0dbb\u0dc3) Restaurant", "amenity": null, "shop": null, "tourism": null, "man_made": null, "dest_group": "food", "source": "gmaps", "poi_id": "poi_0107"}, "geometry": {"type": "Point", "coordinates": [79.8668138, 6.823057099999999]}}, {"type": "Feature", "properties": {"name": "Governor's Restaurant", "name_en": "Governor's Restaurant", "amenity": null, "shop": null, "tourism": null, "man_made": null, "dest_group": "food", "source": "gmaps", "poi_id": "poi_0108"}, "geometry": {"type": "Point", "coordinates": [79.8619444, 6.833611100000001]}}, {"type": "Feature", "properties": {"name": "Haqiqi Biriyani", "name_en": "Haqiqi Biriyani", "amenity": null, "shop": null, "tourism": null, "man_made": null, "dest_group": "food", "source": "gmaps", "poi_id": "poi_0109"}, "geometry": {"type": "Point", "coordinates": [79.8659089, 6.8473889]}}, {"type": "Feature", "properties": {"name": "Heba's Kitchen", "name_en": "Heba's Kitchen", "amenity": null, "shop": null, "tourism": null, "man_made": null, "dest_group": "food", "source": "gmaps", "poi_id": "poi_0110"}, "geometry": {"type": "Point", "coordinates": [79.8674607, 6.8205544]}}, {"type": "Feature", "properties": {"name": "KOZY Kitchen", "name_en": "KOZY Kitchen", "amenity": null, "shop": null, "tourism": null, "man_made": null, "dest_group": "food", "source": "gmaps", "poi_id": "poi_0111"}, "geometry": {"type": "Point", "coordinates": [79.8682864, 6.834208499999999]}}, {"type": "Feature", "properties": {"name": "Krusty Kitchen", "name_en": "Krusty Kitchen", "amenity": null, "shop": null, "tourism": null, "man_made": null, "dest_group": "food", "source": "gmaps", "poi_id": "poi_0112"}, "geometry": {"type": "Point", "coordinates": [79.8694394, 6.833648099999998]}}, {"type": "Feature", "properties": {"name": "Lavinia Bay Sea Food Restaurant", "name_en": "Lavinia Bay Sea Food Restaurant", "amenity": null, "shop": null, "tourism": null, "man_made": null, "dest_group": "food", "source": "gmaps", "poi_id": "poi_0113"}, "geometry": {"type": "Point", "coordinates": [79.86360909999998, 6.8397649000000005]}}, {"type": "Feature", "properties": {"name": "Life style tea and coffee bar by Eshara & Hiruka", "name_en": "Life style tea and coffee bar by Eshara & Hiruka", "amenity": null, "shop": null, "tourism": null, "man_made": null, "dest_group": "food", "source": "gmaps", "poi_id": "poi_0114"}, "geometry": {"type": "Point", "coordinates": [79.8690135, 6.830680899999999]}}, {"type": "Feature", "properties": {"name": "Loon Tao", "name_en": "Loon Tao", "amenity": null, "shop": null, "tourism": null, "man_made": null, "dest_group": "food", "source": "gmaps", "poi_id": "poi_0115"}, "geometry": {"type": "Point", "coordinates": [79.8630945, 6.8391584]}}, {"type": "Feature", "properties": {"name": "Mamma's Kitchen", "name_en": "Mamma's Kitchen", "amenity": null, "shop": null, "tourism": null, "man_made": null, "dest_group": "food", "source": "gmaps", "poi_id": "poi_0117"}, "geometry": {"type": "Point", "coordinates": [79.86949119999998, 6.846331299999999]}}, {"type": "Feature", "properties": {"name": "Manna Deli", "name_en": "Manna Deli", "amenity": null, "shop": null, "tourism": null, "man_made": null, "dest_group": "food", "source": "gmaps", "poi_id": "poi_0118"}, "geometry": {"type": "Point", "coordinates": [79.86975349999999, 6.843589099999999]}}, {"type": "Feature", "properties": {"name": "MealZone", "name_en": "MealZone", "amenity": null, "shop": null, "tourism": null, "man_made": null, "dest_group": "food", "source": "gmaps", "poi_id": "poi_0120"}, "geometry": {"type": "Point", "coordinates": [79.8655041, 6.846248299999999]}}, {"type": "Feature", "properties": {"name": "Mullet's Restaurant", "name_en": "Mullet's Restaurant", "amenity": null, "shop": null, "tourism": null, "man_made": null, "dest_group": "food", "source": "gmaps", "poi_id": "poi_0121"}, "geometry": {"type": "Point", "coordinates": [79.87180009999999, 6.8315577]}}, {"type": "Feature", "properties": {"name": "Nesmart super", "name_en": "Nesmart super", "amenity": null, "shop": null, "tourism": null, "man_made": null, "dest_group": "food", "source": "gmaps", "poi_id": "poi_0122"}, "geometry": {"type": "Point", "coordinates": [79.8665135, 6.8435514999999985]}}, {"type": "Feature", "properties": {"name": "Nildiya Restaurant", "name_en": "Nildiya Restaurant", "amenity": null, "shop": null, "tourism": null, "man_made": null, "dest_group": "food", "source": "gmaps", "poi_id": "poi_0123"}, "geometry": {"type": "Point", "coordinates": [79.8676802, 6.8293256]}}, {"type": "Feature", "properties": {"name": "Nook Cafe@mount", "name_en": "Nook Cafe@mount", "amenity": null, "shop": null, "tourism": null, "man_made": null, "dest_group": "food", "source": "gmaps", "poi_id": "poi_0124"}, "geometry": {"type": "Point", "coordinates": [79.8682902, 6.8287957]}}, {"type": "Feature", "properties": {"name": "Olivia Restaurant and Bar", "name_en": "Olivia Restaurant and Bar", "amenity": null, "shop": null, "tourism": null, "man_made": null, "dest_group": "food", "source": "gmaps", "poi_id": "poi_0125"}, "geometry": {"type": "Point", "coordinates": [79.86332, 6.8348985]}}, {"type": "Feature", "properties": {"name": "Pathani Catering", "name_en": "Pathani Catering", "amenity": null, "shop": null, "tourism": null, "man_made": null, "dest_group": "food", "source": "gmaps", "poi_id": "poi_0126"}, "geometry": {"type": "Point", "coordinates": [79.8712977, 6.830341700000001]}}, {"type": "Feature", "properties": {"name": "RR CAFE", "name_en": "RR CAFE", "amenity": null, "shop": null, "tourism": null, "man_made": null, "dest_group": "food", "source": "gmaps", "poi_id": "poi_0127"}, "geometry": {"type": "Point", "coordinates": [79.87455069999999, 6.8424422]}}, {"type": "Feature", "properties": {"name": "Ranga's", "name_en": "Ranga's", "amenity": null, "shop": null, "tourism": null, "man_made": null, "dest_group": "food", "source": "gmaps", "poi_id": "poi_0128"}, "geometry": {"type": "Point", "coordinates": [79.8629826, 6.835368700000001]}}, {"type": "Feature", "properties": {"name": "Ranveli beach Mount Lavinia", "name_en": "Ranveli beach Mount Lavinia", "amenity": null, "shop": null, "tourism": null, "man_made": null, "dest_group": "food", "source": "gmaps", "poi_id": "poi_0129"}, "geometry": {"type": "Point", "coordinates": [79.8630058, 6.836351699999998]}}, {"type": "Feature", "properties": {"name": "Redmark", "name_en": "Redmark", "amenity": null, "shop": null, "tourism": null, "man_made": null, "dest_group": "food", "source": "gmaps", "poi_id": "poi_0130"}, "geometry": {"type": "Point", "coordinates": [79.86994559999998, 6.846062300000001]}}, {"type": "Feature", "properties": {"name": "Reef House Cafe", "name_en": "Reef House Cafe", "amenity": null, "shop": null, "tourism": null, "man_made": null, "dest_group": "food", "source": "gmaps", "poi_id": "poi_0131"}, "geometry": {"type": "Point", "coordinates": [79.86248099999999, 6.843629999999999]}}, {"type": "Feature", "properties": {"name": "Ruhunu Bath Kade - Mount Lavinia", "name_en": "Ruhunu Bath Kade - Mount Lavinia", "amenity": null, "shop": null, "tourism": null, "man_made": null, "dest_group": "food", "source": "gmaps", "poi_id": "poi_0132"}, "geometry": {"type": "Point", "coordinates": [79.8671622, 6.8348543]}}, {"type": "Feature", "properties": {"name": "S I Royal Shawarma", "name_en": "S I Royal Shawarma", "amenity": null, "shop": null, "tourism": null, "man_made": null, "dest_group": "food", "source": "gmaps", "poi_id": "poi_0133"}, "geometry": {"type": "Point", "coordinates": [79.8702397, 6.847199699999999]}}, {"type": "Feature", "properties": {"name": "SEVEN ELEVEN CAFE PVT LTD", "name_en": "SEVEN ELEVEN CAFE PVT LTD", "amenity": null, "shop": null, "tourism": null, "man_made": null, "dest_group": "food", "source": "gmaps", "poi_id": "poi_0134"}, "geometry": {"type": "Point", "coordinates": [79.8712096, 6.839005300000001]}}, {"type": "Feature", "properties": {"name": "SHAWARMAS DEHIWALA", "name_en": "SHAWARMAS DEHIWALA", "amenity": null, "shop": null, "tourism": null, "man_made": null, "dest_group": "food", "source": "gmaps", "poi_id": "poi_0135"}, "geometry": {"type": "Point", "coordinates": [79.8655761, 6.848833600000001]}}, {"type": "Feature", "properties": {"name": "SILK", "name_en": "SILK", "amenity": null, "shop": null, "tourism": null, "man_made": null, "dest_group": "food", "source": "gmaps", "poi_id": "poi_0136"}, "geometry": {"type": "Point", "coordinates": [79.86432569999998, 6.843127599999999]}}, {"type": "Feature", "properties": {"name": "Sandpit Cafe Mount Lavinia", "name_en": "Sandpit Cafe Mount Lavinia", "amenity": null, "shop": null, "tourism": null, "man_made": null, "dest_group": "food", "source": "gmaps", "poi_id": "poi_0137"}, "geometry": {"type": "Point", "coordinates": [79.86617179999999, 6.8417774]}}, {"type": "Feature", "properties": {"name": "Senior Quality Executive", "name_en": "Senior Quality Executive", "amenity": null, "shop": null, "tourism": null, "man_made": null, "dest_group": "food", "source": "gmaps", "poi_id": "poi_0138"}, "geometry": {"type": "Point", "coordinates": [79.86602169999999, 6.8432851999999995]}}, {"type": "Feature", "properties": {"name": "Shani Snack Bar", "name_en": "Shani Snack Bar", "amenity": null, "shop": null, "tourism": null, "man_made": null, "dest_group": "food", "source": "gmaps", "poi_id": "poi_0139"}, "geometry": {"type": "Point", "coordinates": [79.8676423, 6.838820999999999]}}, {"type": "Feature", "properties": {"name": "Sharifa caterings", "name_en": "Sharifa caterings", "amenity": null, "shop": null, "tourism": null, "man_made": null, "dest_group": "food", "source": "gmaps", "poi_id": "poi_0140"}, "geometry": {"type": "Point", "coordinates": [79.8705107, 6.841622900000001]}}, {"type": "Feature", "properties": {"name": "Spiceland Restaurant", "name_en": "Spiceland Restaurant", "amenity": null, "shop": null, "tourism": null, "man_made": null, "dest_group": "food", "source": "gmaps", "poi_id": "poi_0141"}, "geometry": {"type": "Point", "coordinates": [79.86654140000002, 6.847540499999999]}}, {"type": "Feature", "properties": {"name": "Subway - Mount Lavinia", "name_en": "Subway - Mount Lavinia", "amenity": null, "shop": null, "tourism": null, "man_made": null, "dest_group": "food", "source": "gmaps", "poi_id": "poi_0142"}, "geometry": {"type": "Point", "coordinates": [79.8671235, 6.836352099999998]}}, {"type": "Feature", "properties": {"name": "The Angler", "name_en": "The Angler", "amenity": null, "shop": null, "tourism": null, "man_made": null, "dest_group": "food", "source": "gmaps", "poi_id": "poi_0144"}, "geometry": {"type": "Point", "coordinates": [79.8641661, 6.833357600000001]}}, {"type": "Feature", "properties": {"name": "The Monarch Store & Cafe", "name_en": "The Monarch Store & Cafe", "amenity": null, "shop": null, "tourism": null, "man_made": null, "dest_group": "food", "source": "gmaps", "poi_id": "poi_0145"}, "geometry": {"type": "Point", "coordinates": [79.86798299999998, 6.829744900000001]}}, {"type": "Feature", "properties": {"name": "The Mount Bakers", "name_en": "The Mount Bakers", "amenity": null, "shop": null, "tourism": null, "man_made": null, "dest_group": "food", "source": "gmaps", "poi_id": "poi_0146"}, "geometry": {"type": "Point", "coordinates": [79.86750069999998, 6.8354067]}}, {"type": "Feature", "properties": {"name": "The fresh made", "name_en": "The fresh made", "amenity": null, "shop": null, "tourism": null, "man_made": null, "dest_group": "food", "source": "gmaps", "poi_id": "poi_0148"}, "geometry": {"type": "Point", "coordinates": [79.87186409999998, 6.844195599999999]}}, {"type": "Feature", "properties": {"name": "Time 2 Eat", "name_en": "Time 2 Eat", "amenity": null, "shop": null, "tourism": null, "man_made": null, "dest_group": "food", "source": "gmaps", "poi_id": "poi_0149"}, "geometry": {"type": "Point", "coordinates": [79.8661387, 6.847199599999999]}}, {"type": "Feature", "properties": {"name": "Umay Kitchen", "name_en": "Umay Kitchen", "amenity": null, "shop": null, "tourism": null, "man_made": null, "dest_group": "food", "source": "gmaps", "poi_id": "poi_0150"}, "geometry": {"type": "Point", "coordinates": [79.86874059999998, 6.8215723]}}, {"type": "Feature", "properties": {"name": "Wadiya by Rasa Malaysia Beach Restaurant", "name_en": "Wadiya by Rasa Malaysia Beach Restaurant", "amenity": null, "shop": null, "tourism": null, "man_made": null, "dest_group": "food", "source": "gmaps", "poi_id": "poi_0151"}, "geometry": {"type": "Point", "coordinates": [79.8631369, 6.838735400000001]}}, {"type": "Feature", "properties": {"name": "abdhullaah foods", "name_en": "abdhullaah foods", "amenity": null, "shop": null, "tourism": null, "man_made": null, "dest_group": "food", "source": "gmaps", "poi_id": "poi_0152"}, "geometry": {"type": "Point", "coordinates": [79.8656242, 6.824712799999999]}}, {"type": "Feature", "properties": {"name": "Navajeevana Health care centre", "name_en": "Navajeevana Health care centre", "amenity": null, "shop": null, "tourism": null, "man_made": null, "dest_group": "health", "source": "osm", "poi_id": "poi_0156"}, "geometry": {"type": "Point", "coordinates": [79.8647643, 6.851488800000001]}}, {"type": "Feature", "properties": {"name": "Siddhalepa", "name_en": "Siddhalepa", "amenity": null, "shop": null, "tourism": null, "man_made": null, "dest_group": "health", "source": "osm", "poi_id": "poi_0157"}, "geometry": {"type": "Point", "coordinates": [79.87732169999998, 6.831185399999999]}}, {"type": "Feature", "properties": {"name": "Sri Jeewarakshaka Bhayshajyalaya", "name_en": "Sri Jeewarakshaka Bhayshajyalaya", "amenity": null, "shop": null, "tourism": null, "man_made": null, "dest_group": "health", "source": "osm", "poi_id": "poi_0158"}, "geometry": {"type": "Point", "coordinates": [79.8660313, 6.8522186]}}, {"type": "Feature", "properties": {"name": "dehiwal urban health muster", "name_en": "dehiwal urban health muster", "amenity": null, "shop": null, "tourism": null, "man_made": null, "dest_group": "health", "source": "osm", "poi_id": "poi_0159"}, "geometry": {"type": "Point", "coordinates": [79.8650781, 6.8494075]}}, {"type": "Feature", "properties": {"name": "Healthcare Pharmacy (Pvt) Ltd", "name_en": "Healthcare Pharmacy (Pvt) Ltd", "amenity": null, "shop": null, "tourism": null, "man_made": null, "dest_group": "health", "source": "gmaps", "poi_id": "poi_0161"}, "geometry": {"type": "Point", "coordinates": [79.86853449999998, 6.829017399999999]}}, {"type": "Feature", "properties": {"name": "Medix Pharmacy", "name_en": "Medix Pharmacy", "amenity": null, "shop": null, "tourism": null, "man_made": null, "dest_group": "health", "source": "gmaps", "poi_id": "poi_0163"}, "geometry": {"type": "Point", "coordinates": [79.8708175, 6.8390393]}}, {"type": "Feature", "properties": {"name": null, "name_en": null, "amenity": null, "shop": null, "tourism": null, "man_made": null, "dest_group": "transit", "source": "osm", "poi_id": "poi_0165"}, "geometry": {"type": "Point", "coordinates": [79.8673845, 6.8375563]}}, {"type": "Feature", "properties": {"name": null, "name_en": null, "amenity": null, "shop": null, "tourism": null, "man_made": null, "dest_group": "transit", "source": "osm", "poi_id": "poi_0166"}, "geometry": {"type": "Point", "coordinates": [79.8662705, 6.844588199999999]}}, {"type": "Feature", "properties": {"name": null, "name_en": null, "amenity": null, "shop": null, "tourism": null, "man_made": null, "dest_group": "transit", "source": "osm", "poi_id": "poi_0167"}, "geometry": {"type": "Point", "coordinates": [79.87128509999998, 6.8225850999999995]}}, {"type": "Feature", "properties": {"name": null, "name_en": null, "amenity": null, "shop": null, "tourism": null, "man_made": null, "dest_group": "transit", "source": "osm", "poi_id": "poi_0168"}, "geometry": {"type": "Point", "coordinates": [79.8735358, 6.819409499999999]}}, {"type": "Feature", "properties": {"name": "CTB Depot", "name_en": "CTB Depot", "amenity": null, "shop": null, "tourism": null, "man_made": null, "dest_group": "transit", "source": "osm", "poi_id": "poi_0172"}, "geometry": {"type": "Point", "coordinates": [79.8686977, 6.826173299999999]}}, {"type": "Feature", "properties": {"name": "Dehiwala Junction", "name_en": "Dehiwala Junction", "amenity": null, "shop": null, "tourism": null, "man_made": null, "dest_group": "transit", "source": "osm", "poi_id": "poi_0176"}, "geometry": {"type": "Point", "coordinates": [79.8658814, 6.851820299999999]}}, {"type": "Feature", "properties": {"name": "Karagampitiya", "name_en": "Karagampitiya", "amenity": null, "shop": null, "tourism": null, "man_made": null, "dest_group": "transit", "source": "osm", "poi_id": "poi_0179"}, "geometry": {"type": "Point", "coordinates": [79.8720234, 6.850417599999999]}}, {"type": "Feature", "properties": {"name": "Mount Lavinia Police Station halt", "name_en": "Mount Lavinia Police Station halt", "amenity": null, "shop": null, "tourism": null, "man_made": null, "dest_group": "transit", "source": "osm", "poi_id": "poi_0183"}, "geometry": {"type": "Point", "coordinates": [79.86975249999999, 6.825442299999998]}}, {"type": "Feature", "properties": {"name": "Bus Stop", "name_en": "Bus Stop", "amenity": null, "shop": null, "tourism": null, "man_made": null, "dest_group": "transit", "source": "gmaps", "poi_id": "poi_0186"}, "geometry": {"type": "Point", "coordinates": [79.8675799, 6.8377605]}}, {"type": "Feature", "properties": {"name": null, "name_en": null, "amenity": null, "shop": null, "tourism": null, "man_made": null, "dest_group": "education", "source": "osm", "poi_id": "poi_0189"}, "geometry": {"type": "Point", "coordinates": [79.8656927, 6.8322327000000005]}}, {"type": "Feature", "properties": {"name": null, "name_en": null, "amenity": null, "shop": null, "tourism": null, "man_made": null, "dest_group": "education", "source": "osm", "poi_id": "poi_0190"}, "geometry": {"type": "Point", "coordinates": [79.86358959999998, 6.850215499999999]}}, {"type": "Feature", "properties": {"name": "Faculty of Engineering", "name_en": "Faculty of Engineering", "amenity": null, "shop": null, "tourism": null, "man_made": null, "dest_group": "education", "source": "osm", "poi_id": "poi_0192"}, "geometry": {"type": "Point", "coordinates": [79.87303849999999, 6.825584]}}, {"type": "Feature", "properties": {"name": "MSTI", "name_en": "MSTI", "amenity": null, "shop": null, "tourism": null, "man_made": null, "dest_group": "education", "source": "osm", "poi_id": "poi_0196"}, "geometry": {"type": "Point", "coordinates": [79.8639902, 6.8511163999999996]}}, {"type": "Feature", "properties": {"name": "Presbyterian Girls School", "name_en": "Presbyterian Girls School", "amenity": null, "shop": null, "tourism": null, "man_made": null, "dest_group": "education", "source": "osm", "poi_id": "poi_0199"}, "geometry": {"type": "Point", "coordinates": [79.8633844, 6.850498000000001]}}, {"type": "Feature", "properties": {"name": "Science College", "name_en": "Science College", "amenity": null, "shop": null, "tourism": null, "man_made": null, "dest_group": "education", "source": "osm", "poi_id": "poi_0200"}, "geometry": {"type": "Point", "coordinates": [79.8764537, 6.830135099999999]}}, {"type": "Feature", "properties": {"name": "St. Thomas College", "name_en": "St. Thomas College", "amenity": null, "shop": null, "tourism": null, "man_made": null, "dest_group": "education", "source": "osm", "poi_id": "poi_0201"}, "geometry": {"type": "Point", "coordinates": [79.8653408, 6.837151799999999]}}, {"type": "Feature", "properties": {"name": "Subodha adarsha kanishta vidyalaya", "name_en": "Subodha adarsha kanishta vidyalaya", "amenity": null, "shop": null, "tourism": null, "man_made": null, "dest_group": "education", "source": "osm", "poi_id": "poi_0202"}, "geometry": {"type": "Point", "coordinates": [79.867935, 6.849237599999999]}}, {"type": "Feature", "properties": {"name": "Sumaga Vidyalaya", "name_en": "Sumaga Vidyalaya", "amenity": null, "shop": null, "tourism": null, "man_made": null, "dest_group": "education", "source": "osm", "poi_id": "poi_0203"}, "geometry": {"type": "Point", "coordinates": [79.87013859999999, 6.848451599999999]}}, {"type": "Feature", "properties": {"name": "the briish iinternational pre school", "name_en": "the briish iinternational pre school", "amenity": null, "shop": null, "tourism": null, "man_made": null, "dest_group": "education", "source": "osm", "poi_id": "poi_0206"}, "geometry": {"type": "Point", "coordinates": [79.8660181, 6.850397899999999]}}, {"type": "Feature", "properties": {"name": null, "name_en": null, "amenity": null, "shop": null, "tourism": null, "man_made": null, "dest_group": "finance", "source": "osm", "poi_id": "poi_0208"}, "geometry": {"type": "Point", "coordinates": [79.87374909999998, 6.829748]}}, {"type": "Feature", "properties": {"name": null, "name_en": null, "amenity": null, "shop": null, "tourism": null, "man_made": null, "dest_group": "finance", "source": "osm", "poi_id": "poi_0209"}, "geometry": {"type": "Point", "coordinates": [79.87391009999999, 6.8314188]}}, {"type": "Feature", "properties": {"name": null, "name_en": null, "amenity": null, "shop": null, "tourism": null, "man_made": null, "dest_group": "finance", "source": "osm", "poi_id": "poi_0211"}, "geometry": {"type": "Point", "coordinates": [79.8658046, 6.8515598]}}, {"type": "Feature", "properties": {"name": null, "name_en": null, "amenity": null, "shop": null, "tourism": null, "man_made": null, "dest_group": "finance", "source": "osm", "poi_id": "poi_0212"}, "geometry": {"type": "Point", "coordinates": [79.86658549999999, 6.8525561]}}, {"type": "Feature", "properties": {"name": null, "name_en": null, "amenity": null, "shop": null, "tourism": null, "man_made": null, "dest_group": "finance", "source": "osm", "poi_id": "poi_0213"}, "geometry": {"type": "Point", "coordinates": [79.8643661, 6.851285599999999]}}, {"type": "Feature", "properties": {"name": null, "name_en": null, "amenity": null, "shop": null, "tourism": null, "man_made": null, "dest_group": "finance", "source": "osm", "poi_id": "poi_0214"}, "geometry": {"type": "Point", "coordinates": [79.8658459, 6.852818099999999]}}, {"type": "Feature", "properties": {"name": null, "name_en": null, "amenity": null, "shop": null, "tourism": null, "man_made": null, "dest_group": "finance", "source": "osm", "poi_id": "poi_0215"}, "geometry": {"type": "Point", "coordinates": [79.86154729999998, 6.8509325]}}, {"type": "Feature", "properties": {"name": "Bank of Ceylon", "name_en": "Bank of Ceylon", "amenity": null, "shop": null, "tourism": null, "man_made": null, "dest_group": "finance", "source": "osm", "poi_id": "poi_0219"}, "geometry": {"type": "Point", "coordinates": [79.8659759, 6.852548999999998]}}, {"type": "Feature", "properties": {"name": "Commercial Attidiya", "name_en": "Commercial Attidiya", "amenity": null, "shop": null, "tourism": null, "man_made": null, "dest_group": "finance", "source": "osm", "poi_id": "poi_0221"}, "geometry": {"type": "Point", "coordinates": [79.87319599999998, 6.819915199999998]}}, {"type": "Feature", "properties": {"name": "Commercial Bank of Ceylon", "name_en": "Commercial Bank of Ceylon", "amenity": null, "shop": null, "tourism": null, "man_made": null, "dest_group": "finance", "source": "osm", "poi_id": "poi_0223"}, "geometry": {"type": "Point", "coordinates": [79.8725796, 6.821208899999999]}}, {"type": "Feature", "properties": {"name": "Commercial Bank of Ceylon", "name_en": "Commercial Bank of Ceylon", "amenity": null, "shop": null, "tourism": null, "man_made": null, "dest_group": "finance", "source": "osm", "poi_id": "poi_0224"}, "geometry": {"type": "Point", "coordinates": [79.8670411, 6.8407391]}}, {"type": "Feature", "properties": {"name": "HNB", "name_en": "HNB", "amenity": null, "shop": null, "tourism": null, "man_made": null, "dest_group": "finance", "source": "osm", "poi_id": "poi_0227"}, "geometry": {"type": "Point", "coordinates": [79.86570559999998, 6.852492499999999]}}, {"type": "Feature", "properties": {"name": "LOLC inance", "name_en": "LOLC inance", "amenity": null, "shop": null, "tourism": null, "man_made": null, "dest_group": "finance", "source": "osm", "poi_id": "poi_0229"}, "geometry": {"type": "Point", "coordinates": [79.8658779, 6.849750900000001]}}, {"type": "Feature", "properties": {"name": "People's Bank", "name_en": "People's Bank", "amenity": null, "shop": null, "tourism": null, "man_made": null, "dest_group": "finance", "source": "osm", "poi_id": "poi_0232"}, "geometry": {"type": "Point", "coordinates": [79.86426319999998, 6.850875600000001]}}, {"type": "Feature", "properties": {"name": "SDB bank Dehiwala Branch", "name_en": "SDB bank Dehiwala Branch", "amenity": null, "shop": null, "tourism": null, "man_made": null, "dest_group": "finance", "source": "osm", "poi_id": "poi_0234"}, "geometry": {"type": "Point", "coordinates": [79.86609419999999, 6.848157699999999]}}, {"type": "Feature", "properties": {"name": "Sampath Bank", "name_en": "Sampath Bank", "amenity": null, "shop": null, "tourism": null, "man_made": null, "dest_group": "finance", "source": "osm", "poi_id": "poi_0235"}, "geometry": {"type": "Point", "coordinates": [79.8710449, 6.8233451]}}, {"type": "Feature", "properties": {"name": "NSB Mount Lavinia", "name_en": "NSB Mount Lavinia", "amenity": null, "shop": null, "tourism": null, "man_made": null, "dest_group": "finance", "source": "gmaps", "poi_id": "poi_0242"}, "geometry": {"type": "Point", "coordinates": [79.86707199999998, 6.8345318]}}, {"type": "Feature", "properties": {"name": null, "name_en": null, "amenity": null, "shop": null, "tourism": null, "man_made": null, "dest_group": "open_space", "source": "osm", "poi_id": "poi_0246"}, "geometry": {"type": "Point", "coordinates": [79.8633072, 6.8322012999999995]}}, {"type": "Feature", "properties": {"name": null, "name_en": null, "amenity": null, "shop": null, "tourism": null, "man_made": null, "dest_group": "open_space", "source": "osm", "poi_id": "poi_0248"}, "geometry": {"type": "Point", "coordinates": [79.870423, 6.8345829]}}, {"type": "Feature", "properties": {"name": null, "name_en": null, "amenity": null, "shop": null, "tourism": null, "man_made": null, "dest_group": "open_space", "source": "osm", "poi_id": "poi_0249"}, "geometry": {"type": "Point", "coordinates": [79.86895859999998, 6.821933399999998]}}, {"type": "Feature", "properties": {"name": null, "name_en": null, "amenity": null, "shop": null, "tourism": null, "man_made": null, "dest_group": "open_space", "source": "osm", "poi_id": "poi_0250"}, "geometry": {"type": "Point", "coordinates": [79.86919459999999, 6.821504]}}, {"type": "Feature", "properties": {"name": null, "name_en": null, "amenity": null, "shop": null, "tourism": null, "man_made": null, "dest_group": "open_space", "source": "osm", "poi_id": "poi_0251"}, "geometry": {"type": "Point", "coordinates": [79.8688499, 6.821112499999998]}}, {"type": "Feature", "properties": {"name": null, "name_en": null, "amenity": null, "shop": null, "tourism": null, "man_made": null, "dest_group": "open_space", "source": "osm", "poi_id": "poi_0252"}, "geometry": {"type": "Point", "coordinates": [79.87017499999999, 6.819354199999999]}}, {"type": "Feature", "properties": {"name": "Childern park", "name_en": "Childern park", "amenity": null, "shop": null, "tourism": null, "man_made": null, "dest_group": "open_space", "source": "osm", "poi_id": "poi_0253"}, "geometry": {"type": "Point", "coordinates": [79.8664519, 6.8448385]}}, {"type": "Feature", "properties": {"name": "Beach", "name_en": "Beach", "amenity": null, "shop": null, "tourism": null, "man_made": null, "dest_group": "open_space", "source": "gmaps", "poi_id": "poi_0254"}, "geometry": {"type": "Point", "coordinates": [79.863693, 6.834962]}}, {"type": "Feature", "properties": {"name": "Mount Lavinia Children's Park", "name_en": "Mount Lavinia Children's Park", "amenity": null, "shop": null, "tourism": null, "man_made": null, "dest_group": "open_space", "source": "gmaps", "poi_id": "poi_0255"}, "geometry": {"type": "Point", "coordinates": [79.8637656, 6.832437499999999]}}, {"type": "Feature", "properties": {"name": "Mount Lavinia Children\u2019s Park basketball court", "name_en": "Mount Lavinia Children\u2019s Park basketball court", "amenity": null, "shop": null, "tourism": null, "man_made": null, "dest_group": "open_space", "source": "gmaps", "poi_id": "poi_0256"}, "geometry": {"type": "Point", "coordinates": [79.8638825, 6.832064]}}, {"type": "Feature", "properties": {"name": "Netz Premier", "name_en": "Netz Premier", "amenity": null, "shop": null, "tourism": null, "man_made": null, "dest_group": "open_space", "source": "gmaps", "poi_id": "poi_0257"}, "geometry": {"type": "Point", "coordinates": [79.8665625, 6.841312499999999]}}]}