{"type":"FeatureCollection","features":[{"type":"Feature","properties":{"id":"way/482545335","name":"Coastal Line","name_en":null,"name_si":null,"name_ta":null,"railway":"rail","ele":null,"operator_t":null,"layer":null,"addr_full":null,"addr_city":null,"source":null,"adm0_pcode":"LKA","adm0_name":"Sri Lanka","adm1_pcode":"LK1","adm1_name":"Western","adm2_pcode":"LK11","adm2_name":"Colombo","adm3_pcode":"LK1131","adm3_name":"Ratmalana","adm4_pcode":"LK1131005","adm4_name":"Mount Lavinia","name_latin":"Coastal Line"},"geometry":{"type":"MultiLineString","coordinates":[[[79.862526,6.832319],[79.862431,6.83284]]]}},{"type":"Feature","properties":{"id":"way/482545333","name":"Coastal Line","name_en":null,"name_si":null,"name_ta":null,"railway":"rail","ele":null,"operator_t":null,"layer":null,"addr_full":null,"addr_city":null,"source":null,"adm0_pcode":"LKA","adm0_name":"Sri Lanka","adm1_pcode":"LK1","adm1_name":"Western","adm2_pcode":"LK11","adm2_name":"Colombo","adm3_pcode":"LK1131","adm3_name":"Ratmalana","adm4_pcode":"LK1131005","adm4_name":"Mount Lavinia","name_latin":"Coastal Line"},"geometry":{"type":"MultiLineString","coordinates":[[[79.862464,6.832325],[79.862523,6.832016],[79.862592,6.831696],[79.862992,6.829846],[79.863219,6.828671]]]}},{"type":"Feature","properties":{"id":"way/482545334","name":"Coastal Line","name_en":null,"name_si":null,"name_ta":null,"railway":"rail","ele":null,"operator_t":null,"layer":null,"addr_full":null,"addr_city":null,"source":null,"adm0_pcode":"LKA","adm0_name":"Sri Lanka","adm1_pcode":"LK1","adm1_name":"Western","adm2_pcode":"LK11","adm2_name":"Colombo","adm3_pcode":"LK1131","adm3_name":"Ratmalana","adm4_pcode":"LK1131005","adm4_name":"Mount Lavinia","name_latin":"Coastal Line"},"geometry":{"type":"MultiLineString","coordinates":[[[79.862467,6.832841],[79.862559,6.832322],[79.862722,6.831713],[79.862984,6.830735],[79.86305,6.830284],[79.863095,6.829696]]]}},{"type":"Feature","properties":{"id":"way/482545337","name":"Coastal Line","name_en":null,"name_si":null,"name_ta":null,"railway":"rail","ele":null,"operator_t":null,"layer":null,"addr_full":null,"addr_city":null,"source":null,"adm0_pcode":"LKA","adm0_name":"Sri Lanka","adm1_pcode":"LK1","adm1_name":"Western","adm2_pcode":"LK11","adm2_name":"Colombo","adm3_pcode":"LK1131","adm3_name":"Ratmalana","adm4_pcode":"LK1131050","adm4_name":"Vihara","name_latin":"Coastal Line"},"geometry":{"type":"MultiLineString","coordinates":[[[79.862511,6.849026],[79.862617,6.848413],[79.862677,6.848026],[79.862727,6.847666],[79.862784,6.847202],[79.862812,6.846773],[79.862825,6.846045],[79.862839,6.844982],[79.862848,6.844317],[79.862857,6.843622],[79.862867,6.842896],[79.862873,6.842536],[79.862902,6.842186],[79.862993,6.841461],[79.863222,6.839626],[79.863437,6.837968],[79.863504,6.837367],[79.863517,6.837031],[79.863494,6.836725],[79.86345,6.836464],[79.863383,6.836164],[79.863287,6.8359],[79.863151,6.835567],[79.862876,6.834988],[79.86271,6.834587],[79.862591,6.83426],[79.862515,6.833932],[79.86247,6.833617],[79.862451,6.833335],[79.862467,6.832841],[79.862526,6.832319],[79.862616,6.831977],[79.862692,6.83171],[79.862826,6.831241],[79.862938,6.830726],[79.863014,6.830285],[79.863095,6.829696],[79.863219,6.828671],[79.863289,6.828178],[79.863349,6.82758],[79.863415,6.827129],[79.863507,6.826605],[79.863617,6.826044],[79.863944,6.824306],[79.864119,6.823433],[79.864189,6.823139],[79.864281,6.822835],[79.86514,6.820155],[79.865385,6.819417]]]}},{"type":"Feature","properties":{"id":"way/98371190","name":"Coastal Line","name_en":null,"name_si":null,"name_ta":null,"railway":"rail","ele":null,"operator_t":null,"layer":null,"addr_full":null,"addr_city":null,"source":null,"adm0_pcode":"LKA","adm0_name":"Sri Lanka","adm1_pcode":"LK1","adm1_name":"Western","adm2_pcode":"LK11","adm2_name":"Colombo","adm3_pcode":"LK1131","adm3_name":"Ratmalana","adm4_pcode":"LK1131045","adm4_name":"Wedikanda","name_latin":"Coastal Line"},"geometry":{"type":"MultiLineString","coordinates":[[[79.862432,6.84901],[79.862554,6.848433],[79.862631,6.848028],[79.862691,6.847661],[79.862748,6.847199],[79.862776,6.846771],[79.862789,6.846044],[79.862803,6.844982],[79.862812,6.844316],[79.862831,6.842895],[79.862837,6.842534],[79.862866,6.842183],[79.862957,6.841457],[79.863186,6.839621],[79.8634,6.837963],[79.863468,6.837364],[79.86348,6.837031],[79.863458,6.836729],[79.863414,6.836471],[79.863348,6.836174],[79.863253,6.835913],[79.863118,6.835582],[79.862843,6.835002],[79.862676,6.834599],[79.862557,6.83427],[79.862479,6.833938],[79.862434,6.833621],[79.862414,6.833335],[79.862431,6.83284],[79.862464,6.832325],[79.862498,6.832019],[79.862565,6.831684],[79.862762,6.830757],[79.862957,6.829838],[79.863112,6.829082],[79.863183,6.828665],[79.863253,6.828174],[79.863313,6.827576],[79.863379,6.827123],[79.863472,6.826599],[79.863582,6.826037],[79.863909,6.824299],[79.864083,6.823425],[79.864154,6.82313],[79.864246,6.822824],[79.865106,6.820144],[79.865351,6.819405]]]}}]}