{
"type": "FeatureCollection",
"crs": { "type": "name", "properties": { "name": "urn:ogc:def:crs:EPSG::32644" } },
"features": [
{ "type": "Feature", "properties": { "Shape_Leng": 0.05307524631, "Shape_Area": 9.214917e-05, "ADM4_EN": "Mount Lavinia", "ADM4_SI": "ගල්කිස්ස", "ADM4_TA": null, "ADM4_PCODE": "LK1131005", "ADM4_REF": null, "ADM3_EN": "Ratmalana", "ADM3_SI": "රත්මලාන", "ADM3_TA": "இரத்மலானை", "ADM3_PCODE": "LK1131", "ADM2_EN": "Colombo", "ADM2_SI": "කොළඹ දිස්ත්‍රික්ක", "ADM2_TA": "கொழும்பு மாவட்டம்", "ADM2_PCODE": "LK11", "ADM1_EN": "Western", "ADM1_SI": "බස්නාහිර පළාත", "ADM1_TA": "மேல் மாகாணம் ", "ADM1_PCODE": "LK1", "ADM0_EN": "Sri Lanka", "ADM0_SI": "ශ්‍රී ලංකා", "ADM0_TA": "இலங்கை", "ADM0_PCODE": "LK", "date": "2022-08-02", "validOn": "2022-08-16", "validTo": null, "area": 1.126, "zone": "mount_lavinia_gn" }, "geometry": { "type": "Polygon", "coordinates": [ [ [ 374699.370825015823357, 757201.847224331577308 ], [ 374699.370042004680727, 757201.515523290960118 ], [ 374698.755387295503169, 757175.201878466992639 ], [ 374698.754343312582932, 757174.75961041636765 ], [ 374698.845015155035071, 757166.356256615370512 ], [ 374699.801069929555524, 757103.219885028200224 ], [ 374701.05252564244438, 757071.594590729451738 ], [ 374702.192695545963943, 757039.637856864486821 ], [ 374702.298245333426166, 757037.536822950583883 ], [ 374705.716813696664758, 756987.662758791586384 ], [ 374712.29786183394026, 756919.869281443883665 ], [ 374714.673731463495642, 756896.423341993475333 ], [ 374722.012989854498301, 756822.104594555799849 ], [ 374725.046708138834219, 756796.445754026295617 ], [ 374727.968880036321934, 756770.344907109509222 ], [ 374728.402828325866722, 756766.916287920088507 ], [ 374731.642709670588374, 756734.954609962296672 ], [ 374732.723280159872957, 756724.558707208023407 ], [ 374734.667318090447225, 756705.425928054028191 ], [ 374737.263718366855755, 756681.758339524269104 ], [ 374738.552272788714617, 756665.833567320834845 ], [ 374739.739185087732039, 756653.668333196896128 ], [ 374740.817414980148897, 756642.277328666299582 ], [ 374744.506136463605799, 756613.189354506554082 ], [ 374747.120800998876803, 756597.261456827982329 ], [ 374750.942460062389728, 756577.68198360898532 ], [ 374755.210588994261343, 756559.981107632280327 ], [ 374755.866602972208057, 756556.99423633236438 ], [ 374762.881293748156168, 756532.431696940679103 ], [ 374768.914444978407118, 756513.399852180038579 ], [ 374770.450360810908023, 756508.641826110077091 ], [ 374778.239411498594563, 756484.409168948768638 ], [ 374789.538698243908584, 756449.111485459608957 ], [ 374793.15839404030703, 756437.603928909637034 ], [ 374796.33996413834393, 756427.755918732145801 ], [ 374796.997806947212666, 756425.543017380638048 ], [ 374800.289106186013669, 756415.36304648744408 ], [ 374807.53033469163347, 756393.121905829873867 ], [ 374823.764550930645783, 756341.669748997548595 ], [ 374832.864406847103965, 756310.910536790033802 ], [ 374841.519114625290968, 756278.82556609576568 ], [ 374842.394335146294907, 756275.064208557247184 ], [ 374850.921625673421659, 756235.792651963187382 ], [ 374856.482362324837595, 756203.825541182071902 ], [ 374861.367557586287148, 756166.552781491191126 ], [ 374864.278950052568689, 756135.808154550730251 ], [ 374865.624475364049431, 756097.106352921575308 ], [ 374866.148653748910874, 756085.053258817526512 ], [ 374865.186757962219417, 756051.995833364548162 ], [ 374864.468005201721098, 756028.336075253668241 ], [ 374863.88474703929387, 756015.290480461902916 ], [ 374862.378114114399068, 755985.551363270264119 ], [ 374860.415129984088708, 755949.732106615672819 ], [ 374858.011408609338105, 755914.466724981204607 ], [ 374857.66712770331651, 755909.049726783181541 ], [ 374856.867795756785199, 755898.105423572706059 ], [ 374856.753642656898592, 755896.557746958336793 ], [ 374854.689259034115821, 755864.608592353528365 ], [ 374854.001478279707953, 755854.106296705896966 ], [ 374851.141146903217304, 755812.650208769948222 ], [ 374849.881300409440883, 755793.856695570517331 ], [ 374847.932633241463918, 755764.118619161541574 ], [ 374846.176627119246405, 755722.328230142709799 ], [ 374845.320057475415524, 755687.059208320104517 ], [ 374845.282072598172817, 755670.91644057421945 ], [ 374845.153090314357542, 755663.066450572223403 ], [ 374845.02566916734213, 755655.879861996392719 ], [ 374844.769993529305793, 755594.183791640563868 ], [ 374844.437634777510539, 755546.861679213936441 ], [ 374844.312296910968143, 755540.559626067173667 ], [ 374843.993991426192224, 755499.20812682248652 ], [ 374844.164032199187204, 755477.53649544424843 ], [ 374845.278215494123287, 755434.412547387881204 ], [ 374846.020842454512604, 755421.253267577500083 ], [ 374847.297820415697061, 755400.353005859069526 ], [ 374848.266673137084581, 755389.404544333228841 ], [ 374849.451607688562945, 755376.354792197234929 ], [ 374853.255004300852306, 755348.925107018323615 ], [ 374858.139077357773203, 755311.099537112400867 ], [ 374863.155772606784012, 755282.671894278842956 ], [ 374863.483926461194642, 755281.233745244098827 ], [ 374872.225259470986202, 755238.865843285806477 ], [ 374880.5541983480216, 755209.103608234319836 ], [ 374884.832692613475956, 755195.71488484449219 ], [ 374881.406058338936418, 755195.391237831790932 ], [ 374878.863515492295846, 755195.065512608271092 ], [ 374877.426606860710308, 755194.958323183353059 ], [ 374871.567940869543236, 755194.308691931888461 ], [ 374855.760644589434378, 755192.576778046786785 ], [ 374855.428850255731959, 755192.466990716406144 ], [ 374840.506163816608023, 755190.954136166372336 ], [ 374831.552395195933059, 755189.980085245333612 ], [ 374825.693207182455808, 755189.109325082390569 ], [ 374811.093469698505942, 755183.94699125434272 ], [ 374801.69167056970764, 755180.430946201551706 ], [ 374795.498605096479878, 755178.565866893157363 ], [ 374793.065271229192149, 755177.687051082262769 ], [ 374774.26166597486008, 755170.654968063114211 ], [ 374769.948074389190879, 755169.117171966121532 ], [ 374761.430361191392876, 755165.599053024081513 ], [ 374751.583646044950001, 755160.867819865583442 ], [ 374741.071517671342008, 755155.143046446144581 ], [ 374734.874022416537628, 755151.398335760110058 ], [ 374722.811865052732173, 755144.460970419459045 ], [ 374719.603125054738484, 755142.810009825974703 ], [ 374713.185904647922143, 755139.618656049016863 ], [ 374706.214823927904945, 755135.875768985599279 ], [ 374701.347887840995099, 755134.007577592390589 ], [ 374693.055871656280942, 755132.479152432759292 ], [ 374683.547185504517984, 755130.511322777019814 ], [ 374675.36515879642684, 755128.761506140348502 ], [ 374662.096210659132339, 755125.586290717707016 ], [ 374657.342907548882067, 755125.044646036345512 ], [ 374654.69010696571786, 755124.829757929430343 ], [ 374625.285670003504492, 755121.360848309006542 ], [ 374616.4413497709902, 755119.944302877294831 ], [ 374599.637842686090153, 755117.551401191623881 ], [ 374591.56788385118125, 755116.464738093898632 ], [ 374586.813796635833569, 755115.591398557531647 ], [ 374576.310234539909288, 755113.515363384271041 ], [ 374574.430753836233635, 755113.188089346163906 ], [ 374573.104352745926008, 755113.08064726612065 ], [ 374565.808495167002548, 755112.213298966293223 ], [ 374564.040307684044819, 755112.21746577648446 ], [ 374560.174482058966532, 755113.11111668497324 ], [ 374556.420731681981124, 755114.667909314623103 ], [ 374550.905048149055801, 755118.882477013394237 ], [ 374547.046519780473318, 755122.872004450066015 ], [ 374544.292327127070166, 755126.527226576348767 ], [ 374541.208684698969591, 755131.067766217980534 ], [ 374539.230680849053897, 755135.82683521870058 ], [ 374538.129994613642339, 755137.709078832762316 ], [ 374536.917754300171509, 755139.149315037881024 ], [ 374535.374239673488773, 755140.700899756746367 ], [ 374533.056100944173522, 755141.812040100921877 ], [ 374529.963077443651855, 755142.372169182170182 ], [ 374524.548787664563861, 755142.716635345830582 ], [ 374520.682964521518443, 755143.610289608011954 ], [ 374515.822536460938863, 755144.506289011100307 ], [ 374484.231320710678119, 755150.993698633275926 ], [ 374456.505149041884579, 755156.255767689784989 ], [ 374437.396542504313402, 755160.502413055161014 ], [ 374436.389417291793507, 755155.197542491368949 ], [ 374436.276036401919555, 755153.981565985246561 ], [ 374435.932242014678195, 755148.785698195802979 ], [ 374435.473762582289055, 755141.821018805261701 ], [ 374434.908683982328512, 755136.515105407335795 ], [ 374433.105805454892106, 755121.813863112707622 ], [ 374432.426563334476668, 755114.960272139403969 ], [ 374431.857311297266278, 755107.885286424658261 ], [ 374431.737148804066237, 755103.794567422941327 ], [ 374431.506996211945079, 755099.925243161153048 ], [ 374431.607857370981947, 755095.834002770949155 ], [ 374431.932089639769401, 755092.737344164983369 ], [ 374432.476563125557732, 755089.308463130495511 ], [ 374433.57046597491717, 755084.551474457955919 ], [ 374434.992253178323153, 755078.245765559491701 ], [ 374435.53881365864072, 755075.701420763623901 ], [ 374438.823394049890339, 755062.646692634094507 ], [ 374441.317181225458626, 755042.296366779715754 ], [ 374438.332577384775504, 755041.971703594666906 ], [ 374427.692397257313132, 755028.839253351325169 ], [ 374426.695703304372728, 755027.957063357927836 ], [ 374416.618249959661625, 755019.135424865875393 ], [ 374385.005565807921812, 755016.556386164273135 ], [ 374381.687858320772648, 755015.569105967530049 ], [ 374378.370411589741707, 755014.692392991157249 ], [ 374377.817590756749269, 755014.583129858016036 ], [ 374372.841420361481141, 755013.268060794915073 ], [ 374338.118469709879719, 755003.951761348056607 ], [ 374311.468364933389239, 754996.938343572546728 ], [ 374311.600543589796871, 755006.115148263983428 ], [ 374310.306769513466861, 755019.828594252467155 ], [ 374307.573208345565945, 755032.218627865193412 ], [ 374304.178404752747156, 755045.384196963394061 ], [ 374301.002016344107687, 755057.443574096425436 ], [ 374297.168563663377427, 755072.04755996237509 ], [ 374293.440142266917974, 755084.32937718636822 ], [ 374286.838676184066571, 755096.728547943290323 ], [ 374281.562049672356807, 755108.571752563468181 ], [ 374273.199452755216043, 755123.960413364926353 ], [ 374267.923355144099332, 755136.024754558806308 ], [ 374260.993763295817189, 755149.862085994449444 ], [ 374256.26944677560823, 755161.593422735342756 ], [ 374249.341168330574874, 755175.983592291828245 ], [ 374245.174118300899863, 755189.703832950792275 ], [ 374243.967372478859033, 755193.465986171038821 ], [ 374242.980605153949, 755196.785348858567886 ], [ 374241.994621755555272, 755200.43641285027843 ], [ 374241.229661810502876, 755204.086954628233798 ], [ 374240.354712907050271, 755207.958891748217866 ], [ 374239.036933880939614, 755211.500172188039869 ], [ 374237.720722694706637, 755215.704855229123496 ], [ 374236.514762100647204, 755219.798710109433159 ], [ 374235.198812701448333, 755224.113960383576341 ], [ 374233.993113874923438, 755228.318382488447241 ], [ 374233.338144195033237, 755231.747529238811694 ], [ 374232.685264949279372, 755236.061212749336846 ], [ 374232.364443148253486, 755240.59524699440226 ], [ 374231.932064734923188, 755244.687274051713757 ], [ 374231.279447234526742, 755249.111524738138542 ], [ 374230.516057065920904, 755253.425469533540308 ], [ 374230.194451896648388, 755257.627802588744089 ], [ 374229.652607706026174, 755262.162359288777225 ], [ 374228.889218031428754, 755266.47630418126937 ], [ 374228.234510868787766, 755270.016018270165659 ], [ 374227.360610029427335, 755274.330224415636621 ], [ 374227.142984124075156, 755275.76811901840847 ], [ 374226.820073069480713, 755279.417616718099453 ], [ 374224.744396514259279, 755289.594752148608677 ], [ 374223.208473111444619, 755294.352794054546393 ], [ 374222.443516855826601, 755298.003336668130942 ], [ 374221.680128757492639, 755302.317281904164702 ], [ 374220.69754735135939, 755307.405719283153303 ], [ 374219.824432260356843, 755312.051627113251016 ], [ 374218.515021382481791, 755319.131056047743186 ], [ 374217.534008962626103, 755324.882896221708506 ], [ 374216.21832642989466, 755329.308714921353385 ], [ 374214.238269095367286, 755333.183265563566238 ], [ 374211.601155338226818, 755339.602427118690684 ], [ 374209.735269429045729, 755345.024656279012561 ], [ 374207.538111327798106, 755350.558236431563273 ], [ 374206.335033007082529, 755355.868331253877841 ], [ 374204.691216670908034, 755361.732306721271016 ], [ 374202.053321788785979, 755367.819767920998856 ], [ 374199.857472806121223, 755373.906184268533252 ], [ 374197.771090068970807, 755379.550071085686795 ], [ 374196.569843748351559, 755385.634136227075942 ], [ 374194.817348609329201, 755392.272343458491378 ], [ 374193.394819219654892, 755398.246364277903922 ], [ 374191.748653452086728, 755403.115236679208465 ], [ 374189.773307300871238, 755408.979997128131799 ], [ 374187.354086690233089, 755414.071833188063465 ], [ 374185.709229432221036, 755419.493541553267278 ], [ 374184.616405680775642, 755424.692809186410159 ], [ 374183.526196819846518, 755430.99774805107154 ], [ 374181.881602216861211, 755436.530023837229237 ], [ 374176.280047454405576, 755451.138211851823144 ], [ 374174.083421838178765, 755456.892929149093106 ], [ 374171.442921819339972, 755461.874722227687016 ], [ 374162.752293207740877, 755478.701573624974117 ], [ 374156.696936373424251, 755488.335290352115408 ], [ 374156.146734819863923, 755489.331701521063223 ], [ 374152.072994717396796, 755495.75426714902278 ], [ 374150.425529288535472, 755500.070306480745785 ], [ 374148.336543108045589, 755504.608525878167711 ], [ 374147.13295344915241, 755509.697489637648687 ], [ 374147.583890715031885, 755513.455726400599815 ], [ 374149.252803229843266, 755518.206191621022299 ], [ 374149.922669904306531, 755521.079368468606845 ], [ 374150.036058084398974, 755522.295345485908911 ], [ 374149.596106547047384, 755523.180928253452294 ], [ 374147.392164020391647, 755525.83976806839928 ], [ 374146.842224700492807, 755526.946746573317796 ], [ 374146.844317256764043, 755527.831283634877764 ], [ 374147.291592632478569, 755530.041580541292205 ], [ 374148.509567663015332, 755531.033808941487223 ], [ 374151.937239286256954, 755531.799674499197863 ], [ 374155.141796373645775, 755531.681526063126512 ], [ 374158.347399630176369, 755532.005646338453516 ], [ 374159.23253369727172, 755532.44582354510203 ], [ 374160.782302898354828, 755533.547835071221925 ], [ 374163.988952100626193, 755534.314224170637317 ], [ 374169.072980136261322, 755534.523334103403613 ], [ 374172.055991931643803, 755534.184575202525593 ], [ 374172.387524861667771, 755534.183791043469682 ], [ 374172.609069848782383, 755534.404402520391159 ], [ 374173.719148418284021, 755536.502564029884525 ], [ 374174.494294304633513, 755537.164137089275755 ], [ 374175.60071156185586, 755537.714358891011216 ], [ 374178.475565756903961, 755538.370965808746405 ], [ 374180.141598384594545, 755541.905193113721907 ], [ 374181.144565127324313, 755545.440988664864562 ], [ 374181.4844661206007, 755548.978352446458302 ], [ 374179.939928007486742, 755550.087682903162204 ], [ 374177.731801297748461, 755550.977447450510226 ], [ 374176.079629066691268, 755553.303277785889804 ], [ 374176.638721671653911, 755556.066148956306279 ], [ 374177.749322792631574, 755558.385444712475874 ], [ 374178.75124351575505, 755561.478971722186543 ], [ 374180.746716294670478, 755564.127877823193558 ], [ 374182.739312293182593, 755565.560545625747181 ], [ 374185.279232634347863, 755564.780564206070267 ], [ 374186.826908343180548, 755564.998039293219335 ], [ 374190.033816580311395, 755565.874996714759618 ], [ 374191.359424447466154, 755565.65072616992984 ], [ 374194.118797746661585, 755564.206819769926369 ], [ 374194.556396162894089, 755562.326133361784741 ], [ 374195.76678657613229, 755560.111916180350818 ], [ 374196.978223008278292, 755558.339967512758449 ], [ 374198.078102712577675, 755556.126011761720292 ], [ 374199.509776768798474, 755554.021839155699126 ], [ 374201.71816502022557, 755553.242642665980384 ], [ 374203.594497621583287, 755552.243096031364985 ], [ 374205.135898563661613, 755549.806960965390317 ], [ 374207.010924081841949, 755548.254578917520121 ], [ 374209.770821540208999, 755547.031807782594115 ], [ 374212.202062137890607, 755547.026058957446367 ], [ 374214.30203134578187, 755547.131661263061687 ], [ 374216.732749042334035, 755546.904778424650431 ], [ 374219.489771044289228, 755544.465769646922126 ], [ 374222.577280454745051, 755541.583708771620877 ], [ 374227.213511907728389, 755539.361392915598117 ], [ 374230.081307100947015, 755537.032690669759177 ], [ 374232.17918538255617, 755536.25375690695364 ], [ 374235.493468352011405, 755535.803650723770261 ], [ 374239.02929600601783, 755535.57415646314621 ], [ 374242.784838685940485, 755534.791304459795356 ], [ 374245.216602328466251, 755535.006691435468383 ], [ 374247.429173578915652, 755535.996570671792142 ], [ 374250.63895680004498, 755538.089769936865196 ], [ 374254.400510376377497, 755539.849961973493919 ], [ 374257.608986324630678, 755541.390326099935919 ], [ 374260.819030091282912, 755543.594092957675457 ], [ 374262.481136677146424, 755545.469815501244739 ], [ 374264.366355642676353, 755548.229552428470924 ], [ 374265.589292964548804, 755551.322557857842185 ], [ 374266.812491498421878, 755554.526130388258025 ], [ 374267.261329662287608, 755557.399830020731315 ], [ 374267.486010066932067, 755558.947246929397807 ], [ 374268.817367317329627, 755561.155454435036518 ], [ 374271.256969167850912, 755564.687855143565685 ], [ 374274.02731936913915, 755567.887771080248058 ], [ 374276.354841844236944, 755570.757030567387119 ], [ 374278.904169727349654, 755573.957469030632637 ], [ 374278.685238509264309, 755574.842528106528334 ], [ 374278.465262048470322, 755575.2853188252775 ], [ 374276.589974638540298, 755576.727131092804484 ], [ 374273.940327410004102, 755577.839070494286716 ], [ 374272.066346835053992, 755579.833718419307843 ], [ 374271.627962048689369, 755581.382702494971454 ], [ 374271.523461788194254, 755583.926006821682677 ], [ 374271.642857863917015, 755587.685026776860468 ], [ 374272.532955095171928, 755590.225980327231809 ], [ 374273.314632076479029, 755593.651731816586107 ], [ 374272.877031431766227, 755595.532417180715129 ], [ 374272.003136941581033, 755599.846623404766433 ], [ 374271.349480230885092, 755603.828605983639136 ], [ 374271.684671339520719, 755605.375761680188589 ], [ 374272.238793327705935, 755606.037858221796341 ], [ 374273.01367555023171, 755606.588865269906819 ], [ 374273.787512419279665, 755606.69760395551566 ], [ 374274.671598742250353, 755606.695514360442758 ], [ 374276.768167829781305, 755605.363746530027129 ], [ 374277.648595622507855, 755603.813717708108015 ], [ 374278.966624212567694, 755600.383003611699678 ], [ 374280.507503835717216, 755597.725736845401116 ], [ 374282.601982930616941, 755595.509432616876438 ], [ 374285.468470078718383, 755592.627897765836678 ], [ 374287.787890706094913, 755592.069577784393914 ], [ 374289.77813057275489, 755592.507145177922212 ], [ 374291.439189582597464, 755593.940599892986938 ], [ 374294.316389955172781, 755595.592316111898981 ], [ 374295.753814289928414, 755595.92062238662038 ], [ 374297.962723995675333, 755595.362563992850482 ], [ 374299.51065910095349, 755595.690609220182523 ], [ 374300.950173564080615, 755596.903452295227908 ], [ 374302.724616871215403, 755599.552884061471559 ], [ 374304.832682522828691, 755603.086069113458507 ], [ 374306.387410224415362, 755606.288858621846884 ], [ 374306.060580680146813, 755608.279849494574592 ], [ 374304.739415490475949, 755610.383757682866417 ], [ 374302.53677702578716, 755613.595425889478065 ], [ 374301.990755134611391, 755616.360908697010018 ], [ 374301.446823565114755, 755620.010928194387816 ], [ 374302.335351335059386, 755621.888479446060956 ], [ 374303.552798513323069, 755622.659576435456984 ], [ 374304.437407039687969, 755622.878621457726695 ], [ 374305.32123173592845, 755622.765965244849212 ], [ 374306.204533891926985, 755622.43217488261871 ], [ 374307.638560914085247, 755621.323109283926897 ], [ 374308.848953841777984, 755619.108895183075219 ], [ 374310.72215016343398, 755616.782547281240113 ], [ 374312.488493476004805, 755616.004399717785418 ], [ 374313.041047266102396, 755616.003094105282798 ], [ 374314.811570649326313, 755616.994019897887483 ], [ 374316.142140944546554, 755618.870526833226904 ], [ 374317.253257147502154, 755621.410958488937467 ], [ 374318.587223463924602, 755624.724837474175729 ], [ 374320.031700374674983, 755628.038455358240753 ], [ 374321.697198580775876, 755631.351551037048921 ], [ 374323.252969609573483, 755634.996609075926244 ], [ 374324.587980286160018, 755638.752756417961791 ], [ 374326.475283069128636, 755642.397031172644347 ], [ 374328.14104177558329, 755645.820694005931728 ], [ 374329.806800297810696, 755649.244356860290281 ], [ 374331.472558633016888, 755652.668019735603593 ], [ 374333.359860570752062, 755656.312294594012201 ], [ 374334.251521447324194, 755659.516651010839269 ], [ 374334.701139632496051, 755662.722051798831671 ], [ 374335.26205212273635, 755666.258892715559341 ], [ 374335.380922025535256, 755669.796778004965745 ], [ 374335.833674892608542, 755674.328983683139086 ], [ 374336.5071877585724, 755678.750100095872767 ], [ 374337.069406278140377, 755682.839776377310045 ], [ 374337.411126019898802, 755687.151108996709809 ], [ 374337.530518426618073, 755690.91012843628414 ], [ 374337.097357932419982, 755694.6704533706652 ], [ 374336.443176387925632, 755698.431300526834093 ], [ 374335.348520128580276, 755702.856594585813582 ], [ 374334.030230558826588, 755706.176740159047768 ], [ 374332.490658823167905, 755709.386840945924632 ], [ 374330.508261337643489, 755712.266285051824525 ], [ 374328.305626759247389, 755715.47795275459066 ], [ 374326.103514993446879, 755718.910754755954258 ], [ 374324.563682928914204, 755722.010288847493939 ], [ 374322.912295447604265, 755724.667815831722692 ], [ 374320.594448391755577, 755725.889537696144544 ], [ 374317.943502152455039, 755726.448640632210299 ], [ 374315.29490755230654, 755728.002847462776117 ], [ 374313.089400357392151, 755729.998278144397773 ], [ 374311.327241892577149, 755732.545499708969146 ], [ 374309.566128820239101, 755735.534989706007764 ], [ 374307.695550697797444, 755738.967009319341742 ], [ 374307.259518819977529, 755741.511097021168098 ], [ 374307.482368990895338, 755742.284544275840744 ], [ 374308.037011953420006, 755743.167775087989867 ], [ 374309.586249337589834, 755744.048655335674994 ], [ 374310.360084092419129, 755744.157394215348177 ], [ 374311.905924472841434, 755743.60090240847785 ], [ 374313.450458385632373, 755742.491575227701105 ], [ 374315.434682702936698, 755740.386099703260697 ], [ 374315.986973903432954, 755740.274226823472418 ], [ 374318.970496064634062, 755740.156608543824404 ], [ 374321.4027721300954, 755740.593131577363238 ], [ 374324.940936898929067, 755741.358744544908404 ], [ 374327.70709570904728, 755742.789588149869815 ], [ 374329.700203483109362, 755744.443393948022276 ], [ 374332.580791359185241, 755747.532482806709595 ], [ 374335.351913454127498, 755751.064101202879101 ], [ 374337.23869025555905, 755754.487241556867957 ], [ 374338.904445933003444, 755757.910904175369069 ], [ 374339.796105797868222, 755761.115260469843633 ], [ 374340.246246326772962, 755764.541795382741839 ], [ 374339.588147476257291, 755766.644136548158713 ], [ 374337.714695198577829, 755768.859917150810361 ], [ 374334.96003355976427, 755772.294024744071066 ], [ 374334.080652946548071, 755774.286321216961369 ], [ 374332.763672332454007, 755778.159302615444176 ], [ 374331.998721438110806, 755781.809844222385436 ], [ 374331.565301886002999, 755785.459602436400019 ], [ 374332.012046434334479, 755787.448765318491496 ], [ 374333.342874084832147, 755789.435839078039862 ], [ 374334.89132589683868, 755789.985018546925858 ], [ 374335.775147737585939, 755789.872362384223379 ], [ 374336.658185778884217, 755789.428005000343546 ], [ 374336.988671885163058, 755788.984953288454562 ], [ 374338.972894939128309, 755786.879478472401388 ], [ 374340.851310371421278, 755786.764472272712737 ], [ 374343.174379892356228, 755787.754092433373444 ], [ 374346.714892293442972, 755789.514809971442446 ], [ 374349.371843865257688, 755791.498750703060068 ], [ 374351.477288298658095, 755793.926265344955027 ], [ 374352.920976504217833, 755796.908182011218742 ], [ 374354.034439657116309, 755800.443717359681614 ], [ 374355.258151818357874, 755803.868424539687112 ], [ 374356.37213720427826, 755807.625094042392448 ], [ 374357.044864822819363, 755811.714509155135602 ], [ 374357.387106338690501, 755816.246975852292962 ], [ 374357.176796277519315, 755820.780748049495742 ], [ 374356.523661373532377, 755824.983863452798687 ], [ 374355.760538808826823, 755829.408374142018147 ], [ 374354.886906140716746, 755833.833145980257541 ], [ 374354.123000219173264, 755837.925955526414327 ], [ 374353.026779892039485, 755841.687847231049091 ], [ 374351.709539226838388, 755845.450261229765601 ], [ 374350.945372604823206, 755849.432503830874339 ], [ 374350.291455136437435, 755853.30391826457344 ], [ 374349.638060334720649, 755857.396466882200912 ], [ 374349.869270095601678, 755861.708060639793985 ], [ 374350.763279969338328, 755865.907520540640689 ], [ 374351.435485529014841, 755869.775801466894336 ], [ 374351.776682938158046, 755873.865999934729189 ], [ 374352.449410949018784, 755877.955415010801516 ], [ 374353.122400172927883, 755882.155397161724977 ], [ 374353.795389345730655, 755886.355379310087301 ], [ 374354.24709685659036, 755890.445316639728844 ], [ 374354.03391449485207, 755893.762851218110882 ], [ 374353.819948388612829, 755896.748684573220089 ], [ 374353.711005840508733, 755897.412348172278143 ], [ 374353.612775360932574, 755902.609261957230046 ], [ 374353.624793852330185, 755907.695347539964132 ], [ 374353.96782025822904, 755912.559515558066778 ], [ 374353.976181026897393, 755916.097662058426067 ], [ 374353.874031721381471, 755919.636069704545662 ], [ 374353.771882470871788, 755923.174477357883006 ], [ 374353.780504649854265, 755926.823190952884033 ], [ 374353.678878059901763, 755930.582732776994817 ], [ 374353.577251530950889, 755934.342274609021842 ], [ 374353.475363776844461, 755937.991249369690195 ], [ 374353.262704726541415, 755941.529918208485469 ], [ 374353.274201302905567, 755946.394869709969498 ], [ 374353.065200436627492, 755951.481477687368169 ], [ 374352.745428364898544, 755956.45777975814417 ], [ 374352.422259617480449, 755959.996709802886471 ], [ 374352.209600973874331, 755963.535378701169975 ], [ 374351.558560508361552, 755968.623031394090503 ], [ 374350.904384638182819, 755972.38387914642226 ], [ 374350.249947601289023, 755976.034159845556132 ], [ 374349.705236766894814, 755979.352478155167773 ], [ 374349.705498072435148, 755979.463045237353072 ], [ 374349.05106128519401, 755983.113325988873839 ], [ 374348.2892503910698, 755988.090672940947115 ], [ 374348.187363728764467, 755991.739647862268612 ], [ 374348.085999753675424, 755995.609756957856007 ], [ 374347.653105993347708, 755999.480649606091902 ], [ 374346.999976421007887, 756003.683765895199031 ], [ 374346.235814429237507, 756007.666009234148078 ], [ 374345.582162525621243, 756011.647991418489255 ], [ 374344.929033425694797, 756015.851107803871855 ], [ 374344.165655906486791, 756020.165052502648905 ], [ 374343.292030007520225, 756024.589825525414199 ], [ 374342.307110409718007, 756028.68315853679087 ], [ 374340.880151486140676, 756032.777536425390281 ], [ 374339.342944303760305, 756036.982742694788612 ], [ 374337.916247276822105, 756041.187687839032151 ], [ 374336.157759598398115, 756045.282849639537744 ], [ 374334.39927223615814, 756049.37801154947374 ], [ 374332.640523820417002, 756053.362606477108784 ], [ 374331.32433778885752, 756057.567290751379915 ], [ 374330.450975438929163, 756062.102631417801604 ], [ 374329.687861742451787, 756066.527143795508891 ], [ 374328.592696049250662, 756070.731305763940327 ], [ 374327.276249599119183, 756074.825423196190968 ], [ 374326.070574579469394, 756079.029846540885046 ], [ 374324.975670978892595, 756083.344575788010843 ], [ 374323.880244817642961, 756087.438170903245918 ], [ 374322.56301513989456, 756091.200587318278849 ], [ 374321.57757637090981, 756095.072787090786733 ], [ 374320.481889446731657, 756099.055815280415118 ], [ 374319.386202733614482, 756103.038843525340781 ], [ 374318.399980306741782, 756106.579342154669575 ], [ 374317.638437359593809, 756111.667257641558535 ], [ 374317.20868521137163, 756116.864956414559856 ], [ 374317.659612380608451, 756120.623192631755956 ], [ 374318.110016691032797, 756124.160294649773277 ], [ 374318.67171493684873, 756128.028836676850915 ], [ 374319.122380620683543, 756131.676505790790543 ], [ 374319.572784860501997, 756135.213607804384083 ], [ 374320.579397334717214, 756140.297342763864435 ], [ 374321.361069051665254, 756143.723093815380707 ], [ 374322.808935651904903, 756148.47408233419992 ], [ 374323.701639671111479, 756152.120706297224388 ], [ 374324.815101452171803, 756155.656240595621057 ], [ 374325.819099168933462, 756159.6343045696849 ], [ 374326.713371422491036, 756163.944331118371338 ], [ 374327.165866584866308, 756168.365969890262932 ], [ 374327.397081125469413, 756172.677564130397514 ], [ 374327.518047521472909, 756177.099986754357815 ], [ 374327.527981537743472, 756181.301536472863518 ], [ 374326.985629187372979, 756185.614959737518802 ], [ 374326.332244569028262, 756189.707510122912936 ], [ 374325.899879207834601, 756193.799537951010279 ], [ 374325.688533054955769, 756197.891043208073825 ], [ 374325.918179397820495, 756201.539234891883098 ], [ 374325.705526203732006, 756205.077904668054543 ], [ 374325.272638343041763, 756208.948798353783786 ], [ 374324.618470127752516, 756212.709647564566694 ], [ 374323.85483831143938, 756216.913026512484066 ], [ 374323.201977612567134, 756221.226711290189996 ], [ 374322.438084695022553, 756225.319523209123872 ], [ 374321.786008679366205, 756229.964909359114245 ], [ 374321.355474691779818, 756234.830907113384455 ], [ 374320.704183398396708, 756239.807994636241347 ], [ 374320.273388282046653, 756244.563425343949348 ], [ 374320.173075787955895, 756248.875803687726147 ], [ 374319.962515401421115, 756253.299010471440852 ], [ 374319.420426846423652, 756257.723001255886629 ], [ 374318.657842556363903, 756262.368648941279389 ], [ 374317.78448759263847, 756266.903990898746997 ], [ 374317.021380758786108, 756271.328504458535463 ], [ 374316.038039778883103, 756276.085242059314623 ], [ 374315.05417608137941, 756280.62084550387226 ], [ 374314.070312611758709, 756285.156449001515284 ], [ 374313.085664902813733, 756289.360351231414825 ], [ 374312.322559090680443, 756293.784865013905801 ], [ 374311.781256632122677, 756298.540557441068813 ], [ 374311.239431346184574, 756303.075115681393072 ], [ 374310.476326072937809, 756307.49962957133539 ], [ 374309.933978108572774, 756311.813053655088879 ], [ 374309.834190516208764, 756316.346566505730152 ], [ 374309.623893713986035, 756320.880340738338418 ], [ 374309.19153240142623, 756324.972369292750955 ], [ 374308.427904892538209, 756329.175749107380398 ], [ 374307.664016039809212, 756333.268561848788522 ], [ 374306.790141138189938, 756337.582770232576877 ], [ 374305.36372017825488, 756341.89828559581656 ], [ 374303.716019488463644, 756346.103756714379415 ], [ 374302.179089875484351, 756350.419533649808727 ], [ 374300.863440554589033, 756354.845354989171028 ], [ 374300.211631437879987, 756359.601309318444692 ], [ 374299.891350130201317, 756364.356479462585412 ], [ 374299.790518071269616, 756368.447724119294435 ], [ 374299.246080037555657, 756371.876611734740436 ], [ 374298.149096186971292, 756375.306806439068168 ], [ 374297.384424709132873, 756379.06791829073336 ], [ 374296.729739438043907, 756382.607634524232708 ], [ 374295.967422284127679, 756387.363850493682548 ], [ 374295.648188190651126, 756392.561289272503927 ], [ 374294.885609861114062, 756397.206938197254203 ], [ 374294.012522601056844, 756401.852848594542593 ], [ 374292.806861904682592, 756406.057274870458059 ], [ 374291.382014267379418, 756411.036193928681314 ], [ 374289.625639660866, 756416.015897414414212 ], [ 374288.08609823603183, 756419.226004183990881 ], [ 374285.886380005802494, 756423.653918103897013 ], [ 374283.907680349657312, 756428.081309258705005 ], [ 374282.26129309728276, 756432.839617518242449 ], [ 374281.495577797933947, 756436.158461506827734 ], [ 374280.840633292973507, 756439.587611178751104 ], [ 374280.959252255037427, 756443.014930559904315 ], [ 374281.63015484099742, 756446.330375451594591 ], [ 374282.745448001194745, 756450.639878570451401 ], [ 374283.086393038800452, 756454.619510620716028 ], [ 374282.430402414465789, 756457.60639181942679 ], [ 374282.216447941609658, 756460.592227133922279 ], [ 374282.776579791447148, 756463.797366365673952 ], [ 374284.002381725935265, 756468.10660798533354 ], [ 374285.117412916908506, 756472.305543957278132 ], [ 374285.237863180984277, 756476.506833202089183 ], [ 374283.918557466589846, 756479.384716171305627 ], [ 374282.051416281959973, 756484.254114879760891 ], [ 374281.506720193661749, 756487.572436085087247 ], [ 374281.073318039183505, 756491.222197200870141 ], [ 374280.974582358030602, 756496.19797937956173 ], [ 374280.429363321978599, 756499.295166388503276 ], [ 374279.55654211784713, 756504.051644814549945 ], [ 374278.57268894801382, 756508.587250534328632 ], [ 374276.92578258109279, 756513.124425337184221 ], [ 374274.837102616671473, 756517.773213418549858 ], [ 374272.858670305693522, 756522.311173003050499 ], [ 374271.543029997381382, 756526.736996460705996 ], [ 374270.557869921904057, 756530.719766892609186 ], [ 374269.793466102273669, 756534.591447185142897 ], [ 374268.806998054555152, 756538.021382045350038 ], [ 374266.936459372984245, 756541.453409230336547 ], [ 374265.065659280633554, 756544.774869392043911 ], [ 374263.30510659981519, 756547.985500981565565 ], [ 374261.876080649613868, 756551.195348017616197 ], [ 374260.669381004699972, 756554.957507695653476 ], [ 374259.683960898371879, 756558.829711456317455 ], [ 374259.251346720498987, 756562.811174601200037 ], [ 374259.370229860418476, 756566.349061413900927 ], [ 374259.710654006630648, 756570.107559380237944 ], [ 374260.161848635296337, 756573.97636292129755 ], [ 374261.053246458992362, 756577.070150259532966 ], [ 374261.059788938844576, 756579.834328675060533 ], [ 374260.738207263464574, 756584.036664561717771 ], [ 374260.764639340108261, 756595.203945416375063 ], [ 374259.356813900289126, 756607.369731006096117 ], [ 374256.072959075157996, 756620.645635116961785 ], [ 374254.324449761712458, 756628.942356080398895 ], [ 374252.686973332252819, 756637.459949902724475 ], [ 374251.501478452933952, 756650.178048892877996 ], [ 374251.085095134680159, 756661.014675344806165 ], [ 374251.772489444643725, 756671.295850017573684 ], [ 374252.908723648812156, 756684.450723973684944 ], [ 374253.818967426894233, 756695.505345426034182 ], [ 374254.618702703039162, 756706.560228495625779 ], [ 374255.087697855546139, 756717.947597863851115 ], [ 374253.332126786815934, 756723.259006797685288 ], [ 374251.685493988159578, 756727.90675135049969 ], [ 374243.127093094284646, 756753.79987228277605 ], [ 374242.585808402043767, 756758.555568033945747 ], [ 374241.934539089910686, 756763.532659780466929 ], [ 374240.62362317048246, 756769.948694541119039 ], [ 374239.750813989667222, 756774.705175428185612 ], [ 374238.438327927142382, 756780.457807443919592 ], [ 374236.475621516699903, 756791.629800171358511 ], [ 374234.176154709071852, 756800.591235140222125 ], [ 374231.988244579813909, 756809.994677289272659 ], [ 374229.911367476976011, 756819.61899229476694 ], [ 374227.945261526037939, 756829.353612982085906 ], [ 374227.835800687316805, 756829.796143330982886 ], [ 374227.180868710507639, 756833.225295545300469 ], [ 374226.633826494216919, 756835.548514476744458 ], [ 374225.429234014474787, 756840.195214111940004 ], [ 374224.774564297811594, 756843.734933575848117 ], [ 374224.230402934132144, 756847.274391336948611 ], [ 374224.124346502590925, 756849.154294788953848 ], [ 374224.02693186927354, 756854.682914534816518 ], [ 374224.495152095099911, 756865.738583651604131 ], [ 374224.620063491165638, 756871.819515758776106 ], [ 374224.737642367719673, 756874.804567365907133 ], [ 374226.446855008893181, 756896.582372001023032 ], [ 374226.670490078337025, 756897.687520128674805 ], [ 374227.899435335770249, 756903.323566184495576 ], [ 374228.235149767831899, 756905.091855535632931 ], [ 374230.239222750300542, 756911.389472368755378 ], [ 374231.584698849357665, 756919.568301371880807 ], [ 374231.37860993121285, 756925.871153010404669 ], [ 374230.735202943964396, 756934.165260558365844 ], [ 374230.205447097483557, 756943.78591236541979 ], [ 374229.782271316566039, 756951.747795052360743 ], [ 374229.247802176862024, 756959.378238057135604 ], [ 374228.824888962320983, 756967.450688005890697 ], [ 374228.633730158559047, 756980.055868190829642 ], [ 374227.875627180561423, 756986.581163259106688 ], [ 374227.336706972215325, 756992.331964682321995 ], [ 374225.042494533932768, 757003.504745734157041 ], [ 374223.844456678489223, 757010.91562551993411 ], [ 374223.41761705285171, 757017.329568362561986 ], [ 374223.10600033972878, 757025.733458465198055 ], [ 374221.903248869697563, 757031.154129454051144 ], [ 374220.920465634902939, 757036.132008241140284 ], [ 374218.164842345984653, 757039.12386695027817 ], [ 374216.070432640670333, 757041.340184772619978 ], [ 374214.638546131784096, 757043.333797455416061 ], [ 374214.093341892759781, 757046.430987348780036 ], [ 374214.435867687920108, 757051.074023095308803 ], [ 374215.662717827130109, 757055.825531448703259 ], [ 374216.333099475828931, 757058.919841329101473 ], [ 374217.890424881188665, 757063.228295543580316 ], [ 374220.329192708479241, 757066.428983545862138 ], [ 374223.425767872366123, 757067.416757374769077 ], [ 374227.954490898991935, 757066.521486114244908 ], [ 374229.05930666194763, 757066.408300979644991 ], [ 374233.363871129171457, 757064.186747812433168 ], [ 374236.010557342786342, 757061.858554558129981 ], [ 374237.666864413884468, 757061.301792070386 ], [ 374241.976929625729099, 757061.402150149457157 ], [ 374245.517106948420405, 757063.052281148731709 ], [ 374249.171982092724647, 757066.471225162502378 ], [ 374252.38482574239606, 757069.891216345829889 ], [ 374256.159635500225704, 757077.290316653787158 ], [ 374256.395316491951235, 757083.481554050347768 ], [ 374256.308640507108066, 757093.543427260708995 ], [ 374256.108052591094747, 757102.168189191492274 ], [ 374255.245990349794738, 757111.457924657035619 ], [ 374254.929657503846101, 757117.8716052363161 ], [ 374254.944323982985225, 757124.063366238027811 ], [ 374254.85162581509212, 757131.582194951479323 ], [ 374254.761546934663784, 757140.206695306347683 ], [ 374253.676638102566358, 757148.722984476131387 ], [ 374251.702430852048565, 757155.030024717445485 ], [ 374247.862168267718516, 757166.648739420808852 ], [ 374245.791337960807141, 757178.816101744654588 ], [ 374244.38407799275592, 757191.203027852810919 ], [ 374243.508662315434776, 757194.853838842129335 ], [ 374250.472992025548592, 757195.832449777866714 ], [ 374264.739196569949854, 757200.331933657056652 ], [ 374276.238521313178353, 757203.06889001885429 ], [ 374286.517810713034123, 757203.92908601812087 ], [ 374303.758807444130071, 757204.662230028188787 ], [ 374305.638219675631262, 757204.989482813514769 ], [ 374313.377406778919976, 757206.51910553406924 ], [ 374318.573613048938569, 757207.501911667059176 ], [ 374317.590303520380985, 757212.258653749828227 ], [ 374317.59265974687878, 757213.253758038859814 ], [ 374318.258584170718677, 757214.468426646199077 ], [ 374319.365229280258063, 757215.129212906467728 ], [ 374320.139043083763681, 757215.237948443740606 ], [ 374406.915356541401707, 757226.863299657241441 ], [ 374497.889056788524613, 757237.704887523315847 ], [ 374536.244242420478258, 757241.484079575166106 ], [ 374599.251422040630132, 757248.964350160094909 ], [ 374647.435457481071353, 757250.066775247687474 ], [ 374698.934178309864365, 757250.940283181378618 ], [ 374699.370825015823357, 757201.847224331577308 ] ] ] } }
]
}
