{
"type": "FeatureCollection",
"crs": { "type": "name", "properties": { "name": "urn:ogc:def:crs:EPSG::32644" } },
"features": [
{ "type": "Feature", "properties": { "Shape_Leng": 0.05307524631, "Shape_Area": 9.214917e-05, "ADM4_EN": "Mount Lavinia", "ADM4_SI": "ගල්කිස්ස", "ADM4_TA": null, "ADM4_PCODE": "LK1131005", "ADM4_REF": null, "ADM3_EN": "Ratmalana", "ADM3_SI": "රත්මලාන", "ADM3_TA": "இரத்மலானை", "ADM3_PCODE": "LK1131", "ADM2_EN": "Colombo", "ADM2_SI": "කොළඹ දිස්ත්‍රික්ක", "ADM2_TA": "கொழும்பு மாவட்டம்", "ADM2_PCODE": "LK11", "ADM1_EN": "Western", "ADM1_SI": "බස්නාහිර පළාත", "ADM1_TA": "மேல் மாகாணம் ", "ADM1_PCODE": "LK1", "ADM0_EN": "Sri Lanka", "ADM0_SI": "ශ්‍රී ලංකා", "ADM0_TA": "இலங்கை", "ADM0_PCODE": "LK", "date": "2022-08-02", "validOn": "2022-08-16", "validTo": null, "area": 1.126, "zone": "gn5" }, "geometry": { "type": "Polygon", "coordinates": [ [ [ 375008.274675259192009, 754866.265600001439452 ], [ 375022.883249328006059, 754828.08555004990194 ], [ 375034.857198796584271, 754797.430274757905863 ], [ 375036.505800627113786, 754793.55654657993 ], [ 375019.80651836283505, 754788.509636010508984 ], [ 374991.610064609150868, 754781.831207103212364 ], [ 374968.941811422992032, 754776.245486355968751 ], [ 374944.288744675810449, 754772.544081971631385 ], [ 374906.471721304871608, 754763.345236846827902 ], [ 374898.621709768020082, 754761.81573295337148 ], [ 374898.724689638183918, 754758.60903477598913 ], [ 374899.335816787672229, 754736.494107845006511 ], [ 374899.75345189741347, 754726.099785955855623 ], [ 374900.283158270642161, 754716.368605612195097 ], [ 374901.59268543147482, 754709.289212476694956 ], [ 374908.392516876687296, 754687.159750166814774 ], [ 374915.855170869326685, 754664.918165734852664 ], [ 374918.036858259292785, 754652.750622896593995 ], [ 374919.321983069297858, 754635.277948499540798 ], [ 374920.70464011200238, 754612.276673181098886 ], [ 374922.566738048102707, 754605.195984142366797 ], [ 374924.854271063406486, 754591.037980040651746 ], [ 374925.508519867842551, 754587.277150788460858 ], [ 374926.491191433742642, 754582.188741116086021 ], [ 374928.464842998771928, 754575.550060490611941 ], [ 374930.8779499977245, 754567.804673830629326 ], [ 374939.881586834671907, 754542.905861694016494 ], [ 374945.269198577094357, 754531.173065645736642 ], [ 374953.716393554816023, 754504.617053191759624 ], [ 374958.438860019203275, 754492.001281697885133 ], [ 374964.589692619105335, 754475.844001073506661 ], [ 374969.31709552538814, 754465.329000937985256 ], [ 374970.413142656092532, 754461.456568923778832 ], [ 374970.521320202155039, 754460.461208266555332 ], [ 374970.730409728828818, 754455.374616262735799 ], [ 374970.260333732469007, 754443.434438183438033 ], [ 374971.34314832376549, 754433.923099024337716 ], [ 374972.547633845009841, 754429.165873412275687 ], [ 374976.736230236245319, 754424.512212543282658 ], [ 374979.709962599445134, 754420.193105138954706 ], [ 374993.154155154479668, 754403.797582315281034 ], [ 375010.452566706342623, 754381.532950276974589 ], [ 375011.003316486836411, 754380.757686470053159 ], [ 375014.856490499048959, 754374.446305722463876 ], [ 375019.37689380266238, 754369.902438697754405 ], [ 375019.487406904343516, 754369.902179469470866 ], [ 375031.828568590746727, 754354.393797339405864 ], [ 375037.670983809279278, 754348.077753554331139 ], [ 375040.203451163019054, 754344.091388240689412 ], [ 375049.021426881488878, 754334.230211528367363 ], [ 375068.308346268255264, 754311.629241497023031 ], [ 375082.747732909396291, 754295.452552579110488 ], [ 375097.406600059184711, 754278.611950480844826 ], [ 375103.799006609537173, 754271.188954030978493 ], [ 375108.537343462696299, 754265.317778326687403 ], [ 375115.370769992354326, 754257.451480787363835 ], [ 375130.142244405345991, 754241.495166350039653 ], [ 375139.291017339914106, 754231.301533403806388 ], [ 375155.602700190618634, 754212.356301669613458 ], [ 375158.793860796606168, 754206.488756842096336 ], [ 375160.998948604334146, 754204.272244503023103 ], [ 375160.004328024631832, 754204.274574412382208 ], [ 375145.41526397515554, 754203.755914842709899 ], [ 375143.315250250394456, 754203.650267430697568 ], [ 375132.371055162453558, 754202.23853337042965 ], [ 375116.558309531828854, 754198.295160595793277 ], [ 375101.51811840973096, 754193.907712119631469 ], [ 375084.706858183722943, 754188.308177578961477 ], [ 375065.352746947261039, 754182.272339220857248 ], [ 375057.500587443355471, 754179.858264730544761 ], [ 375052.745137764373794, 754178.432037528371438 ], [ 375030.958424090640619, 754171.849076664890163 ], [ 375000.655160045949742, 754162.300778033095412 ], [ 374999.106933191185817, 754161.86213964316994 ], [ 374980.637165811902378, 754155.934822146547958 ], [ 374974.885273222695105, 754153.736966756172478 ], [ 374969.463364501018077, 754150.874933346873149 ], [ 374965.70019640692044, 754148.451278615277261 ], [ 374962.377785315853544, 754145.47375301073771 ], [ 374954.068253922800068, 754136.537287809303962 ], [ 374947.751337566121947, 754129.033524611149915 ], [ 374942.549154761771206, 754125.618140691542067 ], [ 374936.682073300587945, 754121.430345400702208 ], [ 374936.460527128889225, 754121.209730413625948 ], [ 374923.731478718167637, 754112.725908593391068 ], [ 374915.319725278997794, 754107.327845044084825 ], [ 374902.261204631766304, 754099.729339899495244 ], [ 374900.377281538385432, 754097.522412975435145 ], [ 374899.931853112531826, 754096.086081847315654 ], [ 374899.15176943235565, 754093.323727029724978 ], [ 374899.243598724773619, 754085.362656629295088 ], [ 374899.243079715815838, 754085.141522990190424 ], [ 374898.790644592721947, 754080.719887728337198 ], [ 374897.010227875667624, 754075.527397286845371 ], [ 374894.903978783928324, 754072.768155057565309 ], [ 374889.69426082551945, 754066.146337062236853 ], [ 374885.705643345718272, 754061.843569258926436 ], [ 374885.041003467340488, 754061.181724722846411 ], [ 374882.160897137364373, 754058.313731798669323 ], [ 374874.740640502655879, 754051.586536102113314 ], [ 374865.106211966951378, 754043.206027396488935 ], [ 374853.483569294563495, 754035.27245748823043 ], [ 374838.43291594600305, 754026.462398825678974 ], [ 374832.900471907807514, 754023.600635579554364 ], [ 374827.699828511860687, 754020.848661133786663 ], [ 374815.088261779746972, 754015.349904070375487 ], [ 374802.144890591036528, 754009.74136138742324 ], [ 374797.608106528408825, 754007.31953263503965 ], [ 374792.848476252460387, 754004.124255382921547 ], [ 374769.069796408235561, 753996.440388617920689 ], [ 374750.375530819408596, 753989.076287546660751 ], [ 374749.711667568190023, 753988.74614488624502 ], [ 374732.677184265339747, 753982.262689336552285 ], [ 374723.82982779777376, 753979.629860281711444 ], [ 374715.202718732063659, 753976.664812471717596 ], [ 374694.853844064404257, 753970.631427004584111 ], [ 374688.992441388894804, 753968.876124668400735 ], [ 374688.881927340989932, 753968.876384444418363 ], [ 374691.631004151597153, 753963.009845214779489 ], [ 374691.626845873543061, 753961.240775060257874 ], [ 374689.300852624815889, 753959.034892529365607 ], [ 374661.644779673486482, 753947.379751876695082 ], [ 374635.543170545541216, 753938.816858612583019 ], [ 374627.135516128269956, 753935.187902008416131 ], [ 374609.993861848022789, 753930.142110218643211 ], [ 374587.887908978154883, 753928.867297080229037 ], [ 374587.227685060584918, 753930.085093021043576 ], [ 374584.703806507925037, 753937.720189935178496 ], [ 374580.973377467948012, 753949.227989259292372 ], [ 374575.157229724514764, 753966.711343197966926 ], [ 374570.43165881105233, 753978.000350354821421 ], [ 374565.922955732967239, 753987.519767380552366 ], [ 374560.315358416177332, 753999.695391934481449 ], [ 374555.590314919885714, 754011.205535415210761 ], [ 374549.866484649479389, 754020.948949478450231 ], [ 374540.96091207372956, 754040.540364999673329 ], [ 374536.785584531957284, 754050.832974711433053 ], [ 374532.06809968361631, 754065.549563429085538 ], [ 374528.554037917754613, 754075.066645054728724 ], [ 374524.381839838402811, 754086.68606007064227 ], [ 374521.644241493486334, 754097.417557987617329 ], [ 374519.022624748526141, 754110.47070202359464 ], [ 374516.395022639073431, 754120.980806604959071 ], [ 374513.986627201607917, 754130.716422477620654 ], [ 374510.588295101828407, 754142.444585631252266 ], [ 374506.8558202998247, 754153.067860401817597 ], [ 374503.125169777194969, 754164.465104418923147 ], [ 374499.284528271877207, 754176.083743166527711 ], [ 374495.108962923579384, 754186.265792793710716 ], [ 374490.828354014956858, 754198.770009520580061 ], [ 374486.763566708774306, 754209.062367144157179 ], [ 374480.831768984149676, 754224.334663829184137 ], [ 374477.102954333648086, 754236.5058804966975 ], [ 374472.595338103128597, 754246.467580595170148 ], [ 374467.425424027373083, 754256.76254430913832 ], [ 374461.477750044199638, 754265.290259742527269 ], [ 374455.646061886742245, 754276.139622338349 ], [ 374449.928276439895853, 754288.426096363575198 ], [ 374445.74856401636498, 754296.839081599842757 ], [ 374441.349389403592795, 754305.915990118170157 ], [ 374437.940668573894072, 754313.221483774250373 ], [ 374433.319427990063559, 754321.856646344531327 ], [ 374428.476901733491104, 754330.381763483048417 ], [ 374424.846376188797876, 754337.356078510405496 ], [ 374420.113323991303332, 754345.438668494811282 ], [ 374414.826403633400332, 754352.969726570649073 ], [ 374408.220622239401564, 754363.599787246435881 ], [ 374403.712511433637701, 754373.340363558963872 ], [ 374400.306928960606456, 754381.9726653782418 ], [ 374400.673916551750153, 754397.008995893062092 ], [ 374399.047235413920134, 754410.170376921421848 ], [ 374395.658079026849009, 754425.768400892964564 ], [ 374393.140257510531228, 754435.946557832648978 ], [ 374387.639364008675329, 754446.463451278279535 ], [ 374383.352553252188955, 754456.314077272545546 ], [ 374379.397283700178377, 754466.163922143168747 ], [ 374374.340274329180829, 754477.45374476944562 ], [ 374369.838701002416201, 754489.958502357942052 ], [ 374360.834779685304966, 754514.636318844160996 ], [ 374351.803745547716971, 754527.815168084343895 ], [ 374343.990184661350213, 754541.765121259493753 ], [ 374341.353000882721972, 754548.184265402378514 ], [ 374339.059354955388699, 754559.688710981165059 ], [ 374335.875346851767972, 754568.54163387324661 ], [ 374334.789259332523216, 754576.615634233341552 ], [ 374333.377894147532061, 754587.344025618280284 ], [ 374333.182171407155693, 754598.069549133419059 ], [ 374334.087925501924474, 754607.244526928989217 ], [ 374336.871093304653186, 754615.862237142282538 ], [ 374339.430365411681123, 754623.26423149346374 ], [ 374341.661750507133547, 754632.21494646393694 ], [ 374343.114850357873365, 754639.177279955591075 ], [ 374346.119563042593654, 754648.015602842555381 ], [ 374349.120883966621477, 754655.416554389637895 ], [ 374352.567646025680006, 754664.253834499861114 ], [ 374356.346206090995111, 754673.200899575953372 ], [ 374359.79922620189609, 754684.691788452561013 ], [ 374361.378746819682419, 754698.398449837695807 ], [ 374362.18311387085123, 754711.443534003454261 ], [ 374361.885485261853319, 754725.818029634887353 ], [ 374361.031121082196478, 754738.424756525084376 ], [ 374359.838698817533441, 754748.268090014229529 ], [ 374358.647320741380099, 754758.553691757726483 ], [ 374356.794433659408242, 754769.504260262358002 ], [ 374354.940504208556376, 754780.012560875504278 ], [ 374352.757908187340945, 754791.737881344160996 ], [ 374349.251512426300906, 754804.46143461659085 ], [ 374346.40245331148617, 754814.750948990928009 ], [ 374343.8823236337048, 754823.934011007426307 ], [ 374341.361151383374818, 754832.674805164802819 ], [ 374339.394890343712177, 754842.409398956224322 ], [ 374337.097615181934088, 754852.365909483167343 ], [ 374333.695218025008217, 754862.325028475257568 ], [ 374332.178577267972287, 754875.26502401928883 ], [ 374331.546818771050312, 754888.534634250914678 ], [ 374332.008961984422058, 754897.047253317781724 ], [ 374332.242773763078731, 754902.464516820269637 ], [ 374330.395904412434902, 754915.958130609826185 ], [ 374327.225239300460089, 754930.449978371849284 ], [ 374324.494015177944675, 754943.835112728178501 ], [ 374319.996426078781951, 754957.998390940367244 ], [ 374316.481702798802871, 754967.183804591535591 ], [ 374312.417813960695639, 754977.807894924655557 ], [ 374311.44956999598071, 754988.977515600738116 ], [ 374311.468364933389239, 754996.938343572546728 ], [ 374311.600543589796871, 755006.115148263983428 ], [ 374310.306769513466861, 755019.828594252467155 ], [ 374307.573208345565945, 755032.218627865193412 ], [ 374304.178404752747156, 755045.384196963394061 ], [ 374301.002016344107687, 755057.443574096425436 ], [ 374297.168563663377427, 755072.04755996237509 ], [ 374293.440142266917974, 755084.32937718636822 ], [ 374286.838676184066571, 755096.728547943290323 ], [ 374281.562049672356807, 755108.571752563468181 ], [ 374273.199452755216043, 755123.960413364926353 ], [ 374267.923355144099332, 755136.024754558806308 ], [ 374260.993763295817189, 755149.862085994449444 ], [ 374256.26944677560823, 755161.593422735342756 ], [ 374249.341168330574874, 755175.983592291828245 ], [ 374245.174118300899863, 755189.703832950792275 ], [ 374243.967372478859033, 755193.465986171038821 ], [ 374242.980605153949, 755196.785348858567886 ], [ 374241.994621755555272, 755200.43641285027843 ], [ 374241.229661810502876, 755204.086954628233798 ], [ 374240.354712907050271, 755207.958891748217866 ], [ 374239.036933880939614, 755211.500172188039869 ], [ 374237.720722694706637, 755215.704855229123496 ], [ 374236.514762100647204, 755219.798710109433159 ], [ 374235.198812701448333, 755224.113960383576341 ], [ 374233.993113874923438, 755228.318382488447241 ], [ 374233.338144195033237, 755231.747529238811694 ], [ 374232.685264949279372, 755236.061212749336846 ], [ 374232.364443148253486, 755240.59524699440226 ], [ 374231.932064734923188, 755244.687274051713757 ], [ 374231.279447234526742, 755249.111524738138542 ], [ 374230.516057065920904, 755253.425469533540308 ], [ 374230.194451896648388, 755257.627802588744089 ], [ 374229.652607706026174, 755262.162359288777225 ], [ 374228.889218031428754, 755266.47630418126937 ], [ 374228.234510868787766, 755270.016018270165659 ], [ 374227.360610029427335, 755274.330224415636621 ], [ 374227.142984124075156, 755275.76811901840847 ], [ 374226.820073069480713, 755279.417616718099453 ], [ 374224.744396514259279, 755289.594752148608677 ], [ 374223.208473111444619, 755294.352794054546393 ], [ 374222.443516855826601, 755298.003336668130942 ], [ 374221.680128757492639, 755302.317281904164702 ], [ 374220.69754735135939, 755307.405719283153303 ], [ 374219.824432260356843, 755312.051627113251016 ], [ 374218.515021382481791, 755319.131056047743186 ], [ 374217.534008962626103, 755324.882896221708506 ], [ 374216.21832642989466, 755329.308714921353385 ], [ 374214.238269095367286, 755333.183265563566238 ], [ 374211.601155338226818, 755339.602427118690684 ], [ 374209.735269429045729, 755345.024656279012561 ], [ 374207.538111327798106, 755350.558236431563273 ], [ 374206.335033007082529, 755355.868331253877841 ], [ 374204.691216670908034, 755361.732306721271016 ], [ 374202.053321788785979, 755367.819767920998856 ], [ 374199.857472806121223, 755373.906184268533252 ], [ 374197.771090068970807, 755379.550071085686795 ], [ 374196.569843748351559, 755385.634136227075942 ], [ 374194.817348609329201, 755392.272343458491378 ], [ 374193.394819219654892, 755398.246364277903922 ], [ 374191.748653452086728, 755403.115236679208465 ], [ 374189.773307300871238, 755408.979997128131799 ], [ 374187.354086690233089, 755414.071833188063465 ], [ 374185.709229432221036, 755419.493541553267278 ], [ 374184.616405680775642, 755424.692809186410159 ], [ 374183.526196819846518, 755430.99774805107154 ], [ 374181.881602216861211, 755436.530023837229237 ], [ 374176.280047454405576, 755451.138211851823144 ], [ 374174.083421838178765, 755456.892929149093106 ], [ 374171.442921819339972, 755461.874722227687016 ], [ 374162.752293207740877, 755478.701573624974117 ], [ 374156.696936373424251, 755488.335290352115408 ], [ 374156.146734819863923, 755489.331701521063223 ], [ 374152.072994717396796, 755495.75426714902278 ], [ 374150.425529288535472, 755500.070306480745785 ], [ 374148.336543108045589, 755504.608525878167711 ], [ 374147.13295344915241, 755509.697489637648687 ], [ 374147.583890715031885, 755513.455726400599815 ], [ 374149.252803229843266, 755518.206191621022299 ], [ 374149.922669904306531, 755521.079368468606845 ], [ 374150.036058084398974, 755522.295345485908911 ], [ 374149.596106547047384, 755523.180928253452294 ], [ 374147.392164020391647, 755525.83976806839928 ], [ 374146.842224700492807, 755526.946746573317796 ], [ 374146.844317256764043, 755527.831283634877764 ], [ 374147.291592632478569, 755530.041580541292205 ], [ 374148.509567663015332, 755531.033808941487223 ], [ 374151.937239286256954, 755531.799674499197863 ], [ 374155.141796373645775, 755531.681526063126512 ], [ 374158.347399630176369, 755532.005646338453516 ], [ 374159.23253369727172, 755532.44582354510203 ], [ 374160.782302898354828, 755533.547835071221925 ], [ 374163.988952100626193, 755534.314224170637317 ], [ 374169.072980136261322, 755534.523334103403613 ], [ 374172.055991931643803, 755534.184575202525593 ], [ 374172.387524861667771, 755534.183791043469682 ], [ 374172.609069848782383, 755534.404402520391159 ], [ 374173.719148418284021, 755536.502564029884525 ], [ 374174.494294304633513, 755537.164137089275755 ], [ 374175.60071156185586, 755537.714358891011216 ], [ 374178.475565756903961, 755538.370965808746405 ], [ 374180.141598384594545, 755541.905193113721907 ], [ 374181.144565127324313, 755545.440988664864562 ], [ 374181.4844661206007, 755548.978352446458302 ], [ 374179.939928007486742, 755550.087682903162204 ], [ 374177.731801297748461, 755550.977447450510226 ], [ 374176.079629066691268, 755553.303277785889804 ], [ 374176.638721671653911, 755556.066148956306279 ], [ 374177.749322792631574, 755558.385444712475874 ], [ 374178.75124351575505, 755561.478971722186543 ], [ 374180.746716294670478, 755564.127877823193558 ], [ 374182.739312293182593, 755565.560545625747181 ], [ 374185.279232634347863, 755564.780564206070267 ], [ 374186.826908343180548, 755564.998039293219335 ], [ 374190.033816580311395, 755565.874996714759618 ], [ 374191.359424447466154, 755565.65072616992984 ], [ 374194.118797746661585, 755564.206819769926369 ], [ 374194.556396162894089, 755562.326133361784741 ], [ 374195.76678657613229, 755560.111916180350818 ], [ 374196.978223008278292, 755558.339967512758449 ], [ 374198.078102712577675, 755556.126011761720292 ], [ 374199.509776768798474, 755554.021839155699126 ], [ 374201.71816502022557, 755553.242642665980384 ], [ 374203.594497621583287, 755552.243096031364985 ], [ 374205.135898563661613, 755549.806960965390317 ], [ 374207.010924081841949, 755548.254578917520121 ], [ 374209.770821540208999, 755547.031807782594115 ], [ 374212.202062137890607, 755547.026058957446367 ], [ 374214.30203134578187, 755547.131661263061687 ], [ 374216.732749042334035, 755546.904778424650431 ], [ 374219.489771044289228, 755544.465769646922126 ], [ 374222.577280454745051, 755541.583708771620877 ], [ 374227.213511907728389, 755539.361392915598117 ], [ 374230.081307100947015, 755537.032690669759177 ], [ 374232.17918538255617, 755536.25375690695364 ], [ 374235.493468352011405, 755535.803650723770261 ], [ 374239.02929600601783, 755535.57415646314621 ], [ 374242.784838685940485, 755534.791304459795356 ], [ 374245.216602328466251, 755535.006691435468383 ], [ 374247.429173578915652, 755535.996570671792142 ], [ 374250.63895680004498, 755538.089769936865196 ], [ 374254.400510376377497, 755539.849961973493919 ], [ 374257.608986324630678, 755541.390326099935919 ], [ 374260.819030091282912, 755543.594092957675457 ], [ 374262.481136677146424, 755545.469815501244739 ], [ 374264.366355642676353, 755548.229552428470924 ], [ 374265.589292964548804, 755551.322557857842185 ], [ 374266.812491498421878, 755554.526130388258025 ], [ 374267.261329662287608, 755557.399830020731315 ], [ 374267.486010066932067, 755558.947246929397807 ], [ 374268.817367317329627, 755561.155454435036518 ], [ 374271.256969167850912, 755564.687855143565685 ], [ 374274.02731936913915, 755567.887771080248058 ], [ 374276.354841844236944, 755570.757030567387119 ], [ 374278.904169727349654, 755573.957469030632637 ], [ 374278.685238509264309, 755574.842528106528334 ], [ 374278.465262048470322, 755575.2853188252775 ], [ 374276.589974638540298, 755576.727131092804484 ], [ 374273.940327410004102, 755577.839070494286716 ], [ 374272.066346835053992, 755579.833718419307843 ], [ 374271.627962048689369, 755581.382702494971454 ], [ 374271.523461788194254, 755583.926006821682677 ], [ 374271.642857863917015, 755587.685026776860468 ], [ 374272.532955095171928, 755590.225980327231809 ], [ 374273.314632076479029, 755593.651731816586107 ], [ 374272.877031431766227, 755595.532417180715129 ], [ 374272.003136941581033, 755599.846623404766433 ], [ 374271.349480230885092, 755603.828605983639136 ], [ 374271.684671339520719, 755605.375761680188589 ], [ 374272.238793327705935, 755606.037858221796341 ], [ 374273.01367555023171, 755606.588865269906819 ], [ 374273.787512419279665, 755606.69760395551566 ], [ 374274.671598742250353, 755606.695514360442758 ], [ 374276.768167829781305, 755605.363746530027129 ], [ 374277.648595622507855, 755603.813717708108015 ], [ 374278.966624212567694, 755600.383003611699678 ], [ 374280.507503835717216, 755597.725736845401116 ], [ 374282.601982930616941, 755595.509432616876438 ], [ 374285.468470078718383, 755592.627897765836678 ], [ 374287.787890706094913, 755592.069577784393914 ], [ 374289.77813057275489, 755592.507145177922212 ], [ 374291.439189582597464, 755593.940599892986938 ], [ 374294.316389955172781, 755595.592316111898981 ], [ 374295.753814289928414, 755595.92062238662038 ], [ 374297.962723995675333, 755595.362563992850482 ], [ 374299.51065910095349, 755595.690609220182523 ], [ 374300.950173564080615, 755596.903452295227908 ], [ 374302.724616871215403, 755599.552884061471559 ], [ 374304.832682522828691, 755603.086069113458507 ], [ 374306.387410224415362, 755606.288858621846884 ], [ 374306.060580680146813, 755608.279849494574592 ], [ 374304.739415490475949, 755610.383757682866417 ], [ 374302.53677702578716, 755613.595425889478065 ], [ 374301.990755134611391, 755616.360908697010018 ], [ 374301.446823565114755, 755620.010928194387816 ], [ 374302.335351335059386, 755621.888479446060956 ], [ 374303.552798513323069, 755622.659576435456984 ], [ 374304.437407039687969, 755622.878621457726695 ], [ 374305.32123173592845, 755622.765965244849212 ], [ 374306.204533891926985, 755622.43217488261871 ], [ 374307.638560914085247, 755621.323109283926897 ], [ 374308.848953841777984, 755619.108895183075219 ], [ 374310.72215016343398, 755616.782547281240113 ], [ 374312.488493476004805, 755616.004399717785418 ], [ 374313.041047266102396, 755616.003094105282798 ], [ 374314.811570649326313, 755616.994019897887483 ], [ 374316.142140944546554, 755618.870526833226904 ], [ 374317.253257147502154, 755621.410958488937467 ], [ 374318.587223463924602, 755624.724837474175729 ], [ 374320.031700374674983, 755628.038455358240753 ], [ 374321.697198580775876, 755631.351551037048921 ], [ 374323.252969609573483, 755634.996609075926244 ], [ 374324.587980286160018, 755638.752756417961791 ], [ 374326.475283069128636, 755642.397031172644347 ], [ 374328.14104177558329, 755645.820694005931728 ], [ 374329.806800297810696, 755649.244356860290281 ], [ 374331.472558633016888, 755652.668019735603593 ], [ 374333.359860570752062, 755656.312294594012201 ], [ 374334.251521447324194, 755659.516651010839269 ], [ 374334.701139632496051, 755662.722051798831671 ], [ 374335.26205212273635, 755666.258892715559341 ], [ 374335.380922025535256, 755669.796778004965745 ], [ 374335.833674892608542, 755674.328983683139086 ], [ 374336.5071877585724, 755678.750100095872767 ], [ 374337.069406278140377, 755682.839776377310045 ], [ 374337.411126019898802, 755687.151108996709809 ], [ 374337.530518426618073, 755690.91012843628414 ], [ 374337.097357932419982, 755694.6704533706652 ], [ 374336.443176387925632, 755698.431300526834093 ], [ 374335.348520128580276, 755702.856594585813582 ], [ 374334.030230558826588, 755706.176740159047768 ], [ 374332.490658823167905, 755709.386840945924632 ], [ 374330.508261337643489, 755712.266285051824525 ], [ 374328.305626759247389, 755715.47795275459066 ], [ 374326.103514993446879, 755718.910754755954258 ], [ 374324.563682928914204, 755722.010288847493939 ], [ 374322.912295447604265, 755724.667815831722692 ], [ 374320.594448391755577, 755725.889537696144544 ], [ 374317.943502152455039, 755726.448640632210299 ], [ 374315.29490755230654, 755728.002847462776117 ], [ 374313.089400357392151, 755729.998278144397773 ], [ 374311.327241892577149, 755732.545499708969146 ], [ 374309.566128820239101, 755735.534989706007764 ], [ 374307.695550697797444, 755738.967009319341742 ], [ 374307.259518819977529, 755741.511097021168098 ], [ 374307.482368990895338, 755742.284544275840744 ], [ 374308.037011953420006, 755743.167775087989867 ], [ 374309.586249337589834, 755744.048655335674994 ], [ 374310.360084092419129, 755744.157394215348177 ], [ 374311.905924472841434, 755743.60090240847785 ], [ 374313.450458385632373, 755742.491575227701105 ], [ 374315.434682702936698, 755740.386099703260697 ], [ 374315.986973903432954, 755740.274226823472418 ], [ 374318.970496064634062, 755740.156608543824404 ], [ 374321.4027721300954, 755740.593131577363238 ], [ 374324.940936898929067, 755741.358744544908404 ], [ 374327.70709570904728, 755742.789588149869815 ], [ 374329.700203483109362, 755744.443393948022276 ], [ 374332.580791359185241, 755747.532482806709595 ], [ 374335.351913454127498, 755751.064101202879101 ], [ 374337.23869025555905, 755754.487241556867957 ], [ 374338.904445933003444, 755757.910904175369069 ], [ 374339.796105797868222, 755761.115260469843633 ], [ 374340.246246326772962, 755764.541795382741839 ], [ 374339.588147476257291, 755766.644136548158713 ], [ 374337.714695198577829, 755768.859917150810361 ], [ 374334.96003355976427, 755772.294024744071066 ], [ 374334.080652946548071, 755774.286321216961369 ], [ 374332.763672332454007, 755778.159302615444176 ], [ 374331.998721438110806, 755781.809844222385436 ], [ 374331.565301886002999, 755785.459602436400019 ], [ 374332.012046434334479, 755787.448765318491496 ], [ 374333.342874084832147, 755789.435839078039862 ], [ 374334.89132589683868, 755789.985018546925858 ], [ 374335.775147737585939, 755789.872362384223379 ], [ 374336.658185778884217, 755789.428005000343546 ], [ 374336.988671885163058, 755788.984953288454562 ], [ 374338.972894939128309, 755786.879478472401388 ], [ 374340.851310371421278, 755786.764472272712737 ], [ 374343.174379892356228, 755787.754092433373444 ], [ 374346.714892293442972, 755789.514809971442446 ], [ 374349.371843865257688, 755791.498750703060068 ], [ 374351.477288298658095, 755793.926265344955027 ], [ 374352.920976504217833, 755796.908182011218742 ], [ 374354.034439657116309, 755800.443717359681614 ], [ 374355.258151818357874, 755803.868424539687112 ], [ 374356.37213720427826, 755807.625094042392448 ], [ 374357.044864822819363, 755811.714509155135602 ], [ 374357.387106338690501, 755816.246975852292962 ], [ 374357.176796277519315, 755820.780748049495742 ], [ 374356.523661373532377, 755824.983863452798687 ], [ 374355.760538808826823, 755829.408374142018147 ], [ 374354.886906140716746, 755833.833145980257541 ], [ 374354.123000219173264, 755837.925955526414327 ], [ 374353.026779892039485, 755841.687847231049091 ], [ 374351.709539226838388, 755845.450261229765601 ], [ 374350.945372604823206, 755849.432503830874339 ], [ 374350.291455136437435, 755853.30391826457344 ], [ 374349.638060334720649, 755857.396466882200912 ], [ 374349.869270095601678, 755861.708060639793985 ], [ 374350.763279969338328, 755865.907520540640689 ], [ 374351.435485529014841, 755869.775801466894336 ], [ 374351.776682938158046, 755873.865999934729189 ], [ 374352.449410949018784, 755877.955415010801516 ], [ 374353.122400172927883, 755882.155397161724977 ], [ 374353.795389345730655, 755886.355379310087301 ], [ 374354.24709685659036, 755890.445316639728844 ], [ 374354.03391449485207, 755893.762851218110882 ], [ 374353.819948388612829, 755896.748684573220089 ], [ 374353.711005840508733, 755897.412348172278143 ], [ 374353.612775360932574, 755902.609261957230046 ], [ 374353.624793852330185, 755907.695347539964132 ], [ 374353.96782025822904, 755912.559515558066778 ], [ 374353.976181026897393, 755916.097662058426067 ], [ 374353.874031721381471, 755919.636069704545662 ], [ 374353.771882470871788, 755923.174477357883006 ], [ 374353.780504649854265, 755926.823190952884033 ], [ 374353.678878059901763, 755930.582732776994817 ], [ 374353.577251530950889, 755934.342274609021842 ], [ 374353.475363776844461, 755937.991249369690195 ], [ 374353.262704726541415, 755941.529918208485469 ], [ 374353.274201302905567, 755946.394869709969498 ], [ 374353.065200436627492, 755951.481477687368169 ], [ 374352.745428364898544, 755956.45777975814417 ], [ 374352.422259617480449, 755959.996709802886471 ], [ 374352.209600973874331, 755963.535378701169975 ], [ 374351.558560508361552, 755968.623031394090503 ], [ 374350.904384638182819, 755972.38387914642226 ], [ 374350.249947601289023, 755976.034159845556132 ], [ 374349.705236766894814, 755979.352478155167773 ], [ 374349.705498072435148, 755979.463045237353072 ], [ 374349.05106128519401, 755983.113325988873839 ], [ 374348.2892503910698, 755988.090672940947115 ], [ 374348.187363728764467, 755991.739647862268612 ], [ 374348.085999753675424, 755995.609756957856007 ], [ 374347.653105993347708, 755999.480649606091902 ], [ 374346.999976421007887, 756003.683765895199031 ], [ 374346.235814429237507, 756007.666009234148078 ], [ 374345.582162525621243, 756011.647991418489255 ], [ 374344.929033425694797, 756015.851107803871855 ], [ 374344.165655906486791, 756020.165052502648905 ], [ 374343.292030007520225, 756024.589825525414199 ], [ 374342.307110409718007, 756028.68315853679087 ], [ 374340.880151486140676, 756032.777536425390281 ], [ 374339.342944303760305, 756036.982742694788612 ], [ 374337.916247276822105, 756041.187687839032151 ], [ 374336.157759598398115, 756045.282849639537744 ], [ 374334.39927223615814, 756049.37801154947374 ], [ 374332.640523820417002, 756053.362606477108784 ], [ 374331.32433778885752, 756057.567290751379915 ], [ 374330.450975438929163, 756062.102631417801604 ], [ 374329.687861742451787, 756066.527143795508891 ], [ 374328.592696049250662, 756070.731305763940327 ], [ 374327.276249599119183, 756074.825423196190968 ], [ 374326.070574579469394, 756079.029846540885046 ], [ 374324.975670978892595, 756083.344575788010843 ], [ 374323.880244817642961, 756087.438170903245918 ], [ 374322.56301513989456, 756091.200587318278849 ], [ 374321.57757637090981, 756095.072787090786733 ], [ 374320.481889446731657, 756099.055815280415118 ], [ 374319.386202733614482, 756103.038843525340781 ], [ 374318.399980306741782, 756106.579342154669575 ], [ 374317.638437359593809, 756111.667257641558535 ], [ 374317.20868521137163, 756116.864956414559856 ], [ 374317.659612380608451, 756120.623192631755956 ], [ 374318.110016691032797, 756124.160294649773277 ], [ 374318.67171493684873, 756128.028836676850915 ], [ 374319.122380620683543, 756131.676505790790543 ], [ 374319.572784860501997, 756135.213607804384083 ], [ 374320.579397334717214, 756140.297342763864435 ], [ 374321.361069051665254, 756143.723093815380707 ], [ 374322.808935651904903, 756148.47408233419992 ], [ 374323.701639671111479, 756152.120706297224388 ], [ 374324.815101452171803, 756155.656240595621057 ], [ 374325.819099168933462, 756159.6343045696849 ], [ 374326.713371422491036, 756163.944331118371338 ], [ 374327.165866584866308, 756168.365969890262932 ], [ 374327.397081125469413, 756172.677564130397514 ], [ 374327.518047521472909, 756177.099986754357815 ], [ 374327.527981537743472, 756181.301536472863518 ], [ 374326.985629187372979, 756185.614959737518802 ], [ 374326.332244569028262, 756189.707510122912936 ], [ 374325.899879207834601, 756193.799537951010279 ], [ 374325.688533054955769, 756197.891043208073825 ], [ 374325.918179397820495, 756201.539234891883098 ], [ 374325.705526203732006, 756205.077904668054543 ], [ 374325.272638343041763, 756208.948798353783786 ], [ 374324.618470127752516, 756212.709647564566694 ], [ 374323.85483831143938, 756216.913026512484066 ], [ 374323.201977612567134, 756221.226711290189996 ], [ 374322.438084695022553, 756225.319523209123872 ], [ 374321.786008679366205, 756229.964909359114245 ], [ 374321.355474691779818, 756234.830907113384455 ], [ 374320.704183398396708, 756239.807994636241347 ], [ 374320.273388282046653, 756244.563425343949348 ], [ 374320.173075787955895, 756248.875803687726147 ], [ 374319.962515401421115, 756253.299010471440852 ], [ 374319.420426846423652, 756257.723001255886629 ], [ 374318.657842556363903, 756262.368648941279389 ], [ 374317.78448759263847, 756266.903990898746997 ], [ 374317.021380758786108, 756271.328504458535463 ], [ 374316.038039778883103, 756276.085242059314623 ], [ 374315.05417608137941, 756280.62084550387226 ], [ 374314.070312611758709, 756285.156449001515284 ], [ 374313.085664902813733, 756289.360351231414825 ], [ 374312.322559090680443, 756293.784865013905801 ], [ 374311.781256632122677, 756298.540557441068813 ], [ 374311.239431346184574, 756303.075115681393072 ], [ 374310.476326072937809, 756307.49962957133539 ], [ 374309.933978108572774, 756311.813053655088879 ], [ 374309.834190516208764, 756316.346566505730152 ], [ 374309.623893713986035, 756320.880340738338418 ], [ 374309.19153240142623, 756324.972369292750955 ], [ 374308.427904892538209, 756329.175749107380398 ], [ 374307.664016039809212, 756333.268561848788522 ], [ 374306.790141138189938, 756337.582770232576877 ], [ 374305.36372017825488, 756341.89828559581656 ], [ 374303.716019488463644, 756346.103756714379415 ], [ 374302.179089875484351, 756350.419533649808727 ], [ 374300.863440554589033, 756354.845354989171028 ], [ 374300.211631437879987, 756359.601309318444692 ], [ 374299.891350130201317, 756364.356479462585412 ], [ 374299.790518071269616, 756368.447724119294435 ], [ 374299.246080037555657, 756371.876611734740436 ], [ 374298.149096186971292, 756375.306806439068168 ], [ 374297.384424709132873, 756379.06791829073336 ], [ 374296.729739438043907, 756382.607634524232708 ], [ 374295.967422284127679, 756387.363850493682548 ], [ 374295.648188190651126, 756392.561289272503927 ], [ 374294.885609861114062, 756397.206938197254203 ], [ 374294.012522601056844, 756401.852848594542593 ], [ 374292.806861904682592, 756406.057274870458059 ], [ 374291.382014267379418, 756411.036193928681314 ], [ 374289.625639660866, 756416.015897414414212 ], [ 374288.08609823603183, 756419.226004183990881 ], [ 374285.886380005802494, 756423.653918103897013 ], [ 374283.907680349657312, 756428.081309258705005 ], [ 374282.26129309728276, 756432.839617518242449 ], [ 374281.495577797933947, 756436.158461506827734 ], [ 374280.840633292973507, 756439.587611178751104 ], [ 374280.959252255037427, 756443.014930559904315 ], [ 374281.63015484099742, 756446.330375451594591 ], [ 374282.745448001194745, 756450.639878570451401 ], [ 374283.086393038800452, 756454.619510620716028 ], [ 374282.430402414465789, 756457.60639181942679 ], [ 374282.216447941609658, 756460.592227133922279 ], [ 374282.776579791447148, 756463.797366365673952 ], [ 374284.002381725935265, 756468.10660798533354 ], [ 374285.117412916908506, 756472.305543957278132 ], [ 374285.237863180984277, 756476.506833202089183 ], [ 374283.918557466589846, 756479.384716171305627 ], [ 374282.051416281959973, 756484.254114879760891 ], [ 374281.506720193661749, 756487.572436085087247 ], [ 374281.073318039183505, 756491.222197200870141 ], [ 374280.974582358030602, 756496.19797937956173 ], [ 374280.429363321978599, 756499.295166388503276 ], [ 374279.55654211784713, 756504.051644814549945 ], [ 374278.57268894801382, 756508.587250534328632 ], [ 374276.92578258109279, 756513.124425337184221 ], [ 374274.837102616671473, 756517.773213418549858 ], [ 374272.858670305693522, 756522.311173003050499 ], [ 374271.543029997381382, 756526.736996460705996 ], [ 374270.557869921904057, 756530.719766892609186 ], [ 374269.793466102273669, 756534.591447185142897 ], [ 374268.806998054555152, 756538.021382045350038 ], [ 374266.936459372984245, 756541.453409230336547 ], [ 374265.065659280633554, 756544.774869392043911 ], [ 374263.30510659981519, 756547.985500981565565 ], [ 374261.876080649613868, 756551.195348017616197 ], [ 374260.669381004699972, 756554.957507695653476 ], [ 374259.683960898371879, 756558.829711456317455 ], [ 374259.251346720498987, 756562.811174601200037 ], [ 374259.370229860418476, 756566.349061413900927 ], [ 374259.710654006630648, 756570.107559380237944 ], [ 374260.161848635296337, 756573.97636292129755 ], [ 374261.053246458992362, 756577.070150259532966 ], [ 374261.059788938844576, 756579.834328675060533 ], [ 374260.738207263464574, 756584.036664561717771 ], [ 374260.764639340108261, 756595.203945416375063 ], [ 374259.356813900289126, 756607.369731006096117 ], [ 374256.072959075157996, 756620.645635116961785 ], [ 374254.324449761712458, 756628.942356080398895 ], [ 374252.686973332252819, 756637.459949902724475 ], [ 374251.501478452933952, 756650.178048892877996 ], [ 374251.085095134680159, 756661.014675344806165 ], [ 374251.772489444643725, 756671.295850017573684 ], [ 374252.908723648812156, 756684.450723973684944 ], [ 374253.818967426894233, 756695.505345426034182 ], [ 374254.618702703039162, 756706.560228495625779 ], [ 374255.087697855546139, 756717.947597863851115 ], [ 374253.332126786815934, 756723.259006797685288 ], [ 374251.685493988159578, 756727.90675135049969 ], [ 374243.127093094284646, 756753.79987228277605 ], [ 374242.585808402043767, 756758.555568033945747 ], [ 374241.934539089910686, 756763.532659780466929 ], [ 374240.62362317048246, 756769.948694541119039 ], [ 374239.750813989667222, 756774.705175428185612 ], [ 374238.438327927142382, 756780.457807443919592 ], [ 374236.475621516699903, 756791.629800171358511 ], [ 374234.176154709071852, 756800.591235140222125 ], [ 374231.988244579813909, 756809.994677289272659 ], [ 374229.911367476976011, 756819.61899229476694 ], [ 374227.945261526037939, 756829.353612982085906 ], [ 374227.835800687316805, 756829.796143330982886 ], [ 374227.180868710507639, 756833.225295545300469 ], [ 374226.633826494216919, 756835.548514476744458 ], [ 374225.429234014474787, 756840.195214111940004 ], [ 374224.774564297811594, 756843.734933575848117 ], [ 374224.230402934132144, 756847.274391336948611 ], [ 374224.124346502590925, 756849.154294788953848 ], [ 374224.02693186927354, 756854.682914534816518 ], [ 374224.495152095099911, 756865.738583651604131 ], [ 374224.620063491165638, 756871.819515758776106 ], [ 374224.737642367719673, 756874.804567365907133 ], [ 374226.446855008893181, 756896.582372001023032 ], [ 374226.670490078337025, 756897.687520128674805 ], [ 374227.899435335770249, 756903.323566184495576 ], [ 374228.235149767831899, 756905.091855535632931 ], [ 374230.239222750300542, 756911.389472368755378 ], [ 374231.584698849357665, 756919.568301371880807 ], [ 374231.37860993121285, 756925.871153010404669 ], [ 374230.735202943964396, 756934.165260558365844 ], [ 374230.205447097483557, 756943.78591236541979 ], [ 374229.782271316566039, 756951.747795052360743 ], [ 374229.247802176862024, 756959.378238057135604 ], [ 374228.824888962320983, 756967.450688005890697 ], [ 374228.633730158559047, 756980.055868190829642 ], [ 374227.875627180561423, 756986.581163259106688 ], [ 374227.336706972215325, 756992.331964682321995 ], [ 374225.042494533932768, 757003.504745734157041 ], [ 374223.844456678489223, 757010.91562551993411 ], [ 374223.41761705285171, 757017.329568362561986 ], [ 374223.10600033972878, 757025.733458465198055 ], [ 374221.903248869697563, 757031.154129454051144 ], [ 374220.920465634902939, 757036.132008241140284 ], [ 374218.164842345984653, 757039.12386695027817 ], [ 374216.070432640670333, 757041.340184772619978 ], [ 374214.638546131784096, 757043.333797455416061 ], [ 374214.093341892759781, 757046.430987348780036 ], [ 374214.435867687920108, 757051.074023095308803 ], [ 374215.662717827130109, 757055.825531448703259 ], [ 374216.333099475828931, 757058.919841329101473 ], [ 374217.890424881188665, 757063.228295543580316 ], [ 374220.329192708479241, 757066.428983545862138 ], [ 374223.425767872366123, 757067.416757374769077 ], [ 374227.954490898991935, 757066.521486114244908 ], [ 374229.05930666194763, 757066.408300979644991 ], [ 374233.363871129171457, 757064.186747812433168 ], [ 374236.010557342786342, 757061.858554558129981 ], [ 374237.666864413884468, 757061.301792070386 ], [ 374241.976929625729099, 757061.402150149457157 ], [ 374245.517106948420405, 757063.052281148731709 ], [ 374249.171982092724647, 757066.471225162502378 ], [ 374252.38482574239606, 757069.891216345829889 ], [ 374256.159635500225704, 757077.290316653787158 ], [ 374256.395316491951235, 757083.481554050347768 ], [ 374256.308640507108066, 757093.543427260708995 ], [ 374256.108052591094747, 757102.168189191492274 ], [ 374255.245990349794738, 757111.457924657035619 ], [ 374254.929657503846101, 757117.8716052363161 ], [ 374254.944323982985225, 757124.063366238027811 ], [ 374254.85162581509212, 757131.582194951479323 ], [ 374254.761546934663784, 757140.206695306347683 ], [ 374253.676638102566358, 757148.722984476131387 ], [ 374251.702430852048565, 757155.030024717445485 ], [ 374247.862168267718516, 757166.648739420808852 ], [ 374245.791337960807141, 757178.816101744654588 ], [ 374244.38407799275592, 757191.203027852810919 ], [ 374243.508662315434776, 757194.853838842129335 ], [ 374250.472992025548592, 757195.832449777866714 ], [ 374264.739196569949854, 757200.331933657056652 ], [ 374276.238521313178353, 757203.06889001885429 ], [ 374286.517810713034123, 757203.92908601812087 ], [ 374303.758807444130071, 757204.662230028188787 ], [ 374305.638219675631262, 757204.989482813514769 ], [ 374313.377406778919976, 757206.51910553406924 ], [ 374318.573613048938569, 757207.501911667059176 ], [ 374317.590303520380985, 757212.258653749828227 ], [ 374317.59265974687878, 757213.253758038859814 ], [ 374318.258584170718677, 757214.468426646199077 ], [ 374319.365229280258063, 757215.129212906467728 ], [ 374320.139043083763681, 757215.237948443740606 ], [ 374406.915356541401707, 757226.863299657241441 ], [ 374497.889056788524613, 757237.704887523315847 ], [ 374536.244242420478258, 757241.484079575166106 ], [ 374599.251422040630132, 757248.964350160094909 ], [ 374647.435457481071353, 757250.066775247687474 ], [ 374698.934178309864365, 757250.940283181378618 ], [ 374699.370825015823357, 757201.847224331577308 ], [ 374699.370042004680727, 757201.515523290960118 ], [ 374698.755387295503169, 757175.201878466992639 ], [ 374698.754343312582932, 757174.75961041636765 ], [ 374698.845015155035071, 757166.356256615370512 ], [ 374699.801069929555524, 757103.219885028200224 ], [ 374701.05252564244438, 757071.594590729451738 ], [ 374702.192695545963943, 757039.637856864486821 ], [ 374711.476121898973361, 757039.94765136751812 ], [ 374733.585218475316651, 757043.101942403358407 ], [ 374749.507709427794907, 757047.044810276362114 ], [ 374771.407779866131023, 757055.285718841711059 ], [ 374790.424214453494642, 757059.110732458182611 ], [ 374809.761999678681605, 757058.622858831775375 ], [ 374833.403844897577073, 757055.692358110216446 ], [ 374856.382906121434644, 757052.873998206458054 ], [ 374862.569767036184203, 757052.196009696112014 ], [ 374869.090235517884139, 757052.401776158832945 ], [ 374907.888814374804497, 757056.733046946814284 ], [ 374908.662627792335115, 757056.841791236191057 ], [ 374910.76305290334858, 757057.1685449143406 ], [ 374924.029168997425586, 757059.34864042326808 ], [ 374924.471459666558076, 757059.458165971562266 ], [ 374941.607421441352926, 757062.513689119135961 ], [ 374953.215660385612864, 757064.587129272869788 ], [ 374954.21074896294158, 757064.805920539773069 ], [ 374974.109653935011011, 757067.965513443923555 ], [ 374986.159658919437788, 757069.92735250655096 ], [ 374988.923387902148534, 757070.36311470461078 ], [ 375011.365000060410239, 757073.959003597032279 ], [ 375016.229151505045593, 757074.7215246707201 ], [ 375036.340992232842837, 757074.45304563571699 ], [ 375061.646943154628389, 757074.282917832373641 ], [ 375063.96707957808394, 757074.056322748539969 ], [ 375069.270397233660333, 757073.601572597632185 ], [ 375069.822674381313846, 757073.489705472951755 ], [ 375105.619288363901433, 757070.088455975288525 ], [ 375118.545280042628292, 757068.620671561919153 ], [ 375130.803286066337023, 757065.05367953365203 ], [ 375131.133768231491558, 757064.610632332158275 ], [ 375134.215754903270863, 757059.406712273485027 ], [ 375134.545717039960437, 757058.742531382711604 ], [ 375136.308635774534196, 757056.527035680948757 ], [ 375136.528870605281554, 757056.194815294118598 ], [ 375149.307956078846473, 757039.247939222259447 ], [ 375192.177894892636687, 756989.170655491645448 ], [ 375193.720063201675657, 756987.066248892457224 ], [ 375196.475736189284362, 756984.07445035839919 ], [ 375208.15108253469225, 756967.683026540791616 ], [ 375220.816588428046089, 756949.409633272560313 ], [ 375232.71166723157512, 756932.464864066103473 ], [ 375233.262646968127228, 756931.800164831802249 ], [ 375259.385180533863604, 756902.880693882936612 ], [ 375266.884644376987126, 756896.450166996452026 ], [ 375267.325896305730566, 756896.117428261437453 ], [ 375282.656093191704713, 756883.145033340202644 ], [ 375296.9852359672077, 756867.41080971120391 ], [ 375303.821662234782707, 756860.981846710550599 ], [ 375306.57812707190169, 756858.321756504825316 ], [ 375342.646966038504615, 756829.600121832452714 ], [ 375344.191740595269948, 756828.601389275048859 ], [ 375348.38403303117957, 756825.606229462428018 ], [ 375401.120676670921966, 756788.774105939315632 ], [ 375405.314531425363384, 756786.442352257552557 ], [ 375410.061445036204532, 756784.330436276854016 ], [ 375423.199182975804433, 756778.881817380897701 ], [ 375423.530447505530901, 756778.770472994889133 ], [ 375439.761373541958164, 756772.872333910316229 ], [ 375445.613369003054686, 756770.757829808164388 ], [ 375467.586565617995802, 756763.077156240469776 ], [ 375470.788963740807958, 756762.074541414738633 ], [ 375497.952931184787303, 756753.054903259500861 ], [ 375512.420925188576803, 756749.37226824555546 ], [ 375541.687923185818363, 756741.785100757493638 ], [ 375564.769846378418151, 756735.649816060322337 ], [ 375583.653505086200312, 756729.966645610984415 ], [ 375593.259414238738827, 756726.405991389765404 ], [ 375623.629697375989053, 756718.04231792956125 ], [ 375642.072627745161299, 756712.913038805825636 ], [ 375686.909381352248602, 756700.203412557137199 ], [ 375695.633823281736113, 756697.750514558982104 ], [ 375728.765278929495253, 756688.717041442869231 ], [ 375731.526169263059273, 756687.936611372511834 ], [ 375747.206154916610103, 756682.703269077581353 ], [ 375758.462975972564891, 756676.26403792493511 ], [ 375759.655548168404493, 756666.420764145674184 ], [ 375761.499791210633703, 756651.711007815320045 ], [ 375762.792271033860743, 756637.334243975114077 ], [ 375764.837881337618455, 756614.220907353213988 ], [ 375767.651881388854235, 756588.894429696607403 ], [ 375767.968926461646333, 756582.70192319212947 ], [ 375769.05590974126244, 756574.959674956277013 ], [ 375771.117818215105217, 756558.812037426163442 ], [ 375772.208939729083795, 756552.838855495210737 ], [ 375776.142254118109122, 756533.590960300876759 ], [ 375778.224591625970788, 756526.178087111795321 ], [ 375782.060845806321595, 756512.679915899527259 ], [ 375785.128455034224316, 756501.284319661208428 ], [ 375790.38736536540091, 756481.812193773570471 ], [ 375790.715271980501711, 756480.263486097450368 ], [ 375791.915873289748561, 756473.847780562471598 ], [ 375793.457046972354874, 756471.301131655345671 ], [ 375795.878153180412482, 756466.98335033247713 ], [ 375802.381612660828978, 756459.891846071230248 ], [ 375805.025287864671554, 756456.236948428559117 ], [ 375806.129339108825661, 756455.792098923237063 ], [ 375805.904703933279961, 756454.244682982214727 ], [ 375804.659389659063891, 756441.532364091952331 ], [ 375795.315160885744262, 756415.239208407234401 ], [ 375788.088939492881764, 756396.791374609572813 ], [ 375775.641149546427187, 756366.525054837577045 ], [ 375766.080275353277102, 756342.112049722229131 ], [ 375755.972278405097313, 756320.022235985612497 ], [ 375752.080429426161572, 756309.748582881409675 ], [ 375748.189096243004315, 756299.696063103619963 ], [ 375746.519055073615164, 756294.392740748939104 ], [ 375745.95823847677093, 756290.855900644441135 ], [ 375735.981934232695494, 756277.832293213461526 ], [ 375730.222803340235259, 756272.427965006325394 ], [ 375724.795973662985489, 756267.354561903048307 ], [ 375724.131110312882811, 756266.582145953318104 ], [ 375723.577790057170205, 756266.251738119521178 ], [ 375710.181386992742773, 756255.668610715307295 ], [ 375699.552874600864016, 756247.290357170626521 ], [ 375669.886549778573681, 756226.020268578315154 ], [ 375642.988359462236986, 756207.065628545009531 ], [ 375642.435038004885428, 756206.735221379552968 ], [ 375617.306784158921801, 756188.550421083346009 ], [ 375616.642694458831102, 756188.109706073999405 ], [ 375615.978346003161278, 756187.558424407965504 ], [ 375615.535533274000045, 756187.227758855093271 ], [ 375614.650166540348437, 756186.676994421985 ], [ 375614.096327172534075, 756186.125454161781818 ], [ 375607.454394001222681, 756181.276038012234494 ], [ 375603.469336992537137, 756178.410615296685137 ], [ 375585.205823706928641, 756165.848691956722178 ], [ 375566.388202179339714, 756152.6246669634711 ], [ 375561.296495283662807, 756149.098433648818173 ], [ 375527.97651645517908, 756124.96221035066992 ], [ 375519.009470035904087, 756118.23860323894769 ], [ 375510.044233804219402, 756112.28896415757481 ], [ 375505.283269999548793, 756108.430258515756577 ], [ 375489.233519489294849, 756097.411118454649113 ], [ 375479.714952141977847, 756091.131077498430386 ], [ 375481.806342534604482, 756087.588024656870402 ], [ 375483.567499997327104, 756084.598582013975829 ], [ 375486.204704511677846, 756078.179500927566551 ], [ 375492.907969532010611, 756062.020973785314709 ], [ 375496.310456462495495, 756052.061947540380061 ], [ 375499.369505527603906, 756037.017630113521591 ], [ 375502.979292096511927, 756021.198052425985225 ], [ 375506.041453154408373, 756007.480536474962719 ], [ 375506.475982942734845, 756004.273067274247296 ], [ 375506.137981602456421, 756001.509676273795776 ], [ 375506.027213147026487, 756001.399368355167098 ], [ 375503.921835652377922, 755998.971817849786021 ], [ 375494.50936259678565, 755990.811879257671535 ], [ 375481.334381298336666, 755980.449407597538084 ], [ 375472.697540397639386, 755973.172193736536428 ], [ 375469.487064017332159, 755970.7472325314302 ], [ 375463.952000315883197, 755966.669206699822098 ], [ 375456.200267859327141, 755959.832190858200192 ], [ 375445.125213751452975, 755949.575374214793555 ], [ 375436.706791688862722, 755941.191979748662561 ], [ 375430.284276990569197, 755935.678660424309783 ], [ 375427.075091520207934, 755933.806534709408879 ], [ 375419.661873241129797, 755929.954047390958294 ], [ 375406.827717581822071, 755923.571214817464352 ], [ 375405.057488943217322, 755922.690824322402477 ], [ 375403.065981646475848, 755921.700385074480437 ], [ 375400.18806434655562, 755919.716917090001516 ], [ 375398.859356264467351, 755918.614357448881492 ], [ 375396.202976362081245, 755916.851505146245472 ], [ 375383.258304270566441, 755910.468936282908544 ], [ 375371.199261984555051, 755904.747698302613571 ], [ 375356.374620433372911, 755897.816704705939628 ], [ 375352.9451874907827, 755896.276801008731127 ], [ 375343.651994199084584, 755891.875892860698514 ], [ 375344.750871584925335, 755889.21970030234661 ], [ 375346.180241823662072, 755886.120463615749031 ], [ 375355.416934771870729, 755866.417823316529393 ], [ 375364.541829864494503, 755846.162611234234646 ], [ 375371.137182958482299, 755831.10999520518817 ], [ 375380.146399857592769, 755808.643712485209107 ], [ 375385.968970598245505, 755793.92461293109227 ], [ 375386.187658869719598, 755792.928994502057321 ], [ 375386.731141061231028, 755789.057864385074936 ], [ 375389.791483216860797, 755774.566373149282299 ], [ 375393.517996915208641, 755761.400129533838481 ], [ 375395.051667255756911, 755755.64703512575943 ], [ 375398.886622104095295, 755741.595999746816233 ], [ 375400.858967022737488, 755734.404502786113881 ], [ 375403.48893399751978, 755724.889551595901139 ], [ 375406.439295043819584, 755710.619455338455737 ], [ 375408.295175410341471, 755700.885183558915742 ], [ 375411.024519648868591, 755686.615605855011381 ], [ 375412.332253980799578, 755678.762262980220839 ], [ 375413.530255582067184, 755671.240879209479317 ], [ 375414.38766250689514, 755659.850437242188491 ], [ 375415.247659960528836, 755649.565662488806993 ], [ 375416.875792073959019, 755636.957175112795085 ], [ 375417.077131360012572, 755628.553587643546052 ], [ 375417.076613431796432, 755628.332454227958806 ], [ 375417.503117123269476, 755621.697416456067003 ], [ 375417.822736096626613, 755616.610571444500238 ], [ 375418.362858077103738, 755611.302075393497944 ], [ 375420.093735619855579, 755595.376328628277406 ], [ 375421.281902413349599, 755583.653410982107744 ], [ 375422.360854359227233, 755572.483585819834843 ], [ 375424.091477376874536, 755556.447273117140867 ], [ 375425.38601519621443, 755542.955030007869937 ], [ 375427.120007382705808, 755528.356084991362877 ], [ 375429.293454550206661, 755512.650438205339015 ], [ 375430.596281150006689, 755502.696330170845613 ], [ 375431.896001912362408, 755491.415421918965876 ], [ 375435.286106619169004, 755476.149196626851335 ], [ 375437.135277003690135, 755463.540194863104261 ], [ 375440.627354878582992, 755444.625011030584574 ], [ 375440.626837175397668, 755444.403877646080218 ], [ 375443.020023164397571, 755428.14488224661909 ], [ 375449.148061001789756, 755402.257789793307893 ], [ 375451.995202177902684, 755391.083828628878109 ], [ 375452.31120622518938, 755384.449051428004168 ], [ 375452.177920529735275, 755374.719441752880812 ], [ 375451.263036019052379, 755361.56407555018086 ], [ 375450.576161000994034, 755351.393492517876439 ], [ 375449.213021761854179, 755335.58556054905057 ], [ 375447.072941275662743, 755318.342072316911072 ], [ 375445.949456915666815, 755310.494424316566437 ], [ 375445.38836166751571, 755306.847017026506364 ], [ 375444.367365549434908, 755295.571543113794178 ], [ 375437.624380633467808, 755294.813355112797581 ], [ 375436.076708449516445, 755294.59584322036244 ], [ 375431.433432966121472, 755293.832741111400537 ], [ 375431.727179095847532, 755277.689228472765535 ], [ 375431.719414742605295, 755274.37222781823948 ], [ 375429.874888634600211, 755241.759193678153679 ], [ 375430.047256585676223, 755220.972139132907614 ], [ 375430.340747640526388, 755204.718060237588361 ], [ 375429.512306062446442, 755181.279733465169556 ], [ 375427.828499583760276, 755170.116378042497672 ], [ 375425.587995611771476, 755157.185248901019804 ], [ 375425.32453290570993, 755139.052829797845334 ], [ 375425.409166717377957, 755127.995902668102644 ], [ 375425.927566025289707, 755113.399807145702653 ], [ 375427.993902873597108, 755099.131790974875912 ], [ 375427.926109487772919, 755070.163320295978338 ], [ 375428.465212228999007, 755064.412559784715995 ], [ 375430.989124242274556, 755056.77751075278502 ], [ 375435.622588202124462, 755053.339082378079183 ], [ 375440.261744487739634, 755052.333121391595341 ], [ 375446.891660870634951, 755051.98590652376879 ], [ 375452.417755262809806, 755052.194111467688344 ], [ 375467.118117541191168, 755053.154824712895788 ], [ 375487.45534219086403, 755054.43405861093197 ], [ 375490.438636051141657, 755054.205946134985425 ], [ 375493.531407003407367, 755053.535308718215674 ], [ 375495.737758411909454, 755051.871639346587472 ], [ 375497.610248001408763, 755049.213645577896386 ], [ 375501.891494648822118, 755036.930666764965281 ], [ 375504.851000503171235, 755026.530423103249632 ], [ 375509.889284930599388, 755007.169370840885676 ], [ 375509.888767817872576, 755006.948237538570538 ], [ 375509.998762319330126, 755006.726845808327198 ], [ 375510.107205488253385, 755005.842054171487689 ], [ 375513.395923628122546, 754994.445936537231319 ], [ 375517.782779814326204, 754980.061935857753269 ], [ 375520.526182199129835, 754971.762977392645553 ], [ 375518.976691914373077, 754970.771495103486814 ], [ 375503.151284729072358, 754961.299716074950993 ], [ 375497.176671028893907, 754958.328371767536737 ], [ 375492.200023598736152, 754956.792068511480466 ], [ 375485.124170149269048, 754955.48180971480906 ], [ 375477.939873303170316, 754955.056343557080254 ], [ 375469.540205715922639, 754954.744288427522406 ], [ 375453.404198692180216, 754954.229197597829625 ], [ 375450.530893391580321, 754954.235919375438243 ], [ 375427.431351242004894, 754953.184290992445312 ], [ 375405.987154176691547, 754951.133692929171957 ], [ 375393.937489969655871, 754949.503384021809325 ], [ 375353.695153226726688, 754942.742411893326789 ], [ 375329.481935160816647, 754938.04471076943446 ], [ 375309.36075632518623, 754934.664244095911272 ], [ 375298.524899315147195, 754932.257141661364585 ], [ 375281.831912928260863, 754929.863761314307339 ], [ 375272.434520125389099, 754928.227265580790117 ], [ 375266.019651619659271, 754926.030947202933021 ], [ 375259.821920516958926, 754922.175610695849173 ], [ 375251.519281388958916, 754916.113859777455218 ], [ 375241.334051675221417, 754908.398010944365524 ], [ 375235.024768182076514, 754904.10066870902665 ], [ 375229.600356358860154, 754900.132955493172631 ], [ 375225.174437794368714, 754897.821413003839552 ], [ 375222.408789092034567, 754896.611653433763422 ], [ 375220.749296154943295, 754895.841571053373627 ], [ 375211.681615741341375, 754893.430340568651445 ], [ 375203.389332049118821, 754891.791265566716902 ], [ 375200.957809833867941, 754891.68639741349034 ], [ 375181.393823141348548, 754890.294881413574331 ], [ 375157.078078436723445, 754889.025081136729568 ], [ 375152.325544821214862, 754888.815089967800304 ], [ 375134.195356454176363, 754886.2039877633797 ], [ 375133.863820476806723, 754886.204765263479203 ], [ 375119.824647991801612, 754884.468612888013013 ], [ 375110.320097123330925, 754884.269770996645093 ], [ 375106.45347371470416, 754884.831677581765689 ], [ 375102.699177867441904, 754886.167292712838389 ], [ 375098.945660274068359, 754887.834608494536951 ], [ 375096.298040988971479, 754889.83103246439714 ], [ 375094.864238176029176, 754891.050637333421037 ], [ 375092.659185925847851, 754893.267158112721518 ], [ 375087.58082216756884, 754895.490419861627743 ], [ 375084.931387834076304, 754896.712877006386407 ], [ 375075.768231925554574, 754900.714801937574521 ], [ 375059.537499732745346, 754906.944661154295318 ], [ 375052.25149352196604, 754910.278781369212084 ], [ 375022.381337698374409, 754896.749095029896125 ], [ 375021.828258591936901, 754896.529258420807309 ], [ 375000.034289901726879, 754886.739918473409489 ], [ 375001.353166369255632, 754883.640934259514324 ], [ 375008.274675259192009, 754866.265600001439452 ] ] ] } }
]
}
