{
"type": "FeatureCollection",
"crs": { "type": "name", "properties": { "name": "urn:ogc:def:crs:EPSG::32644" } },
"features": [
{ "type": "Feature", "properties": { "Shape_Leng": 0.03099730766, "Shape_Area": 4.206567e-05, "ADM4_EN": "Kawdana West", "ADM4_SI": "බටහිර කව්ඩාන", "ADM4_TA": null, "ADM4_PCODE": "LK1131010", "ADM4_REF": null, "ADM3_EN": "Ratmalana", "ADM3_SI": "රත්මලාන", "ADM3_TA": "இரத்மலானை", "ADM3_PCODE": "LK1131", "ADM2_EN": "Colombo", "ADM2_SI": "කොළඹ දිස්ත්‍රික්ක", "ADM2_TA": "கொழும்பு மாவட்டம்", "ADM2_PCODE": "LK11", "ADM1_EN": "Western", "ADM1_SI": "බස්නාහිර පළාත", "ADM1_TA": "மேல் மாகாணம் ", "ADM1_PCODE": "LK1", "ADM0_EN": "Sri Lanka", "ADM0_SI": "ශ්‍රී ලංකා", "ADM0_TA": "இலங்கை", "ADM0_PCODE": "LK", "date": "2022-08-02", "validOn": "2022-08-16", "validTo": null, "area": 0.514, "zone": "other_4gn" }, "geometry": { "type": "Polygon", "coordinates": [ [ [ 375008.274675259192009, 754866.265600001439452 ], [ 375022.883249328006059, 754828.08555004990194 ], [ 375034.857198796584271, 754797.430274757905863 ], [ 375036.505800627113786, 754793.55654657993 ], [ 375019.80651836283505, 754788.509636010508984 ], [ 374991.610064609150868, 754781.831207103212364 ], [ 374968.941811422992032, 754776.245486355968751 ], [ 374944.288744675810449, 754772.544081971631385 ], [ 374906.471721304871608, 754763.345236846827902 ], [ 374898.621709768020082, 754761.81573295337148 ], [ 374898.724689638183918, 754758.60903477598913 ], [ 374899.335816787672229, 754736.494107845006511 ], [ 374899.75345189741347, 754726.099785955855623 ], [ 374900.283158270642161, 754716.368605612195097 ], [ 374901.59268543147482, 754709.289212476694956 ], [ 374908.392516876687296, 754687.159750166814774 ], [ 374915.855170869326685, 754664.918165734852664 ], [ 374918.036858259292785, 754652.750622896593995 ], [ 374919.321983069297858, 754635.277948499540798 ], [ 374920.70464011200238, 754612.276673181098886 ], [ 374922.566738048102707, 754605.195984142366797 ], [ 374924.854271063406486, 754591.037980040651746 ], [ 374925.508519867842551, 754587.277150788460858 ], [ 374926.491191433742642, 754582.188741116086021 ], [ 374928.464842998771928, 754575.550060490611941 ], [ 374930.8779499977245, 754567.804673830629326 ], [ 374939.881586834671907, 754542.905861694016494 ], [ 374945.269198577094357, 754531.173065645736642 ], [ 374953.716393554816023, 754504.617053191759624 ], [ 374958.438860019203275, 754492.001281697885133 ], [ 374964.589692619105335, 754475.844001073506661 ], [ 374969.31709552538814, 754465.329000937985256 ], [ 374970.413142656092532, 754461.456568923778832 ], [ 374970.521320202155039, 754460.461208266555332 ], [ 374970.730409728828818, 754455.374616262735799 ], [ 374970.260333732469007, 754443.434438183438033 ], [ 374971.34314832376549, 754433.923099024337716 ], [ 374972.547633845009841, 754429.165873412275687 ], [ 374976.736230236245319, 754424.512212543282658 ], [ 374979.709962599445134, 754420.193105138954706 ], [ 374993.154155154479668, 754403.797582315281034 ], [ 375010.452566706342623, 754381.532950276974589 ], [ 375011.003316486836411, 754380.757686470053159 ], [ 375014.856490499048959, 754374.446305722463876 ], [ 375019.37689380266238, 754369.902438697754405 ], [ 375019.487406904343516, 754369.902179469470866 ], [ 375031.828568590746727, 754354.393797339405864 ], [ 375037.670983809279278, 754348.077753554331139 ], [ 375040.203451163019054, 754344.091388240689412 ], [ 375049.021426881488878, 754334.230211528367363 ], [ 375068.308346268255264, 754311.629241497023031 ], [ 375082.747732909396291, 754295.452552579110488 ], [ 375097.406600059184711, 754278.611950480844826 ], [ 375103.799006609537173, 754271.188954030978493 ], [ 375108.537343462696299, 754265.317778326687403 ], [ 375115.370769992354326, 754257.451480787363835 ], [ 375130.142244405345991, 754241.495166350039653 ], [ 375139.291017339914106, 754231.301533403806388 ], [ 375155.602700190618634, 754212.356301669613458 ], [ 375158.793860796606168, 754206.488756842096336 ], [ 375160.998948604334146, 754204.272244503023103 ], [ 375160.004328024631832, 754204.274574412382208 ], [ 375145.41526397515554, 754203.755914842709899 ], [ 375143.315250250394456, 754203.650267430697568 ], [ 375132.371055162453558, 754202.23853337042965 ], [ 375116.558309531828854, 754198.295160595793277 ], [ 375101.51811840973096, 754193.907712119631469 ], [ 375084.706858183722943, 754188.308177578961477 ], [ 375065.352746947261039, 754182.272339220857248 ], [ 375057.500587443355471, 754179.858264730544761 ], [ 375052.745137764373794, 754178.432037528371438 ], [ 375030.958424090640619, 754171.849076664890163 ], [ 375000.655160045949742, 754162.300778033095412 ], [ 374999.106933191185817, 754161.86213964316994 ], [ 374980.637165811902378, 754155.934822146547958 ], [ 374974.885273222695105, 754153.736966756172478 ], [ 374969.463364501018077, 754150.874933346873149 ], [ 374965.70019640692044, 754148.451278615277261 ], [ 374962.377785315853544, 754145.47375301073771 ], [ 374954.068253922800068, 754136.537287809303962 ], [ 374947.751337566121947, 754129.033524611149915 ], [ 374942.549154761771206, 754125.618140691542067 ], [ 374936.682073300587945, 754121.430345400702208 ], [ 374936.460527128889225, 754121.209730413625948 ], [ 374923.731478718167637, 754112.725908593391068 ], [ 374915.319725278997794, 754107.327845044084825 ], [ 374902.261204631766304, 754099.729339899495244 ], [ 374900.377281538385432, 754097.522412975435145 ], [ 374899.931853112531826, 754096.086081847315654 ], [ 374899.15176943235565, 754093.323727029724978 ], [ 374899.243598724773619, 754085.362656629295088 ], [ 374899.243079715815838, 754085.141522990190424 ], [ 374898.790644592721947, 754080.719887728337198 ], [ 374897.010227875667624, 754075.527397286845371 ], [ 374894.903978783928324, 754072.768155057565309 ], [ 374889.69426082551945, 754066.146337062236853 ], [ 374885.705643345718272, 754061.843569258926436 ], [ 374885.041003467340488, 754061.181724722846411 ], [ 374882.160897137364373, 754058.313731798669323 ], [ 374874.740640502655879, 754051.586536102113314 ], [ 374865.106211966951378, 754043.206027396488935 ], [ 374853.483569294563495, 754035.27245748823043 ], [ 374838.43291594600305, 754026.462398825678974 ], [ 374832.900471907807514, 754023.600635579554364 ], [ 374827.699828511860687, 754020.848661133786663 ], [ 374815.088261779746972, 754015.349904070375487 ], [ 374802.144890591036528, 754009.74136138742324 ], [ 374797.608106528408825, 754007.31953263503965 ], [ 374792.848476252460387, 754004.124255382921547 ], [ 374769.069796408235561, 753996.440388617920689 ], [ 374750.375530819408596, 753989.076287546660751 ], [ 374749.711667568190023, 753988.74614488624502 ], [ 374732.677184265339747, 753982.262689336552285 ], [ 374723.82982779777376, 753979.629860281711444 ], [ 374715.202718732063659, 753976.664812471717596 ], [ 374694.853844064404257, 753970.631427004584111 ], [ 374688.992441388894804, 753968.876124668400735 ], [ 374688.881927340989932, 753968.876384444418363 ], [ 374691.631004151597153, 753963.009845214779489 ], [ 374691.626845873543061, 753961.240775060257874 ], [ 374689.300852624815889, 753959.034892529365607 ], [ 374661.644779673486482, 753947.379751876695082 ], [ 374635.543170545541216, 753938.816858612583019 ], [ 374627.135516128269956, 753935.187902008416131 ], [ 374609.993861848022789, 753930.142110218643211 ], [ 374587.887908978154883, 753928.867297080229037 ], [ 374587.227685060584918, 753930.085093021043576 ], [ 374584.703806507925037, 753937.720189935178496 ], [ 374580.973377467948012, 753949.227989259292372 ], [ 374575.157229724514764, 753966.711343197966926 ], [ 374570.43165881105233, 753978.000350354821421 ], [ 374565.922955732967239, 753987.519767380552366 ], [ 374560.315358416177332, 753999.695391934481449 ], [ 374555.590314919885714, 754011.205535415210761 ], [ 374549.866484649479389, 754020.948949478450231 ], [ 374540.96091207372956, 754040.540364999673329 ], [ 374536.785584531957284, 754050.832974711433053 ], [ 374532.06809968361631, 754065.549563429085538 ], [ 374528.554037917754613, 754075.066645054728724 ], [ 374524.381839838402811, 754086.68606007064227 ], [ 374521.644241493486334, 754097.417557987617329 ], [ 374519.022624748526141, 754110.47070202359464 ], [ 374516.395022639073431, 754120.980806604959071 ], [ 374513.986627201607917, 754130.716422477620654 ], [ 374510.588295101828407, 754142.444585631252266 ], [ 374506.8558202998247, 754153.067860401817597 ], [ 374503.125169777194969, 754164.465104418923147 ], [ 374499.284528271877207, 754176.083743166527711 ], [ 374495.108962923579384, 754186.265792793710716 ], [ 374490.828354014956858, 754198.770009520580061 ], [ 374486.763566708774306, 754209.062367144157179 ], [ 374480.831768984149676, 754224.334663829184137 ], [ 374477.102954333648086, 754236.5058804966975 ], [ 374472.595338103128597, 754246.467580595170148 ], [ 374467.425424027373083, 754256.76254430913832 ], [ 374461.477750044199638, 754265.290259742527269 ], [ 374455.646061886742245, 754276.139622338349 ], [ 374449.928276439895853, 754288.426096363575198 ], [ 374445.74856401636498, 754296.839081599842757 ], [ 374441.349389403592795, 754305.915990118170157 ], [ 374437.940668573894072, 754313.221483774250373 ], [ 374433.319427990063559, 754321.856646344531327 ], [ 374428.476901733491104, 754330.381763483048417 ], [ 374424.846376188797876, 754337.356078510405496 ], [ 374420.113323991303332, 754345.438668494811282 ], [ 374414.826403633400332, 754352.969726570649073 ], [ 374408.220622239401564, 754363.599787246435881 ], [ 374403.712511433637701, 754373.340363558963872 ], [ 374400.306928960606456, 754381.9726653782418 ], [ 374400.673916551750153, 754397.008995893062092 ], [ 374399.047235413920134, 754410.170376921421848 ], [ 374395.658079026849009, 754425.768400892964564 ], [ 374393.140257510531228, 754435.946557832648978 ], [ 374387.639364008675329, 754446.463451278279535 ], [ 374383.352553252188955, 754456.314077272545546 ], [ 374379.397283700178377, 754466.163922143168747 ], [ 374374.340274329180829, 754477.45374476944562 ], [ 374369.838701002416201, 754489.958502357942052 ], [ 374360.834779685304966, 754514.636318844160996 ], [ 374351.803745547716971, 754527.815168084343895 ], [ 374343.990184661350213, 754541.765121259493753 ], [ 374341.353000882721972, 754548.184265402378514 ], [ 374339.059354955388699, 754559.688710981165059 ], [ 374335.875346851767972, 754568.54163387324661 ], [ 374334.789259332523216, 754576.615634233341552 ], [ 374333.377894147532061, 754587.344025618280284 ], [ 374333.182171407155693, 754598.069549133419059 ], [ 374334.087925501924474, 754607.244526928989217 ], [ 374336.871093304653186, 754615.862237142282538 ], [ 374339.430365411681123, 754623.26423149346374 ], [ 374341.661750507133547, 754632.21494646393694 ], [ 374343.114850357873365, 754639.177279955591075 ], [ 374346.119563042593654, 754648.015602842555381 ], [ 374349.120883966621477, 754655.416554389637895 ], [ 374352.567646025680006, 754664.253834499861114 ], [ 374356.346206090995111, 754673.200899575953372 ], [ 374359.79922620189609, 754684.691788452561013 ], [ 374361.378746819682419, 754698.398449837695807 ], [ 374362.18311387085123, 754711.443534003454261 ], [ 374361.885485261853319, 754725.818029634887353 ], [ 374361.031121082196478, 754738.424756525084376 ], [ 374359.838698817533441, 754748.268090014229529 ], [ 374358.647320741380099, 754758.553691757726483 ], [ 374356.794433659408242, 754769.504260262358002 ], [ 374354.940504208556376, 754780.012560875504278 ], [ 374352.757908187340945, 754791.737881344160996 ], [ 374349.251512426300906, 754804.46143461659085 ], [ 374346.40245331148617, 754814.750948990928009 ], [ 374343.8823236337048, 754823.934011007426307 ], [ 374341.361151383374818, 754832.674805164802819 ], [ 374339.394890343712177, 754842.409398956224322 ], [ 374337.097615181934088, 754852.365909483167343 ], [ 374333.695218025008217, 754862.325028475257568 ], [ 374332.178577267972287, 754875.26502401928883 ], [ 374331.546818771050312, 754888.534634250914678 ], [ 374332.008961984422058, 754897.047253317781724 ], [ 374332.242773763078731, 754902.464516820269637 ], [ 374330.395904412434902, 754915.958130609826185 ], [ 374327.225239300460089, 754930.449978371849284 ], [ 374324.494015177944675, 754943.835112728178501 ], [ 374319.996426078781951, 754957.998390940367244 ], [ 374316.481702798802871, 754967.183804591535591 ], [ 374312.417813960695639, 754977.807894924655557 ], [ 374311.44956999598071, 754988.977515600738116 ], [ 374311.468364933389239, 754996.938343572546728 ], [ 374338.118469709879719, 755003.951761348056607 ], [ 374372.841420361481141, 755013.268060794915073 ], [ 374377.817590756749269, 755014.583129858016036 ], [ 374378.370411589741707, 755014.692392991157249 ], [ 374381.687858320772648, 755015.569105967530049 ], [ 374385.005565807921812, 755016.556386164273135 ], [ 374416.618249959661625, 755019.135424865875393 ], [ 374426.695703304372728, 755027.957063357927836 ], [ 374427.692397257313132, 755028.839253351325169 ], [ 374438.332577384775504, 755041.971703594666906 ], [ 374441.317181225458626, 755042.296366779715754 ], [ 374438.823394049890339, 755062.646692634094507 ], [ 374435.53881365864072, 755075.701420763623901 ], [ 374434.992253178323153, 755078.245765559491701 ], [ 374433.57046597491717, 755084.551474457955919 ], [ 374432.476563125557732, 755089.308463130495511 ], [ 374431.932089639769401, 755092.737344164983369 ], [ 374431.607857370981947, 755095.834002770949155 ], [ 374431.506996211945079, 755099.925243161153048 ], [ 374431.737148804066237, 755103.794567422941327 ], [ 374431.857311297266278, 755107.885286424658261 ], [ 374432.426563334476668, 755114.960272139403969 ], [ 374433.105805454892106, 755121.813863112707622 ], [ 374434.908683982328512, 755136.515105407335795 ], [ 374435.473762582289055, 755141.821018805261701 ], [ 374435.932242014678195, 755148.785698195802979 ], [ 374436.276036401919555, 755153.981565985246561 ], [ 374436.389417291793507, 755155.197542491368949 ], [ 374437.396542504313402, 755160.502413055161014 ], [ 374456.505149041884579, 755156.255767689784989 ], [ 374484.231320710678119, 755150.993698633275926 ], [ 374515.822536460938863, 755144.506289011100307 ], [ 374520.682964521518443, 755143.610289608011954 ], [ 374524.548787664563861, 755142.716635345830582 ], [ 374529.963077443651855, 755142.372169182170182 ], [ 374533.056100944173522, 755141.812040100921877 ], [ 374535.374239673488773, 755140.700899756746367 ], [ 374536.917754300171509, 755139.149315037881024 ], [ 374538.129994613642339, 755137.709078832762316 ], [ 374539.230680849053897, 755135.82683521870058 ], [ 374541.208684698969591, 755131.067766217980534 ], [ 374544.292327127070166, 755126.527226576348767 ], [ 374547.046519780473318, 755122.872004450066015 ], [ 374550.905048149055801, 755118.882477013394237 ], [ 374556.420731681981124, 755114.667909314623103 ], [ 374560.174482058966532, 755113.11111668497324 ], [ 374564.040307684044819, 755112.21746577648446 ], [ 374565.808495167002548, 755112.213298966293223 ], [ 374573.104352745926008, 755113.08064726612065 ], [ 374574.430753836233635, 755113.188089346163906 ], [ 374576.310234539909288, 755113.515363384271041 ], [ 374586.813796635833569, 755115.591398557531647 ], [ 374591.56788385118125, 755116.464738093898632 ], [ 374599.637842686090153, 755117.551401191623881 ], [ 374616.4413497709902, 755119.944302877294831 ], [ 374625.285670003504492, 755121.360848309006542 ], [ 374654.69010696571786, 755124.829757929430343 ], [ 374657.342907548882067, 755125.044646036345512 ], [ 374662.096210659132339, 755125.586290717707016 ], [ 374675.36515879642684, 755128.761506140348502 ], [ 374683.547185504517984, 755130.511322777019814 ], [ 374693.055871656280942, 755132.479152432759292 ], [ 374701.347887840995099, 755134.007577592390589 ], [ 374706.214823927904945, 755135.875768985599279 ], [ 374713.185904647922143, 755139.618656049016863 ], [ 374719.603125054738484, 755142.810009825974703 ], [ 374722.811865052732173, 755144.460970419459045 ], [ 374734.874022416537628, 755151.398335760110058 ], [ 374741.071517671342008, 755155.143046446144581 ], [ 374751.583646044950001, 755160.867819865583442 ], [ 374761.430361191392876, 755165.599053024081513 ], [ 374769.948074389190879, 755169.117171966121532 ], [ 374774.26166597486008, 755170.654968063114211 ], [ 374793.065271229192149, 755177.687051082262769 ], [ 374795.498605096479878, 755178.565866893157363 ], [ 374801.69167056970764, 755180.430946201551706 ], [ 374811.093469698505942, 755183.94699125434272 ], [ 374825.693207182455808, 755189.109325082390569 ], [ 374831.552395195933059, 755189.980085245333612 ], [ 374840.506163816608023, 755190.954136166372336 ], [ 374855.428850255731959, 755192.466990716406144 ], [ 374855.760644589434378, 755192.576778046786785 ], [ 374871.567940869543236, 755194.308691931888461 ], [ 374877.426606860710308, 755194.958323183353059 ], [ 374878.863515492295846, 755195.065512608271092 ], [ 374881.406058338936418, 755195.391237831790932 ], [ 374884.832692613475956, 755195.71488484449219 ], [ 374880.5541983480216, 755209.103608234319836 ], [ 374872.225259470986202, 755238.865843285806477 ], [ 374863.483926461194642, 755281.233745244098827 ], [ 374863.155772606784012, 755282.671894278842956 ], [ 374858.139077357773203, 755311.099537112400867 ], [ 374853.255004300852306, 755348.925107018323615 ], [ 374849.451607688562945, 755376.354792197234929 ], [ 374848.266673137084581, 755389.404544333228841 ], [ 374847.297820415697061, 755400.353005859069526 ], [ 374846.020842454512604, 755421.253267577500083 ], [ 374845.278215494123287, 755434.412547387881204 ], [ 374844.164032199187204, 755477.53649544424843 ], [ 374843.993991426192224, 755499.20812682248652 ], [ 374844.312296910968143, 755540.559626067173667 ], [ 374844.437634777510539, 755546.861679213936441 ], [ 374844.769993529305793, 755594.183791640563868 ], [ 374845.02566916734213, 755655.879861996392719 ], [ 374845.153090314357542, 755663.066450572223403 ], [ 374845.282072598172817, 755670.91644057421945 ], [ 374845.320057475415524, 755687.059208320104517 ], [ 374846.176627119246405, 755722.328230142709799 ], [ 374847.932633241463918, 755764.118619161541574 ], [ 374849.881300409440883, 755793.856695570517331 ], [ 374851.141146903217304, 755812.650208769948222 ], [ 374854.001478279707953, 755854.106296705896966 ], [ 374854.689259034115821, 755864.608592353528365 ], [ 374856.753642656898592, 755896.557746958336793 ], [ 374856.867795756785199, 755898.105423572706059 ], [ 374857.66712770331651, 755909.049726783181541 ], [ 374858.011408609338105, 755914.466724981204607 ], [ 374860.415129984088708, 755949.732106615672819 ], [ 374862.378114114399068, 755985.551363270264119 ], [ 374863.88474703929387, 756015.290480461902916 ], [ 374864.468005201721098, 756028.336075253668241 ], [ 374865.186757962219417, 756051.995833364548162 ], [ 374866.148653748910874, 756085.053258817526512 ], [ 374865.624475364049431, 756097.106352921575308 ], [ 374864.278950052568689, 756135.808154550730251 ], [ 374861.367557586287148, 756166.552781491191126 ], [ 374856.482362324837595, 756203.825541182071902 ], [ 374850.921625673421659, 756235.792651963187382 ], [ 374842.394335146294907, 756275.064208557247184 ], [ 374841.519114625290968, 756278.82556609576568 ], [ 374832.864406847103965, 756310.910536790033802 ], [ 374823.764550930645783, 756341.669748997548595 ], [ 374807.53033469163347, 756393.121905829873867 ], [ 374800.289106186013669, 756415.36304648744408 ], [ 374796.997806947212666, 756425.543017380638048 ], [ 374796.33996413834393, 756427.755918732145801 ], [ 374793.15839404030703, 756437.603928909637034 ], [ 374789.538698243908584, 756449.111485459608957 ], [ 374778.239411498594563, 756484.409168948768638 ], [ 374770.450360810908023, 756508.641826110077091 ], [ 374768.914444978407118, 756513.399852180038579 ], [ 374762.881293748156168, 756532.431696940679103 ], [ 374755.866602972208057, 756556.99423633236438 ], [ 374755.210588994261343, 756559.981107632280327 ], [ 374750.942460062389728, 756577.68198360898532 ], [ 374747.120800998876803, 756597.261456827982329 ], [ 374744.506136463605799, 756613.189354506554082 ], [ 374740.817414980148897, 756642.277328666299582 ], [ 374739.739185087732039, 756653.668333196896128 ], [ 374738.552272788714617, 756665.833567320834845 ], [ 374737.263718366855755, 756681.758339524269104 ], [ 374734.667318090447225, 756705.425928054028191 ], [ 374732.723280159872957, 756724.558707208023407 ], [ 374731.642709670588374, 756734.954609962296672 ], [ 374728.402828325866722, 756766.916287920088507 ], [ 374727.968880036321934, 756770.344907109509222 ], [ 374725.046708138834219, 756796.445754026295617 ], [ 374722.012989854498301, 756822.104594555799849 ], [ 374714.673731463495642, 756896.423341993475333 ], [ 374712.29786183394026, 756919.869281443883665 ], [ 374705.716813696664758, 756987.662758791586384 ], [ 374702.298245333426166, 757037.536822950583883 ], [ 374702.192695545963943, 757039.637856864486821 ], [ 374711.476121898973361, 757039.94765136751812 ], [ 374733.585218475316651, 757043.101942403358407 ], [ 374749.507709427794907, 757047.044810276362114 ], [ 374771.407779866131023, 757055.285718841711059 ], [ 374790.424214453494642, 757059.110732458182611 ], [ 374809.761999678681605, 757058.622858831775375 ], [ 374833.403844897577073, 757055.692358110216446 ], [ 374856.382906121434644, 757052.873998206458054 ], [ 374862.569767036184203, 757052.196009696112014 ], [ 374869.090235517884139, 757052.401776158832945 ], [ 374907.888814374804497, 757056.733046946814284 ], [ 374908.662627792335115, 757056.841791236191057 ], [ 374910.76305290334858, 757057.1685449143406 ], [ 374924.029168997425586, 757059.34864042326808 ], [ 374924.471459666558076, 757059.458165971562266 ], [ 374941.607421441352926, 757062.513689119135961 ], [ 374953.215660385612864, 757064.587129272869788 ], [ 374954.21074896294158, 757064.805920539773069 ], [ 374974.109653935011011, 757067.965513443923555 ], [ 374986.159658919437788, 757069.92735250655096 ], [ 374988.923387902148534, 757070.36311470461078 ], [ 375011.365000060410239, 757073.959003597032279 ], [ 375016.229151505045593, 757074.7215246707201 ], [ 375036.340992232842837, 757074.45304563571699 ], [ 375061.646943154628389, 757074.282917832373641 ], [ 375063.96707957808394, 757074.056322748539969 ], [ 375069.270397233660333, 757073.601572597632185 ], [ 375069.822674381313846, 757073.489705472951755 ], [ 375105.619288363901433, 757070.088455975288525 ], [ 375118.545280042628292, 757068.620671561919153 ], [ 375130.803286066337023, 757065.05367953365203 ], [ 375131.133768231491558, 757064.610632332158275 ], [ 375134.215754903270863, 757059.406712273485027 ], [ 375134.545717039960437, 757058.742531382711604 ], [ 375136.308635774534196, 757056.527035680948757 ], [ 375136.528870605281554, 757056.194815294118598 ], [ 375149.307956078846473, 757039.247939222259447 ], [ 375192.177894892636687, 756989.170655491645448 ], [ 375193.720063201675657, 756987.066248892457224 ], [ 375196.475736189284362, 756984.07445035839919 ], [ 375208.15108253469225, 756967.683026540791616 ], [ 375220.816588428046089, 756949.409633272560313 ], [ 375232.71166723157512, 756932.464864066103473 ], [ 375233.262646968127228, 756931.800164831802249 ], [ 375259.385180533863604, 756902.880693882936612 ], [ 375266.884644376987126, 756896.450166996452026 ], [ 375267.325896305730566, 756896.117428261437453 ], [ 375282.656093191704713, 756883.145033340202644 ], [ 375296.9852359672077, 756867.41080971120391 ], [ 375303.821662234782707, 756860.981846710550599 ], [ 375306.57812707190169, 756858.321756504825316 ], [ 375342.646966038504615, 756829.600121832452714 ], [ 375344.191740595269948, 756828.601389275048859 ], [ 375348.38403303117957, 756825.606229462428018 ], [ 375401.120676670921966, 756788.774105939315632 ], [ 375405.314531425363384, 756786.442352257552557 ], [ 375410.061445036204532, 756784.330436276854016 ], [ 375423.199182975804433, 756778.881817380897701 ], [ 375423.530447505530901, 756778.770472994889133 ], [ 375439.761373541958164, 756772.872333910316229 ], [ 375445.613369003054686, 756770.757829808164388 ], [ 375467.586565617995802, 756763.077156240469776 ], [ 375470.788963740807958, 756762.074541414738633 ], [ 375497.952931184787303, 756753.054903259500861 ], [ 375512.420925188576803, 756749.37226824555546 ], [ 375541.687923185818363, 756741.785100757493638 ], [ 375564.769846378418151, 756735.649816060322337 ], [ 375583.653505086200312, 756729.966645610984415 ], [ 375593.259414238738827, 756726.405991389765404 ], [ 375623.629697375989053, 756718.04231792956125 ], [ 375642.072627745161299, 756712.913038805825636 ], [ 375686.909381352248602, 756700.203412557137199 ], [ 375695.633823281736113, 756697.750514558982104 ], [ 375728.765278929495253, 756688.717041442869231 ], [ 375731.526169263059273, 756687.936611372511834 ], [ 375747.206154916610103, 756682.703269077581353 ], [ 375758.462975972564891, 756676.26403792493511 ], [ 375759.655548168404493, 756666.420764145674184 ], [ 375761.499791210633703, 756651.711007815320045 ], [ 375762.792271033860743, 756637.334243975114077 ], [ 375764.837881337618455, 756614.220907353213988 ], [ 375767.651881388854235, 756588.894429696607403 ], [ 375767.968926461646333, 756582.70192319212947 ], [ 375769.05590974126244, 756574.959674956277013 ], [ 375771.117818215105217, 756558.812037426163442 ], [ 375772.208939729083795, 756552.838855495210737 ], [ 375776.142254118109122, 756533.590960300876759 ], [ 375778.224591625970788, 756526.178087111795321 ], [ 375782.060845806321595, 756512.679915899527259 ], [ 375785.128455034224316, 756501.284319661208428 ], [ 375790.38736536540091, 756481.812193773570471 ], [ 375790.715271980501711, 756480.263486097450368 ], [ 375791.915873289748561, 756473.847780562471598 ], [ 375793.457046972354874, 756471.301131655345671 ], [ 375795.878153180412482, 756466.98335033247713 ], [ 375802.381612660828978, 756459.891846071230248 ], [ 375805.025287864671554, 756456.236948428559117 ], [ 375806.129339108825661, 756455.792098923237063 ], [ 375805.904703933279961, 756454.244682982214727 ], [ 375804.659389659063891, 756441.532364091952331 ], [ 375795.315160885744262, 756415.239208407234401 ], [ 375788.088939492881764, 756396.791374609572813 ], [ 375775.641149546427187, 756366.525054837577045 ], [ 375766.080275353277102, 756342.112049722229131 ], [ 375755.972278405097313, 756320.022235985612497 ], [ 375752.080429426161572, 756309.748582881409675 ], [ 375748.189096243004315, 756299.696063103619963 ], [ 375746.519055073615164, 756294.392740748939104 ], [ 375745.95823847677093, 756290.855900644441135 ], [ 375735.981934232695494, 756277.832293213461526 ], [ 375730.222803340235259, 756272.427965006325394 ], [ 375724.795973662985489, 756267.354561903048307 ], [ 375724.131110312882811, 756266.582145953318104 ], [ 375723.577790057170205, 756266.251738119521178 ], [ 375710.181386992742773, 756255.668610715307295 ], [ 375699.552874600864016, 756247.290357170626521 ], [ 375669.886549778573681, 756226.020268578315154 ], [ 375642.988359462236986, 756207.065628545009531 ], [ 375642.435038004885428, 756206.735221379552968 ], [ 375617.306784158921801, 756188.550421083346009 ], [ 375616.642694458831102, 756188.109706073999405 ], [ 375615.978346003161278, 756187.558424407965504 ], [ 375615.535533274000045, 756187.227758855093271 ], [ 375614.650166540348437, 756186.676994421985 ], [ 375614.096327172534075, 756186.125454161781818 ], [ 375607.454394001222681, 756181.276038012234494 ], [ 375603.469336992537137, 756178.410615296685137 ], [ 375585.205823706928641, 756165.848691956722178 ], [ 375566.388202179339714, 756152.6246669634711 ], [ 375561.296495283662807, 756149.098433648818173 ], [ 375527.97651645517908, 756124.96221035066992 ], [ 375519.009470035904087, 756118.23860323894769 ], [ 375510.044233804219402, 756112.28896415757481 ], [ 375505.283269999548793, 756108.430258515756577 ], [ 375489.233519489294849, 756097.411118454649113 ], [ 375479.714952141977847, 756091.131077498430386 ], [ 375481.806342534604482, 756087.588024656870402 ], [ 375483.567499997327104, 756084.598582013975829 ], [ 375486.204704511677846, 756078.179500927566551 ], [ 375492.907969532010611, 756062.020973785314709 ], [ 375496.310456462495495, 756052.061947540380061 ], [ 375499.369505527603906, 756037.017630113521591 ], [ 375502.979292096511927, 756021.198052425985225 ], [ 375506.041453154408373, 756007.480536474962719 ], [ 375506.475982942734845, 756004.273067274247296 ], [ 375506.137981602456421, 756001.509676273795776 ], [ 375506.027213147026487, 756001.399368355167098 ], [ 375503.921835652377922, 755998.971817849786021 ], [ 375494.50936259678565, 755990.811879257671535 ], [ 375481.334381298336666, 755980.449407597538084 ], [ 375472.697540397639386, 755973.172193736536428 ], [ 375469.487064017332159, 755970.7472325314302 ], [ 375463.952000315883197, 755966.669206699822098 ], [ 375456.200267859327141, 755959.832190858200192 ], [ 375445.125213751452975, 755949.575374214793555 ], [ 375436.706791688862722, 755941.191979748662561 ], [ 375430.284276990569197, 755935.678660424309783 ], [ 375427.075091520207934, 755933.806534709408879 ], [ 375419.661873241129797, 755929.954047390958294 ], [ 375406.827717581822071, 755923.571214817464352 ], [ 375405.057488943217322, 755922.690824322402477 ], [ 375403.065981646475848, 755921.700385074480437 ], [ 375400.18806434655562, 755919.716917090001516 ], [ 375398.859356264467351, 755918.614357448881492 ], [ 375396.202976362081245, 755916.851505146245472 ], [ 375383.258304270566441, 755910.468936282908544 ], [ 375371.199261984555051, 755904.747698302613571 ], [ 375356.374620433372911, 755897.816704705939628 ], [ 375352.9451874907827, 755896.276801008731127 ], [ 375343.651994199084584, 755891.875892860698514 ], [ 375344.750871584925335, 755889.21970030234661 ], [ 375346.180241823662072, 755886.120463615749031 ], [ 375355.416934771870729, 755866.417823316529393 ], [ 375364.541829864494503, 755846.162611234234646 ], [ 375371.137182958482299, 755831.10999520518817 ], [ 375380.146399857592769, 755808.643712485209107 ], [ 375385.968970598245505, 755793.92461293109227 ], [ 375386.187658869719598, 755792.928994502057321 ], [ 375386.731141061231028, 755789.057864385074936 ], [ 375389.791483216860797, 755774.566373149282299 ], [ 375393.517996915208641, 755761.400129533838481 ], [ 375395.051667255756911, 755755.64703512575943 ], [ 375398.886622104095295, 755741.595999746816233 ], [ 375400.858967022737488, 755734.404502786113881 ], [ 375403.48893399751978, 755724.889551595901139 ], [ 375406.439295043819584, 755710.619455338455737 ], [ 375408.295175410341471, 755700.885183558915742 ], [ 375411.024519648868591, 755686.615605855011381 ], [ 375412.332253980799578, 755678.762262980220839 ], [ 375413.530255582067184, 755671.240879209479317 ], [ 375414.38766250689514, 755659.850437242188491 ], [ 375415.247659960528836, 755649.565662488806993 ], [ 375416.875792073959019, 755636.957175112795085 ], [ 375417.077131360012572, 755628.553587643546052 ], [ 375417.076613431796432, 755628.332454227958806 ], [ 375417.503117123269476, 755621.697416456067003 ], [ 375417.822736096626613, 755616.610571444500238 ], [ 375418.362858077103738, 755611.302075393497944 ], [ 375420.093735619855579, 755595.376328628277406 ], [ 375421.281902413349599, 755583.653410982107744 ], [ 375422.360854359227233, 755572.483585819834843 ], [ 375424.091477376874536, 755556.447273117140867 ], [ 375425.38601519621443, 755542.955030007869937 ], [ 375427.120007382705808, 755528.356084991362877 ], [ 375429.293454550206661, 755512.650438205339015 ], [ 375430.596281150006689, 755502.696330170845613 ], [ 375431.896001912362408, 755491.415421918965876 ], [ 375435.286106619169004, 755476.149196626851335 ], [ 375437.135277003690135, 755463.540194863104261 ], [ 375440.627354878582992, 755444.625011030584574 ], [ 375440.626837175397668, 755444.403877646080218 ], [ 375443.020023164397571, 755428.14488224661909 ], [ 375449.148061001789756, 755402.257789793307893 ], [ 375451.995202177902684, 755391.083828628878109 ], [ 375452.31120622518938, 755384.449051428004168 ], [ 375452.177920529735275, 755374.719441752880812 ], [ 375451.263036019052379, 755361.56407555018086 ], [ 375450.576161000994034, 755351.393492517876439 ], [ 375449.213021761854179, 755335.58556054905057 ], [ 375447.072941275662743, 755318.342072316911072 ], [ 375445.949456915666815, 755310.494424316566437 ], [ 375445.38836166751571, 755306.847017026506364 ], [ 375444.367365549434908, 755295.571543113794178 ], [ 375437.624380633467808, 755294.813355112797581 ], [ 375436.076708449516445, 755294.59584322036244 ], [ 375431.433432966121472, 755293.832741111400537 ], [ 375431.727179095847532, 755277.689228472765535 ], [ 375431.719414742605295, 755274.37222781823948 ], [ 375429.874888634600211, 755241.759193678153679 ], [ 375430.047256585676223, 755220.972139132907614 ], [ 375430.340747640526388, 755204.718060237588361 ], [ 375429.512306062446442, 755181.279733465169556 ], [ 375427.828499583760276, 755170.116378042497672 ], [ 375425.587995611771476, 755157.185248901019804 ], [ 375425.32453290570993, 755139.052829797845334 ], [ 375425.409166717377957, 755127.995902668102644 ], [ 375425.927566025289707, 755113.399807145702653 ], [ 375427.993902873597108, 755099.131790974875912 ], [ 375427.926109487772919, 755070.163320295978338 ], [ 375428.465212228999007, 755064.412559784715995 ], [ 375430.989124242274556, 755056.77751075278502 ], [ 375435.622588202124462, 755053.339082378079183 ], [ 375440.261744487739634, 755052.333121391595341 ], [ 375446.891660870634951, 755051.98590652376879 ], [ 375452.417755262809806, 755052.194111467688344 ], [ 375467.118117541191168, 755053.154824712895788 ], [ 375487.45534219086403, 755054.43405861093197 ], [ 375490.438636051141657, 755054.205946134985425 ], [ 375493.531407003407367, 755053.535308718215674 ], [ 375495.737758411909454, 755051.871639346587472 ], [ 375497.610248001408763, 755049.213645577896386 ], [ 375501.891494648822118, 755036.930666764965281 ], [ 375504.851000503171235, 755026.530423103249632 ], [ 375509.889284930599388, 755007.169370840885676 ], [ 375509.888767817872576, 755006.948237538570538 ], [ 375509.998762319330126, 755006.726845808327198 ], [ 375510.107205488253385, 755005.842054171487689 ], [ 375513.395923628122546, 754994.445936537231319 ], [ 375517.782779814326204, 754980.061935857753269 ], [ 375520.526182199129835, 754971.762977392645553 ], [ 375518.976691914373077, 754970.771495103486814 ], [ 375503.151284729072358, 754961.299716074950993 ], [ 375497.176671028893907, 754958.328371767536737 ], [ 375492.200023598736152, 754956.792068511480466 ], [ 375485.124170149269048, 754955.48180971480906 ], [ 375477.939873303170316, 754955.056343557080254 ], [ 375469.540205715922639, 754954.744288427522406 ], [ 375453.404198692180216, 754954.229197597829625 ], [ 375450.530893391580321, 754954.235919375438243 ], [ 375427.431351242004894, 754953.184290992445312 ], [ 375405.987154176691547, 754951.133692929171957 ], [ 375393.937489969655871, 754949.503384021809325 ], [ 375353.695153226726688, 754942.742411893326789 ], [ 375329.481935160816647, 754938.04471076943446 ], [ 375309.36075632518623, 754934.664244095911272 ], [ 375298.524899315147195, 754932.257141661364585 ], [ 375281.831912928260863, 754929.863761314307339 ], [ 375272.434520125389099, 754928.227265580790117 ], [ 375266.019651619659271, 754926.030947202933021 ], [ 375259.821920516958926, 754922.175610695849173 ], [ 375251.519281388958916, 754916.113859777455218 ], [ 375241.334051675221417, 754908.398010944365524 ], [ 375235.024768182076514, 754904.10066870902665 ], [ 375229.600356358860154, 754900.132955493172631 ], [ 375225.174437794368714, 754897.821413003839552 ], [ 375222.408789092034567, 754896.611653433763422 ], [ 375220.749296154943295, 754895.841571053373627 ], [ 375211.681615741341375, 754893.430340568651445 ], [ 375203.389332049118821, 754891.791265566716902 ], [ 375200.957809833867941, 754891.68639741349034 ], [ 375181.393823141348548, 754890.294881413574331 ], [ 375157.078078436723445, 754889.025081136729568 ], [ 375152.325544821214862, 754888.815089967800304 ], [ 375134.195356454176363, 754886.2039877633797 ], [ 375133.863820476806723, 754886.204765263479203 ], [ 375119.824647991801612, 754884.468612888013013 ], [ 375110.320097123330925, 754884.269770996645093 ], [ 375106.45347371470416, 754884.831677581765689 ], [ 375102.699177867441904, 754886.167292712838389 ], [ 375098.945660274068359, 754887.834608494536951 ], [ 375096.298040988971479, 754889.83103246439714 ], [ 375094.864238176029176, 754891.050637333421037 ], [ 375092.659185925847851, 754893.267158112721518 ], [ 375087.58082216756884, 754895.490419861627743 ], [ 375084.931387834076304, 754896.712877006386407 ], [ 375075.768231925554574, 754900.714801937574521 ], [ 375059.537499732745346, 754906.944661154295318 ], [ 375052.25149352196604, 754910.278781369212084 ], [ 375022.381337698374409, 754896.749095029896125 ], [ 375021.828258591936901, 754896.529258420807309 ], [ 375000.034289901726879, 754886.739918473409489 ], [ 375001.353166369255632, 754883.640934259514324 ], [ 375008.274675259192009, 754866.265600001439452 ] ] ] } }
]
}
