{
"type": "FeatureCollection",
"crs": { "type": "name", "properties": { "name": "urn:ogc:def:crs:EPSG::32644" } },
"features": [
{ "type": "Feature", "properties": { "site_id": "01", "key": "ml_veg_to_built_1", "label": "Mount Lavinia veg→built (primary)", "focus": "mount_lavinia_gn", "row": 121, "col": 70 }, "geometry": { "type": "Point", "coordinates": [ 374545.0, 756345.0 ] } },
{ "type": "Feature", "properties": { "site_id": "02", "key": "ml_veg_to_built_2", "label": "Mount Lavinia veg→built (secondary)", "focus": "mount_lavinia_gn", "row": 44, "col": 61 }, "geometry": { "type": "Point", "coordinates": [ 374455.0, 757115.0 ] } },
{ "type": "Feature", "properties": { "site_id": "03", "key": "ml_open_to_built", "label": "Mount Lavinia open→built", "focus": "mount_lavinia_gn", "row": 227, "col": 90 }, "geometry": { "type": "Point", "coordinates": [ 374745.0, 755285.0 ] } },
{ "type": "Feature", "properties": { "site_id": "04", "key": "ml_coastal_beach", "label": "Mount Lavinia coastal / beach edge", "focus": "mount_lavinia_gn", "row": 208, "col": 37 }, "geometry": { "type": "Point", "coordinates": [ 374215.0, 755475.0 ] } },
{ "type": "Feature", "properties": { "site_id": "05", "key": "ml_stable_green", "label": "Mount Lavinia remaining green/soft", "focus": "mount_lavinia_gn", "row": 171, "col": 86 }, "geometry": { "type": "Point", "coordinates": [ 374705.0, 755845.0 ] } },
{ "type": "Feature", "properties": { "site_id": "06", "key": "other_veg_to_built", "label": "Other GNs veg→built", "focus": "other_4gn", "row": 130, "col": 168 }, "geometry": { "type": "Point", "coordinates": [ 375525.0, 756255.0 ] } },
{ "type": "Feature", "properties": { "site_id": "07", "key": "other_stable_green", "label": "Other GNs stable vegetation", "focus": "other_4gn", "row": 209, "col": 150 }, "geometry": { "type": "Point", "coordinates": [ 375345.0, 755465.0 ] } },
{ "type": "Feature", "properties": { "site_id": "08", "key": "other_water_or_built", "label": "Other GNs water/wetland or densification", "focus": "other_4gn", "row": 269, "col": 95 }, "geometry": { "type": "Point", "coordinates": [ 374795.0, 754865.0 ] } }
]
}
