{
"type": "FeatureCollection",
"crs": { "type": "name", "properties": { "name": "urn:ogc:def:crs:EPSG::32644" } },
"features": [
{ "type": "Feature", "properties": { "site_id": "01", "key": "ml_veg_to_built_1", "label": "Mount Lavinia veg→built (primary)", "focus": "mount_lavinia_gn", "row": 121, "col": 70 }, "geometry": { "type": "Polygon", "coordinates": [ [ [ 374695.0, 756195.0 ], [ 374695.0, 756495.0 ], [ 374395.0, 756495.0 ], [ 374395.0, 756195.0 ], [ 374695.0, 756195.0 ] ] ] } },
{ "type": "Feature", "properties": { "site_id": "02", "key": "ml_veg_to_built_2", "label": "Mount Lavinia veg→built (secondary)", "focus": "mount_lavinia_gn", "row": 44, "col": 61 }, "geometry": { "type": "Polygon", "coordinates": [ [ [ 374605.0, 756965.0 ], [ 374605.0, 757265.0 ], [ 374305.0, 757265.0 ], [ 374305.0, 756965.0 ], [ 374605.0, 756965.0 ] ] ] } },
{ "type": "Feature", "properties": { "site_id": "03", "key": "ml_open_to_built", "label": "Mount Lavinia open→built", "focus": "mount_lavinia_gn", "row": 227, "col": 90 }, "geometry": { "type": "Polygon", "coordinates": [ [ [ 374895.0, 755135.0 ], [ 374895.0, 755435.0 ], [ 374595.0, 755435.0 ], [ 374595.0, 755135.0 ], [ 374895.0, 755135.0 ] ] ] } },
{ "type": "Feature", "properties": { "site_id": "04", "key": "ml_coastal_beach", "label": "Mount Lavinia coastal / beach edge", "focus": "mount_lavinia_gn", "row": 208, "col": 37 }, "geometry": { "type": "Polygon", "coordinates": [ [ [ 374365.0, 755325.0 ], [ 374365.0, 755625.0 ], [ 374065.0, 755625.0 ], [ 374065.0, 755325.0 ], [ 374365.0, 755325.0 ] ] ] } },
{ "type": "Feature", "properties": { "site_id": "05", "key": "ml_stable_green", "label": "Mount Lavinia remaining green/soft", "focus": "mount_lavinia_gn", "row": 171, "col": 86 }, "geometry": { "type": "Polygon", "coordinates": [ [ [ 374855.0, 755695.0 ], [ 374855.0, 755995.0 ], [ 374555.0, 755995.0 ], [ 374555.0, 755695.0 ], [ 374855.0, 755695.0 ] ] ] } },
{ "type": "Feature", "properties": { "site_id": "06", "key": "other_veg_to_built", "label": "Other GNs veg→built", "focus": "other_4gn", "row": 130, "col": 168 }, "geometry": { "type": "Polygon", "coordinates": [ [ [ 375675.0, 756105.0 ], [ 375675.0, 756405.0 ], [ 375375.0, 756405.0 ], [ 375375.0, 756105.0 ], [ 375675.0, 756105.0 ] ] ] } },
{ "type": "Feature", "properties": { "site_id": "07", "key": "other_stable_green", "label": "Other GNs stable vegetation", "focus": "other_4gn", "row": 209, "col": 150 }, "geometry": { "type": "Polygon", "coordinates": [ [ [ 375495.0, 755315.0 ], [ 375495.0, 755615.0 ], [ 375195.0, 755615.0 ], [ 375195.0, 755315.0 ], [ 375495.0, 755315.0 ] ] ] } },
{ "type": "Feature", "properties": { "site_id": "08", "key": "other_water_or_built", "label": "Other GNs water/wetland or densification", "focus": "other_4gn", "row": 269, "col": 95 }, "geometry": { "type": "Polygon", "coordinates": [ [ [ 374945.0, 754715.0 ], [ 374945.0, 755015.0 ], [ 374645.0, 755015.0 ], [ 374645.0, 754715.0 ], [ 374945.0, 754715.0 ] ] ] } }
]
}
