{
"type": "FeatureCollection",
"name": "clipped_railways",
"crs": { "type": "name", "properties": { "name": "urn:ogc:def:crs:OGC:1.3:CRS84" } },
"features": [
{ "type": "Feature", "properties": { "id": "way/482545335", "name": "Coastal Line", "name_en": null, "name_si": null, "name_ta": null, "railway": "rail", "ele": null, "operator_t": null, "layer": null, "addr_full": null, "addr_city": null, "source": null, "adm0_pcode": "LKA", "adm0_name": "Sri Lanka", "adm1_pcode": "LK1", "adm1_name": "Western", "adm2_pcode": "LK11", "adm2_name": "Colombo", "adm3_pcode": "LK1131", "adm3_name": "Ratmalana", "adm4_pcode": "LK1131005", "adm4_name": "Mount Lavinia", "name_latin": "Coastal Line" }, "geometry": { "type": "MultiLineString", "coordinates": [ [ [ 79.8625264, 6.8323191 ], [ 79.8624309, 6.8328396 ] ] ] } },
{ "type": "Feature", "properties": { "id": "way/482545333", "name": "Coastal Line", "name_en": null, "name_si": null, "name_ta": null, "railway": "rail", "ele": null, "operator_t": null, "layer": null, "addr_full": null, "addr_city": null, "source": null, "adm0_pcode": "LKA", "adm0_name": "Sri Lanka", "adm1_pcode": "LK1", "adm1_name": "Western", "adm2_pcode": "LK11", "adm2_name": "Colombo", "adm3_pcode": "LK1131", "adm3_name": "Ratmalana", "adm4_pcode": "LK1131005", "adm4_name": "Mount Lavinia", "name_latin": "Coastal Line" }, "geometry": { "type": "MultiLineString", "coordinates": [ [ [ 79.8624635, 6.8323253 ], [ 79.8625228, 6.832016 ], [ 79.8625921, 6.8316956 ], [ 79.8629921, 6.8298455 ], [ 79.8632191, 6.8286706 ] ] ] } },
{ "type": "Feature", "properties": { "id": "way/482545334", "name": "Coastal Line", "name_en": null, "name_si": null, "name_ta": null, "railway": "rail", "ele": null, "operator_t": null, "layer": null, "addr_full": null, "addr_city": null, "source": null, "adm0_pcode": "LKA", "adm0_name": "Sri Lanka", "adm1_pcode": "LK1", "adm1_name": "Western", "adm2_pcode": "LK11", "adm2_name": "Colombo", "adm3_pcode": "LK1131", "adm3_name": "Ratmalana", "adm4_pcode": "LK1131005", "adm4_name": "Mount Lavinia", "name_latin": "Coastal Line" }, "geometry": { "type": "MultiLineString", "coordinates": [ [ [ 79.8624671, 6.8328413 ], [ 79.862559, 6.8323223 ], [ 79.8627223, 6.8317127 ], [ 79.8629841, 6.830735 ], [ 79.8630498, 6.8302836 ], [ 79.8630954, 6.8296964 ] ] ] } },
{ "type": "Feature", "properties": { "id": "way/482545337", "name": "Coastal Line", "name_en": null, "name_si": null, "name_ta": null, "railway": "rail", "ele": null, "operator_t": null, "layer": null, "addr_full": null, "addr_city": null, "source": null, "adm0_pcode": "LKA", "adm0_name": "Sri Lanka", "adm1_pcode": "LK1", "adm1_name": "Western", "adm2_pcode": "LK11", "adm2_name": "Colombo", "adm3_pcode": "LK1131", "adm3_name": "Ratmalana", "adm4_pcode": "LK1131050", "adm4_name": "Vihara", "name_latin": "Coastal Line" }, "geometry": { "type": "MultiLineString", "coordinates": [ [ [ 79.862510865379249, 6.849026320370511 ], [ 79.8626173, 6.8484132 ], [ 79.8626765, 6.8480263 ], [ 79.8627268, 6.8476665 ], [ 79.8627841, 6.8472018 ], [ 79.8628124, 6.8467725 ], [ 79.8628248, 6.8460446 ], [ 79.8628393, 6.8449819 ], [ 79.8628477, 6.8443169 ], [ 79.8628573, 6.8436223 ], [ 79.8628674, 6.8428955 ], [ 79.8628728, 6.8425358 ], [ 79.8629021, 6.8421864 ], [ 79.8629932, 6.8414613 ], [ 79.8632219, 6.8396258 ], [ 79.8634365, 6.8379678 ], [ 79.8635037, 6.837367 ], [ 79.8635165, 6.8370305 ], [ 79.8634942, 6.8367248 ], [ 79.8634495, 6.8364639 ], [ 79.8633831, 6.8361643 ], [ 79.8632868, 6.8359 ], [ 79.8631511, 6.8355675 ], [ 79.8628758, 6.8349876 ], [ 79.86271, 6.8345865 ], [ 79.8625915, 6.8342603 ], [ 79.8625147, 6.8339317 ], [ 79.8624696, 6.8336175 ], [ 79.8624506, 6.8333349 ], [ 79.8624671, 6.8328413 ], [ 79.8625264, 6.8323191 ], [ 79.8626156, 6.8319769 ], [ 79.8626919, 6.8317099 ], [ 79.8628259, 6.8312411 ], [ 79.8629385, 6.8307257 ], [ 79.8630136, 6.830285 ], [ 79.8630954, 6.8296964 ], [ 79.8632191, 6.8286706 ], [ 79.8632893, 6.8281783 ], [ 79.8633493, 6.8275802 ], [ 79.8634148, 6.8271288 ], [ 79.8635072, 6.826605 ], [ 79.8636173, 6.826044 ], [ 79.8639444, 6.8243056 ], [ 79.8641185, 6.8234329 ], [ 79.8641892, 6.823139 ], [ 79.8642806, 6.8228347 ], [ 79.8651405, 6.820155 ], [ 79.865385020618589, 6.819417056260941 ] ] ] } },
{ "type": "Feature", "properties": { "id": "way/98371190", "name": "Coastal Line", "name_en": null, "name_si": null, "name_ta": null, "railway": "rail", "ele": null, "operator_t": null, "layer": null, "addr_full": null, "addr_city": null, "source": null, "adm0_pcode": "LKA", "adm0_name": "Sri Lanka", "adm1_pcode": "LK1", "adm1_name": "Western", "adm2_pcode": "LK11", "adm2_name": "Colombo", "adm3_pcode": "LK1131", "adm3_name": "Ratmalana", "adm4_pcode": "LK1131045", "adm4_name": "Wedikanda", "name_latin": "Coastal Line" }, "geometry": { "type": "MultiLineString", "coordinates": [ [ [ 79.862431836724184, 6.849009871623674 ], [ 79.8625536, 6.8484328 ], [ 79.8626314, 6.848028 ], [ 79.8626909, 6.8476614 ], [ 79.8627481, 6.8471985 ], [ 79.8627763, 6.8467711 ], [ 79.8627886, 6.846044 ], [ 79.8628031, 6.8449815 ], [ 79.8628115, 6.8443164 ], [ 79.8628312, 6.8428949 ], [ 79.8628366, 6.8425341 ], [ 79.862866, 6.8421827 ], [ 79.8629573, 6.8414569 ], [ 79.863186, 6.8396213 ], [ 79.8634005, 6.8379635 ], [ 79.8634676, 6.8373643 ], [ 79.8634803, 6.8370311 ], [ 79.8634582, 6.8367291 ], [ 79.863414, 6.8364708 ], [ 79.8633482, 6.8361743 ], [ 79.863253, 6.8359129 ], [ 79.863118, 6.8355819 ], [ 79.8628426, 6.8350021 ], [ 79.8626762, 6.8345994 ], [ 79.8625567, 6.8342705 ], [ 79.8624791, 6.8339383 ], [ 79.8624336, 6.8336213 ], [ 79.8624144, 6.8333355 ], [ 79.8624309, 6.8328396 ], [ 79.8624635, 6.8323253 ], [ 79.862498, 6.8320194 ], [ 79.8625654, 6.831684 ], [ 79.8627622, 6.830757 ], [ 79.8629566, 6.8298382 ], [ 79.8631122, 6.8290819 ], [ 79.8631833, 6.8286651 ], [ 79.8632534, 6.828174 ], [ 79.8633134, 6.8275759 ], [ 79.8633791, 6.8271231 ], [ 79.8634716, 6.8265985 ], [ 79.8635817, 6.8260373 ], [ 79.8639088, 6.8242988 ], [ 79.8640832, 6.8234253 ], [ 79.8641542, 6.8231296 ], [ 79.864246, 6.8228241 ], [ 79.865106, 6.8201439 ], [ 79.865351004893697, 6.819404610802287 ] ] ] } }
]
}
