{"type":"FeatureCollection","features":[{"type":"Feature","properties":{"Shape_Leng":0.05307524631,"Shape_Area":0.00009214917,"ADM4_EN":"Mount Lavinia","ADM4_SI":"ගල්කිස්ස","ADM4_TA":null,"ADM4_PCODE":"LK1131005","ADM4_REF":null,"ADM3_EN":"Ratmalana","ADM3_SI":"රත්මලාන","ADM3_TA":"இரத்மலானை","ADM3_PCODE":"LK1131","ADM2_EN":"Colombo","ADM2_SI":"කොළඹ දිස්ත්‍රික්ක","ADM2_TA":"கொழும்பு மாவட்டம்","ADM2_PCODE":"LK11","ADM1_EN":"Western","ADM1_SI":"බස්නාහිර පළාත","ADM1_TA":"மேல் மாகாணம் ","ADM1_PCODE":"LK1","ADM0_EN":"Sri Lanka","ADM0_SI":"ශ්‍රී ලංකා","ADM0_TA":"இலங்கை","ADM0_PCODE":"LK","date":"2022-08-02","validOn":"2022-08-16","validTo":null,"area":1.126},"geometry":{"type":"MultiPolygon","coordinates":[[[[79.865988,6.848978],[79.865988,6.848975],[79.865983,6.848737],[79.865983,6.848733],[79.865984,6.848657],[79.865994,6.848086],[79.866006,6.8478],[79.866017,6.847511],[79.866018,6.847492],[79.86605,6.847041],[79.866111,6.846428],[79.866133,6.846216],[79.866201,6.845544],[79.866229,6.845312],[79.866256,6.845076],[79.86626,6.845045],[79.86629,6.844756],[79.8663,6.844662],[79.866318,6.844489],[79.866342,6.844275],[79.866354,6.844131],[79.866365,6.844021],[79.866375,6.843918],[79.866409,6.843655],[79.866433,6.843511],[79.866468,6.843334],[79.866507,6.843174],[79.866513,6.843147],[79.866577,6.842925],[79.866632,6.842753],[79.866646,6.84271],[79.866717,6.842491],[79.86682,6.842172],[79.866853,6.842068],[79.866882,6.841979],[79.866888,6.841959],[79.866918,6.841867],[79.866984,6.841666],[79.867132,6.841201],[79.867215,6.840923],[79.867294,6.840633],[79.867302,6.840599],[79.86738,6.840244],[79.867431,6.839955],[79.867476,6.839618],[79.867503,6.83934],[79.867516,6.83899],[79.867521,6.838881],[79.867513,6.838582],[79.867507,6.838368],[79.867502,6.83825],[79.867489,6.837981],[79.867472,6.837657],[79.867451,6.837338],[79.867448,6.837289],[79.867441,6.83719],[79.86744,6.837176],[79.867422,6.836887],[79.867416,6.836792],[79.867391,6.836417],[79.86738,6.836247],[79.867363,6.835978],[79.867348,6.8356],[79.867341,6.835281],[79.867341,6.835135],[79.86734,6.835064],[79.867339,6.834999],[79.867338,6.834441],[79.867336,6.834013],[79.867335,6.833956],[79.867333,6.833582],[79.867335,6.833386],[79.867346,6.832996],[79.867353,6.832877],[79.867365,6.832688],[79.867374,6.832589],[79.867385,6.832471],[79.86742,6.832223],[79.867465,6.831881],[79.867511,6.831624],[79.867514,6.831611],[79.867594,6.831228],[79.86767,6.830959],[79.867709,6.830838],[79.867678,6.830835],[79.867655,6.830832],[79.867642,6.830831],[79.867589,6.830825],[79.867446,6.830809],[79.867443,6.830808],[79.867308,6.830794],[79.867227,6.830785],[79.867174,6.830777],[79.867042,6.83073],[79.866957,6.830698],[79.866901,6.830681],[79.866879,6.830673],[79.866709,6.830609],[79.86667,6.830595],[79.866593,6.830563],[79.866504,6.83052],[79.866409,6.830468],[79.866353,6.830434],[79.866244,6.830371],[79.866215,6.830356],[79.866157,6.830327],[79.866094,6.830293],[79.86605,6.830276],[79.865975,6.830262],[79.865889,6.830244],[79.865815,6.830228],[79.865695,6.830199],[79.865652,6.830194],[79.865628,6.830192],[79.865362,6.83016],[79.865282,6.830147],[79.86513,6.830125],[79.865057,6.830115],[79.865014,6.830107],[79.864919,6.830088],[79.864902,6.830085],[79.86489,6.830084],[79.864824,6.830076],[79.864808,6.830076],[79.864773,6.830084],[79.864739,6.830098],[79.864689,6.830136],[79.864654,6.830172],[79.864629,6.830205],[79.864601,6.830246],[79.864583,6.830289],[79.864573,6.830306],[79.864562,6.830319],[79.864548,6.830333],[79.864527,6.830343],[79.864499,6.830348],[79.86445,6.830351],[79.864415,6.830359],[79.864371,6.830367],[79.864085,6.830425],[79.863834,6.830472],[79.863661,6.83051],[79.863652,6.830462],[79.863651,6.830451],[79.863648,6.830404],[79.863644,6.830341],[79.863639,6.830293],[79.863623,6.83016],[79.863617,6.830098],[79.863612,6.830034],[79.863611,6.829997],[79.863609,6.829962],[79.86361,6.829925],[79.863613,6.829897],[79.863618,6.829866],[79.863628,6.829823],[79.863641,6.829766],[79.863646,6.829743],[79.863676,6.829625],[79.863699,6.829441],[79.863672,6.829438],[79.863576,6.829319],[79.863567,6.829311],[79.863476,6.829231],[79.86319,6.829207],[79.86316,6.829198],[79.86313,6.82919],[79.863125,6.829189],[79.86308,6.829177],[79.862766,6.829092],[79.862525,6.829028],[79.862526,6.829111],[79.862514,6.829235],[79.862489,6.829347],[79.862458,6.829466],[79.862429,6.829575],[79.862394,6.829707],[79.86236,6.829818],[79.8623,6.82993],[79.862252,6.830037],[79.862176,6.830176],[79.862128,6.830285],[79.862065,6.83041],[79.862022,6.830516],[79.861959,6.830646],[79.861921,6.83077],[79.86191,6.830804],[79.861901,6.830834],[79.861892,6.830867],[79.861885,6.8309],[79.861877,6.830935],[79.861865,6.830967],[79.861853,6.831005],[79.861842,6.831042],[79.86183,6.831081],[79.861819,6.831119],[79.861813,6.83115],[79.861807,6.831189],[79.861804,6.83123],[79.8618,6.831267],[79.861794,6.831307],[79.861787,6.831346],[79.861784,6.831384],[79.861779,6.831425],[79.861772,6.831464],[79.861766,6.831496],[79.861758,6.831535],[79.861756,6.831548],[79.861753,6.831581],[79.861734,6.831673],[79.86172,6.831716],[79.861713,6.831749],[79.861706,6.831788],[79.861697,6.831834],[79.861689,6.831876],[79.861677,6.83194],[79.861668,6.831992],[79.861656,6.832032],[79.861638,6.832067],[79.861614,6.832125],[79.861597,6.832174],[79.861577,6.832224],[79.861566,6.832272],[79.861551,6.832325],[79.861527,6.83238],[79.861507,6.832435],[79.861488,6.832486],[79.861477,6.832541],[79.861461,6.832601],[79.861448,6.832655],[79.861433,6.832699],[79.861415,6.832752],[79.861393,6.832798],[79.861378,6.832847],[79.861368,6.832894],[79.861358,6.832951],[79.861343,6.833001],[79.861292,6.833133],[79.861272,6.833185],[79.861248,6.83323],[79.861169,6.833382],[79.861114,6.833469],[79.861109,6.833478],[79.861072,6.833536],[79.861057,6.833575],[79.861038,6.833616],[79.861027,6.833662],[79.861031,6.833696],[79.861046,6.833739],[79.861052,6.833765],[79.861053,6.833776],[79.861049,6.833784],[79.861029,6.833808],[79.861024,6.833818],[79.861024,6.833826],[79.861028,6.833846],[79.861039,6.833855],[79.86107,6.833862],[79.861099,6.833861],[79.861128,6.833864],[79.861136,6.833868],[79.86115,6.833878],[79.861179,6.833885],[79.861225,6.833887],[79.861252,6.833884],[79.861255,6.833884],[79.861257,6.833886],[79.861267,6.833905],[79.861274,6.833911],[79.861284,6.833916],[79.86131,6.833922],[79.861325,6.833954],[79.861334,6.833986],[79.861337,6.834018],[79.861323,6.834028],[79.861303,6.834036],[79.861288,6.834057],[79.861293,6.834082],[79.861303,6.834103],[79.861312,6.834131],[79.86133,6.834155],[79.861348,6.834168],[79.861371,6.834161],[79.861385,6.834163],[79.861414,6.834171],[79.861426,6.834169],[79.861451,6.834156],[79.861455,6.834139],[79.861466,6.834119],[79.861477,6.834103],[79.861487,6.834083],[79.8615,6.834064],[79.86152,6.834057],[79.861537,6.834048],[79.861551,6.834026],[79.861568,6.834012],[79.861593,6.834001],[79.861615,6.834001],[79.861634,6.834002],[79.861656,6.834],[79.861681,6.833978],[79.861709,6.833952],[79.861751,6.833932],[79.861777,6.833911],[79.861796,6.833904],[79.861826,6.8339],[79.861858,6.833898],[79.861892,6.833891],[79.861914,6.833893],[79.861934,6.833902],[79.861963,6.833921],[79.861997,6.833937],[79.862026,6.833951],[79.862055,6.833971],[79.86207,6.833988],[79.862087,6.834013],[79.862098,6.834041],[79.862109,6.83407],[79.862113,6.834096],[79.862115,6.83411],[79.862127,6.83413],[79.862149,6.834162],[79.862174,6.834191],[79.862195,6.834217],[79.862218,6.834246],[79.862216,6.834254],[79.862214,6.834258],[79.862197,6.834271],[79.862173,6.834281],[79.862156,6.834299],[79.862152,6.834313],[79.862151,6.834336],[79.862152,6.83437],[79.86216,6.834393],[79.862167,6.834424],[79.862163,6.834441],[79.862155,6.83448],[79.862149,6.834516],[79.862152,6.83453],[79.862157,6.834536],[79.862164,6.834541],[79.862171,6.834542],[79.862179,6.834542],[79.862198,6.83453],[79.862206,6.834516],[79.862218,6.834485],[79.862232,6.834461],[79.862251,6.834441],[79.862277,6.834415],[79.862298,6.83441],[79.862316,6.834414],[79.862331,6.834427],[79.862357,6.834442],[79.86237,6.834445],[79.86239,6.83444],[79.862404,6.834443],[79.862417,6.834454],[79.862433,6.834478],[79.862452,6.83451],[79.862466,6.834539],[79.862463,6.834557],[79.862451,6.834576],[79.862431,6.834605],[79.862426,6.83463],[79.862421,6.834663],[79.862429,6.83468],[79.86244,6.834687],[79.862448,6.834689],[79.862456,6.834688],[79.862464,6.834685],[79.862477,6.834675],[79.862488,6.834655],[79.862505,6.834634],[79.862521,6.834627],[79.862526,6.834627],[79.862542,6.834636],[79.862554,6.834653],[79.862564,6.834676],[79.862576,6.834706],[79.862589,6.834736],[79.862604,6.834766],[79.862618,6.834799],[79.86263,6.834833],[79.862647,6.834866],[79.862662,6.834897],[79.862677,6.834928],[79.862692,6.834959],[79.862709,6.834992],[79.862717,6.835021],[79.862721,6.83505],[79.862726,6.835082],[79.862727,6.835114],[79.862731,6.835155],[79.862737,6.835195],[79.862742,6.835232],[79.862745,6.835271],[79.862746,6.835305],[79.862742,6.835339],[79.862736,6.835373],[79.862726,6.835413],[79.862714,6.835443],[79.8627,6.835472],[79.862682,6.835498],[79.862662,6.835527],[79.862642,6.835558],[79.862628,6.835586],[79.862613,6.83561],[79.862592,6.835621],[79.862568,6.835626],[79.862544,6.83564],[79.862524,6.835658],[79.862508,6.835681],[79.862492,6.835708],[79.862475,6.835739],[79.862471,6.835762],[79.862473,6.835769],[79.862478,6.835777],[79.862492,6.835785],[79.862499,6.835786],[79.862513,6.835781],[79.862527,6.835771],[79.862545,6.835752],[79.86255,6.835751],[79.862577,6.83575],[79.862599,6.835754],[79.862631,6.835761],[79.862656,6.835774],[79.862674,6.835789],[79.8627,6.835817],[79.862725,6.835849],[79.862742,6.83588],[79.862757,6.835911],[79.862765,6.83594],[79.862769,6.835971],[79.862763,6.83599],[79.862746,6.83601],[79.862721,6.836041],[79.862713,6.836059],[79.862701,6.836094],[79.862694,6.836127],[79.86269,6.83616],[79.862694,6.836178],[79.862706,6.836196],[79.86272,6.836201],[79.862728,6.8362],[79.862736,6.836196],[79.862739,6.836192],[79.862757,6.836173],[79.862774,6.836172],[79.862795,6.836181],[79.862827,6.836197],[79.862851,6.836215],[79.86287,6.836237],[79.862883,6.836264],[79.862893,6.836296],[79.862904,6.836327],[79.862914,6.836361],[79.86292,6.836398],[79.862923,6.836439],[79.862921,6.83648],[79.862915,6.836518],[79.862908,6.836558],[79.8629,6.836598],[79.862893,6.836635],[79.862883,6.836669],[79.862871,6.836703],[79.862864,6.836739],[79.862858,6.836774],[79.862852,6.836811],[79.862854,6.83685],[79.862862,6.836888],[79.862868,6.836923],[79.862871,6.83696],[79.862877,6.836997],[79.862883,6.837035],[79.862889,6.837073],[79.862893,6.83711],[79.862891,6.83714],[79.862889,6.837167],[79.862888,6.837173],[79.862887,6.83722],[79.862887,6.837266],[79.86289,6.83731],[79.86289,6.837342],[79.862889,6.837374],[79.862888,6.837406],[79.862888,6.837439],[79.862887,6.837473],[79.862886,6.837507],[79.862885,6.83754],[79.862883,6.837572],[79.862883,6.837616],[79.862881,6.837662],[79.862878,6.837707],[79.862875,6.837739],[79.862873,6.837771],[79.862867,6.837817],[79.862861,6.837851],[79.862855,6.837884],[79.86285,6.837914],[79.86285,6.837915],[79.862844,6.837948],[79.862837,6.837993],[79.862836,6.838026],[79.862835,6.838061],[79.862831,6.838096],[79.862825,6.838134],[79.862818,6.83817],[79.862812,6.838206],[79.862806,6.838244],[79.862799,6.838283],[79.862791,6.838323],[79.862782,6.83836],[79.862769,6.838397],[79.862755,6.838435],[79.862742,6.838473],[79.862726,6.83851],[79.86271,6.838547],[79.862694,6.838583],[79.862682,6.838621],[79.862674,6.838662],[79.862667,6.838702],[79.862657,6.83874],[79.862645,6.838777],[79.862634,6.838815],[79.862624,6.838854],[79.862614,6.838891],[79.862602,6.838925],[79.862593,6.83896],[79.862583,6.838996],[79.862573,6.839032],[79.862564,6.839064],[79.862557,6.83911],[79.862553,6.839157],[79.862557,6.839191],[79.862561,6.839223],[79.862566,6.839258],[79.86257,6.839291],[79.862574,6.839323],[79.862583,6.839369],[79.86259,6.8394],[79.862603,6.839443],[79.862611,6.839476],[79.862621,6.839508],[79.86263,6.839544],[79.862638,6.839583],[79.862642,6.839623],[79.862644,6.839662],[79.862645,6.839702],[79.862645,6.83974],[79.86264,6.839779],[79.862634,6.839816],[79.86263,6.839853],[79.862628,6.83989],[79.86263,6.839923],[79.862628,6.839955],[79.862624,6.83999],[79.862618,6.840024],[79.862611,6.840062],[79.862605,6.840101],[79.862598,6.840138],[79.862592,6.84018],[79.862588,6.840224],[79.862582,6.840269],[79.862578,6.840312],[79.862577,6.840351],[79.862575,6.840391],[79.86257,6.840431],[79.862563,6.840473],[79.862555,6.840514],[79.862548,6.840554],[79.862539,6.840597],[79.86253,6.840638],[79.862521,6.840679],[79.862512,6.840717],[79.862505,6.840757],[79.8625,6.8408],[79.862495,6.840841],[79.862488,6.840881],[79.862483,6.84092],[79.862482,6.840961],[79.86248,6.841002],[79.862476,6.841039],[79.862469,6.841077],[79.862462,6.841114],[79.862454,6.841153],[79.862441,6.841192],[79.862426,6.84123],[79.862412,6.841269],[79.8624,6.841309],[79.862394,6.841352],[79.862391,6.841395],[79.86239,6.841432],[79.862385,6.841463],[79.862375,6.841494],[79.862368,6.841528],[79.862362,6.84156],[79.862355,6.841603],[79.862352,6.84165],[79.862345,6.841692],[79.862337,6.841734],[79.862326,6.841772],[79.862313,6.841817],[79.862297,6.841862],[79.862283,6.841891],[79.862263,6.841931],[79.862245,6.841971],[79.86223,6.842014],[79.862223,6.842044],[79.862217,6.842075],[79.862218,6.842106],[79.862224,6.842136],[79.862234,6.842175],[79.862237,6.842211],[79.862231,6.842238],[79.862229,6.842265],[79.862234,6.842294],[79.862245,6.842333],[79.862255,6.842371],[79.862256,6.842409],[79.862244,6.842435],[79.862227,6.842479],[79.862222,6.842509],[79.862218,6.842542],[79.862217,6.842587],[79.862212,6.842615],[79.862204,6.842658],[79.862195,6.842699],[79.86218,6.84274],[79.862161,6.842782],[79.862143,6.842823],[79.862131,6.842863],[79.862122,6.842899],[79.862115,6.842934],[79.862106,6.842965],[79.862089,6.842996],[79.862072,6.843026],[79.862056,6.843055],[79.862043,6.843084],[79.862032,6.843118],[79.862023,6.843153],[79.862019,6.843189],[79.86202,6.843221],[79.862023,6.843255],[79.862027,6.84329],[79.862035,6.843318],[79.862035,6.843343],[79.862032,6.843381],[79.862032,6.843482],[79.862019,6.843592],[79.861989,6.843712],[79.861973,6.843787],[79.861958,6.843864],[79.861947,6.843979],[79.861943,6.844077],[79.861949,6.84417],[79.861959,6.844289],[79.861967,6.844389],[79.861974,6.844489],[79.861978,6.844592],[79.861962,6.84464],[79.861947,6.844682],[79.861869,6.844916],[79.861864,6.844959],[79.861858,6.845004],[79.861846,6.845062],[79.861838,6.845105],[79.861826,6.845157],[79.861808,6.845258],[79.861787,6.845339],[79.861767,6.845424],[79.861748,6.845511],[79.86173,6.845599],[79.861729,6.845603],[79.861723,6.845634],[79.861718,6.845655],[79.861707,6.845697],[79.861701,6.845729],[79.861696,6.845761],[79.861695,6.845778],[79.861694,6.845828],[79.861698,6.845928],[79.861699,6.845983],[79.8617,6.84601],[79.861715,6.846207],[79.861717,6.846217],[79.861728,6.846268],[79.861731,6.846284],[79.861749,6.846341],[79.861761,6.846415],[79.861759,6.846472],[79.861753,6.846547],[79.861748,6.846634],[79.861744,6.846706],[79.861739,6.846775],[79.861735,6.846848],[79.861733,6.846962],[79.861726,6.847021],[79.861721,6.847073],[79.8617,6.847174],[79.861689,6.847241],[79.861685,6.847299],[79.861682,6.847375],[79.861671,6.847424],[79.861662,6.847469],[79.861637,6.847496],[79.861618,6.847516],[79.861605,6.847534],[79.8616,6.847562],[79.861603,6.847604],[79.861614,6.847647],[79.86162,6.847675],[79.861634,6.847714],[79.861656,6.847743],[79.861684,6.847752],[79.861725,6.847744],[79.861735,6.847743],[79.861774,6.847723],[79.861798,6.847702],[79.861813,6.847697],[79.861852,6.847698],[79.861884,6.847713],[79.861917,6.847744],[79.861946,6.847775],[79.86198,6.847842],[79.861982,6.847898],[79.861981,6.847989],[79.861979,6.848067],[79.861971,6.848151],[79.861968,6.848209],[79.861968,6.848265],[79.861967,6.848333],[79.861966,6.848411],[79.861956,6.848488],[79.861938,6.848545],[79.861903,6.84865],[79.861884,6.84876],[79.861871,6.848872],[79.861863,6.848905],[79.861926,6.848914],[79.862055,6.848955],[79.862159,6.84898],[79.862252,6.848988],[79.862408,6.848995],[79.862425,6.848998],[79.862495,6.849012],[79.862542,6.849021],[79.862533,6.849064],[79.862533,6.849073],[79.862539,6.849084],[79.862549,6.84909],[79.862556,6.849091],[79.863341,6.849198],[79.864164,6.849298],[79.864511,6.849333],[79.865081,6.849402],[79.865517,6.849413],[79.865983,6.849422],[79.865988,6.848978]]]]}},{"type":"Feature","properties":{"Shape_Leng":0.03099730766,"Shape_Area":0.00004206567,"ADM4_EN":"Kawdana West","ADM4_SI":"බටහිර කව්ඩාන","ADM4_TA":null,"ADM4_PCODE":"LK1131010","ADM4_REF":null,"ADM3_EN":"Ratmalana","ADM3_SI":"රත්මලාන","ADM3_TA":"இரத்மலானை","ADM3_PCODE":"LK1131","ADM2_EN":"Colombo","ADM2_SI":"කොළඹ දිස්ත්‍රික්ක","ADM2_TA":"கொழும்பு மாவட்டம்","ADM2_PCODE":"LK11","ADM1_EN":"Western","ADM1_SI":"බස්නාහිර පළාත","ADM1_TA":"மேல் மாகாணம் ","ADM1_PCODE":"LK1","ADM0_EN":"Sri Lanka","ADM0_SI":"ශ්‍රී ලංකා","ADM0_TA":"இலங்கை","ADM0_PCODE":"LK","date":"2022-08-02","validOn":"2022-08-16","validTo":null,"area":0.514},"geometry":{"type":"MultiPolygon","coordinates":[[[[79.87255,6.845167],[79.872697,6.845114],[79.87275,6.845095],[79.872949,6.845026],[79.872978,6.845017],[79.873224,6.844936],[79.873355,6.844903],[79.87362,6.844835],[79.873829,6.84478],[79.874,6.844729],[79.874087,6.844697],[79.874362,6.844622],[79.874529,6.844576],[79.874935,6.844462],[79.875014,6.84444],[79.875314,6.844359],[79.875339,6.844352],[79.875481,6.844305],[79.875583,6.844247],[79.875594,6.844158],[79.875611,6.844025],[79.875623,6.843895],[79.875642,6.843686],[79.875668,6.843457],[79.875671,6.843401],[79.875681,6.843331],[79.8757,6.843185],[79.87571,6.843131],[79.875746,6.842957],[79.875765,6.84289],[79.8758,6.842768],[79.875828,6.842665],[79.875876,6.842489],[79.875879,6.842475],[79.87589,6.842417],[79.875904,6.842394],[79.875926,6.842355],[79.875985,6.842291],[79.876009,6.842258],[79.876019,6.842254],[79.876017,6.84224],[79.876006,6.842125],[79.875922,6.841887],[79.875857,6.84172],[79.875745,6.841446],[79.875659,6.841225],[79.875568,6.841025],[79.875533,6.840932],[79.875498,6.840841],[79.875483,6.840793],[79.875478,6.840761],[79.875388,6.840643],[79.875336,6.840594],[79.875287,6.840548],[79.875281,6.840541],[79.875276,6.840538],[79.875155,6.840442],[79.875059,6.840366],[79.874791,6.840173],[79.874548,6.840001],[79.874543,6.839998],[79.874316,6.839833],[79.87431,6.839829],[79.874304,6.839824],[79.87426,6.839889],[79.874163,6.83999],[79.874107,6.840055],[79.873883,6.840295],[79.873592,6.840629],[79.873442,6.840801],[79.873166,6.841099],[79.872878,6.841424],[79.872711,6.841608],[79.872409,6.841946],[79.872349,6.842015],[79.87218,6.842204],[79.872117,6.842274],[79.871875,6.842562],[79.87187,6.842567],[79.871677,6.84277],[79.871644,6.842804],[79.87142,6.843066],[79.871198,6.843331],[79.871195,6.843329],[79.871183,6.84332],[79.871175,6.843315],[79.871143,6.843293],[79.871034,6.843216],[79.8709,6.843132],[79.870814,6.843072],[79.870813,6.843071],[79.870777,6.843046],[79.870525,6.842882],[79.870451,6.842834],[79.87036,6.842782],[79.870349,6.842774],[79.870335,6.842762],[79.870314,6.842736],[79.870284,6.842681],[79.870269,6.842654],[79.870258,6.842641],[79.870256,6.84264],[79.870253,6.842638],[79.870202,6.842606],[79.870103,6.842548],[79.869951,6.842462],[79.869916,6.842444],[79.869897,6.842438],[79.869869,6.84243],[79.869842,6.842426],[79.869796,6.842424],[79.869679,6.842423],[79.869568,6.842432],[79.869474,6.842426],[79.869261,6.842416],[79.869222,6.842415],[79.869097,6.842409],[79.868948,6.842404],[79.868833,6.842399],[79.86878,6.842387],[79.868721,6.842353],[79.868668,6.84232],[79.86866,6.842316],[79.86859,6.842303],[79.868506,6.842297],[79.868398,6.842295],[79.868363,6.842293],[79.868306,6.84229],[79.868237,6.842274],[79.868149,6.842243],[79.867914,6.842175],[79.867729,6.842151],[79.867521,6.842125],[79.867439,6.842111],[79.867276,6.842073],[79.867159,6.842047],[79.867026,6.842015],[79.866951,6.841998],[79.866882,6.841979],[79.866853,6.842068],[79.86682,6.842172],[79.866717,6.842491],[79.866646,6.84271],[79.866632,6.842753],[79.866577,6.842925],[79.866513,6.843147],[79.866507,6.843174],[79.866468,6.843334],[79.866433,6.843511],[79.866409,6.843655],[79.866375,6.843918],[79.866365,6.844021],[79.866354,6.844131],[79.866342,6.844275],[79.866318,6.844489],[79.8663,6.844662],[79.86629,6.844756],[79.86626,6.845045],[79.866256,6.845076],[79.866229,6.845312],[79.866201,6.845544],[79.866133,6.846216],[79.866111,6.846428],[79.86605,6.847041],[79.866018,6.847492],[79.866017,6.847511],[79.866101,6.847514],[79.866301,6.847543],[79.866445,6.847579],[79.866643,6.847654],[79.866815,6.847689],[79.86699,6.847685],[79.867204,6.847659],[79.867412,6.847634],[79.867468,6.847628],[79.867527,6.84763],[79.867878,6.84767],[79.867885,6.847671],[79.867904,6.847674],[79.868024,6.847694],[79.868028,6.847695],[79.868183,6.847723],[79.868288,6.847742],[79.868297,6.847744],[79.868477,6.847773],[79.868586,6.847791],[79.868611,6.847795],[79.868814,6.847828],[79.868858,6.847835],[79.86904,6.847833],[79.869269,6.847832],[79.86929,6.84783],[79.869338,6.847826],[79.869343,6.847825],[79.869667,6.847795],[79.869784,6.847782],[79.869895,6.84775],[79.869898,6.847746],[79.869926,6.847699],[79.869929,6.847693],[79.869945,6.847673],[79.869947,6.84767],[79.870063,6.847517],[79.870452,6.847065],[79.870466,6.847046],[79.870491,6.847019],[79.870597,6.846871],[79.870712,6.846706],[79.87082,6.846553],[79.870825,6.846547],[79.871062,6.846286],[79.87113,6.846228],[79.871134,6.846225],[79.871273,6.846108],[79.871403,6.845966],[79.871465,6.845908],[79.87149,6.845884],[79.871817,6.845625],[79.871831,6.845616],[79.871869,6.845589],[79.872347,6.845257],[79.872385,6.845236],[79.872428,6.845217],[79.872547,6.845168],[79.87255,6.845167]]]]}},{"type":"Feature","properties":{"Shape_Leng":0.02294114753,"Shape_Area":0.00003164505,"ADM4_EN":"Watarappala","ADM4_SI":"වටරප්පල","ADM4_TA":null,"ADM4_PCODE":"LK1131015","ADM4_REF":null,"ADM3_EN":"Ratmalana","ADM3_SI":"රත්මලාන","ADM3_TA":"இரத்மலானை","ADM3_PCODE":"LK1131","ADM2_EN":"Colombo","ADM2_SI":"කොළඹ දිස්ත්‍රික්ක","ADM2_TA":"கொழும்பு மாவட்டம்","ADM2_PCODE":"LK11","ADM1_EN":"Western","ADM1_SI":"බස්නාහිර පළාත","ADM1_TA":"மேல் மாகாணம் ","ADM1_PCODE":"LK1","ADM0_EN":"Sri Lanka","ADM0_SI":"ශ්‍රී ලංකා","ADM0_TA":"இலங்கை","ADM0_PCODE":"LK","date":"2022-08-02","validOn":"2022-08-16","validTo":null,"area":0.387},"geometry":{"type":"MultiPolygon","coordinates":[[[[79.874304,6.839824],[79.8743,6.839821],[79.874292,6.839816],[79.874287,6.839811],[79.874227,6.839767],[79.874191,6.839741],[79.874026,6.839627],[79.873856,6.839507],[79.87381,6.839475],[79.873509,6.839256],[79.873428,6.839195],[79.873347,6.839141],[79.873304,6.839106],[79.873159,6.839006],[79.873073,6.838949],[79.873092,6.838917],[79.873108,6.83889],[79.873132,6.838832],[79.873193,6.838686],[79.873224,6.838596],[79.873252,6.83846],[79.873285,6.838317],[79.873313,6.838193],[79.873317,6.838164],[79.873314,6.838139],[79.873313,6.838138],[79.873294,6.838116],[79.873209,6.838042],[79.87309,6.837948],[79.873012,6.837882],[79.872983,6.83786],[79.872933,6.837823],[79.872863,6.837761],[79.872763,6.837668],[79.872687,6.837592],[79.872629,6.837542],[79.8726,6.837525],[79.872533,6.83749],[79.872417,6.837432],[79.872401,6.837424],[79.872383,6.837415],[79.872357,6.837397],[79.872345,6.837387],[79.872321,6.837371],[79.872204,6.837313],[79.872095,6.837261],[79.871961,6.837198],[79.87193,6.837184],[79.871846,6.837144],[79.871838,6.83716],[79.871629,6.837098],[79.87148,6.837054],[79.871397,6.837029],[79.871331,6.837003],[79.871263,6.83698],[79.871233,6.83697],[79.871211,6.83696],[79.871129,6.836915],[79.870995,6.83683],[79.870899,6.836773],[79.870853,6.836746],[79.870789,6.836709],[79.870768,6.836699],[79.870747,6.836691],[79.870724,6.836688],[79.870701,6.836689],[79.87068,6.836697],[79.870665,6.83671],[79.870654,6.836725],[79.870647,6.83674],[79.870618,6.836801],[79.870603,6.836833],[79.870579,6.836868],[79.87057,6.836877],[79.870556,6.836885],[79.870555,6.836886],[79.870553,6.836886],[79.870542,6.836889],[79.870526,6.836891],[79.870496,6.836889],[79.870415,6.836877],[79.87033,6.83686],[79.870273,6.83685],[79.870241,6.836845],[79.87019,6.83684],[79.870132,6.836838],[79.87008,6.836841],[79.870027,6.836848],[79.869987,6.836858],[79.869954,6.836872],[79.869936,6.83688],[79.869858,6.836915],[79.86976,6.836967],[79.869704,6.837],[79.869658,6.837025],[79.869586,6.837049],[79.869544,6.837059],[79.869497,6.837066],[79.869448,6.837065],[79.869409,6.837065],[79.869313,6.837083],[79.869255,6.837099],[79.869183,6.837124],[79.869053,6.837179],[79.869052,6.837179],[79.868983,6.837211],[79.868964,6.837218],[79.868946,6.837225],[79.868899,6.837238],[79.868842,6.837249],[79.868745,6.837259],[79.868611,6.837264],[79.868577,6.837263],[79.868559,6.837261],[79.868535,6.837258],[79.868468,6.83724],[79.868408,6.837235],[79.868364,6.837235],[79.868214,6.837246],[79.868053,6.837264],[79.867885,6.837286],[79.867723,6.837303],[79.867549,6.837321],[79.867451,6.837338],[79.867472,6.837657],[79.867489,6.837981],[79.867502,6.83825],[79.867507,6.838368],[79.867513,6.838582],[79.867521,6.838881],[79.867516,6.83899],[79.867503,6.83934],[79.867476,6.839618],[79.867431,6.839955],[79.86738,6.840244],[79.867302,6.840599],[79.867294,6.840633],[79.867215,6.840923],[79.867132,6.841201],[79.866984,6.841666],[79.866918,6.841867],[79.866888,6.841959],[79.866882,6.841979],[79.866951,6.841998],[79.867026,6.842015],[79.867159,6.842047],[79.867276,6.842073],[79.867439,6.842111],[79.867521,6.842125],[79.867729,6.842151],[79.867914,6.842175],[79.868149,6.842243],[79.868237,6.842274],[79.868306,6.84229],[79.868363,6.842293],[79.868398,6.842295],[79.868506,6.842297],[79.86859,6.842303],[79.86866,6.842316],[79.868668,6.84232],[79.868721,6.842353],[79.86878,6.842387],[79.868833,6.842399],[79.868948,6.842404],[79.869097,6.842409],[79.869222,6.842415],[79.869261,6.842416],[79.869474,6.842426],[79.869568,6.842432],[79.869679,6.842423],[79.869796,6.842424],[79.869842,6.842426],[79.869869,6.84243],[79.869897,6.842438],[79.869916,6.842444],[79.869951,6.842462],[79.870103,6.842548],[79.870202,6.842606],[79.870253,6.842638],[79.870256,6.84264],[79.870258,6.842641],[79.870269,6.842654],[79.870284,6.842681],[79.870314,6.842736],[79.870335,6.842762],[79.870349,6.842774],[79.87036,6.842782],[79.870451,6.842834],[79.870525,6.842882],[79.870777,6.843046],[79.870813,6.843071],[79.870814,6.843072],[79.8709,6.843132],[79.871034,6.843216],[79.871143,6.843293],[79.871175,6.843315],[79.871183,6.84332],[79.871195,6.843329],[79.871198,6.843331],[79.87142,6.843066],[79.871644,6.842804],[79.871677,6.84277],[79.87187,6.842567],[79.871875,6.842562],[79.872117,6.842274],[79.87218,6.842204],[79.872349,6.842015],[79.872409,6.841946],[79.872711,6.841608],[79.872878,6.841424],[79.873166,6.841099],[79.873442,6.840801],[79.873592,6.840629],[79.873883,6.840295],[79.874107,6.840055],[79.874163,6.83999],[79.87426,6.839889],[79.874304,6.839824]]]]}},{"type":"Feature","properties":{"Shape_Leng":0.02836099649,"Shape_Area":0.00004400347,"ADM4_EN":"Wathumulla","ADM4_SI":"වතුමුල්ල","ADM4_TA":null,"ADM4_PCODE":"LK1131020","ADM4_REF":null,"ADM3_EN":"Ratmalana","ADM3_SI":"රත්මලාන","ADM3_TA":"இரத்மலானை","ADM3_PCODE":"LK1131","ADM2_EN":"Colombo","ADM2_SI":"කොළඹ දිස්ත්‍රික්ක","ADM2_TA":"கொழும்பு மாவட்டம்","ADM2_PCODE":"LK11","ADM1_EN":"Western","ADM1_SI":"බස්නාහිර පළාත","ADM1_TA":"மேல் மாகாணம் ","ADM1_PCODE":"LK1","ADM0_EN":"Sri Lanka","ADM0_SI":"ශ්‍රී ලංකා","ADM0_TA":"இலங்கை","ADM0_PCODE":"LK","date":"2022-08-02","validOn":"2022-08-16","validTo":null,"area":0.538},"geometry":{"type":"MultiPolygon","coordinates":[[[[79.871846,6.837144],[79.871856,6.83712],[79.871869,6.837092],[79.871953,6.836914],[79.872036,6.836731],[79.872096,6.836595],[79.872178,6.836392],[79.872231,6.836259],[79.872233,6.83625],[79.872238,6.836215],[79.872266,6.836084],[79.8723,6.835965],[79.872314,6.835913],[79.872349,6.835786],[79.872367,6.835721],[79.872391,6.835635],[79.872418,6.835506],[79.872435,6.835418],[79.87246,6.835289],[79.872472,6.835218],[79.872483,6.83515],[79.872491,6.835047],[79.872499,6.834954],[79.872514,6.83484],[79.872516,6.834764],[79.872516,6.834762],[79.87252,6.834702],[79.872523,6.834656],[79.872528,6.834608],[79.872544,6.834464],[79.872555,6.834358],[79.872565,6.834257],[79.872581,6.834112],[79.872593,6.83399],[79.872609,6.833858],[79.872629,6.833716],[79.872641,6.833626],[79.872653,6.833524],[79.872684,6.833386],[79.872701,6.833272],[79.872733,6.833101],[79.872733,6.833099],[79.872755,6.832952],[79.872811,6.832718],[79.872837,6.832617],[79.87284,6.832557],[79.872839,6.832469],[79.872831,6.83235],[79.872825,6.832258],[79.872813,6.832115],[79.872794,6.831959],[79.872784,6.831888],[79.872779,6.831855],[79.87277,6.831753],[79.872709,6.831746],[79.872695,6.831744],[79.872653,6.831737],[79.872656,6.831591],[79.872656,6.831561],[79.87264,6.831266],[79.872642,6.831078],[79.872645,6.830931],[79.872638,6.830719],[79.872623,6.830618],[79.872603,6.830501],[79.872601,6.830337],[79.872602,6.830237],[79.872607,6.830105],[79.872626,6.829976],[79.872626,6.829714],[79.872631,6.829662],[79.872654,6.829593],[79.872696,6.829562],[79.872738,6.829553],[79.872798,6.82955],[79.872848,6.829552],[79.872981,6.829561],[79.873165,6.829573],[79.873192,6.829571],[79.87322,6.829565],[79.87324,6.82955],[79.873257,6.829526],[79.873296,6.829415],[79.873323,6.829321],[79.873369,6.829146],[79.873369,6.829144],[79.87337,6.829142],[79.873371,6.829134],[79.873401,6.829031],[79.873441,6.828901],[79.873466,6.828826],[79.873452,6.828817],[79.873309,6.828731],[79.873255,6.828704],[79.87321,6.82869],[79.873146,6.828678],[79.873081,6.828674],[79.873005,6.828671],[79.872859,6.828666],[79.872833,6.828666],[79.872624,6.828656],[79.87243,6.828637],[79.872321,6.828622],[79.871957,6.82856],[79.871738,6.828517],[79.871556,6.828486],[79.871458,6.828464],[79.871307,6.828442],[79.871222,6.828427],[79.871164,6.828407],[79.871108,6.828372],[79.871033,6.828317],[79.870941,6.828247],[79.870884,6.828208],[79.870835,6.828172],[79.870795,6.828151],[79.87077,6.82814],[79.870755,6.828133],[79.870673,6.828111],[79.870598,6.828096],[79.870576,6.828095],[79.870399,6.828082],[79.870179,6.82807],[79.870136,6.828068],[79.869972,6.828044],[79.869969,6.828044],[79.869842,6.828028],[79.869756,6.828026],[79.869721,6.828031],[79.869687,6.828043],[79.869653,6.828058],[79.869629,6.828076],[79.869616,6.828087],[79.869596,6.828107],[79.86955,6.828127],[79.869526,6.828138],[79.869443,6.828174],[79.869296,6.82823],[79.86923,6.82826],[79.86896,6.828137],[79.868955,6.828135],[79.868758,6.828046],[79.868724,6.828136],[79.868699,6.828203],[79.86859,6.828469],[79.868523,6.828644],[79.868314,6.829169],[79.868212,6.82942],[79.868108,6.829684],[79.868036,6.82987],[79.867946,6.830118],[79.867917,6.830196],[79.867861,6.830362],[79.867816,6.830504],[79.867724,6.830789],[79.867709,6.830838],[79.86767,6.830959],[79.867594,6.831228],[79.867514,6.831611],[79.867511,6.831624],[79.867465,6.831881],[79.86742,6.832223],[79.867385,6.832471],[79.867374,6.832589],[79.867365,6.832688],[79.867353,6.832877],[79.867346,6.832996],[79.867335,6.833386],[79.867333,6.833582],[79.867335,6.833956],[79.867336,6.834013],[79.867338,6.834441],[79.867339,6.834999],[79.86734,6.835064],[79.867341,6.835135],[79.867341,6.835281],[79.867348,6.8356],[79.867363,6.835978],[79.86738,6.836247],[79.867391,6.836417],[79.867416,6.836792],[79.867422,6.836887],[79.86744,6.837176],[79.867441,6.83719],[79.867448,6.837289],[79.867451,6.837338],[79.867549,6.837321],[79.867723,6.837303],[79.867885,6.837286],[79.868053,6.837264],[79.868214,6.837246],[79.868364,6.837235],[79.868408,6.837235],[79.868468,6.83724],[79.868535,6.837258],[79.868559,6.837261],[79.868577,6.837263],[79.868611,6.837264],[79.868745,6.837259],[79.868842,6.837249],[79.868899,6.837238],[79.868946,6.837225],[79.868964,6.837218],[79.868983,6.837211],[79.869052,6.837179],[79.869053,6.837179],[79.869183,6.837124],[79.869255,6.837099],[79.869313,6.837083],[79.869409,6.837065],[79.869448,6.837065],[79.869497,6.837066],[79.869544,6.837059],[79.869586,6.837049],[79.869658,6.837025],[79.869704,6.837],[79.86976,6.836967],[79.869858,6.836915],[79.869936,6.83688],[79.869954,6.836872],[79.869987,6.836858],[79.870027,6.836848],[79.87008,6.836841],[79.870132,6.836838],[79.87019,6.83684],[79.870241,6.836845],[79.870273,6.83685],[79.87033,6.83686],[79.870415,6.836877],[79.870496,6.836889],[79.870526,6.836891],[79.870542,6.836889],[79.870553,6.836886],[79.870555,6.836886],[79.870556,6.836885],[79.87057,6.836877],[79.870579,6.836868],[79.870603,6.836833],[79.870618,6.836801],[79.870647,6.83674],[79.870654,6.836725],[79.870665,6.83671],[79.87068,6.836697],[79.870701,6.836689],[79.870724,6.836688],[79.870747,6.836691],[79.870768,6.836699],[79.870789,6.836709],[79.870853,6.836746],[79.870899,6.836773],[79.870995,6.83683],[79.871129,6.836915],[79.871211,6.83696],[79.871233,6.83697],[79.871263,6.83698],[79.871331,6.837003],[79.871397,6.837029],[79.87148,6.837054],[79.871629,6.837098],[79.871838,6.83716],[79.871846,6.837144]]]]}},{"type":"Feature","properties":{"Shape_Leng":0.03388886352,"Shape_Area":0.00005373016,"ADM4_EN":"Wedikanda","ADM4_SI":"වෙඩිකන්ද","ADM4_TA":null,"ADM4_PCODE":"LK1131045","ADM4_REF":null,"ADM3_EN":"Ratmalana","ADM3_SI":"රත්මලාන","ADM3_TA":"இரத்மலானை","ADM3_PCODE":"LK1131","ADM2_EN":"Colombo","ADM2_SI":"කොළඹ දිස්ත්‍රික්ක","ADM2_TA":"கொழும்பு மாவட்டம்","ADM2_PCODE":"LK11","ADM1_EN":"Western","ADM1_SI":"බස්නාහිර පළාත","ADM1_TA":"மேல் மாகாணம் ","ADM1_PCODE":"LK1","ADM0_EN":"Sri Lanka","ADM0_SI":"ශ්‍රී ලංකා","ADM0_TA":"இலங்கை","ADM0_PCODE":"LK","date":"2022-08-02","validOn":"2022-08-16","validTo":null,"area":0.657},"geometry":{"type":"MultiPolygon","coordinates":[[[[79.868758,6.828046],[79.86877,6.828018],[79.868833,6.827861],[79.868966,6.827516],[79.869075,6.827239],[79.86909,6.827204],[79.868939,6.827158],[79.868684,6.827097],[79.868479,6.827046],[79.868256,6.827012],[79.867914,6.826928],[79.867843,6.826914],[79.867844,6.826885],[79.86785,6.826685],[79.867854,6.826591],[79.867859,6.826503],[79.867871,6.826439],[79.867933,6.826239],[79.868001,6.826038],[79.868021,6.825928],[79.868033,6.82577],[79.868046,6.825562],[79.868063,6.825498],[79.868084,6.82537],[79.86809,6.825336],[79.868099,6.82529],[79.868117,6.82523],[79.868139,6.82516],[79.868221,6.824935],[79.86827,6.824829],[79.868347,6.824589],[79.86839,6.824475],[79.868446,6.824329],[79.868489,6.824234],[79.868499,6.824199],[79.8685,6.82419],[79.868502,6.824144],[79.868498,6.824036],[79.868508,6.82395],[79.868519,6.823907],[79.868557,6.823865],[79.868584,6.823826],[79.868706,6.823678],[79.868863,6.823477],[79.868868,6.82347],[79.868903,6.823413],[79.868944,6.823372],[79.868945,6.823372],[79.869057,6.823232],[79.86911,6.823175],[79.869133,6.823139],[79.869213,6.82305],[79.869388,6.822846],[79.869519,6.8227],[79.869652,6.822548],[79.86971,6.822481],[79.869753,6.822428],[79.869815,6.822357],[79.869949,6.822213],[79.870032,6.822121],[79.87018,6.82195],[79.870209,6.821897],[79.870229,6.821877],[79.87022,6.821877],[79.870088,6.821872],[79.870069,6.821871],[79.86997,6.821858],[79.869827,6.821822],[79.869691,6.821782],[79.869539,6.821731],[79.869364,6.821676],[79.869293,6.821654],[79.86925,6.821641],[79.869053,6.821581],[79.868779,6.821494],[79.868765,6.82149],[79.868598,6.821436],[79.868546,6.821416],[79.868497,6.82139],[79.868463,6.821368],[79.868433,6.821341],[79.868358,6.82126],[79.868301,6.821192],[79.868254,6.821161],[79.868201,6.821123],[79.868199,6.821121],[79.868084,6.821044],[79.868008,6.820995],[79.86789,6.820926],[79.867873,6.820906],[79.867869,6.820893],[79.867862,6.820868],[79.867863,6.820796],[79.867863,6.820794],[79.867859,6.820754],[79.867843,6.820707],[79.867824,6.820682],[79.867777,6.820622],[79.867741,6.820583],[79.867735,6.820577],[79.867709,6.820551],[79.867642,6.82049],[79.867555,6.820414],[79.86745,6.820342],[79.867314,6.820262],[79.867264,6.820236],[79.867217,6.820211],[79.867103,6.820161],[79.866986,6.82011],[79.866945,6.820088],[79.866902,6.820059],[79.866687,6.819989],[79.866518,6.819922],[79.866512,6.819919],[79.866358,6.81986],[79.866278,6.819836],[79.8662,6.819809],[79.866016,6.819754],[79.865963,6.819738],[79.865962,6.819738],[79.865987,6.819685],[79.865987,6.819669],[79.865966,6.819649],[79.865716,6.819543],[79.86548,6.819465],[79.865404,6.819432],[79.865249,6.819386],[79.865049,6.819374],[79.865043,6.819385],[79.86502,6.819454],[79.864986,6.819558],[79.864933,6.819716],[79.86489,6.819818],[79.864849,6.819904],[79.864798,6.820014],[79.864755,6.820118],[79.864703,6.820206],[79.864622,6.820383],[79.864584,6.820476],[79.864541,6.820609],[79.864509,6.820695],[79.864471,6.8208],[79.864446,6.820897],[79.864422,6.821015],[79.864398,6.82111],[79.864376,6.821198],[79.864345,6.821304],[79.864311,6.8214],[79.864277,6.821503],[79.864242,6.821608],[79.864204,6.8217],[79.864165,6.821813],[79.864128,6.821906],[79.864074,6.822044],[79.86404,6.822154],[79.863999,6.822244],[79.863952,6.822337],[79.863898,6.822414],[79.863845,6.822512],[79.863793,6.822623],[79.863755,6.822699],[79.863715,6.822781],[79.863684,6.822847],[79.863642,6.822925],[79.863598,6.823002],[79.863565,6.823065],[79.863522,6.823138],[79.863474,6.823206],[79.863414,6.823302],[79.863373,6.82339],[79.863342,6.823468],[79.863345,6.823604],[79.86333,6.823723],[79.863299,6.823864],[79.863276,6.823956],[79.863226,6.824051],[79.863187,6.82414],[79.863151,6.824229],[79.863105,6.824331],[79.863064,6.824444],[79.862982,6.824667],[79.8629,6.824786],[79.862829,6.824912],[79.862805,6.82497],[79.862784,6.825074],[79.862755,6.825154],[79.862745,6.825227],[79.862732,6.825324],[79.86273,6.825421],[79.862738,6.825504],[79.862763,6.825582],[79.862786,6.825649],[79.862806,6.82573],[79.862819,6.825793],[79.862846,6.825873],[79.862873,6.82594],[79.862904,6.82602],[79.862938,6.826101],[79.862969,6.826205],[79.862983,6.826329],[79.86299,6.826447],[79.862987,6.826577],[79.862979,6.826691],[79.862968,6.82678],[79.862957,6.826873],[79.86294,6.826972],[79.862923,6.827067],[79.862903,6.827173],[79.862871,6.827288],[79.862845,6.827381],[79.862822,6.827464],[79.862799,6.827543],[79.862781,6.827631],[79.86276,6.827721],[79.862729,6.827811],[79.862715,6.827928],[79.862709,6.828048],[79.862713,6.828125],[79.862715,6.828174],[79.862698,6.828296],[79.862669,6.828427],[79.862644,6.828548],[79.862603,6.828676],[79.862571,6.828759],[79.862534,6.828855],[79.862525,6.828956],[79.862525,6.829028],[79.862766,6.829092],[79.86308,6.829177],[79.863125,6.829189],[79.86313,6.82919],[79.86316,6.829198],[79.86319,6.829207],[79.863476,6.829231],[79.863567,6.829311],[79.863576,6.829319],[79.863672,6.829438],[79.863699,6.829441],[79.863676,6.829625],[79.863646,6.829743],[79.863641,6.829766],[79.863628,6.829823],[79.863618,6.829866],[79.863613,6.829897],[79.86361,6.829925],[79.863609,6.829962],[79.863611,6.829997],[79.863612,6.830034],[79.863617,6.830098],[79.863623,6.83016],[79.863639,6.830293],[79.863644,6.830341],[79.863648,6.830404],[79.863651,6.830451],[79.863652,6.830462],[79.863661,6.83051],[79.863834,6.830472],[79.864085,6.830425],[79.864371,6.830367],[79.864415,6.830359],[79.86445,6.830351],[79.864499,6.830348],[79.864527,6.830343],[79.864548,6.830333],[79.864562,6.830319],[79.864573,6.830306],[79.864583,6.830289],[79.864601,6.830246],[79.864629,6.830205],[79.864654,6.830172],[79.864689,6.830136],[79.864739,6.830098],[79.864773,6.830084],[79.864808,6.830076],[79.864824,6.830076],[79.86489,6.830084],[79.864902,6.830085],[79.864919,6.830088],[79.865014,6.830107],[79.865057,6.830115],[79.86513,6.830125],[79.865282,6.830147],[79.865362,6.83016],[79.865628,6.830192],[79.865652,6.830194],[79.865695,6.830199],[79.865815,6.830228],[79.865889,6.830244],[79.865975,6.830262],[79.86605,6.830276],[79.866094,6.830293],[79.866157,6.830327],[79.866215,6.830356],[79.866244,6.830371],[79.866353,6.830434],[79.866409,6.830468],[79.866504,6.83052],[79.866593,6.830563],[79.86667,6.830595],[79.866709,6.830609],[79.866879,6.830673],[79.866901,6.830681],[79.866957,6.830698],[79.867042,6.83073],[79.867174,6.830777],[79.867227,6.830785],[79.867308,6.830794],[79.867443,6.830808],[79.867446,6.830809],[79.867589,6.830825],[79.867642,6.830831],[79.867655,6.830832],[79.867678,6.830835],[79.867709,6.830838],[79.867724,6.830789],[79.867816,6.830504],[79.867861,6.830362],[79.867917,6.830196],[79.867946,6.830118],[79.868036,6.82987],[79.868108,6.829684],[79.868212,6.82942],[79.868314,6.829169],[79.868523,6.828644],[79.86859,6.828469],[79.868699,6.828203],[79.868724,6.828136],[79.868758,6.828046]]]]}}]}