{"type":"FeatureCollection","features":[{"type":"Feature","properties":{"id":1},"geometry":{"type":"MultiPolygon","coordinates":[[[[79.875047,6.830483],[79.875047,6.830426],[79.875046,6.830369],[79.875045,6.830312],[79.875044,6.830256],[79.875042,6.830199],[79.87504,6.830142],[79.875037,6.830085],[79.875034,6.830029],[79.87503,6.829972],[79.875026,6.829915],[79.875021,6.829859],[79.875016,6.829802],[79.875011,6.829745],[79.875005,6.829689],[79.874999,6.829633],[79.874992,6.829576],[79.874985,6.82952],[79.874977,6.829463],[79.874969,6.829407],[79.87496,6.829351],[79.874951,6.829295],[79.874942,6.829239],[79.874932,6.829183],[79.874921,6.829127],[79.874911,6.829071],[79.8749,6.829016],[79.874888,6.82896],[79.874876,6.828905],[79.874863,6.828849],[79.87485,6.828794],[79.874837,6.828739],[79.874823,6.828683],[79.874809,6.828628],[79.874794,6.828574],[79.874779,6.828519],[79.874764,6.828464],[79.874748,6.82841],[79.874731,6.828355],[79.874714,6.828301],[79.874697,6.828247],[79.874679,6.828193],[79.874661,6.828139],[79.874643,6.828085],[79.874624,6.828032],[79.874605,6.827978],[79.874585,6.827925],[79.874565,6.827872],[79.874544,6.827819],[79.874523,6.827766],[79.874501,6.827714],[79.87448,6.827661],[79.874457,6.827609],[79.874435,6.827557],[79.874412,6.827505],[79.874388,6.827453],[79.874364,6.827402],[79.87434,6.82735],[79.874315,6.827299],[79.87429,6.827248],[79.874264,6.827197],[79.874239,6.827147],[79.874212,6.827096],[79.874186,6.827046],[79.874158,6.826996],[79.874131,6.826947],[79.874103,6.826897],[79.874075,6.826848],[79.874046,6.826799],[79.874017,6.82675],[79.873988,6.826701],[79.873958,6.826653],[79.873928,6.826605],[79.873897,6.826557],[79.873866,6.826509],[79.873835,6.826462],[79.873803,6.826415],[79.873771,6.826368],[79.873739,6.826321],[79.873706,6.826275],[79.873673,6.826228],[79.873639,6.826182],[79.873606,6.826137],[79.873571,6.826091],[79.873537,6.826046],[79.873502,6.826002],[79.873467,6.825957],[79.873431,6.825913],[79.873395,6.825869],[79.873359,6.825825],[79.873322,6.825782],[79.873285,6.825739],[79.873248,6.825696],[79.87321,6.825653],[79.873172,6.825611],[79.873134,6.825569],[79.873095,6.825527],[79.873056,6.825486],[79.873017,6.825445],[79.872977,6.825404],[79.872937,6.825364],[79.872897,6.825324],[79.872856,6.825284],[79.872815,6.825245],[79.872774,6.825205],[79.872733,6.825167],[79.872691,6.825128],[79.872649,6.82509],[79.872606,6.825052],[79.872563,6.825015],[79.87252,6.824978],[79.872477,6.824941],[79.872434,6.824904],[79.87239,6.824868],[79.872346,6.824832],[79.872301,6.824797],[79.872256,6.824762],[79.872211,6.824727],[79.872166,6.824693],[79.872121,6.824659],[79.872075,6.824625],[79.872029,6.824592],[79.871982,6.824559],[79.871936,6.824526],[79.871889,6.824494],[79.871842,6.824462],[79.871795,6.824431],[79.871747,6.8244],[79.871699,6.824369],[79.871651,6.824339],[79.871603,6.824309],[79.871554,6.824279],[79.871506,6.82425],[79.871457,6.824221],[79.871407,6.824193],[79.871358,6.824165],[79.871308,6.824137],[79.871258,6.82411],[79.871208,6.824083],[79.871158,6.824056],[79.871108,6.82403],[79.871057,6.824004],[79.871006,6.823979],[79.870955,6.823954],[79.870904,6.82393],[79.870852,6.823906],[79.8708,6.823882],[79.870749,6.823859],[79.870697,6.823836],[79.870644,6.823813],[79.870592,6.823791],[79.870539,6.82377],[79.870487,6.823749],[79.870434,6.823728],[79.870381,6.823707],[79.870328,6.823687],[79.870274,6.823668],[79.870221,6.823649],[79.870167,6.82363],[79.870113,6.823612],[79.870059,6.823594],[79.870005,6.823576],[79.869951,6.823559],[79.869897,6.823543],[79.869842,6.823527],[79.869787,6.823511],[79.869733,6.823496],[79.869678,6.823481],[79.869623,6.823466],[79.869568,6.823452],[79.869513,6.823439],[79.869457,6.823425],[79.869402,6.823413],[79.869346,6.8234],[79.869291,6.823389],[79.869235,6.823377],[79.869179,6.823366],[79.869124,6.823356],[79.869068,6.823346],[79.869012,6.823336],[79.868955,6.823327],[79.868899,6.823318],[79.868843,6.82331],[79.868787,6.823302],[79.86873,6.823294],[79.868674,6.823287],[79.868618,6.823281],[79.868561,6.823275],[79.868505,6.823269],[79.868448,6.823264],[79.868391,6.823259],[79.868335,6.823255],[79.868278,6.823251],[79.868221,6.823247],[79.868164,6.823244],[79.868108,6.823242],[79.868051,6.82324],[79.867994,6.823238],[79.867937,6.823237],[79.86788,6.823236],[79.867823,6.823236],[79.867767,6.823236],[79.86771,6.823236],[79.867653,6.823237],[79.867596,6.823239],[79.867539,6.823241],[79.867483,6.823243],[79.867426,6.823246],[79.867369,6.823249],[79.867312,6.823253],[79.867256,6.823257],[79.867199,6.823261],[79.867142,6.823266],[79.867086,6.823272],[79.867029,6.823278],[79.866973,6.823284],[79.866916,6.823291],[79.86686,6.823298],[79.866804,6.823306],[79.866747,6.823314],[79.866691,6.823322],[79.866635,6.823331],[79.866579,6.823341],[79.866523,6.823351],[79.866467,6.823361],[79.866411,6.823372],[79.866356,6.823383],[79.8663,6.823395],[79.866244,6.823407],[79.866189,6.823419],[79.866134,6.823432],[79.866078,6.823446],[79.866023,6.823459],[79.865968,6.823474],[79.865913,6.823488],[79.865859,6.823503],[79.865804,6.823519],[79.865749,6.823535],[79.865695,6.823551],[79.865641,6.823568],[79.865586,6.823585],[79.865532,6.823603],[79.865478,6.823621],[79.865425,6.82364],[79.865371,6.823659],[79.865318,6.823678],[79.865264,6.823698],[79.865211,6.823718],[79.865158,6.823739],[79.865106,6.82376],[79.865053,6.823781],[79.865,6.823803],[79.864948,6.823825],[79.864896,6.823848],[79.864844,6.823871],[79.864792,6.823894],[79.864741,6.823918],[79.864689,6.823942],[79.864638,6.823967],[79.864587,6.823992],[79.864536,6.824018],[79.864486,6.824044],[79.864435,6.82407],[79.864385,6.824097],[79.864335,6.824124],[79.864285,6.824151],[79.864236,6.824179],[79.864187,6.824207],[79.864138,6.824236],[79.864089,6.824265],[79.86404,6.824294],[79.863992,6.824324],[79.863943,6.824354],[79.863896,6.824385],[79.863848,6.824416],[79.8638,6.824447],[79.863753,6.824479],[79.863706,6.824511],[79.86366,6.824543],[79.863613,6.824576],[79.863567,6.824609],[79.863521,6.824643],[79.863475,6.824676],[79.86343,6.824711],[79.863385,6.824745],[79.86334,6.82478],[79.863295,6.824815],[79.863251,6.824851],[79.863207,6.824887],[79.863163,6.824923],[79.86312,6.82496],[79.863077,6.824997],[79.863034,6.825034],[79.862991,6.825072],[79.862949,6.82511],[79.862907,6.825148],[79.862866,6.825187],[79.862824,6.825226],[79.862783,6.825265],[79.862742,6.825305],[79.862702,6.825345],[79.862662,6.825385],[79.862622,6.825425],[79.862583,6.825466],[79.862543,6.825507],[79.862505,6.825549],[79.862466,6.825591],[79.862428,6.825633],[79.86239,6.825675],[79.862353,6.825718],[79.862315,6.825761],[79.862279,6.825804],[79.862242,6.825848],[79.862206,6.825892],[79.86217,6.825936],[79.862135,6.82598],[79.8621,6.826025],[79.862065,6.82607],[79.862031,6.826115],[79.861996,6.826161],[79.861963,6.826206],[79.86193,6.826252],[79.861897,6.826299],[79.861864,6.826345],[79.861832,6.826392],[79.8618,6.826439],[79.861768,6.826486],[79.861737,6.826534],[79.861707,6.826582],[79.861676,6.82663],[79.861646,6.826678],[79.861617,6.826726],[79.861587,6.826775],[79.861559,6.826824],[79.86153,6.826873],[79.861502,6.826923],[79.861474,6.826972],[79.861447,6.827022],[79.86142,6.827072],[79.861394,6.827123],[79.861368,6.827173],[79.861342,6.827224],[79.861317,6.827275],[79.861292,6.827326],[79.861267,6.827377],[79.861243,6.827428],[79.861219,6.82748],[79.861196,6.827532],[79.861173,6.827584],[79.861151,6.827636],[79.861129,6.827688],[79.861107,6.827741],[79.861086,6.827794],[79.861065,6.827846],[79.861045,6.8279],[79.861025,6.827953],[79.861005,6.828006],[79.860986,6.82806],[79.860967,6.828113],[79.860949,6.828167],[79.860931,6.828221],[79.860914,6.828275],[79.860897,6.828329],[79.86088,6.828383],[79.860864,6.828438],[79.860848,6.828493],[79.860833,6.828547],[79.860818,6.828602],[79.860803,6.828657],[79.860789,6.828712],[79.860776,6.828767],[79.860763,6.828823],[79.86075,6.828878],[79.860738,6.828933],[79.860726,6.828989],[79.860714,6.829045],[79.860703,6.8291],[79.860693,6.829156],[79.860683,6.829212],[79.860673,6.829268],[79.860664,6.829324],[79.860655,6.82938],[79.860647,6.829436],[79.860639,6.829493],[79.860631,6.829549],[79.860624,6.829605],[79.860618,6.829662],[79.860612,6.829718],[79.860606,6.829775],[79.860601,6.829831],[79.860596,6.829888],[79.860592,6.829945],[79.860588,6.830001],[79.860584,6.830058],[79.860581,6.830115],[79.860579,6.830172],[79.860577,6.830228],[79.860575,6.830285],[79.860574,6.830342],[79.860573,6.830399],[79.860573,6.830456],[79.860573,6.830512],[79.860573,6.830569],[79.860574,6.830626],[79.860576,6.830683],[79.860578,6.83074],[79.86058,6.830796],[79.860583,6.830853],[79.860586,6.83091],[79.86059,6.830966],[79.860594,6.831023],[79.860598,6.83108],[79.860603,6.831136],[79.860609,6.831193],[79.860615,6.831249],[79.860621,6.831306],[79.860628,6.831362],[79.860635,6.831419],[79.860643,6.831475],[79.860651,6.831531],[79.860659,6.831587],[79.860669,6.831643],[79.860678,6.831699],[79.860688,6.831755],[79.860698,6.831811],[79.860709,6.831867],[79.86072,6.831923],[79.860732,6.831978],[79.860744,6.832034],[79.860756,6.832089],[79.860769,6.832145],[79.860783,6.8322],[79.860796,6.832255],[79.860811,6.83231],[79.860825,6.832365],[79.860841,6.83242],[79.860856,6.832474],[79.860872,6.832529],[79.860888,6.832583],[79.860905,6.832637],[79.860923,6.832692],[79.86094,6.832746],[79.860958,6.832799],[79.860977,6.832853],[79.860996,6.832907],[79.861015,6.83296],[79.861035,6.833013],[79.861055,6.833066],[79.861076,6.833119],[79.861097,6.833172],[79.861118,6.833225],[79.86114,6.833277],[79.861162,6.833329],[79.861185,6.833382],[79.861208,6.833434],[79.861232,6.833485],[79.861255,6.833537],[79.86128,6.833588],[79.861305,6.833639],[79.86133,6.83369],[79.861355,6.833741],[79.861381,6.833792],[79.861407,6.833842],[79.861434,6.833892],[79.861461,6.833942],[79.861489,6.833992],[79.861516,6.834041],[79.861545,6.834091],[79.861573,6.83414],[79.861602,6.834189],[79.861632,6.834237],[79.861662,6.834286],[79.861692,6.834334],[79.861722,6.834382],[79.861753,6.834429],[79.861785,6.834477],[79.861816,6.834524],[79.861848,6.834571],[79.861881,6.834617],[79.861914,6.834664],[79.861947,6.83471],[79.86198,6.834756],[79.862014,6.834802],[79.862048,6.834847],[79.862083,6.834892],[79.862118,6.834937],[79.862153,6.834981],[79.862189,6.835026],[79.862225,6.83507],[79.862261,6.835113],[79.862298,6.835157],[79.862335,6.8352],[79.862372,6.835243],[79.86241,6.835285],[79.862448,6.835327],[79.862486,6.835369],[79.862525,6.835411],[79.862564,6.835452],[79.862603,6.835493],[79.862643,6.835534],[79.862683,6.835575],[79.862723,6.835615],[79.862763,6.835654],[79.862804,6.835694],[79.862846,6.835733],[79.862887,6.835772],[79.862929,6.83581],[79.862971,6.835848],[79.863013,6.835886],[79.863056,6.835924],[79.863099,6.835961],[79.863142,6.835998],[79.863186,6.836034],[79.86323,6.83607],[79.863274,6.836106],[79.863318,6.836141],[79.863363,6.836177],[79.863408,6.836211],[79.863453,6.836246],[79.863499,6.83628],[79.863545,6.836313],[79.863591,6.836347],[79.863637,6.83638],[79.863684,6.836412],[79.863731,6.836444],[79.863778,6.836476],[79.863825,6.836508],[79.863873,6.836539],[79.86392,6.836569],[79.863968,6.8366],[79.864017,6.83663],[79.864065,6.836659],[79.864114,6.836689],[79.864163,6.836717],[79.864212,6.836746],[79.864262,6.836774],[79.864311,6.836802],[79.864361,6.836829],[79.864411,6.836856],[79.864461,6.836882],[79.864512,6.836908],[79.864563,6.836934],[79.864614,6.836959],[79.864665,6.836984],[79.864716,6.837009],[79.864767,6.837033],[79.864819,6.837056],[79.864871,6.83708],[79.864923,6.837103],[79.864975,6.837125],[79.865028,6.837147],[79.86508,6.837169],[79.865133,6.83719],[79.865186,6.837211],[79.865239,6.837231],[79.865292,6.837251],[79.865345,6.837271],[79.865399,6.83729],[79.865453,6.837308],[79.865506,6.837327],[79.86556,6.837345],[79.865614,6.837362],[79.865669,6.837379],[79.865723,6.837396],[79.865778,6.837412],[79.865832,6.837428],[79.865887,6.837443],[79.865942,6.837458],[79.865997,6.837472],[79.866052,6.837486],[79.866107,6.8375],[79.866162,6.837513],[79.866218,6.837526],[79.866273,6.837538],[79.866329,6.83755],[79.866384,6.837561],[79.86644,6.837572],[79.866496,6.837583],[79.866552,6.837593],[79.866608,6.837603],[79.866664,6.837612],[79.86672,6.83762],[79.866777,6.837629],[79.866833,6.837637],[79.866889,6.837644],[79.866946,6.837651],[79.867002,6.837658],[79.867059,6.837664],[79.867115,6.83767],[79.867172,6.837675],[79.867228,6.83768],[79.867285,6.837684],[79.867342,6.837688],[79.867399,6.837691],[79.867455,6.837694],[79.867512,6.837697],[79.867569,6.837699],[79.867626,6.837701],[79.867683,6.837702],[79.867739,6.837703],[79.867796,6.837703],[79.867853,6.837703],[79.86791,6.837702],[79.867967,6.837701],[79.868024,6.8377],[79.86808,6.837698],[79.868137,6.837696],[79.868194,6.837693],[79.868251,6.837689],[79.868307,6.837686],[79.868364,6.837682],[79.868421,6.837677],[79.868477,6.837672],[79.868534,6.837667],[79.86859,6.837661],[79.868647,6.837654],[79.868703,6.837648],[79.86876,6.83764],[79.868816,6.837633],[79.868872,6.837625],[79.868929,6.837616],[79.868985,6.837607],[79.869041,6.837598],[79.869097,6.837588],[79.869153,6.837577],[79.869208,6.837567],[79.869264,6.837555],[79.86932,6.837544],[79.869375,6.837532],[79.869431,6.837519],[79.869486,6.837506],[79.869541,6.837493],[79.869596,6.837479],[79.869652,6.837465],[79.869706,6.83745],[79.869761,6.837435],[79.869816,6.837419],[79.86987,6.837404],[79.869925,6.837387],[79.869979,6.83737],[79.870033,6.837353],[79.870087,6.837335],[79.870141,6.837317],[79.870195,6.837299],[79.870249,6.83728],[79.870302,6.837261],[79.870355,6.837241],[79.870408,6.837221],[79.870461,6.8372],[79.870514,6.837179],[79.870567,6.837158],[79.870619,6.837136],[79.870672,6.837113],[79.870724,6.837091],[79.870776,6.837068],[79.870827,6.837044],[79.870879,6.83702],[79.87093,6.836996],[79.870982,6.836971],[79.871033,6.836946],[79.871083,6.836921],[79.871134,6.836895],[79.871184,6.836868],[79.871235,6.836842],[79.871285,6.836815],[79.871334,6.836787],[79.871384,6.836759],[79.871433,6.836731],[79.871482,6.836703],[79.871531,6.836673],[79.87158,6.836644],[79.871628,6.836614],[79.871676,6.836584],[79.871724,6.836554],[79.871772,6.836523],[79.871819,6.836491],[79.871867,6.83646],[79.871914,6.836428],[79.87196,6.836395],[79.872007,6.836363],[79.872053,6.836329],[79.872099,6.836296],[79.872144,6.836262],[79.87219,6.836228],[79.872235,6.836193],[79.87228,6.836158],[79.872324,6.836123],[79.872369,6.836088],[79.872413,6.836052],[79.872456,6.836015],[79.8725,6.835979],[79.872543,6.835942],[79.872586,6.835904],[79.872628,6.835867],[79.872671,6.835829],[79.872713,6.83579],[79.872754,6.835752],[79.872796,6.835713],[79.872837,6.835673],[79.872877,6.835634],[79.872918,6.835594],[79.872958,6.835554],[79.872998,6.835513],[79.873037,6.835472],[79.873076,6.835431],[79.873115,6.835389],[79.873154,6.835348],[79.873192,6.835306],[79.87323,6.835263],[79.873267,6.83522],[79.873304,6.835177],[79.873341,6.835134],[79.873378,6.835091],[79.873414,6.835047],[79.87345,6.835003],[79.873485,6.834958],[79.87352,6.834914],[79.873555,6.834869],[79.873589,6.834823],[79.873623,6.834778],[79.873657,6.834732],[79.87369,6.834686],[79.873723,6.83464],[79.873756,6.834593],[79.873788,6.834546],[79.87382,6.834499],[79.873851,6.834452],[79.873883,6.834405],[79.873913,6.834357],[79.873944,6.834309],[79.873974,6.83426],[79.874003,6.834212],[79.874032,6.834163],[79.874061,6.834114],[79.87409,6.834065],[79.874118,6.834016],[79.874145,6.833966],[79.874173,6.833916],[79.8742,6.833866],[79.874226,6.833816],[79.874252,6.833765],[79.874278,6.833715],[79.874303,6.833664],[79.874328,6.833613],[79.874353,6.833561],[79.874377,6.83351],[79.8744,6.833458],[79.874424,6.833407],[79.874447,6.833355],[79.874469,6.833302],[79.874491,6.83325],[79.874513,6.833197],[79.874534,6.833145],[79.874555,6.833092],[79.874575,6.833039],[79.874595,6.832986],[79.874615,6.832932],[79.874634,6.832879],[79.874653,6.832825],[79.874671,6.832771],[79.874689,6.832717],[79.874706,6.832663],[79.874723,6.832609],[79.87474,6.832555],[79.874756,6.8325],[79.874772,6.832446],[79.874787,6.832391],[79.874802,6.832336],[79.874816,6.832281],[79.87483,6.832226],[79.874844,6.832171],[79.874857,6.832116],[79.87487,6.83206],[79.874882,6.832005],[79.874894,6.831949],[79.874905,6.831894],[79.874916,6.831838],[79.874927,6.831782],[79.874937,6.831726],[79.874947,6.83167],[79.874956,6.831614],[79.874965,6.831558],[79.874973,6.831502],[79.874981,6.831446],[79.874988,6.831389],[79.874995,6.831333],[79.875002,6.831277],[79.875008,6.83122],[79.875014,6.831164],[79.875019,6.831107],[79.875024,6.83105],[79.875028,6.830994],[79.875032,6.830937],[79.875035,6.83088],[79.875038,6.830824],[79.875041,6.830767],[79.875043,6.83071],[79.875045,6.830653],[79.875046,6.830596],[79.875047,6.83054],[79.875047,6.830483]]]]}}]}