{"type":"FeatureCollection","features":[{"type":"Feature","properties":{"cell_id":1,"area_m2":53212.5,"centroid_lon":79.86566523182972,"centroid_lat":6.837300448675993,"gn_name":"Mount Lavinia","gn_pcode":"LK1131005"},"geometry":{"type":"Polygon","coordinates":[[[79.86571746461142,6.835269316035679],[79.86560966677733,6.835180122982411],[79.86548390263755,6.835108768527815],[79.86534915534493,6.835046333371305],[79.86529525642788,6.835126607142463],[79.86527729012221,6.835215800205716],[79.86524135751084,6.835412024886288],[79.86514254282959,6.836018537026024],[79.86513355967675,6.83608097205554],[79.8650347449955,6.836812353222464],[79.86500779553697,6.837062092876764],[79.86491796400855,6.8380253731778495],[79.86490898085572,6.838105646448616],[79.86483711563298,6.8386408012423905],[79.86535813849777,6.838703235929285],[79.86565458254154,6.838747832129213],[79.86585221190404,6.83876567060802],[79.86630136954611,6.8388370245165815],[79.86668764511828,6.838899459177833],[79.86650798206145,6.838159161954967],[79.86637323476883,6.8375883295782005],[79.86624747062906,6.836946142339212],[79.86622950432337,6.8368747881482745],[79.86596000973813,6.835884747649597],[79.86591509397392,6.835759877531143],[79.86587916136256,6.835679603866338],[79.86578932983416,6.835456621393366],[79.86571746461142,6.835269316035679]]]}},{"type":"Feature","properties":{"cell_id":2,"area_m2":12018.5,"centroid_lon":79.86537720205091,"centroid_lat":6.834400232420077,"gn_name":"Mount Lavinia","gn_pcode":"LK1131005"},"geometry":{"type":"Polygon","coordinates":[[[79.86534915534493,6.835046333371305],[79.86548390263755,6.835108768527815],[79.86560966677733,6.835180122982411],[79.86571746461142,6.835269316035679],[79.86574441406995,6.835090929912502],[79.86580729613983,6.834850108540613],[79.86574441406995,6.834252514241872],[79.86569949830574,6.83383330585515],[79.86566356569438,6.833815467192243],[79.86522339120516,6.833806547860538],[79.86499881238413,6.833815467192243],[79.86485508193866,6.833842225186354],[79.86474728410457,6.833868983178969],[79.865232374358,6.834939301655459],[79.86525034066368,6.834974978896738],[79.86527729012221,6.835001736825949],[79.86534915534493,6.835046333371305]]]}},{"type":"Feature","properties":{"cell_id":3,"area_m2":24827.0,"centroid_lon":79.86436879071125,"centroid_lat":6.834411399566792,"gn_name":"Mount Lavinia","gn_pcode":"LK1131005"},"geometry":{"type":"Polygon","coordinates":[[[79.86534915534493,6.835046333371305],[79.86527729012221,6.835001736825949],[79.86525034066368,6.834974978896738],[79.865232374358,6.834939301655459],[79.86474728410457,6.833868983178969],[79.86456762104775,6.833681677199219],[79.86440592429662,6.833556806505283],[79.86423524439262,6.833458693794314],[79.8637950699034,6.83337841974309],[79.86376812044487,6.833842225186354],[79.86366930576362,6.835028494753662],[79.86394778350171,6.835064171988283],[79.86495389661992,6.835189042288486],[79.86527729012221,6.835215800205716],[79.86529525642788,6.835126607142463],[79.86534915534493,6.835046333371305]]]}},{"type":"Feature","properties":{"cell_id":4,"area_m2":40379.5,"centroid_lon":79.8654790169032,"centroid_lat":6.833188163392253,"gn_name":"Mount Lavinia","gn_pcode":"LK1131005"},"geometry":{"type":"Polygon","coordinates":[[[79.86423524439262,6.833458693794314],[79.86440592429662,6.833556806505283],[79.86456762104775,6.833681677199219],[79.86474728410457,6.833868983178969],[79.86485508193866,6.833842225186354],[79.86499881238413,6.833815467192243],[79.86522339120516,6.833806547860538],[79.86566356569438,6.833815467192243],[79.86569949830574,6.83383330585515],[79.86574441406995,6.834252514241872],[79.86637323476883,6.834136563022746],[79.8663912010745,6.834074127739259],[79.8664091673802,6.833993853791368],[79.86647204945008,6.83377978986443],[79.86650798206145,6.8335032904836135],[79.86653493151996,6.833048404057578],[79.8665618809785,6.832522162358146],[79.86614865594781,6.832468646220676],[79.8660857738779,6.832468646220676],[79.86561864993017,6.832441888149695],[79.86468440203468,6.832388372003242],[79.8644238906023,6.832406210719391],[79.86429812646251,6.83311083947501],[79.86423524439262,6.833458693794314]]]}},{"type":"Feature","properties":{"cell_id":5,"area_m2":39975.0,"centroid_lon":79.86355883702863,"centroid_lat":6.832431770099155,"gn_name":"Mount Lavinia","gn_pcode":"LK1131005"},"geometry":{"type":"Polygon","coordinates":[[[79.8637950699034,6.83337841974309],[79.86423524439262,6.833458693794314],[79.86429812646251,6.83311083947501],[79.8644238906023,6.832406210719391],[79.86468440203468,6.832388372003242],[79.8646215199648,6.8322367428890995],[79.86444185690797,6.831808613366122],[79.8643610085324,6.831656984068158],[79.86425321069831,6.831558870967387],[79.86418134547557,6.831532112845501],[79.86374117098636,6.831576709714479],[79.86366930576362,6.831612387206667],[79.86358845738806,6.831630225951762],[79.86349862585965,6.831612387206667],[79.86345371009544,6.831549951593592],[79.86343574378976,6.831282370302379],[79.8633998111784,6.831211015266106],[79.86332794595567,6.831184257124759],[79.863139299746,6.83116641836303],[79.86306743452327,6.831202095885824],[79.86302251875907,6.831255612165026],[79.8629865861477,6.83160346783387],[79.86289675461929,6.831942403883226],[79.86285183885508,6.8320851137268805],[79.86260929372837,6.8325489204246335],[79.86254641165847,6.832780823604815],[79.8625284453528,6.833039484711565],[79.86253742850563,6.833182194227806],[79.86258234426984,6.833235710285416],[79.86338184487272,6.83336058106321],[79.8637950699034,6.83337841974309]]]}},{"type":"Feature","properties":{"cell_id":6,"area_m2":26329.0,"centroid_lon":79.86689595976635,"centroid_lat":6.833836388386512,"gn_name":"Mount Lavinia","gn_pcode":"LK1131005"},"geometry":{"type":"Polygon","coordinates":[[[79.86733443212285,6.832557839779798],[79.86675052718816,6.832531081713808],[79.8665618809785,6.832522162358146],[79.86653493151996,6.833048404057578],[79.86650798206145,6.8335032904836135],[79.86647204945008,6.83377978986443],[79.8664091673802,6.833993853791368],[79.8663912010745,6.834074127739259],[79.86637323476883,6.834136563022746],[79.86637323476883,6.834181159648814],[79.86637323476883,6.834270352888471],[79.86638221792167,6.834368465432875],[79.86642713368587,6.834466577957142],[79.8664540831444,6.834529013189374],[79.86649899890861,6.834644964313311],[79.86651696521429,6.834760915409126],[79.86653493151996,6.834894705100116],[79.8665439146728,6.835046333371305],[79.86653493151996,6.835171203676169],[79.86675052718816,6.835117687835222],[79.86704697123191,6.835055252679878],[79.86724460059443,6.835073091296523],[79.86731646581715,6.835090929912502],[79.86730748266432,6.8345379325075974],[79.86731646581715,6.834216836946674],[79.86730748266432,6.833967095805742],[79.86730748266432,6.833708435200817],[79.86731646581715,6.833431935778736],[79.86730748266432,6.833173274884289],[79.86730748266432,6.833146516852739],[79.86732544897,6.832887855803889],[79.86732544897,6.832789742955653],[79.86732544897,6.832647033322282],[79.86733443212285,6.832557839779798]]]}},{"type":"Feature","properties":{"cell_id":7,"area_m2":6347.0,"centroid_lon":79.86712238848226,"centroid_lat":6.832100400685363,"gn_name":"Mount Lavinia","gn_pcode":"LK1131005"},"geometry":{"type":"Polygon","coordinates":[[[79.86675052718816,6.832531081713808],[79.86733443212285,6.832557839779798],[79.86735239842852,6.832406210719391],[79.86738833103989,6.832102952454343],[79.86744222995694,6.83178185525821],[79.8674781625683,6.83160346783387],[79.86719070167737,6.831594548460905],[79.8671727353717,6.831594548460905],[79.86700205546771,6.831737258408363],[79.86692120709215,6.831799693996985],[79.86685832502225,6.831906726415657],[79.8668223924109,6.832058355634438],[79.86675052718816,6.832531081713808]]]}},{"type":"Feature","properties":{"cell_id":8,"area_m2":26805.0,"centroid_lon":79.86569845806301,"centroid_lat":6.831972602784409,"gn_name":"Mount Lavinia","gn_pcode":"LK1131005"},"geometry":{"type":"Polygon","coordinates":[[[79.8665618809785,6.832522162358146],[79.86675052718816,6.832531081713808],[79.8668223924109,6.832058355634438],[79.86685832502225,6.831906726415657],[79.86692120709215,6.831799693996985],[79.86700205546771,6.831737258408363],[79.8671727353717,6.831594548460905],[79.86719070167737,6.831594548460905],[79.86675951034101,6.831576709714479],[79.86612170648928,6.831549951593592],[79.86596899289097,6.831558870967387],[79.86565458254154,6.831648064696193],[79.86558271731882,6.831648064696193],[79.86533118903925,6.831496435347326],[79.86516050913526,6.831433999719114],[79.86491796400855,6.8314072415902425],[79.86483711563298,6.831425080342989],[79.86473830095173,6.8314607578464885],[79.86454067158922,6.8315677903410155],[79.86441490744946,6.831621306579298],[79.8643610085324,6.831656984068158],[79.86444185690797,6.831808613366122],[79.8646215199648,6.8322367428890995],[79.86468440203468,6.832388372003242],[79.86561864993017,6.832441888149695],[79.8660857738779,6.832468646220676],[79.86614865594781,6.832468646220676],[79.8665618809785,6.832522162358146]]]}},{"type":"Feature","properties":{"cell_id":9,"area_m2":8462.0,"centroid_lon":79.86562971768687,"centroid_lat":6.841002907701869,"gn_name":"Mount Lavinia","gn_pcode":"LK1131005"},"geometry":{"type":"Polygon","coordinates":[[[79.86453168843639,6.8410668287884056],[79.865232374358,6.8411738591316285],[79.86533118903925,6.8411649399372765],[79.86540305426198,6.84107574798459],[79.8654300037205,6.84107574798459],[79.86572644776426,6.841102505572145],[79.86694815655066,6.841280889450866],[79.86693019024499,6.84113818235322],[79.86693019024499,6.8410311520019995],[79.86458558735343,6.840710060804428],[79.86453168843639,6.8410668287884056]]]}},{"type":"Feature","properties":{"cell_id":10,"area_m2":45493.5,"centroid_lon":79.86561399052908,"centroid_lat":6.8418887624660645,"gn_name":"Mount Lavinia","gn_pcode":"LK1131005"},"geometry":{"type":"Polygon","coordinates":[[[79.86694815655066,6.841280889450866],[79.86572644776426,6.841102505572145],[79.8654300037205,6.84107574798459],[79.86540305426198,6.84107574798459],[79.86533118903925,6.8411649399372765],[79.865232374358,6.8411738591316285],[79.86453168843639,6.8410668287884056],[79.86450473897787,6.8411738591316285],[79.86448677267218,6.841387919746116],[79.8644688063665,6.84170901048794],[79.86444185690797,6.841923070862548],[79.86438795799093,6.841949828402626],[79.86425321069831,6.84195874758232],[79.8642082949341,6.84201226265698],[79.86415439601706,6.842458221379249],[79.8647742335631,6.842529574736159],[79.86560966677733,6.842636604751534],[79.86659781358985,6.842752553907781],[79.86681340925806,6.842101454434753],[79.8668223924109,6.842065777725644],[79.86684934186941,6.841967666761847],[79.86688527448078,6.841842798233315],[79.86694815655066,6.841655495379295],[79.86694815655066,6.841280889450866]]]}},{"type":"Feature","properties":{"cell_id":11,"area_m2":20135.0,"centroid_lon":79.86578790923045,"centroid_lat":6.840527296991653,"gn_name":"Mount Lavinia","gn_pcode":"LK1131005"},"geometry":{"type":"Polygon","coordinates":[[[79.86460355365912,6.840451403849396],[79.86458558735343,6.840710060804428],[79.86693019024499,6.8410311520019995],[79.86693019024499,6.8406833031948855],[79.86691222393931,6.8402908580827155],[79.86653493151996,6.8402730196608665],[79.86629238639325,6.840219504391314],[79.86558271731882,6.8401570699025935],[79.86495389661992,6.840085716191206],[79.86465745257617,6.840041120116177],[79.86463948627048,6.840201665966799],[79.86460355365912,6.840451403849396]]]}},{"type":"Feature","properties":{"cell_id":12,"area_m2":36361.0,"centroid_lon":79.86578123686026,"centroid_lat":6.839493212536726,"gn_name":"Mount Lavinia","gn_pcode":"LK1131005"},"geometry":{"type":"Polygon","coordinates":[[[79.86470236834036,6.839791382019064],[79.86468440203468,6.83987165499309],[79.86465745257617,6.840041120116177],[79.86495389661992,6.840085716191206],[79.86558271731882,6.8401570699025935],[79.86629238639325,6.840219504391314],[79.86653493151996,6.8402730196608665],[79.86691222393931,6.8402908580827155],[79.86688527448078,6.83987165499309],[79.86677747664669,6.839336501578116],[79.86668764511828,6.838899459177833],[79.86630136954611,6.8388370245165815],[79.86585221190404,6.83876567060802],[79.86565458254154,6.838747832129213],[79.86535813849777,6.838703235929285],[79.86483711563298,6.8386408012423905],[79.86478321671594,6.839095682345786],[79.86476525041026,6.839309743891629],[79.86470236834036,6.839791382019064]]]}},{"type":"Feature","properties":{"cell_id":13,"area_m2":8716.5,"centroid_lon":79.86431537341517,"centroid_lat":6.838950281719061,"gn_name":"Mount Lavinia","gn_pcode":"LK1131005"},"geometry":{"type":"Polygon","coordinates":[[[79.86476525041026,6.839309743891629],[79.86478321671594,6.839095682345786],[79.86483711563298,6.8386408012423905],[79.86392083404318,6.8385159318441255],[79.86382201936193,6.839229470823179],[79.86382201936193,6.839256228514161],[79.86383100251477,6.839282986203646],[79.86386693512614,6.839309743891629],[79.86421727808694,6.839363259263104],[79.86435202537956,6.839327582349454],[79.86447778951934,6.839291905433139],[79.86476525041026,6.839309743891629]]]}},{"type":"Feature","properties":{"cell_id":14,"area_m2":9141.0,"centroid_lon":79.86612414202665,"centroid_lat":6.834733978741886,"gn_name":"Mount Lavinia","gn_pcode":"LK1131005"},"geometry":{"type":"Polygon","coordinates":[[[79.86571746461142,6.835269316035679],[79.86587916136256,6.835260396731101],[79.86631035269895,6.835197961594397],[79.86653493151996,6.835171203676169],[79.8665439146728,6.835046333371305],[79.86653493151996,6.834894705100116],[79.86651696521429,6.834760915409126],[79.86649899890861,6.834644964313311],[79.8664540831444,6.834529013189374],[79.86642713368587,6.834466577957142],[79.86638221792167,6.834368465432875],[79.86637323476883,6.834270352888471],[79.86637323476883,6.834181159648814],[79.86637323476883,6.834136563022746],[79.86574441406995,6.834252514241872],[79.86580729613983,6.834850108540613],[79.86574441406995,6.835090929912502],[79.86571746461142,6.835269316035679]]]}},{"type":"Feature","properties":{"cell_id":15,"area_m2":53970.5,"centroid_lon":79.86679448985704,"centroid_lat":6.8368574179790365,"gn_name":"Mount Lavinia","gn_pcode":"LK1131005"},"geometry":{"type":"Polygon","coordinates":[[[79.86631035269895,6.835197961594397],[79.86587916136256,6.835260396731101],[79.86571746461142,6.835269316035679],[79.86578932983416,6.835456621393366],[79.86587916136256,6.835679603866338],[79.86591509397392,6.835759877531143],[79.86596000973813,6.835884747649597],[79.86622950432337,6.8368747881482745],[79.86624747062906,6.836946142339212],[79.86637323476883,6.8375883295782005],[79.86650798206145,6.838159161954967],[79.86668764511828,6.838899459177833],[79.86711883645465,6.838952974595267],[79.86748714572114,6.838979732301737],[79.86748714572114,6.838872701466868],[79.86748714572114,6.838667558966344],[79.8674781625683,6.8384178201511645],[79.86746917941545,6.838248354452232],[79.86746019626261,6.838078888693191],[79.86744222995694,6.837695360700789],[79.86742426365126,6.837561571793807],[79.8674152804984,6.837338590198923],[79.86739731419273,6.837133447039735],[79.86736138158136,6.836571532717929],[79.86733443212285,6.836223680663806],[79.86716375221884,6.836241519236842],[79.86698408916203,6.836241519236842],[79.86694815655066,6.836205842090102],[79.86694815655066,6.836161245652933],[79.86698408916203,6.836134487788633],[79.86733443212285,6.83608097205554],[79.86730748266432,6.835643926677653],[79.86731646581715,6.835117687835222],[79.86731646581715,6.835090929912502],[79.86724460059443,6.835073091296523],[79.86704697123191,6.835055252679878],[79.86675052718816,6.835117687835222],[79.86653493151996,6.835171203676169],[79.86631035269895,6.835197961594397]]]}},{"type":"Feature","properties":{"cell_id":16,"area_m2":13552.0,"centroid_lon":79.86710891192236,"centroid_lat":6.839836056107928,"gn_name":"Mount Lavinia","gn_pcode":"LK1131005"},"geometry":{"type":"Polygon","coordinates":[[[79.86748714572114,6.838979732301737],[79.86711883645465,6.838952974595267],[79.86668764511828,6.838899459177833],[79.86677747664669,6.839336501578116],[79.86688527448078,6.83987165499309],[79.86691222393931,6.8402908580827155],[79.86693019024499,6.8406833031948855],[79.86693019024499,6.8410311520019995],[79.86693019024499,6.84113818235322],[79.86694815655066,6.841280889450866],[79.86703798807908,6.841307647026928],[79.86712781960749,6.841040071198851],[79.86716375221884,6.840941960024328],[79.86720866798305,6.840790333624058],[79.8672176511359,6.840763576019015],[79.86727155005296,6.840585191947074],[79.86731646581715,6.840362211763458],[79.86738833103989,6.83997868560414],[79.86742426365126,6.839746785916555],[79.86744222995694,6.839577320689045],[79.86746917941545,6.839309743891629],[79.8674781625683,6.839122440044261],[79.8674781625683,6.839086763112626],[79.86748714572114,6.838979732301737]]]}},{"type":"Feature","properties":{"cell_id":17,"area_m2":11199.0,"centroid_lon":79.86378241241994,"centroid_lat":6.843995088153249,"gn_name":"Mount Lavinia","gn_pcode":"LK1131005"},"geometry":{"type":"Polygon","coordinates":[[[79.86314828289883,6.8443223243287825],[79.8633998111784,6.84434016259936],[79.86378608675057,6.844366920003975],[79.86392083404318,6.844375839138514],[79.8640555813358,6.844384758272885],[79.86435202537956,6.844402596541131],[79.86437897483808,6.84416177986359],[79.86441490744946,6.84366230784882],[79.86320218181588,6.843590954661193],[79.8631842155102,6.843840690771228],[79.86314828289883,6.8443223243287825]]]}},{"type":"Feature","properties":{"cell_id":18,"area_m2":20053.0,"centroid_lon":79.86529115794559,"centroid_lat":6.84539383355087,"gn_name":"Mount Lavinia","gn_pcode":"LK1131005"},"geometry":{"type":"Polygon","coordinates":[[[79.86435202537956,6.844402596541131],[79.8640555813358,6.844384758272885],[79.86402863187728,6.844750442638652],[79.86428914330966,6.844759361766024],[79.86431609276819,6.844786119147143],[79.86431609276819,6.844893148656613],[79.86431609276819,6.844919906030232],[79.86433405907387,6.844928825154438],[79.8643610085324,6.844928825154438],[79.86487304824435,6.844919906030232],[79.86489999770286,6.844937744278477],[79.86490898085572,6.844955582526056],[79.8649269471614,6.845240994396647],[79.86495389661992,6.845749383868371],[79.86529525642788,6.845749383868371],[79.86534915534493,6.845776141193988],[79.8653671216506,6.845829655840719],[79.86534915534493,6.84629344919436],[79.8653671216506,6.846329125587509],[79.86540305426198,6.846355882880618],[79.8660857738779,6.8464272356549145],[79.86618458855916,6.845579920771301],[79.86620255486486,6.84553532520944],[79.86622052117053,6.845330185571205],[79.8659510265853,6.845330185571205],[79.86560068362449,6.845348023804118],[79.86515152598243,6.845374781152236],[79.86513355967675,6.845356942920324],[79.86512457652391,6.845330185571205],[79.86515152598243,6.844946663402349],[79.86515152598243,6.844768280893231],[79.86516949228812,6.844456111341863],[79.86435202537956,6.844402596541131]]]}},{"type":"Feature","properties":{"cell_id":19,"area_m2":12144.0,"centroid_lon":79.86569443332347,"centroid_lat":6.844905399600218,"gn_name":"Mount Lavinia","gn_pcode":"LK1131005"},"geometry":{"type":"Polygon","coordinates":[[[79.86561864993017,6.844465030474735],[79.86516949228812,6.844456111341863],[79.86515152598243,6.844768280893231],[79.86515152598243,6.844946663402349],[79.86512457652391,6.845330185571205],[79.86513355967675,6.845356942920324],[79.86515152598243,6.845374781152236],[79.86560068362449,6.845348023804118],[79.8659510265853,6.845330185571205],[79.86622052117053,6.845330185571205],[79.86629238639325,6.84448286873998],[79.86561864993017,6.844465030474735]]]}},{"type":"Feature","properties":{"cell_id":20,"area_m2":4552.0,"centroid_lon":79.86324795208475,"centroid_lat":6.846416526991937,"gn_name":"Mount Lavinia","gn_pcode":"LK1131005"},"geometry":{"type":"Polygon","coordinates":[[[79.86292370407782,6.846632374821585],[79.86294167038349,6.846650213005824],[79.863139299746,6.846685889372301],[79.86353455847102,6.846748323007217],[79.86356150792953,6.846453992942525],[79.86360642369374,6.846159662696297],[79.86292370407782,6.84612398629048],[79.86290573777212,6.846605617543977],[79.86292370407782,6.846632374821585]]]}},{"type":"Feature","properties":{"cell_id":21,"area_m2":3696.0,"centroid_lon":79.86381527956681,"centroid_lat":6.84648446893143,"gn_name":"Mount Lavinia","gn_pcode":"LK1131005"},"geometry":{"type":"Polygon","coordinates":[[[79.86353455847102,6.846748323007217],[79.86403761503013,6.8468018375449295],[79.8640555813358,6.846650213005824],[79.86409151394717,6.846222096400061],[79.86367828891647,6.846168581797334],[79.86360642369374,6.846159662696297],[79.86356150792953,6.846453992942525],[79.86353455847102,6.846748323007217]]]}},{"type":"Feature","properties":{"cell_id":22,"area_m2":26178.5,"centroid_lon":79.86482325042759,"centroid_lat":6.846342699769475,"gn_name":"Mount Lavinia","gn_pcode":"LK1131005"},"geometry":{"type":"Polygon","coordinates":[[[79.86403761503013,6.8468018375449295],[79.86460355365912,6.846864271164674],[79.8650347449955,6.846908866602348],[79.86533118903925,6.846944542949487],[79.86603187496085,6.846998057465194],[79.8660408581137,6.846846432988437],[79.86607679072506,6.84655210298426],[79.8660857738779,6.8464272356549145],[79.86540305426198,6.846355882880618],[79.8653671216506,6.846329125587509],[79.86534915534493,6.84629344919436],[79.8653671216506,6.845829655840719],[79.86534915534493,6.845776141193988],[79.86529525642788,6.845749383868371],[79.86495389661992,6.845749383868371],[79.86432507592103,6.8457226265412565],[79.86363337315227,6.84569586921264],[79.86360642369374,6.846159662696297],[79.86367828891647,6.846168581797334],[79.86409151394717,6.846222096400061],[79.8640555813358,6.846650213005824],[79.86403761503013,6.8468018375449295]]]}},{"type":"Feature","properties":{"cell_id":23,"area_m2":15271.0,"centroid_lon":79.86542913830795,"centroid_lat":6.847533437081517,"gn_name":"Mount Lavinia","gn_pcode":"LK1131005"},"geometry":{"type":"Polygon","coordinates":[[[79.86533118903925,6.846944542949487],[79.8650347449955,6.846908866602348],[79.86501677868982,6.847426173374781],[79.86481016617446,6.847417254297249],[79.86479219986877,6.847577797667313],[79.86473830095173,6.848032670255799],[79.86596899289097,6.848077265584268],[79.86598695919666,6.8475153641409285],[79.86603187496085,6.846998057465194],[79.86533118903925,6.846944542949487]]]}},{"type":"Feature","properties":{"cell_id":24,"area_m2":600.0,"centroid_lon":79.8671560965764,"centroid_lat":6.8361724740451715,"gn_name":"Mount Lavinia","gn_pcode":"LK1131005"},"geometry":{"type":"Polygon","coordinates":[[[79.86733443212285,6.836223680663806],[79.86733443212285,6.83608097205554],[79.86698408916203,6.836134487788633],[79.86694815655066,6.836161245652933],[79.86694815655066,6.836205842090102],[79.86698408916203,6.836241519236842],[79.86716375221884,6.836241519236842],[79.86733443212285,6.836223680663806]]]}},{"type":"Feature","properties":{"cell_id":25,"area_m2":210.0,"centroid_lon":79.86697810039347,"centroid_lat":6.841414677316181,"gn_name":"Mount Lavinia","gn_pcode":"LK1131005"},"geometry":{"type":"Polygon","coordinates":[[[79.86694815655066,6.841655495379295],[79.86703798807908,6.841307647026928],[79.86694815655066,6.841280889450866],[79.86694815655066,6.841655495379295]]]}},{"type":"Feature","properties":{"cell_id":26,"area_m2":1521.5,"centroid_lon":79.86385359570015,"centroid_lat":6.845091849012139,"gn_name":"Mount Lavinia","gn_pcode":"LK1131005"},"geometry":{"type":"Polygon","coordinates":[[[79.86402863187728,6.844919906030232],[79.86383100251477,6.844928825154438],[79.86369625522215,6.844982339896173],[79.86363337315227,6.845026935509703],[79.86363337315227,6.845240994396647],[79.86406456448864,6.8452320752782745],[79.8640555813358,6.845089369361645],[79.8640555813358,6.845026935509703],[79.86402863187728,6.844919906030232]]]}},{"type":"Feature","properties":{"cell_id":27,"area_m2":4000.5,"centroid_lon":79.86443888310751,"centroid_lat":6.845045857663405,"gn_name":"Mount Lavinia","gn_pcode":"LK1131005"},"geometry":{"type":"Polygon","coordinates":[[[79.86402863187728,6.844919906030232],[79.8640555813358,6.845026935509703],[79.8640555813358,6.845089369361645],[79.86406456448864,6.8452320752782745],[79.8642082949341,6.845240994396647],[79.8649269471614,6.845240994396647],[79.86490898085572,6.844955582526056],[79.86489999770286,6.844937744278477],[79.86487304824435,6.844919906030232],[79.8643610085324,6.844928825154438],[79.86433405907387,6.844928825154438],[79.86431609276819,6.844919906030232],[79.86431609276819,6.844893148656613],[79.86431609276819,6.844786119147143],[79.86428914330966,6.844759361766024],[79.86402863187728,6.844750442638652],[79.86402863187728,6.844919906030232]]]}},{"type":"Feature","properties":{"cell_id":28,"area_m2":6228.0,"centroid_lon":79.86331679730719,"centroid_lat":6.845752643324303,"gn_name":"Mount Lavinia","gn_pcode":"LK1131005"},"geometry":{"type":"Polygon","coordinates":[[[79.86360642369374,6.846159662696297],[79.86363337315227,6.84569586921264],[79.86363337315227,6.845339104687746],[79.86304946821758,6.845339104687746],[79.86304048506474,6.8456423545509075],[79.86292370407782,6.84612398629048],[79.86360642369374,6.846159662696297]]]}},{"type":"Feature","properties":{"cell_id":29,"area_m2":7874.0,"centroid_lon":79.86429755508046,"centroid_lat":6.845481523193933,"gn_name":"Mount Lavinia","gn_pcode":"LK1131005"},"geometry":{"type":"Polygon","coordinates":[[[79.86363337315227,6.845339104687746],[79.86363337315227,6.84569586921264],[79.86432507592103,6.8457226265412565],[79.86495389661992,6.845749383868371],[79.8649269471614,6.845240994396647],[79.8642082949341,6.845240994396647],[79.86406456448864,6.8452320752782745],[79.86363337315227,6.845240994396647],[79.86363337315227,6.845339104687746]]]}},{"type":"Feature","properties":{"cell_id":30,"area_m2":2307.0,"centroid_lon":79.86333727241785,"centroid_lat":6.845182605161606,"gn_name":"Mount Lavinia","gn_pcode":"LK1131005"},"geometry":{"type":"Polygon","coordinates":[[[79.86363337315227,6.845339104687746],[79.86363337315227,6.845240994396647],[79.86363337315227,6.845026935509703],[79.86308540082895,6.845026935509703],[79.86304946821758,6.8450358546319094],[79.8630315019119,6.845062611997528],[79.86304946821758,6.845339104687746],[79.86363337315227,6.845339104687746]]]}}]}