{"type":"FeatureCollection","features":[{"type":"Feature","properties":{"node_id":1,"degree":1,"jtype":"culdesac","gn_name":"Mount Lavinia","gn_pcode":"LK1131005","on_boundary":false,"marshall_cul":true,"exclusion_reason":null},"geometry":{"type":"Point","coordinates":[79.86201640564084,6.833173274884289]}},{"type":"Feature","properties":{"node_id":3,"degree":1,"jtype":"culdesac","gn_name":"Mount Lavinia","gn_pcode":"LK1131005","on_boundary":false,"marshall_cul":true,"exclusion_reason":null},"geometry":{"type":"Point","coordinates":[79.86268115895109,6.848469704295054]}},{"type":"Feature","properties":{"node_id":4,"degree":1,"jtype":"culdesac","gn_name":"Mount Lavinia","gn_pcode":"LK1131005","on_boundary":false,"marshall_cul":true,"exclusion_reason":null},"geometry":{"type":"Point","coordinates":[79.86286082200793,6.83382438652378]}},{"type":"Feature","properties":{"node_id":5,"degree":1,"jtype":"culdesac","gn_name":"Mount Lavinia","gn_pcode":"LK1131005","on_boundary":false,"marshall_cul":true,"exclusion_reason":null},"geometry":{"type":"Point","coordinates":[79.86289675461929,6.8349214630338215]}},{"type":"Feature","properties":{"node_id":6,"degree":1,"jtype":"culdesac","gn_name":"Mount Lavinia","gn_pcode":"LK1131005","on_boundary":false,"marshall_cul":true,"exclusion_reason":null},"geometry":{"type":"Point","coordinates":[79.86289675461929,6.844304486057538]}},{"type":"Feature","properties":{"node_id":7,"degree":1,"jtype":"culdesac","gn_name":"Mount Lavinia","gn_pcode":"LK1131005","on_boundary":false,"marshall_cul":true,"exclusion_reason":null},"geometry":{"type":"Point","coordinates":[79.86290573777212,6.84875511406377]}},{"type":"Feature","properties":{"node_id":8,"degree":1,"jtype":"culdesac","gn_name":"Mount Lavinia","gn_pcode":"LK1131005","on_boundary":false,"marshall_cul":true,"exclusion_reason":null},"geometry":{"type":"Point","coordinates":[79.86291472092498,6.843590954661193]}},{"type":"Feature","properties":{"node_id":10,"degree":1,"jtype":"culdesac","gn_name":"Mount Lavinia","gn_pcode":"LK1131005","on_boundary":false,"marshall_cul":true,"exclusion_reason":null},"geometry":{"type":"Point","coordinates":[79.86292370407782,6.847658069332086]}},{"type":"Feature","properties":{"node_id":11,"degree":1,"jtype":"culdesac","gn_name":"Mount Lavinia","gn_pcode":"LK1131005","on_boundary":false,"marshall_cul":true,"exclusion_reason":null},"geometry":{"type":"Point","coordinates":[79.8629865861477,6.8423244338063]}},{"type":"Feature","properties":{"node_id":12,"degree":1,"jtype":"culdesac","gn_name":"Mount Lavinia","gn_pcode":"LK1131005","on_boundary":false,"marshall_cul":true,"exclusion_reason":null},"geometry":{"type":"Point","coordinates":[79.8630315019119,6.841548465144014]}},{"type":"Feature","properties":{"node_id":13,"degree":1,"jtype":"culdesac","gn_name":"Mount Lavinia","gn_pcode":"LK1131005","on_boundary":false,"marshall_cul":true,"exclusion_reason":null},"geometry":{"type":"Point","coordinates":[79.8630315019119,6.847497525989033]}},{"type":"Feature","properties":{"node_id":16,"degree":1,"jtype":"culdesac","gn_name":"Mount Lavinia","gn_pcode":"LK1131005","on_boundary":false,"marshall_cul":true,"exclusion_reason":null},"geometry":{"type":"Point","coordinates":[79.86305845137042,6.843002290456372]}},{"type":"Feature","properties":{"node_id":18,"degree":1,"jtype":"culdesac","gn_name":"Mount Lavinia","gn_pcode":"LK1131005","on_boundary":false,"marshall_cul":true,"exclusion_reason":null},"geometry":{"type":"Point","coordinates":[79.86309438398179,6.841040071198851]}},{"type":"Feature","properties":{"node_id":19,"degree":1,"jtype":"culdesac","gn_name":"Mount Lavinia","gn_pcode":"LK1131005","on_boundary":false,"marshall_cul":true,"exclusion_reason":null},"geometry":{"type":"Point","coordinates":[79.86309438398179,6.844688008742378]}},{"type":"Feature","properties":{"node_id":20,"degree":1,"jtype":"culdesac","gn_name":"Mount Lavinia","gn_pcode":"LK1131005","on_boundary":false,"marshall_cul":true,"exclusion_reason":null},"geometry":{"type":"Point","coordinates":[79.86311235028748,6.847898884245379]}},{"type":"Feature","properties":{"node_id":24,"degree":1,"jtype":"culdesac","gn_name":"Mount Lavinia","gn_pcode":"LK1131005","on_boundary":false,"marshall_cul":true,"exclusion_reason":null},"geometry":{"type":"Point","coordinates":[79.8632920133443,6.8402730196608665]}},{"type":"Feature","properties":{"node_id":25,"degree":1,"jtype":"culdesac","gn_name":"Mount Lavinia","gn_pcode":"LK1131005","on_boundary":false,"marshall_cul":true,"exclusion_reason":null},"geometry":{"type":"Point","coordinates":[79.86334591226135,6.835813393300189]}},{"type":"Feature","properties":{"node_id":26,"degree":1,"jtype":"culdesac","gn_name":"Mount Lavinia","gn_pcode":"LK1131005","on_boundary":false,"marshall_cul":true,"exclusion_reason":null},"geometry":{"type":"Point","coordinates":[79.86336387856703,6.839853816555584]}},{"type":"Feature","properties":{"node_id":27,"degree":1,"jtype":"culdesac","gn_name":"Mount Lavinia","gn_pcode":"LK1131005","on_boundary":false,"marshall_cul":true,"exclusion_reason":null},"geometry":{"type":"Point","coordinates":[79.86338184487272,6.840540595918678]}},{"type":"Feature","properties":{"node_id":28,"degree":1,"jtype":"culdesac","gn_name":"Mount Lavinia","gn_pcode":"LK1131005","on_boundary":false,"marshall_cul":true,"exclusion_reason":null},"geometry":{"type":"Point","coordinates":[79.86338184487272,6.841842798233315]}},{"type":"Feature","properties":{"node_id":30,"degree":1,"jtype":"culdesac","gn_name":"Mount Lavinia","gn_pcode":"LK1131005","on_boundary":false,"marshall_cul":true,"exclusion_reason":null},"geometry":{"type":"Point","coordinates":[79.86343574378976,6.838453497132754]}},{"type":"Feature","properties":{"node_id":31,"degree":1,"jtype":"culdesac","gn_name":"Mount Lavinia","gn_pcode":"LK1131005","on_boundary":false,"marshall_cul":true,"exclusion_reason":null},"geometry":{"type":"Point","coordinates":[79.86346269324828,6.839639755253543]}},{"type":"Feature","properties":{"node_id":36,"degree":1,"jtype":"culdesac","gn_name":"Mount Lavinia","gn_pcode":"LK1131005","on_boundary":true,"marshall_cul":false,"exclusion_reason":"boundary_artifact"},"geometry":{"type":"Point","coordinates":[79.86361540684658,6.829908783984277]}},{"type":"Feature","properties":{"node_id":37,"degree":1,"jtype":"culdesac","gn_name":"Mount Lavinia","gn_pcode":"LK1131005","on_boundary":true,"marshall_cul":false,"exclusion_reason":"boundary_artifact"},"geometry":{"type":"Point","coordinates":[79.86363337315227,6.830247721234532]}},{"type":"Feature","properties":{"node_id":43,"degree":1,"jtype":"culdesac","gn_name":"Mount Lavinia","gn_pcode":"LK1131005","on_boundary":true,"marshall_cul":false,"exclusion_reason":"boundary_artifact"},"geometry":{"type":"Point","coordinates":[79.86366032261078,6.8305063837113105]}},{"type":"Feature","properties":{"node_id":45,"degree":1,"jtype":"culdesac","gn_name":"Mount Lavinia","gn_pcode":"LK1131005","on_boundary":true,"marshall_cul":false,"exclusion_reason":"boundary_artifact"},"geometry":{"type":"Point","coordinates":[79.86368727206931,6.829498491202144]}},{"type":"Feature","properties":{"node_id":47,"degree":1,"jtype":"culdesac","gn_name":"Mount Lavinia","gn_pcode":"LK1131005","on_boundary":false,"marshall_cul":true,"exclusion_reason":null},"geometry":{"type":"Point","coordinates":[79.8637501541392,6.843983397061162]}},{"type":"Feature","properties":{"node_id":48,"degree":1,"jtype":"culdesac","gn_name":"Mount Lavinia","gn_pcode":"LK1131005","on_boundary":false,"marshall_cul":true,"exclusion_reason":null},"geometry":{"type":"Point","coordinates":[79.86375913729204,6.844688008742378]}},{"type":"Feature","properties":{"node_id":51,"degree":1,"jtype":"culdesac","gn_name":"Mount Lavinia","gn_pcode":"LK1131005","on_boundary":false,"marshall_cul":true,"exclusion_reason":null},"geometry":{"type":"Point","coordinates":[79.86381303620908,6.847426173374781]}},{"type":"Feature","properties":{"node_id":52,"degree":1,"jtype":"culdesac","gn_name":"Mount Lavinia","gn_pcode":"LK1131005","on_boundary":false,"marshall_cul":true,"exclusion_reason":null},"geometry":{"type":"Point","coordinates":[79.86391185089035,6.8353406704663096]}},{"type":"Feature","properties":{"node_id":56,"degree":1,"jtype":"culdesac","gn_name":"Mount Lavinia","gn_pcode":"LK1131005","on_boundary":false,"marshall_cul":true,"exclusion_reason":null},"geometry":{"type":"Point","coordinates":[79.86396574980739,6.832388372003242]}},{"type":"Feature","properties":{"node_id":57,"degree":1,"jtype":"culdesac","gn_name":"Mount Lavinia","gn_pcode":"LK1131005","on_boundary":false,"marshall_cul":true,"exclusion_reason":null},"geometry":{"type":"Point","coordinates":[79.86402863187728,6.8381145657000895]}},{"type":"Feature","properties":{"node_id":67,"degree":1,"jtype":"culdesac","gn_name":"Mount Lavinia","gn_pcode":"LK1131005","on_boundary":false,"marshall_cul":true,"exclusion_reason":null},"geometry":{"type":"Point","coordinates":[79.86419032862842,6.847497525989033]}},{"type":"Feature","properties":{"node_id":68,"degree":1,"jtype":"culdesac","gn_name":"Mount Lavinia","gn_pcode":"LK1131005","on_boundary":false,"marshall_cul":true,"exclusion_reason":null},"geometry":{"type":"Point","coordinates":[79.86422626123978,6.8486659235293885]}},{"type":"Feature","properties":{"node_id":73,"degree":1,"jtype":"culdesac","gn_name":"Mount Lavinia","gn_pcode":"LK1131005","on_boundary":false,"marshall_cul":true,"exclusion_reason":null},"geometry":{"type":"Point","coordinates":[79.86439694114377,6.830970191940091]}},{"type":"Feature","properties":{"node_id":83,"degree":1,"jtype":"culdesac","gn_name":"Mount Lavinia","gn_pcode":"LK1131005","on_boundary":true,"marshall_cul":false,"exclusion_reason":"boundary_artifact"},"geometry":{"type":"Point","coordinates":[79.86463050311764,6.830203124241639]}},{"type":"Feature","properties":{"node_id":85,"degree":1,"jtype":"culdesac","gn_name":"Mount Lavinia","gn_pcode":"LK1131005","on_boundary":false,"marshall_cul":true,"exclusion_reason":null},"geometry":{"type":"Point","coordinates":[79.86463948627048,6.84655210298426]}},{"type":"Feature","properties":{"node_id":88,"degree":1,"jtype":"culdesac","gn_name":"Mount Lavinia","gn_pcode":"LK1131005","on_boundary":true,"marshall_cul":false,"exclusion_reason":"boundary_artifact"},"geometry":{"type":"Point","coordinates":[79.86470236834036,6.830122849643956]}},{"type":"Feature","properties":{"node_id":90,"degree":1,"jtype":"culdesac","gn_name":"Mount Lavinia","gn_pcode":"LK1131005","on_boundary":false,"marshall_cul":true,"exclusion_reason":null},"geometry":{"type":"Point","coordinates":[79.86470236834036,6.848871061733535]}},{"type":"Feature","properties":{"node_id":92,"degree":1,"jtype":"culdesac","gn_name":"Mount Lavinia","gn_pcode":"LK1131005","on_boundary":false,"marshall_cul":true,"exclusion_reason":null},"geometry":{"type":"Point","coordinates":[79.86473830095173,6.833146516852739]}},{"type":"Feature","properties":{"node_id":98,"degree":1,"jtype":"culdesac","gn_name":"Mount Lavinia","gn_pcode":"LK1131005","on_boundary":true,"marshall_cul":false,"exclusion_reason":"boundary_artifact"},"geometry":{"type":"Point","coordinates":[79.86479219986877,6.830078252639423]}},{"type":"Feature","properties":{"node_id":100,"degree":1,"jtype":"culdesac","gn_name":"Mount Lavinia","gn_pcode":"LK1131005","on_boundary":false,"marshall_cul":true,"exclusion_reason":null},"geometry":{"type":"Point","coordinates":[79.86481016617446,6.84629344919436]}},{"type":"Feature","properties":{"node_id":101,"degree":1,"jtype":"culdesac","gn_name":"Mount Lavinia","gn_pcode":"LK1131005","on_boundary":false,"marshall_cul":true,"exclusion_reason":null},"geometry":{"type":"Point","coordinates":[79.8648191493273,6.842101454434753]}},{"type":"Feature","properties":{"node_id":103,"degree":1,"jtype":"culdesac","gn_name":"Mount Lavinia","gn_pcode":"LK1131005","on_boundary":false,"marshall_cul":true,"exclusion_reason":null},"geometry":{"type":"Point","coordinates":[79.86486406509151,6.848380513707313]}},{"type":"Feature","properties":{"node_id":105,"degree":1,"jtype":"culdesac","gn_name":"Mount Lavinia","gn_pcode":"LK1131005","on_boundary":false,"marshall_cul":true,"exclusion_reason":null},"geometry":{"type":"Point","coordinates":[79.86490898085572,6.841798202322354]}},{"type":"Feature","properties":{"node_id":109,"degree":1,"jtype":"culdesac","gn_name":"Mount Lavinia","gn_pcode":"LK1131005","on_boundary":true,"marshall_cul":false,"exclusion_reason":"boundary_artifact"},"geometry":{"type":"Point","coordinates":[79.86495389661992,6.830096091441735]}},{"type":"Feature","properties":{"node_id":111,"degree":1,"jtype":"culdesac","gn_name":"Mount Lavinia","gn_pcode":"LK1131005","on_boundary":false,"marshall_cul":true,"exclusion_reason":null},"geometry":{"type":"Point","coordinates":[79.86497186292561,6.835313912556071]}},{"type":"Feature","properties":{"node_id":113,"degree":1,"jtype":"culdesac","gn_name":"Mount Lavinia","gn_pcode":"LK1131005","on_boundary":true,"marshall_cul":false,"exclusion_reason":"boundary_artifact"},"geometry":{"type":"Point","coordinates":[79.86505271130117,6.830113930243383]}},{"type":"Feature","properties":{"node_id":115,"degree":1,"jtype":"culdesac","gn_name":"Mount Lavinia","gn_pcode":"LK1131005","on_boundary":false,"marshall_cul":true,"exclusion_reason":null},"geometry":{"type":"Point","coordinates":[79.86514254282959,6.841548465144014]}},{"type":"Feature","properties":{"node_id":118,"degree":1,"jtype":"culdesac","gn_name":"Mount Lavinia","gn_pcode":"LK1131005","on_boundary":false,"marshall_cul":true,"exclusion_reason":null},"geometry":{"type":"Point","coordinates":[79.86516050913526,6.839461370761901]}},{"type":"Feature","properties":{"node_id":120,"degree":1,"jtype":"culdesac","gn_name":"Mount Lavinia","gn_pcode":"LK1131005","on_boundary":false,"marshall_cul":true,"exclusion_reason":null},"geometry":{"type":"Point","coordinates":[79.86522339120516,6.84370690358567]}},{"type":"Feature","properties":{"node_id":123,"degree":1,"jtype":"culdesac","gn_name":"Mount Lavinia","gn_pcode":"LK1131005","on_boundary":true,"marshall_cul":false,"exclusion_reason":"boundary_artifact"},"geometry":{"type":"Point","coordinates":[79.86528627327505,6.830149607844681]}},{"type":"Feature","properties":{"node_id":124,"degree":1,"jtype":"culdesac","gn_name":"Mount Lavinia","gn_pcode":"LK1131005","on_boundary":false,"marshall_cul":true,"exclusion_reason":null},"geometry":{"type":"Point","coordinates":[79.86528627327505,6.847328063512761]}},{"type":"Feature","properties":{"node_id":127,"degree":1,"jtype":"culdesac","gn_name":"Mount Lavinia","gn_pcode":"LK1131005","on_boundary":false,"marshall_cul":true,"exclusion_reason":null},"geometry":{"type":"Point","coordinates":[79.86542102056767,6.84416177986359]}},{"type":"Feature","properties":{"node_id":128,"degree":1,"jtype":"culdesac","gn_name":"Mount Lavinia","gn_pcode":"LK1131005","on_boundary":false,"marshall_cul":true,"exclusion_reason":null},"geometry":{"type":"Point","coordinates":[79.8654300037205,6.8416911721190585]}},{"type":"Feature","properties":{"node_id":129,"degree":1,"jtype":"culdesac","gn_name":"Mount Lavinia","gn_pcode":"LK1131005","on_boundary":false,"marshall_cul":true,"exclusion_reason":null},"geometry":{"type":"Point","coordinates":[79.86549288579039,6.839630836030543]}},{"type":"Feature","properties":{"node_id":130,"degree":1,"jtype":"culdesac","gn_name":"Mount Lavinia","gn_pcode":"LK1131005","on_boundary":false,"marshall_cul":true,"exclusion_reason":null},"geometry":{"type":"Point","coordinates":[79.86550186894323,6.840549515124691]}},{"type":"Feature","properties":{"node_id":132,"degree":1,"jtype":"culdesac","gn_name":"Mount Lavinia","gn_pcode":"LK1131005","on_boundary":false,"marshall_cul":true,"exclusion_reason":null},"geometry":{"type":"Point","coordinates":[79.86551085209607,6.8439655587772545]}},{"type":"Feature","properties":{"node_id":135,"degree":1,"jtype":"culdesac","gn_name":"Mount Lavinia","gn_pcode":"LK1131005","on_boundary":false,"marshall_cul":true,"exclusion_reason":null},"geometry":{"type":"Point","coordinates":[79.86561864993017,6.830702610324527]}},{"type":"Feature","properties":{"node_id":138,"degree":1,"jtype":"culdesac","gn_name":"Mount Lavinia","gn_pcode":"LK1131005","on_boundary":false,"marshall_cul":true,"exclusion_reason":null},"geometry":{"type":"Point","coordinates":[79.86562763308301,6.845428295843971]}},{"type":"Feature","properties":{"node_id":139,"degree":1,"jtype":"culdesac","gn_name":"Mount Lavinia","gn_pcode":"LK1131005","on_boundary":false,"marshall_cul":true,"exclusion_reason":null},"geometry":{"type":"Point","coordinates":[79.8656455993887,6.8422084845460915]}},{"type":"Feature","properties":{"node_id":140,"degree":1,"jtype":"culdesac","gn_name":"Mount Lavinia","gn_pcode":"LK1131005","on_boundary":false,"marshall_cul":true,"exclusion_reason":null},"geometry":{"type":"Point","coordinates":[79.8656455993887,6.843590954661193]}},{"type":"Feature","properties":{"node_id":141,"degree":1,"jtype":"culdesac","gn_name":"Mount Lavinia","gn_pcode":"LK1131005","on_boundary":true,"marshall_cul":false,"exclusion_reason":"boundary_artifact"},"geometry":{"type":"Point","coordinates":[79.86565458254154,6.849415123499897]}},{"type":"Feature","properties":{"node_id":142,"degree":1,"jtype":"culdesac","gn_name":"Mount Lavinia","gn_pcode":"LK1131005","on_boundary":true,"marshall_cul":false,"exclusion_reason":"boundary_artifact"},"geometry":{"type":"Point","coordinates":[79.86567254884721,6.830194204842561]}},{"type":"Feature","properties":{"node_id":144,"degree":1,"jtype":"culdesac","gn_name":"Mount Lavinia","gn_pcode":"LK1131005","on_boundary":false,"marshall_cul":true,"exclusion_reason":null},"geometry":{"type":"Point","coordinates":[79.86569949830574,6.84195874758232]}},{"type":"Feature","properties":{"node_id":147,"degree":1,"jtype":"culdesac","gn_name":"Mount Lavinia","gn_pcode":"LK1131005","on_boundary":false,"marshall_cul":true,"exclusion_reason":null},"geometry":{"type":"Point","coordinates":[79.8657803466813,6.84481287652676]}},{"type":"Feature","properties":{"node_id":148,"degree":1,"jtype":"culdesac","gn_name":"Mount Lavinia","gn_pcode":"LK1131005","on_boundary":false,"marshall_cul":true,"exclusion_reason":null},"geometry":{"type":"Point","coordinates":[79.86591509397392,6.8330305653653856]}},{"type":"Feature","properties":{"node_id":150,"degree":1,"jtype":"culdesac","gn_name":"Mount Lavinia","gn_pcode":"LK1131005","on_boundary":true,"marshall_cul":false,"exclusion_reason":"boundary_artifact"},"geometry":{"type":"Point","coordinates":[79.86596000973813,6.849424042540079]}},{"type":"Feature","properties":{"node_id":154,"degree":1,"jtype":"culdesac","gn_name":"Mount Lavinia","gn_pcode":"LK1131005","on_boundary":true,"marshall_cul":false,"exclusion_reason":"boundary_artifact"},"geometry":{"type":"Point","coordinates":[79.86601390865518,6.8475153641409285]}},{"type":"Feature","properties":{"node_id":155,"degree":1,"jtype":"culdesac","gn_name":"Mount Lavinia","gn_pcode":"LK1131005","on_boundary":false,"marshall_cul":true,"exclusion_reason":null},"geometry":{"type":"Point","coordinates":[79.86602289180802,6.839220551592518]}},{"type":"Feature","properties":{"node_id":156,"degree":1,"jtype":"culdesac","gn_name":"Mount Lavinia","gn_pcode":"LK1131005","on_boundary":false,"marshall_cul":true,"exclusion_reason":null},"geometry":{"type":"Point","coordinates":[79.86603187496085,6.838185919705895]}},{"type":"Feature","properties":{"node_id":158,"degree":1,"jtype":"culdesac","gn_name":"Mount Lavinia","gn_pcode":"LK1131005","on_boundary":true,"marshall_cul":false,"exclusion_reason":"boundary_artifact"},"geometry":{"type":"Point","coordinates":[79.86605882441938,6.830283398825851]}},{"type":"Feature","properties":{"node_id":161,"degree":1,"jtype":"culdesac","gn_name":"Mount Lavinia","gn_pcode":"LK1131005","on_boundary":false,"marshall_cul":true,"exclusion_reason":null},"geometry":{"type":"Point","coordinates":[79.86611272333644,6.83116641836303]}},{"type":"Feature","properties":{"node_id":162,"degree":1,"jtype":"culdesac","gn_name":"Mount Lavinia","gn_pcode":"LK1131005","on_boundary":false,"marshall_cul":true,"exclusion_reason":null},"geometry":{"type":"Point","coordinates":[79.86611272333644,6.832156468632737]}},{"type":"Feature","properties":{"node_id":164,"degree":1,"jtype":"culdesac","gn_name":"Mount Lavinia","gn_pcode":"LK1131005","on_boundary":true,"marshall_cul":false,"exclusion_reason":"boundary_artifact"},"geometry":{"type":"Point","coordinates":[79.86615763910065,6.830327995811259]}},{"type":"Feature","properties":{"node_id":167,"degree":1,"jtype":"culdesac","gn_name":"Mount Lavinia","gn_pcode":"LK1131005","on_boundary":true,"marshall_cul":false,"exclusion_reason":"boundary_artifact"},"geometry":{"type":"Point","coordinates":[79.86620255486486,6.845579920771301]}},{"type":"Feature","properties":{"node_id":173,"degree":1,"jtype":"culdesac","gn_name":"Mount Lavinia","gn_pcode":"LK1131005","on_boundary":false,"marshall_cul":true,"exclusion_reason":null},"geometry":{"type":"Point","coordinates":[79.86636425161599,6.835608249486304]}},{"type":"Feature","properties":{"node_id":175,"degree":1,"jtype":"culdesac","gn_name":"Mount Lavinia","gn_pcode":"LK1131005","on_boundary":false,"marshall_cul":true,"exclusion_reason":null},"geometry":{"type":"Point","coordinates":[79.86637323476883,6.842217403720952]}},{"type":"Feature","properties":{"node_id":179,"degree":1,"jtype":"culdesac","gn_name":"Mount Lavinia","gn_pcode":"LK1131005","on_boundary":true,"marshall_cul":false,"exclusion_reason":"boundary_artifact"},"geometry":{"type":"Point","coordinates":[79.86649001575576,6.830515303104567]}},{"type":"Feature","properties":{"node_id":183,"degree":1,"jtype":"culdesac","gn_name":"Mount Lavinia","gn_pcode":"LK1131005","on_boundary":false,"marshall_cul":true,"exclusion_reason":null},"geometry":{"type":"Point","coordinates":[79.86663374620122,6.842235242070177]}},{"type":"Feature","properties":{"node_id":184,"degree":1,"jtype":"culdesac","gn_name":"Mount Lavinia","gn_pcode":"LK1131005","on_boundary":false,"marshall_cul":true,"exclusion_reason":null},"geometry":{"type":"Point","coordinates":[79.8666696788126,6.830925595014559]}},{"type":"Feature","properties":{"node_id":187,"degree":1,"jtype":"culdesac","gn_name":"Mount Lavinia","gn_pcode":"LK1131005","on_boundary":false,"marshall_cul":true,"exclusion_reason":null},"geometry":{"type":"Point","coordinates":[79.8667145945768,6.8355636529933745]}},{"type":"Feature","properties":{"node_id":192,"degree":1,"jtype":"culdesac","gn_name":"Mount Lavinia","gn_pcode":"LK1131005","on_boundary":true,"marshall_cul":false,"exclusion_reason":"boundary_artifact"},"geometry":{"type":"Point","coordinates":[79.86679544295237,6.8306401745926895]}},{"type":"Feature","properties":{"node_id":199,"degree":1,"jtype":"culdesac","gn_name":"Mount Lavinia","gn_pcode":"LK1131005","on_boundary":true,"marshall_cul":false,"exclusion_reason":"boundary_artifact"},"geometry":{"type":"Point","coordinates":[79.86696612285635,6.830702610324527]}},{"type":"Feature","properties":{"node_id":201,"degree":1,"jtype":"culdesac","gn_name":"Mount Lavinia","gn_pcode":"LK1131005","on_boundary":true,"marshall_cul":false,"exclusion_reason":"boundary_artifact"},"geometry":{"type":"Point","coordinates":[79.86702900492624,6.83072936849282]}},{"type":"Feature","properties":{"node_id":203,"degree":1,"jtype":"culdesac","gn_name":"Mount Lavinia","gn_pcode":"LK1131005","on_boundary":true,"marshall_cul":false,"exclusion_reason":"boundary_artifact"},"geometry":{"type":"Point","coordinates":[79.86709188699612,6.8413254854101355]}},{"type":"Feature","properties":{"node_id":205,"degree":1,"jtype":"culdesac","gn_name":"Mount Lavinia","gn_pcode":"LK1131005","on_boundary":false,"marshall_cul":true,"exclusion_reason":null},"geometry":{"type":"Point","coordinates":[79.8672805332058,6.834020611775497]}},{"type":"Feature","properties":{"node_id":208,"degree":1,"jtype":"culdesac","gn_name":"Mount Lavinia","gn_pcode":"LK1131005","on_boundary":true,"marshall_cul":false,"exclusion_reason":"boundary_artifact"},"geometry":{"type":"Point","coordinates":[79.86734341527568,6.835090929912502]}},{"type":"Feature","properties":{"node_id":209,"degree":1,"jtype":"culdesac","gn_name":"Mount Lavinia","gn_pcode":"LK1131005","on_boundary":true,"marshall_cul":false,"exclusion_reason":"boundary_artifact"},"geometry":{"type":"Point","coordinates":[79.86737934788705,6.832566759134794]}},{"type":"Feature","properties":{"node_id":211,"degree":1,"jtype":"culdesac","gn_name":"Mount Lavinia","gn_pcode":"LK1131005","on_boundary":true,"marshall_cul":false,"exclusion_reason":"boundary_artifact"},"geometry":{"type":"Point","coordinates":[79.86745121310977,6.837338590198923]}},{"type":"Feature","properties":{"node_id":214,"degree":1,"jtype":"culdesac","gn_name":"Mount Lavinia","gn_pcode":"LK1131005","on_boundary":true,"marshall_cul":false,"exclusion_reason":"boundary_artifact"},"geometry":{"type":"Point","coordinates":[79.86751409517966,6.838970813066413]}},{"type":"Feature","properties":{"node_id":215,"degree":1,"jtype":"culdesac","gn_name":"Mount Lavinia","gn_pcode":"LK1131005","on_boundary":true,"marshall_cul":false,"exclusion_reason":"boundary_artifact"},"geometry":{"type":"Point","coordinates":[79.86765782562512,6.830836401151021]}}]}