{"type":"FeatureCollection","features":[{"type":"Feature","properties":{"node_id":35,"degree":4,"jtype":"four_way","gn_name":"Mount Lavinia","gn_pcode":"LK1131005","on_boundary":false,"marshall_cul":false,"exclusion_reason":null},"geometry":{"type":"Point","coordinates":[79.86360642369374,6.846159662696297]}},{"type":"Feature","properties":{"node_id":62,"degree":4,"jtype":"four_way","gn_name":"Mount Lavinia","gn_pcode":"LK1131005","on_boundary":false,"marshall_cul":false,"exclusion_reason":null},"geometry":{"type":"Point","coordinates":[79.8640555813358,6.848639166365822]}},{"type":"Feature","properties":{"node_id":80,"degree":4,"jtype":"four_way","gn_name":"Mount Lavinia","gn_pcode":"LK1131005","on_boundary":false,"marshall_cul":false,"exclusion_reason":null},"geometry":{"type":"Point","coordinates":[79.86458558735343,6.840710060804428]}},{"type":"Feature","properties":{"node_id":102,"degree":4,"jtype":"four_way","gn_name":"Mount Lavinia","gn_pcode":"LK1131005","on_boundary":false,"marshall_cul":false,"exclusion_reason":null},"geometry":{"type":"Point","coordinates":[79.86483711563298,6.8386408012423905]}},{"type":"Feature","properties":{"node_id":133,"degree":4,"jtype":"four_way","gn_name":"Mount Lavinia","gn_pcode":"LK1131005","on_boundary":false,"marshall_cul":false,"exclusion_reason":null},"geometry":{"type":"Point","coordinates":[79.86558271731882,6.8401570699025935]}},{"type":"Feature","properties":{"node_id":145,"degree":4,"jtype":"four_way","gn_name":"Mount Lavinia","gn_pcode":"LK1131005","on_boundary":false,"marshall_cul":false,"exclusion_reason":null},"geometry":{"type":"Point","coordinates":[79.86571746461142,6.835269316035679]}},{"type":"Feature","properties":{"node_id":174,"degree":4,"jtype":"four_way","gn_name":"Mount Lavinia","gn_pcode":"LK1131005","on_boundary":false,"marshall_cul":false,"exclusion_reason":null},"geometry":{"type":"Point","coordinates":[79.86637323476883,6.834136563022746]}},{"type":"Feature","properties":{"node_id":185,"degree":4,"jtype":"four_way","gn_name":"Mount Lavinia","gn_pcode":"LK1131005","on_boundary":false,"marshall_cul":false,"exclusion_reason":null},"geometry":{"type":"Point","coordinates":[79.86668764511828,6.838899459177833]}},{"type":"Feature","properties":{"node_id":197,"degree":4,"jtype":"four_way","gn_name":"Mount Lavinia","gn_pcode":"LK1131005","on_boundary":false,"marshall_cul":false,"exclusion_reason":null},"geometry":{"type":"Point","coordinates":[79.86694815655066,6.841280889450866]}},{"type":"Feature","properties":{"node_id":202,"degree":4,"jtype":"four_way","gn_name":"Mount Lavinia","gn_pcode":"LK1131005","on_boundary":false,"marshall_cul":false,"exclusion_reason":null},"geometry":{"type":"Point","coordinates":[79.86703798807908,6.841307647026928]}},{"type":"Feature","properties":{"node_id":206,"degree":4,"jtype":"four_way","gn_name":"Mount Lavinia","gn_pcode":"LK1131005","on_boundary":false,"marshall_cul":false,"exclusion_reason":null},"geometry":{"type":"Point","coordinates":[79.86731646581715,6.835090929912502]}},{"type":"Feature","properties":{"node_id":207,"degree":4,"jtype":"four_way","gn_name":"Mount Lavinia","gn_pcode":"LK1131005","on_boundary":false,"marshall_cul":false,"exclusion_reason":null},"geometry":{"type":"Point","coordinates":[79.86733443212285,6.832557839779798]}},{"type":"Feature","properties":{"node_id":213,"degree":4,"jtype":"four_way","gn_name":"Mount Lavinia","gn_pcode":"LK1131005","on_boundary":false,"marshall_cul":false,"exclusion_reason":null},"geometry":{"type":"Point","coordinates":[79.86748714572114,6.838979732301737]}},{"type":"Feature","properties":{"node_id":6,"degree":4,"jtype":"four_way","gn_name":"Kawdana West","gn_pcode":"LK1131010","on_boundary":false,"marshall_cul":false,"exclusion_reason":null},"geometry":{"type":"Point","coordinates":[79.8662564537819,6.845579920771301]}},{"type":"Feature","properties":{"node_id":72,"degree":4,"jtype":"four_way","gn_name":"Kawdana West","gn_pcode":"LK1131010","on_boundary":false,"marshall_cul":false,"exclusion_reason":null},"geometry":{"type":"Point","coordinates":[79.86925682683085,6.844250971239807]}},{"type":"Feature","properties":{"node_id":124,"degree":4,"jtype":"four_way","gn_name":"Kawdana West","gn_pcode":"LK1131010","on_boundary":false,"marshall_cul":false,"exclusion_reason":null},"geometry":{"type":"Point","coordinates":[79.87253567761789,6.845142884085382]}},{"type":"Feature","properties":{"node_id":48,"degree":4,"jtype":"four_way","gn_name":"Watarappala","gn_pcode":"LK1131015","on_boundary":false,"marshall_cul":false,"exclusion_reason":null},"geometry":{"type":"Point","coordinates":[79.8695712371803,6.842395787183205]}},{"type":"Feature","properties":{"node_id":77,"degree":4,"jtype":"four_way","gn_name":"Watarappala","gn_pcode":"LK1131015","on_boundary":false,"marshall_cul":false,"exclusion_reason":null},"geometry":{"type":"Point","coordinates":[79.87051446822862,6.842850664710306]}},{"type":"Feature","properties":{"node_id":98,"degree":4,"jtype":"four_way","gn_name":"Watarappala","gn_pcode":"LK1131015","on_boundary":false,"marshall_cul":false,"exclusion_reason":null},"geometry":{"type":"Point","coordinates":[79.87123312045593,6.839943008736454]}},{"type":"Feature","properties":{"node_id":99,"degree":4,"jtype":"four_way","gn_name":"Watarappala","gn_pcode":"LK1131015","on_boundary":false,"marshall_cul":false,"exclusion_reason":null},"geometry":{"type":"Point","coordinates":[79.8712510867616,6.840817091227604]}},{"type":"Feature","properties":{"node_id":101,"degree":4,"jtype":"four_way","gn_name":"Watarappala","gn_pcode":"LK1131015","on_boundary":false,"marshall_cul":false,"exclusion_reason":null},"geometry":{"type":"Point","coordinates":[79.87134091829002,6.842074696903171]}},{"type":"Feature","properties":{"node_id":122,"degree":4,"jtype":"four_way","gn_name":"Watarappala","gn_pcode":"LK1131015","on_boundary":false,"marshall_cul":false,"exclusion_reason":null},"geometry":{"type":"Point","coordinates":[79.8718619411548,6.837195881923592]}},{"type":"Feature","properties":{"node_id":127,"degree":4,"jtype":"four_way","gn_name":"Watarappala","gn_pcode":"LK1131015","on_boundary":false,"marshall_cul":false,"exclusion_reason":null},"geometry":{"type":"Point","coordinates":[79.87203262105878,6.838774589847173]}},{"type":"Feature","properties":{"node_id":149,"degree":4,"jtype":"four_way","gn_name":"Watarappala","gn_pcode":"LK1131015","on_boundary":false,"marshall_cul":false,"exclusion_reason":null},"geometry":{"type":"Point","coordinates":[79.87280517220312,6.8414325156953915]}},{"type":"Feature","properties":{"node_id":4,"degree":4,"jtype":"four_way","gn_name":"Wathumulla","gn_pcode":"LK1131020","on_boundary":false,"marshall_cul":false,"exclusion_reason":null},"geometry":{"type":"Point","coordinates":[79.86738833103989,6.835099849220242]}},{"type":"Feature","properties":{"node_id":14,"degree":4,"jtype":"four_way","gn_name":"Wathumulla","gn_pcode":"LK1131020","on_boundary":false,"marshall_cul":false,"exclusion_reason":null},"geometry":{"type":"Point","coordinates":[79.86783748868196,6.830515303104567]}},{"type":"Feature","properties":{"node_id":102,"degree":4,"jtype":"four_way","gn_name":"Wathumulla","gn_pcode":"LK1131020","on_boundary":false,"marshall_cul":false,"exclusion_reason":null},"geometry":{"type":"Point","coordinates":[79.87147566558264,6.831362644705463]}},{"type":"Feature","properties":{"node_id":104,"degree":4,"jtype":"four_way","gn_name":"Wathumulla","gn_pcode":"LK1131020","on_boundary":false,"marshall_cul":false,"exclusion_reason":null},"geometry":{"type":"Point","coordinates":[79.87153854765252,6.828499516000392]}},{"type":"Feature","properties":{"node_id":8,"degree":4,"jtype":"four_way","gn_name":"Wedikanda","gn_pcode":"LK1131045","on_boundary":false,"marshall_cul":false,"exclusion_reason":null},"geometry":{"type":"Point","coordinates":[79.86371422152783,6.829400377658629]}},{"type":"Feature","properties":{"node_id":16,"degree":4,"jtype":"four_way","gn_name":"Wedikanda","gn_pcode":"LK1131045","on_boundary":false,"marshall_cul":false,"exclusion_reason":null},"geometry":{"type":"Point","coordinates":[79.86427117700399,6.826510478807979]}},{"type":"Feature","properties":{"node_id":17,"degree":4,"jtype":"four_way","gn_name":"Wedikanda","gn_pcode":"LK1131045","on_boundary":false,"marshall_cul":false,"exclusion_reason":null},"geometry":{"type":"Point","coordinates":[79.86449575582502,6.8252260737172925]}},{"type":"Feature","properties":{"node_id":54,"degree":4,"jtype":"four_way","gn_name":"Wedikanda","gn_pcode":"LK1131045","on_boundary":false,"marshall_cul":false,"exclusion_reason":null},"geometry":{"type":"Point","coordinates":[79.86574441406995,6.820570076379536]}},{"type":"Feature","properties":{"node_id":62,"degree":4,"jtype":"four_way","gn_name":"Wedikanda","gn_pcode":"LK1131045","on_boundary":false,"marshall_cul":false,"exclusion_reason":null},"geometry":{"type":"Point","coordinates":[79.86603187496085,6.819785152829647]}},{"type":"Feature","properties":{"node_id":104,"degree":4,"jtype":"four_way","gn_name":"Wedikanda","gn_pcode":"LK1131045","on_boundary":false,"marshall_cul":false,"exclusion_reason":null},"geometry":{"type":"Point","coordinates":[79.8670649375376,6.823022954182711]}},{"type":"Feature","properties":{"node_id":132,"degree":4,"jtype":"four_way","gn_name":"Wedikanda","gn_pcode":"LK1131045","on_boundary":false,"marshall_cul":false,"exclusion_reason":null},"geometry":{"type":"Point","coordinates":[79.86785545498763,6.828445999412864]}},{"type":"Feature","properties":{"node_id":181,"degree":4,"jtype":"four_way","gn_name":"Wedikanda","gn_pcode":"LK1131045","on_boundary":true,"marshall_cul":false,"exclusion_reason":null},"geometry":{"type":"Point","coordinates":[79.86904123116267,6.82719727733803]}}]}