{"type": "FeatureCollection", "features": [{"id": "4", "type": "Feature", "properties": {"node_id": "J0005", "jtype": "three_way", "gn_name": "Mount Lavinia"}, "geometry": {"type": "Point", "coordinates": [79.865045, 6.830105]}}, {"id": "9", "type": "Feature", "properties": {"node_id": "J0010", "jtype": "three_way", "gn_name": "Mount Lavinia"}, "geometry": {"type": "Point", "coordinates": [79.86567749751836, 6.830220599538519]}}, {"id": "11", "type": "Feature", "properties": {"node_id": "J0012", "jtype": "three_way", "gn_name": "Mount Lavinia"}, "geometry": {"type": "Point", "coordinates": [79.866089, 6.830294]}}, {"id": "13", "type": "Feature", "properties": {"node_id": "J0014", "jtype": "three_way", "gn_name": "Mount Lavinia"}, "geometry": {"type": "Point", "coordinates": [79.86623150225557, 6.8303714013730366]}}, {"id": "15", "type": "Feature", "properties": {"node_id": "J0016", "jtype": "three_way", "gn_name": "Mount Lavinia"}, "geometry": {"type": "Point", "coordinates": [79.86365110011903, 6.83050830235259]}}, {"id": "21", "type": "Feature", "properties": {"node_id": "J0022", "jtype": "three_way", "gn_name": "Mount Lavinia"}, "geometry": {"type": "Point", "coordinates": [79.86696370187639, 6.830713100350505]}}, {"id": "28", "type": "Feature", "properties": {"node_id": "J0029", "jtype": "three_way", "gn_name": "Mount Lavinia"}, "geometry": {"type": "Point", "coordinates": [79.86515950065156, 6.831430400265595]}}, {"id": "29", "type": "Feature", "properties": {"node_id": "J0030", "jtype": "three_way", "gn_name": "Mount Lavinia"}, "geometry": {"type": "Point", "coordinates": [79.86473960166062, 6.831464299254397]}}, {"id": "30", "type": "Feature", "properties": {"node_id": "J0031", "jtype": "three_way", "gn_name": "Mount Lavinia"}, "geometry": {"type": "Point", "coordinates": [79.86612330095909, 6.83154980004597]}}, {"id": "31", "type": "Feature", "properties": {"node_id": "J0032", "jtype": "three_way", "gn_name": "Mount Lavinia"}, "geometry": {"type": "Point", "coordinates": [79.8637393014058, 6.831578899847369]}}, {"id": "32", "type": "Feature", "properties": {"node_id": "J0033", "jtype": "three_way", "gn_name": "Mount Lavinia"}, "geometry": {"type": "Point", "coordinates": [79.86676379997911, 6.831580499998996]}}, {"id": "33", "type": "Feature", "properties": {"node_id": "J0034", "jtype": "four_way", "gn_name": "Mount Lavinia"}, "geometry": {"type": "Point", "coordinates": [79.867472, 6.831598]}}, {"id": "34", "type": "Feature", "properties": {"node_id": "J0035", "jtype": "three_way", "gn_name": "Mount Lavinia"}, "geometry": {"type": "Point", "coordinates": [79.86747399986488, 6.831599800687921]}}, {"id": "36", "type": "Feature", "properties": {"node_id": "J0037", "jtype": "three_way", "gn_name": "Mount Lavinia"}, "geometry": {"type": "Point", "coordinates": [79.86435859803343, 6.831660998020286]}}, {"id": "39", "type": "Feature", "properties": {"node_id": "J0040", "jtype": "three_way", "gn_name": "Mount Lavinia"}, "geometry": {"type": "Point", "coordinates": [79.86467999790078, 6.832389700159115]}}, {"id": "40", "type": "Feature", "properties": {"node_id": "J0041", "jtype": "three_way", "gn_name": "Mount Lavinia"}, "geometry": {"type": "Point", "coordinates": [79.86442009860946, 6.832409399929283]}}, {"id": "41", "type": "Feature", "properties": {"node_id": "J0042", "jtype": "three_way", "gn_name": "Mount Lavinia"}, "geometry": {"type": "Point", "coordinates": [79.86561530034324, 6.832441600019073]}}, {"id": "42", "type": "Feature", "properties": {"node_id": "J0043", "jtype": "three_way", "gn_name": "Mount Lavinia"}, "geometry": {"type": "Point", "coordinates": [79.86608320097106, 6.832467600053371]}}, {"id": "43", "type": "Feature", "properties": {"node_id": "J0044", "jtype": "three_way", "gn_name": "Mount Lavinia"}, "geometry": {"type": "Point", "coordinates": [79.86656099734292, 6.832525499650061]}}, {"id": "44", "type": "Feature", "properties": {"node_id": "J0045", "jtype": "three_way", "gn_name": "Mount Lavinia"}, "geometry": {"type": "Point", "coordinates": [79.8667482025266, 6.8325310001312785]}}, {"id": "45", "type": "Feature", "properties": {"node_id": "J0046", "jtype": "four_way", "gn_name": "Mount Lavinia"}, "geometry": {"type": "Point", "coordinates": [79.86733520204976, 6.832561500668088]}}, {"id": "48", "type": "Feature", "properties": {"node_id": "J0049", "jtype": "three_way", "gn_name": "Mount Lavinia"}, "geometry": {"type": "Point", "coordinates": [79.8642949000143, 6.83311449991944]}}, {"id": "52", "type": "Feature", "properties": {"node_id": "J0053", "jtype": "three_way", "gn_name": "Mount Lavinia"}, "geometry": {"type": "Point", "coordinates": [79.86257870000001, 6.8332384]}}, {"id": "53", "type": "Feature", "properties": {"node_id": "J0054", "jtype": "three_way", "gn_name": "Mount Lavinia"}, "geometry": {"type": "Point", "coordinates": [79.86379509838972, 6.833376299935276]}}, {"id": "54", "type": "Feature", "properties": {"node_id": "J0055", "jtype": "three_way", "gn_name": "Mount Lavinia"}, "geometry": {"type": "Point", "coordinates": [79.86423349849831, 6.833460399711924]}}, {"id": "56", "type": "Feature", "properties": {"node_id": "J0057", "jtype": "three_way", "gn_name": "Mount Lavinia"}, "geometry": {"type": "Point", "coordinates": [79.86731174291111, 6.834063961259677]}}, {"id": "59", "type": "Feature", "properties": {"node_id": "J0060", "jtype": "four_way", "gn_name": "Mount Lavinia"}, "geometry": {"type": "Point", "coordinates": [79.86637609801458, 6.834132699812818]}}, {"id": "60", "type": "Feature", "properties": {"node_id": "J0061", "jtype": "three_way", "gn_name": "Mount Lavinia"}, "geometry": {"type": "Point", "coordinates": [79.86574620009213, 6.8342561008564395]}}, {"id": "62", "type": "Feature", "properties": {"node_id": "J0063", "jtype": "three_way", "gn_name": "Mount Lavinia"}, "geometry": {"type": "Point", "coordinates": [79.86305379925993, 6.8349451998958735]}}, {"id": "63", "type": "Feature", "properties": {"node_id": "J0064", "jtype": "three_way", "gn_name": "Mount Lavinia"}, "geometry": {"type": "Point", "coordinates": [79.86366949996581, 6.835030099995403]}}, {"id": "64", "type": "Feature", "properties": {"node_id": "J0065", "jtype": "three_way", "gn_name": "Mount Lavinia"}, "geometry": {"type": "Point", "coordinates": [79.86534969979782, 6.835043999884212]}}, {"id": "65", "type": "Feature", "properties": {"node_id": "J0066", "jtype": "three_way", "gn_name": "Mount Lavinia"}, "geometry": {"type": "Point", "coordinates": [79.86394509797111, 6.835064299748227]}}, {"id": "66", "type": "Feature", "properties": {"node_id": "J0067", "jtype": "four_way", "gn_name": "Mount Lavinia"}, "geometry": {"type": "Point", "coordinates": [79.86731919995546, 6.835089601498817]}}, {"id": "68", "type": "Feature", "properties": {"node_id": "J0069", "jtype": "three_way", "gn_name": "Mount Lavinia"}, "geometry": {"type": "Point", "coordinates": [79.86675459737599, 6.8351135006454635]}}, {"id": "69", "type": "Feature", "properties": {"node_id": "J0070", "jtype": "three_way", "gn_name": "Mount Lavinia"}, "geometry": {"type": "Point", "coordinates": [79.8665306, 6.8351686]}}, {"id": "70", "type": "Feature", "properties": {"node_id": "J0071", "jtype": "three_way", "gn_name": "Mount Lavinia"}, "geometry": {"type": "Point", "coordinates": [79.86630710012352, 6.835198999983195]}}, {"id": "71", "type": "Feature", "properties": {"node_id": "J0072", "jtype": "three_way", "gn_name": "Mount Lavinia"}, "geometry": {"type": "Point", "coordinates": [79.8652746, 6.835214299999998]}}, {"id": "72", "type": "Feature", "properties": {"node_id": "J0073", "jtype": "four_way", "gn_name": "Mount Lavinia"}, "geometry": {"type": "Point", "coordinates": [79.8657208, 6.835270799999999]}}, {"id": "75", "type": "Feature", "properties": {"node_id": "J0076", "jtype": "three_way", "gn_name": "Mount Lavinia"}, "geometry": {"type": "Point", "coordinates": [79.86524299987362, 6.835410700784827]}}, {"id": "79", "type": "Feature", "properties": {"node_id": "J0080", "jtype": "three_way", "gn_name": "Mount Lavinia"}, "geometry": {"type": "Point", "coordinates": [79.86514510040459, 6.836018797486865]}}, {"id": "83", "type": "Feature", "properties": {"node_id": "J0084", "jtype": "three_way", "gn_name": "Mount Lavinia"}, "geometry": {"type": "Point", "coordinates": [79.8674111001678, 6.837340102205353]}}, {"id": "84", "type": "Feature", "properties": {"node_id": "J0085", "jtype": "three_way", "gn_name": "Mount Lavinia"}, "geometry": {"type": "Point", "coordinates": [79.86491939987634, 6.838027701334558]}}, {"id": "85", "type": "Feature", "properties": {"node_id": "J0086", "jtype": "three_way", "gn_name": "Mount Lavinia"}, "geometry": {"type": "Point", "coordinates": [79.86491220003319, 6.838105399641925]}}, {"id": "89", "type": "Feature", "properties": {"node_id": "J0090", "jtype": "three_way", "gn_name": "Mount Lavinia"}, "geometry": {"type": "Point", "coordinates": [79.86392289819807, 6.838518599770716]}}, {"id": "90", "type": "Feature", "properties": {"node_id": "J0091", "jtype": "four_way", "gn_name": "Mount Lavinia"}, "geometry": {"type": "Point", "coordinates": [79.86484020048503, 6.83863960006242]}}, {"id": "91", "type": "Feature", "properties": {"node_id": "J0092", "jtype": "three_way", "gn_name": "Mount Lavinia"}, "geometry": {"type": "Point", "coordinates": [79.86668880153883, 6.8388997001627025]}}, {"id": "93", "type": "Feature", "properties": {"node_id": "J0094", "jtype": "four_way", "gn_name": "Mount Lavinia"}, "geometry": {"type": "Point", "coordinates": [79.86748509976599, 6.838976297771773]}}, {"id": "94", "type": "Feature", "properties": {"node_id": "J0095", "jtype": "three_way", "gn_name": "Mount Lavinia"}, "geometry": {"type": "Point", "coordinates": [79.86477959989817, 6.839092401849832]}}, {"id": "96", "type": "Feature", "properties": {"node_id": "J0097", "jtype": "three_way", "gn_name": "Mount Lavinia"}, "geometry": {"type": "Point", "coordinates": [79.86476780016294, 6.8393067970399315]}}, {"id": "98", "type": "Feature", "properties": {"node_id": "J0099", "jtype": "three_way", "gn_name": "Mount Lavinia"}, "geometry": {"type": "Point", "coordinates": [79.86678170015509, 6.839333300829636]}}, {"id": "102", "type": "Feature", "properties": {"node_id": "J0103", "jtype": "three_way", "gn_name": "Mount Lavinia"}, "geometry": {"type": "Point", "coordinates": [79.86469929965452, 6.83978910166777]}}, {"id": "104", "type": "Feature", "properties": {"node_id": "J0105", "jtype": "three_way", "gn_name": "Mount Lavinia"}, "geometry": {"type": "Point", "coordinates": [79.86465599973774, 6.840045002058461]}}, {"id": "105", "type": "Feature", "properties": {"node_id": "J0106", "jtype": "four_way", "gn_name": "Mount Lavinia"}, "geometry": {"type": "Point", "coordinates": [79.8655865982846, 6.840153501972455]}}, {"id": "106", "type": "Feature", "properties": {"node_id": "J0107", "jtype": "three_way", "gn_name": "Mount Lavinia"}, "geometry": {"type": "Point", "coordinates": [79.86463600025512, 6.840201997997313]}}, {"id": "108", "type": "Feature", "properties": {"node_id": "J0109", "jtype": "three_way", "gn_name": "Mount Lavinia"}, "geometry": {"type": "Point", "coordinates": [79.86690979987858, 6.840286798140343]}}, {"id": "109", "type": "Feature", "properties": {"node_id": "J0110", "jtype": "three_way", "gn_name": "Mount Lavinia"}, "geometry": {"type": "Point", "coordinates": [79.86460440029211, 6.840449397712812]}}, {"id": "112", "type": "Feature", "properties": {"node_id": "J0113", "jtype": "four_way", "gn_name": "Mount Lavinia"}, "geometry": {"type": "Point", "coordinates": [79.86458810041904, 6.84071130005643]}}, {"id": "113", "type": "Feature", "properties": {"node_id": "J0114", "jtype": "three_way", "gn_name": "Mount Lavinia"}, "geometry": {"type": "Point", "coordinates": [79.86693249998899, 6.841026999294919]}}, {"id": "115", "type": "Feature", "properties": {"node_id": "J0116", "jtype": "three_way", "gn_name": "Mount Lavinia"}, "geometry": {"type": "Point", "coordinates": [79.866938, 6.841286]}}, {"id": "117", "type": "Feature", "properties": {"node_id": "J0118", "jtype": "four_way", "gn_name": "Mount Lavinia"}, "geometry": {"type": "Point", "coordinates": [79.86694829999998, 6.8412825]}}, {"id": "118", "type": "Feature", "properties": {"node_id": "J0119", "jtype": "four_way", "gn_name": "Mount Lavinia"}, "geometry": {"type": "Point", "coordinates": [79.8670400000447, 6.84130859986636]}}, {"id": "120", "type": "Feature", "properties": {"node_id": "J0121", "jtype": "three_way", "gn_name": "Mount Lavinia"}, "geometry": {"type": "Point", "coordinates": [79.86448849991459, 6.8413916014401766]}}, {"id": "121", "type": "Feature", "properties": {"node_id": "J0122", "jtype": "three_way", "gn_name": "Mount Lavinia"}, "geometry": {"type": "Point", "coordinates": [79.86493479807496, 6.841536099031419]}}, {"id": "126", "type": "Feature", "properties": {"node_id": "J0127", "jtype": "three_way", "gn_name": "Mount Lavinia"}, "geometry": {"type": "Point", "coordinates": [79.86446969972071, 6.841708601911656]}}, {"id": "129", "type": "Feature", "properties": {"node_id": "J0130", "jtype": "three_way", "gn_name": "Mount Lavinia"}, "geometry": {"type": "Point", "coordinates": [79.86688859996457, 6.841843600108501]}}, {"id": "132", "type": "Feature", "properties": {"node_id": "J0133", "jtype": "three_way", "gn_name": "Mount Lavinia"}, "geometry": {"type": "Point", "coordinates": [79.86640229971385, 6.842007099978591]}}, {"id": "133", "type": "Feature", "properties": {"node_id": "J0134", "jtype": "three_way", "gn_name": "Mount Lavinia"}, "geometry": {"type": "Point", "coordinates": [79.86669619732272, 6.842047599631068]}}, {"id": "134", "type": "Feature", "properties": {"node_id": "J0135", "jtype": "three_way", "gn_name": "Mount Lavinia"}, "geometry": {"type": "Point", "coordinates": [79.86682149934936, 6.842064902023007]}}, {"id": "140", "type": "Feature", "properties": {"node_id": "J0141", "jtype": "three_way", "gn_name": "Mount Lavinia"}, "geometry": {"type": "Point", "coordinates": [79.86355829808002, 6.842389899777674]}}, {"id": "141", "type": "Feature", "properties": {"node_id": "J0142", "jtype": "three_way", "gn_name": "Mount Lavinia"}, "geometry": {"type": "Point", "coordinates": [79.86415639870711, 6.8424589998444265]}}, {"id": "142", "type": "Feature", "properties": {"node_id": "J0143", "jtype": "three_way", "gn_name": "Mount Lavinia"}, "geometry": {"type": "Point", "coordinates": [79.86477669943294, 6.842525999938756]}}, {"id": "143", "type": "Feature", "properties": {"node_id": "J0144", "jtype": "three_way", "gn_name": "Mount Lavinia"}, "geometry": {"type": "Point", "coordinates": [79.86561020267874, 6.8426333003282735]}}, {"id": "144", "type": "Feature", "properties": {"node_id": "J0145", "jtype": "three_way", "gn_name": "Mount Lavinia"}, "geometry": {"type": "Point", "coordinates": [79.86659919987162, 6.842754500456323]}}, {"id": "146", "type": "Feature", "properties": {"node_id": "J0147", "jtype": "three_way", "gn_name": "Mount Lavinia"}, "geometry": {"type": "Point", "coordinates": [79.86648300054564, 6.843167598060204]}}, {"id": "149", "type": "Feature", "properties": {"node_id": "J0150", "jtype": "three_way", "gn_name": "Mount Lavinia"}, "geometry": {"type": "Point", "coordinates": [79.86320489931471, 6.843593799985416]}}, {"id": "150", "type": "Feature", "properties": {"node_id": "J0151", "jtype": "three_way", "gn_name": "Mount Lavinia"}, "geometry": {"type": "Point", "coordinates": [79.86637989990298, 6.843644800809757]}}, {"id": "151", "type": "Feature", "properties": {"node_id": "J0152", "jtype": "three_way", "gn_name": "Mount Lavinia"}, "geometry": {"type": "Point", "coordinates": [79.8644122012504, 6.843660300069516]}}, {"id": "154", "type": "Feature", "properties": {"node_id": "J0155", "jtype": "three_way", "gn_name": "Mount Lavinia"}, "geometry": {"type": "Point", "coordinates": [79.8663406998045, 6.843972002276011]}}, {"id": "158", "type": "Feature", "properties": {"node_id": "J0159", "jtype": "three_way", "gn_name": "Mount Lavinia"}, "geometry": {"type": "Point", "coordinates": [79.86314880024402, 6.844320300016985]}}, {"id": "159", "type": "Feature", "properties": {"node_id": "J0160", "jtype": "three_way", "gn_name": "Mount Lavinia"}, "geometry": {"type": "Point", "coordinates": [79.86340170161493, 6.844337900116517]}}, {"id": "160", "type": "Feature", "properties": {"node_id": "J0161", "jtype": "three_way", "gn_name": "Mount Lavinia"}, "geometry": {"type": "Point", "coordinates": [79.8637883971221, 6.84436579979236]}}, {"id": "161", "type": "Feature", "properties": {"node_id": "J0162", "jtype": "three_way", "gn_name": "Mount Lavinia"}, "geometry": {"type": "Point", "coordinates": [79.86392219960999, 6.844375299972308]}}, {"id": "162", "type": "Feature", "properties": {"node_id": "J0163", "jtype": "three_way", "gn_name": "Mount Lavinia"}, "geometry": {"type": "Point", "coordinates": [79.86405830220154, 6.844385000156565]}}, {"id": "163", "type": "Feature", "properties": {"node_id": "J0164", "jtype": "three_way", "gn_name": "Mount Lavinia"}, "geometry": {"type": "Point", "coordinates": [79.86435500156067, 6.844406100099143]}}, {"id": "164", "type": "Feature", "properties": {"node_id": "J0165", "jtype": "three_way", "gn_name": "Mount Lavinia"}, "geometry": {"type": "Point", "coordinates": [79.86516570012705, 6.844457600003009]}}, {"id": "165", "type": "Feature", "properties": {"node_id": "J0166", "jtype": "three_way", "gn_name": "Mount Lavinia"}, "geometry": {"type": "Point", "coordinates": [79.86561680281932, 6.844468300066347]}}, {"id": "166", "type": "Feature", "properties": {"node_id": "J0167", "jtype": "three_way", "gn_name": "Mount Lavinia"}, "geometry": {"type": "Point", "coordinates": [79.86629670018819, 6.844484297808347]}}, {"id": "169", "type": "Feature", "properties": {"node_id": "J0170", "jtype": "three_way", "gn_name": "Mount Lavinia"}, "geometry": {"type": "Point", "coordinates": [79.86402779998252, 6.844752702369807]}}, {"id": "170", "type": "Feature", "properties": {"node_id": "J0171", "jtype": "three_way", "gn_name": "Mount Lavinia"}, "geometry": {"type": "Point", "coordinates": [79.86515489993116, 6.844766201971562]}}, {"id": "172", "type": "Feature", "properties": {"node_id": "J0173", "jtype": "three_way", "gn_name": "Mount Lavinia"}, "geometry": {"type": "Point", "coordinates": [79.8640266, 6.844915499999999]}}, {"id": "174", "type": "Feature", "properties": {"node_id": "J0175", "jtype": "three_way", "gn_name": "Mount Lavinia"}, "geometry": {"type": "Point", "coordinates": [79.8636347, 6.8450299]}}, {"id": "176", "type": "Feature", "properties": {"node_id": "J0177", "jtype": "three_way", "gn_name": "Mount Lavinia"}, "geometry": {"type": "Point", "coordinates": [79.86406680078005, 6.845236500029134]}}, {"id": "177", "type": "Feature", "properties": {"node_id": "J0178", "jtype": "three_way", "gn_name": "Mount Lavinia"}, "geometry": {"type": "Point", "coordinates": [79.86492269996579, 6.845244998959537]}}, {"id": "178", "type": "Feature", "properties": {"node_id": "J0179", "jtype": "three_way", "gn_name": "Mount Lavinia"}, "geometry": {"type": "Point", "coordinates": [79.86363619998914, 6.8452450984442805]}}, {"id": "179", "type": "Feature", "properties": {"node_id": "J0180", "jtype": "three_way", "gn_name": "Mount Lavinia"}, "geometry": {"type": "Point", "coordinates": [79.86621760003074, 6.84533059967123]}}, {"id": "180", "type": "Feature", "properties": {"node_id": "J0181", "jtype": "three_way", "gn_name": "Mount Lavinia"}, "geometry": {"type": "Point", "coordinates": [79.86305269986273, 6.845339502868524]}}, {"id": "181", "type": "Feature", "properties": {"node_id": "J0182", "jtype": "three_way", "gn_name": "Mount Lavinia"}, "geometry": {"type": "Point", "coordinates": [79.86363509998033, 6.8453403019860595]}}, {"id": "185", "type": "Feature", "properties": {"node_id": "J0186", "jtype": "three_way", "gn_name": "Mount Lavinia"}, "geometry": {"type": "Point", "coordinates": [79.8661987995778, 6.8455321016701065]}}, {"id": "186", "type": "Feature", "properties": {"node_id": "J0187", "jtype": "three_way", "gn_name": "Mount Lavinia"}, "geometry": {"type": "Point", "coordinates": [79.86618749991092, 6.845576800749651]}}, {"id": "188", "type": "Feature", "properties": {"node_id": "J0189", "jtype": "three_way", "gn_name": "Mount Lavinia"}, "geometry": {"type": "Point", "coordinates": [79.86363159987518, 6.8456943022374945]}}, {"id": "189", "type": "Feature", "properties": {"node_id": "J0190", "jtype": "three_way", "gn_name": "Mount Lavinia"}, "geometry": {"type": "Point", "coordinates": [79.86495069904501, 6.845745599962376]}}, {"id": "190", "type": "Feature", "properties": {"node_id": "J0191", "jtype": "three_way", "gn_name": "Mount Lavinia"}, "geometry": {"type": "Point", "coordinates": [79.86291979999999, 6.8461231]}}, {"id": "191", "type": "Feature", "properties": {"node_id": "J0192", "jtype": "four_way", "gn_name": "Mount Lavinia"}, "geometry": {"type": "Point", "coordinates": [79.86360569830272, 6.8461586981738645]}}, {"id": "192", "type": "Feature", "properties": {"node_id": "J0193", "jtype": "three_way", "gn_name": "Mount Lavinia"}, "geometry": {"type": "Point", "coordinates": [79.86409290017929, 6.84622490001672]}}, {"id": "194", "type": "Feature", "properties": {"node_id": "J0195", "jtype": "three_way", "gn_name": "Mount Lavinia"}, "geometry": {"type": "Point", "coordinates": [79.86608690013438, 6.846423498869042]}}, {"id": "197", "type": "Feature", "properties": {"node_id": "J0198", "jtype": "three_way", "gn_name": "Mount Lavinia"}, "geometry": {"type": "Point", "coordinates": [79.86314279706187, 6.846681899542483]}}, {"id": "198", "type": "Feature", "properties": {"node_id": "J0199", "jtype": "three_way", "gn_name": "Mount Lavinia"}, "geometry": {"type": "Point", "coordinates": [79.8635331009563, 6.846744000104088]}}, {"id": "199", "type": "Feature", "properties": {"node_id": "J0200", "jtype": "three_way", "gn_name": "Mount Lavinia"}, "geometry": {"type": "Point", "coordinates": [79.86403840248565, 6.846799000302266]}}, {"id": "200", "type": "Feature", "properties": {"node_id": "J0201", "jtype": "three_way", "gn_name": "Mount Lavinia"}, "geometry": {"type": "Point", "coordinates": [79.86460169746441, 6.846867499691661]}}, {"id": "201", "type": "Feature", "properties": {"node_id": "J0202", "jtype": "three_way", "gn_name": "Mount Lavinia"}, "geometry": {"type": "Point", "coordinates": [79.86503879801977, 6.8469103998056475]}}, {"id": "202", "type": "Feature", "properties": {"node_id": "J0203", "jtype": "three_way", "gn_name": "Mount Lavinia"}, "geometry": {"type": "Point", "coordinates": [79.86533529795489, 6.846945499757903]}}, {"id": "203", "type": "Feature", "properties": {"node_id": "J0204", "jtype": "three_way", "gn_name": "Mount Lavinia"}, "geometry": {"type": "Point", "coordinates": [79.86602770016593, 6.84700109816521]}}, {"id": "204", "type": "Feature", "properties": {"node_id": "J0205", "jtype": "three_way", "gn_name": "Mount Lavinia"}, "geometry": {"type": "Point", "coordinates": [79.86305979960068, 6.8473122028627795]}}, {"id": "209", "type": "Feature", "properties": {"node_id": "J0210", "jtype": "three_way", "gn_name": "Mount Lavinia"}, "geometry": {"type": "Point", "coordinates": [79.86598999996059, 6.847517101041051]}}, {"id": "211", "type": "Feature", "properties": {"node_id": "J0212", "jtype": "three_way", "gn_name": "Mount Lavinia"}, "geometry": {"type": "Point", "coordinates": [79.86479039991984, 6.847581000722279]}}, {"id": "214", "type": "Feature", "properties": {"node_id": "J0215", "jtype": "three_way", "gn_name": "Mount Lavinia"}, "geometry": {"type": "Point", "coordinates": [79.86357430002188, 6.847955600001918]}}, {"id": "215", "type": "Feature", "properties": {"node_id": "J0216", "jtype": "three_way", "gn_name": "Mount Lavinia"}, "geometry": {"type": "Point", "coordinates": [79.86408919999998, 6.848000800000001]}}, {"id": "216", "type": "Feature", "properties": {"node_id": "J0217", "jtype": "three_way", "gn_name": "Mount Lavinia"}, "geometry": {"type": "Point", "coordinates": [79.86474050091884, 6.848030700032687]}}, {"id": "217", "type": "Feature", "properties": {"node_id": "J0218", "jtype": "three_way", "gn_name": "Mount Lavinia"}, "geometry": {"type": "Point", "coordinates": [79.86596890001037, 6.848074399725604]}}, {"id": "220", "type": "Feature", "properties": {"node_id": "J0221", "jtype": "four_way", "gn_name": "Mount Lavinia"}, "geometry": {"type": "Point", "coordinates": [79.86405949983495, 6.848638499980035]}}, {"id": "222", "type": "Feature", "properties": {"node_id": "J0223", "jtype": "three_way", "gn_name": "Mount Lavinia"}, "geometry": {"type": "Point", "coordinates": [79.86596719997513, 6.848741701501443]}}, {"id": "224", "type": "Feature", "properties": {"node_id": "J0225", "jtype": "three_way", "gn_name": "Mount Lavinia"}, "geometry": {"type": "Point", "coordinates": [79.86549869897232, 6.848773702721982]}}, {"id": "226", "type": "Feature", "properties": {"node_id": "J0227", "jtype": "three_way", "gn_name": "Mount Lavinia"}, "geometry": {"type": "Point", "coordinates": [79.86595839994364, 6.849393802544413]}}, {"id": "231", "type": "Feature", "properties": {"node_id": "J0232", "jtype": "three_way", "gn_name": "Kawdana West"}, "geometry": {"type": "Point", "coordinates": [79.87436500107056, 6.839873500713903]}}, {"id": "236", "type": "Feature", "properties": {"node_id": "J0237", "jtype": "three_way", "gn_name": "Kawdana West"}, "geometry": {"type": "Point", "coordinates": [79.87516249878102, 6.840449799008847]}}, {"id": "243", "type": "Feature", "properties": {"node_id": "J0244", "jtype": "three_way", "gn_name": "Kawdana West"}, "geometry": {"type": "Point", "coordinates": [79.87348139839663, 6.84090580172553]}}, {"id": "246", "type": "Feature", "properties": {"node_id": "J0247", "jtype": "three_way", "gn_name": "Kawdana West"}, "geometry": {"type": "Point", "coordinates": [79.87324909887946, 6.84115580120611]}}, {"id": "252", "type": "Feature", "properties": {"node_id": "J0253", "jtype": "three_way", "gn_name": "Kawdana West"}, "geometry": {"type": "Point", "coordinates": [79.8745827978681, 6.84142350094187]}}, {"id": "256", "type": "Feature", "properties": {"node_id": "J0257", "jtype": "three_way", "gn_name": "Kawdana West"}, "geometry": {"type": "Point", "coordinates": [79.87292439885609, 6.841505299090837]}}, {"id": "257", "type": "Feature", "properties": {"node_id": "J0258", "jtype": "three_way", "gn_name": "Kawdana West"}, "geometry": {"type": "Point", "coordinates": [79.87435940178467, 6.841522199211502]}}, {"id": "268", "type": "Feature", "properties": {"node_id": "J0269", "jtype": "three_way", "gn_name": "Kawdana West"}, "geometry": {"type": "Point", "coordinates": [79.8668497997474, 6.842231900720736]}}, {"id": "269", "type": "Feature", "properties": {"node_id": "J0270", "jtype": "three_way", "gn_name": "Kawdana West"}, "geometry": {"type": "Point", "coordinates": [79.868757, 6.842374]}}, {"id": "271", "type": "Feature", "properties": {"node_id": "J0272", "jtype": "three_way", "gn_name": "Kawdana West"}, "geometry": {"type": "Point", "coordinates": [79.876012, 6.842247]}}, {"id": "273", "type": "Feature", "properties": {"node_id": "J0274", "jtype": "three_way", "gn_name": "Kawdana West"}, "geometry": {"type": "Point", "coordinates": [79.86891, 6.842398]}}, {"id": "278", "type": "Feature", "properties": {"node_id": "J0279", "jtype": "three_way", "gn_name": "Kawdana West"}, "geometry": {"type": "Point", "coordinates": [79.87363350063096, 6.842461702701521]}}, {"id": "281", "type": "Feature", "properties": {"node_id": "J0282", "jtype": "three_way", "gn_name": "Kawdana West"}, "geometry": {"type": "Point", "coordinates": [79.86675010027132, 6.842516399225725]}}, {"id": "286", "type": "Feature", "properties": {"node_id": "J0287", "jtype": "three_way", "gn_name": "Kawdana West"}, "geometry": {"type": "Point", "coordinates": [79.872628800018, 6.842616099980567]}}, {"id": "288", "type": "Feature", "properties": {"node_id": "J0289", "jtype": "three_way", "gn_name": "Kawdana West"}, "geometry": {"type": "Point", "coordinates": [79.86667699927355, 6.842717502270167]}}, {"id": "291", "type": "Feature", "properties": {"node_id": "J0292", "jtype": "three_way", "gn_name": "Kawdana West"}, "geometry": {"type": "Point", "coordinates": [79.87252879999997, 6.8427707]}}, {"id": "294", "type": "Feature", "properties": {"node_id": "J0295", "jtype": "three_way", "gn_name": "Kawdana West"}, "geometry": {"type": "Point", "coordinates": [79.87374139983704, 6.842822800395508]}}, {"id": "297", "type": "Feature", "properties": {"node_id": "J0298", "jtype": "three_way", "gn_name": "Kawdana West"}, "geometry": {"type": "Point", "coordinates": [79.87576, 6.842932]}}, {"id": "298", "type": "Feature", "properties": {"node_id": "J0299", "jtype": "three_way", "gn_name": "Kawdana West"}, "geometry": {"type": "Point", "coordinates": [79.87227469999998, 6.8429196999999995]}}, {"id": "300", "type": "Feature", "properties": {"node_id": "J0301", "jtype": "three_way", "gn_name": "Kawdana West"}, "geometry": {"type": "Point", "coordinates": [79.86786959835347, 6.842993899094778]}}, {"id": "301", "type": "Feature", "properties": {"node_id": "J0302", "jtype": "three_way", "gn_name": "Kawdana West"}, "geometry": {"type": "Point", "coordinates": [79.87327330275983, 6.843039199040761]}}, {"id": "303", "type": "Feature", "properties": {"node_id": "J0304", "jtype": "three_way", "gn_name": "Kawdana West"}, "geometry": {"type": "Point", "coordinates": [79.87302710114766, 6.8431775993548465]}}, {"id": "304", "type": "Feature", "properties": {"node_id": "J0305", "jtype": "three_way", "gn_name": "Kawdana West"}, "geometry": {"type": "Point", "coordinates": [79.871022, 6.843205]}}, {"id": "305", "type": "Feature", "properties": {"node_id": "J0306", "jtype": "three_way", "gn_name": "Kawdana West"}, "geometry": {"type": "Point", "coordinates": [79.87381019936647, 6.843206998545996]}}, {"id": "308", "type": "Feature", "properties": {"node_id": "J0309", "jtype": "three_way", "gn_name": "Kawdana West"}, "geometry": {"type": "Point", "coordinates": [79.875592, 6.843331]}}, {"id": "309", "type": "Feature", "properties": {"node_id": "J0310", "jtype": "three_way", "gn_name": "Kawdana West"}, "geometry": {"type": "Point", "coordinates": [79.87122319901043, 6.843324499731573]}}, {"id": "311", "type": "Feature", "properties": {"node_id": "J0312", "jtype": "three_way", "gn_name": "Kawdana West"}, "geometry": {"type": "Point", "coordinates": [79.86649190072, 6.843357997322226]}}, {"id": "314", "type": "Feature", "properties": {"node_id": "J0315", "jtype": "three_way", "gn_name": "Kawdana West"}, "geometry": {"type": "Point", "coordinates": [79.87142239941313, 6.84353369938371]}}, {"id": "316", "type": "Feature", "properties": {"node_id": "J0317", "jtype": "three_way", "gn_name": "Kawdana West"}, "geometry": {"type": "Point", "coordinates": [79.875688, 6.843672]}}, {"id": "323", "type": "Feature", "properties": {"node_id": "J0324", "jtype": "three_way", "gn_name": "Kawdana West"}, "geometry": {"type": "Point", "coordinates": [79.87170120096728, 6.843849101300932]}}, {"id": "326", "type": "Feature", "properties": {"node_id": "J0327", "jtype": "three_way", "gn_name": "Kawdana West"}, "geometry": {"type": "Point", "coordinates": [79.87063579814205, 6.843960802174933]}}, {"id": "328", "type": "Feature", "properties": {"node_id": "J0329", "jtype": "three_way", "gn_name": "Kawdana West"}, "geometry": {"type": "Point", "coordinates": [79.86640320016308, 6.843982798544365]}}, {"id": "333", "type": "Feature", "properties": {"node_id": "J0334", "jtype": "three_way", "gn_name": "Kawdana West"}, "geometry": {"type": "Point", "coordinates": [79.87198120058609, 6.844140800571312]}}, {"id": "336", "type": "Feature", "properties": {"node_id": "J0337", "jtype": "three_way", "gn_name": "Kawdana West"}, "geometry": {"type": "Point", "coordinates": [79.86638879998776, 6.8442042001606875]}}, {"id": "337", "type": "Feature", "properties": {"node_id": "J0338", "jtype": "three_way", "gn_name": "Kawdana West"}, "geometry": {"type": "Point", "coordinates": [79.86917389971957, 6.844240099987737]}}, {"id": "338", "type": "Feature", "properties": {"node_id": "J0339", "jtype": "four_way", "gn_name": "Kawdana West"}, "geometry": {"type": "Point", "coordinates": [79.86926040121486, 6.844253500735555]}}, {"id": "342", "type": "Feature", "properties": {"node_id": "J0343", "jtype": "three_way", "gn_name": "Kawdana West"}, "geometry": {"type": "Point", "coordinates": [79.87222329845387, 6.844369198579668]}}, {"id": "347", "type": "Feature", "properties": {"node_id": "J0348", "jtype": "three_way", "gn_name": "Kawdana West"}, "geometry": {"type": "Point", "coordinates": [79.87489310284148, 6.8444579994365276]}}, {"id": "348", "type": "Feature", "properties": {"node_id": "J0349", "jtype": "three_way", "gn_name": "Kawdana West"}, "geometry": {"type": "Point", "coordinates": [79.87483179793537, 6.844471100524394]}}, {"id": "350", "type": "Feature", "properties": {"node_id": "J0351", "jtype": "three_way", "gn_name": "Kawdana West"}, "geometry": {"type": "Point", "coordinates": [79.86764860037046, 6.844475299901058]}}, {"id": "353", "type": "Feature", "properties": {"node_id": "J0354", "jtype": "three_way", "gn_name": "Kawdana West"}, "geometry": {"type": "Point", "coordinates": [79.87469400257248, 6.844506099346616]}}, {"id": "354", "type": "Feature", "properties": {"node_id": "J0355", "jtype": "three_way", "gn_name": "Kawdana West"}, "geometry": {"type": "Point", "coordinates": [79.86965709805962, 6.8445391983897235]}}, {"id": "356", "type": "Feature", "properties": {"node_id": "J0357", "jtype": "three_way", "gn_name": "Kawdana West"}, "geometry": {"type": "Point", "coordinates": [79.87049920081782, 6.844588099144211]}}, {"id": "357", "type": "Feature", "properties": {"node_id": "J0358", "jtype": "three_way", "gn_name": "Kawdana West"}, "geometry": {"type": "Point", "coordinates": [79.86709570259265, 6.844622999307391]}}, {"id": "359", "type": "Feature", "properties": {"node_id": "J0360", "jtype": "three_way", "gn_name": "Kawdana West"}, "geometry": {"type": "Point", "coordinates": [79.86634909987848, 6.844649901176403]}}, {"id": "360", "type": "Feature", "properties": {"node_id": "J0361", "jtype": "three_way", "gn_name": "Kawdana West"}, "geometry": {"type": "Point", "coordinates": [79.87408349891746, 6.844669600300301]}}, {"id": "361", "type": "Feature", "properties": {"node_id": "J0362", "jtype": "three_way", "gn_name": "Kawdana West"}, "geometry": {"type": "Point", "coordinates": [79.8698027999296, 6.8447026999209895]}}, {"id": "363", "type": "Feature", "properties": {"node_id": "J0364", "jtype": "three_way", "gn_name": "Kawdana West"}, "geometry": {"type": "Point", "coordinates": [79.87379619879911, 6.844749300330773]}}, {"id": "365", "type": "Feature", "properties": {"node_id": "J0366", "jtype": "three_way", "gn_name": "Kawdana West"}, "geometry": {"type": "Point", "coordinates": [79.86988389922918, 6.844792799143646]}}, {"id": "366", "type": "Feature", "properties": {"node_id": "J0367", "jtype": "three_way", "gn_name": "Kawdana West"}, "geometry": {"type": "Point", "coordinates": [79.86991220200066, 6.844828701983123]}}, {"id": "367", "type": "Feature", "properties": {"node_id": "J0368", "jtype": "three_way", "gn_name": "Kawdana West"}, "geometry": {"type": "Point", "coordinates": [79.87320369792174, 6.84491250068222]}}, {"id": "369", "type": "Feature", "properties": {"node_id": "J0370", "jtype": "three_way", "gn_name": "Kawdana West"}, "geometry": {"type": "Point", "coordinates": [79.87008280187813, 6.8449971016456805]}}, {"id": "370", "type": "Feature", "properties": {"node_id": "J0371", "jtype": "three_way", "gn_name": "Kawdana West"}, "geometry": {"type": "Point", "coordinates": [79.87286859826814, 6.845022500642293]}}, {"id": "372", "type": "Feature", "properties": {"node_id": "J0373", "jtype": "three_way", "gn_name": "Kawdana West"}, "geometry": {"type": "Point", "coordinates": [79.87014340039467, 6.845050200229795]}}, {"id": "373", "type": "Feature", "properties": {"node_id": "J0374", "jtype": "four_way", "gn_name": "Kawdana West"}, "geometry": {"type": "Point", "coordinates": [79.87253909917438, 6.84514470059748]}}, {"id": "374", "type": "Feature", "properties": {"node_id": "J0375", "jtype": "three_way", "gn_name": "Kawdana West"}, "geometry": {"type": "Point", "coordinates": [79.872264, 6.845317]}}, {"id": "379", "type": "Feature", "properties": {"node_id": "J0380", "jtype": "three_way", "gn_name": "Kawdana West"}, "geometry": {"type": "Point", "coordinates": [79.86781989714198, 6.845458300870434]}}, {"id": "380", "type": "Feature", "properties": {"node_id": "J0381", "jtype": "three_way", "gn_name": "Kawdana West"}, "geometry": {"type": "Point", "coordinates": [79.87075290097859, 6.845543300747079]}}, {"id": "382", "type": "Feature", "properties": {"node_id": "J0383", "jtype": "three_way", "gn_name": "Kawdana West"}, "geometry": {"type": "Point", "coordinates": [79.871747, 6.845635]}}, {"id": "383", "type": "Feature", "properties": {"node_id": "J0384", "jtype": "three_way", "gn_name": "Kawdana West"}, "geometry": {"type": "Point", "coordinates": [79.871403, 6.845974]}}, {"id": "384", "type": "Feature", "properties": {"node_id": "J0385", "jtype": "three_way", "gn_name": "Kawdana West"}, "geometry": {"type": "Point", "coordinates": [79.86672929893913, 6.845600899954116]}}, {"id": "385", "type": "Feature", "properties": {"node_id": "J0386", "jtype": "three_way", "gn_name": "Kawdana West"}, "geometry": {"type": "Point", "coordinates": [79.86679839884809, 6.8456023999749975]}}, {"id": "388", "type": "Feature", "properties": {"node_id": "J0389", "jtype": "three_way", "gn_name": "Kawdana West"}, "geometry": {"type": "Point", "coordinates": [79.86739670141361, 6.846082499507636]}}, {"id": "389", "type": "Feature", "properties": {"node_id": "J0390", "jtype": "three_way", "gn_name": "Kawdana West"}, "geometry": {"type": "Point", "coordinates": [79.86720530215986, 6.846146099282305]}}, {"id": "390", "type": "Feature", "properties": {"node_id": "J0391", "jtype": "three_way", "gn_name": "Kawdana West"}, "geometry": {"type": "Point", "coordinates": [79.8669719, 6.8462167]}}, {"id": "391", "type": "Feature", "properties": {"node_id": "J0392", "jtype": "three_way", "gn_name": "Kawdana West"}, "geometry": {"type": "Point", "coordinates": [79.866174499878, 6.846241801266164]}}, {"id": "396", "type": "Feature", "properties": {"node_id": "J0397", "jtype": "three_way", "gn_name": "Kawdana West"}, "geometry": {"type": "Point", "coordinates": [79.86862390028035, 6.846369599221948]}}, {"id": "399", "type": "Feature", "properties": {"node_id": "J0400", "jtype": "three_way", "gn_name": "Kawdana West"}, "geometry": {"type": "Point", "coordinates": [79.87087370011857, 6.846485199888682]}}, {"id": "400", "type": "Feature", "properties": {"node_id": "J0401", "jtype": "three_way", "gn_name": "Kawdana West"}, "geometry": {"type": "Point", "coordinates": [79.86790459990804, 6.846492100029056]}}, {"id": "405", "type": "Feature", "properties": {"node_id": "J0406", "jtype": "three_way", "gn_name": "Kawdana West"}, "geometry": {"type": "Point", "coordinates": [79.86669419802509, 6.846787400182192]}}, {"id": "406", "type": "Feature", "properties": {"node_id": "J0407", "jtype": "three_way", "gn_name": "Kawdana West"}, "geometry": {"type": "Point", "coordinates": [79.86657280042202, 6.846798599961061]}}, {"id": "407", "type": "Feature", "properties": {"node_id": "J0408", "jtype": "three_way", "gn_name": "Kawdana West"}, "geometry": {"type": "Point", "coordinates": [79.86643539730811, 6.8468114002500124]}}, {"id": "408", "type": "Feature", "properties": {"node_id": "J0409", "jtype": "three_way", "gn_name": "Kawdana West"}, "geometry": {"type": "Point", "coordinates": [79.86611669996068, 6.84684100051736]}}, {"id": "418", "type": "Feature", "properties": {"node_id": "J0419", "jtype": "three_way", "gn_name": "Kawdana West"}, "geometry": {"type": "Point", "coordinates": [79.86658159730587, 6.847598499211583]}}, {"id": "421", "type": "Feature", "properties": {"node_id": "J0422", "jtype": "three_way", "gn_name": "Kawdana West"}, "geometry": {"type": "Point", "coordinates": [79.8676834970116, 6.847639399883801]}}, {"id": "423", "type": "Feature", "properties": {"node_id": "J0424", "jtype": "three_way", "gn_name": "Kawdana West"}, "geometry": {"type": "Point", "coordinates": [79.86685370075658, 6.847670499953224]}}, {"id": "427", "type": "Feature", "properties": {"node_id": "J0428", "jtype": "three_way", "gn_name": "Kawdana West"}, "geometry": {"type": "Point", "coordinates": [79.86830430206156, 6.847738200324908]}}, {"id": "428", "type": "Feature", "properties": {"node_id": "J0429", "jtype": "three_way", "gn_name": "Kawdana West"}, "geometry": {"type": "Point", "coordinates": [79.86883030106773, 6.847821100169236]}}, {"id": "436", "type": "Feature", "properties": {"node_id": "J0437", "jtype": "three_way", "gn_name": "Watarappala"}, "geometry": {"type": "Point", "coordinates": [79.8701981974377, 6.83686139952208]}}, {"id": "437", "type": "Feature", "properties": {"node_id": "J0438", "jtype": "three_way", "gn_name": "Watarappala"}, "geometry": {"type": "Point", "coordinates": [79.86999120109532, 6.836875099707921]}}, {"id": "438", "type": "Feature", "properties": {"node_id": "J0439", "jtype": "three_way", "gn_name": "Watarappala"}, "geometry": {"type": "Point", "coordinates": [79.87057109757902, 6.836930799549438]}}, {"id": "440", "type": "Feature", "properties": {"node_id": "J0441", "jtype": "three_way", "gn_name": "Watarappala"}, "geometry": {"type": "Point", "coordinates": [79.87121329968045, 6.8369733998186195]}}, {"id": "445", "type": "Feature", "properties": {"node_id": "J0446", "jtype": "three_way", "gn_name": "Watarappala"}, "geometry": {"type": "Point", "coordinates": [79.87134779748322, 6.837055598649955]}}, {"id": "448", "type": "Feature", "properties": {"node_id": "J0449", "jtype": "three_way", "gn_name": "Watarappala"}, "geometry": {"type": "Point", "coordinates": [79.87142200193409, 6.837067400577533]}}, {"id": "451", "type": "Feature", "properties": {"node_id": "J0452", "jtype": "three_way", "gn_name": "Watarappala"}, "geometry": {"type": "Point", "coordinates": [79.86989749949183, 6.837176801499198]}}, {"id": "453", "type": "Feature", "properties": {"node_id": "J0454", "jtype": "four_way", "gn_name": "Watarappala"}, "geometry": {"type": "Point", "coordinates": [79.87185870116373, 6.837197800322666]}}, {"id": "457", "type": "Feature", "properties": {"node_id": "J0458", "jtype": "three_way", "gn_name": "Watarappala"}, "geometry": {"type": "Point", "coordinates": [79.86749306388333, 6.837332547992094]}}, {"id": "463", "type": "Feature", "properties": {"node_id": "J0464", "jtype": "three_way", "gn_name": "Watarappala"}, "geometry": {"type": "Point", "coordinates": [79.87238839997488, 6.837434598802225]}}, {"id": "464", "type": "Feature", "properties": {"node_id": "J0465", "jtype": "three_way", "gn_name": "Watarappala"}, "geometry": {"type": "Point", "coordinates": [79.86750990006358, 6.837474501229332]}}, {"id": "465", "type": "Feature", "properties": {"node_id": "J0466", "jtype": "three_way", "gn_name": "Watarappala"}, "geometry": {"type": "Point", "coordinates": [79.87256330255428, 6.837530001392633]}}, {"id": "468", "type": "Feature", "properties": {"node_id": "J0469", "jtype": "three_way", "gn_name": "Watarappala"}, "geometry": {"type": "Point", "coordinates": [79.86970059977895, 6.837757700787755]}}, {"id": "473", "type": "Feature", "properties": {"node_id": "J0474", "jtype": "three_way", "gn_name": "Watarappala"}, "geometry": {"type": "Point", "coordinates": [79.87177570017957, 6.8378475992977465]}}, {"id": "474", "type": "Feature", "properties": {"node_id": "J0475", "jtype": "three_way", "gn_name": "Watarappala"}, "geometry": {"type": "Point", "coordinates": [79.87198010107693, 6.837884899886469]}}, {"id": "481", "type": "Feature", "properties": {"node_id": "J0482", "jtype": "three_way", "gn_name": "Watarappala"}, "geometry": {"type": "Point", "coordinates": [79.87167099999999, 6.8379728]}}, {"id": "482", "type": "Feature", "properties": {"node_id": "J0483", "jtype": "three_way", "gn_name": "Watarappala"}, "geometry": {"type": "Point", "coordinates": [79.87129990174063, 6.837986499778214]}}, {"id": "483", "type": "Feature", "properties": {"node_id": "J0484", "jtype": "three_way", "gn_name": "Watarappala"}, "geometry": {"type": "Point", "coordinates": [79.87071240269722, 6.838120799383422]}}, {"id": "485", "type": "Feature", "properties": {"node_id": "J0486", "jtype": "three_way", "gn_name": "Watarappala"}, "geometry": {"type": "Point", "coordinates": [79.86754549999462, 6.838246699751234]}}, {"id": "489", "type": "Feature", "properties": {"node_id": "J0490", "jtype": "three_way", "gn_name": "Watarappala"}, "geometry": {"type": "Point", "coordinates": [79.87068660008133, 6.838349599278522]}}, {"id": "490", "type": "Feature", "properties": {"node_id": "J0491", "jtype": "three_way", "gn_name": "Watarappala"}, "geometry": {"type": "Point", "coordinates": [79.87159870039763, 6.838351097079553]}}, {"id": "491", "type": "Feature", "properties": {"node_id": "J0492", "jtype": "three_way", "gn_name": "Watarappala"}, "geometry": {"type": "Point", "coordinates": [79.86928260040283, 6.838563500109232]}}, {"id": "492", "type": "Feature", "properties": {"node_id": "J0493", "jtype": "three_way", "gn_name": "Watarappala"}, "geometry": {"type": "Point", "coordinates": [79.86755679993708, 6.838585098117016]}}, {"id": "493", "type": "Feature", "properties": {"node_id": "J0494", "jtype": "three_way", "gn_name": "Watarappala"}, "geometry": {"type": "Point", "coordinates": [79.87321319966733, 6.838594101498212]}}, {"id": "495", "type": "Feature", "properties": {"node_id": "J0496", "jtype": "three_way", "gn_name": "Watarappala"}, "geometry": {"type": "Point", "coordinates": [79.86952599789605, 6.8386294994295005]}}, {"id": "497", "type": "Feature", "properties": {"node_id": "J0498", "jtype": "three_way", "gn_name": "Watarappala"}, "geometry": {"type": "Point", "coordinates": [79.86977010210518, 6.838696500371759]}}, {"id": "499", "type": "Feature", "properties": {"node_id": "J0500", "jtype": "four_way", "gn_name": "Watarappala"}, "geometry": {"type": "Point", "coordinates": [79.87203229861049, 6.838772200926898]}}, {"id": "501", "type": "Feature", "properties": {"node_id": "J0502", "jtype": "three_way", "gn_name": "Watarappala"}, "geometry": {"type": "Point", "coordinates": [79.87059070237957, 6.8388450016210225]}}, {"id": "502", "type": "Feature", "properties": {"node_id": "J0503", "jtype": "three_way", "gn_name": "Watarappala"}, "geometry": {"type": "Point", "coordinates": [79.87064339962046, 6.838880899741448]}}, {"id": "504", "type": "Feature", "properties": {"node_id": "J0505", "jtype": "three_way", "gn_name": "Watarappala"}, "geometry": {"type": "Point", "coordinates": [79.86755409999249, 6.838958601353437]}}, {"id": "508", "type": "Feature", "properties": {"node_id": "J0509", "jtype": "three_way", "gn_name": "Watarappala"}, "geometry": {"type": "Point", "coordinates": [79.87139400273234, 6.839142900721212]}}, {"id": "513", "type": "Feature", "properties": {"node_id": "J0514", "jtype": "three_way", "gn_name": "Watarappala"}, "geometry": {"type": "Point", "coordinates": [79.87195460078463, 6.839226900113285]}}, {"id": "515", "type": "Feature", "properties": {"node_id": "J0516", "jtype": "three_way", "gn_name": "Watarappala"}, "geometry": {"type": "Point", "coordinates": [79.87240409840231, 6.839291799769324]}}, {"id": "516", "type": "Feature", "properties": {"node_id": "J0517", "jtype": "three_way", "gn_name": "Watarappala"}, "geometry": {"type": "Point", "coordinates": [79.87269619999998, 6.8393517]}}, {"id": "517", "type": "Feature", "properties": {"node_id": "J0518", "jtype": "three_way", "gn_name": "Watarappala"}, "geometry": {"type": "Point", "coordinates": [79.87275560071204, 6.8393779003144255]}}, {"id": "519", "type": "Feature", "properties": {"node_id": "J0520", "jtype": "three_way", "gn_name": "Watarappala"}, "geometry": {"type": "Point", "coordinates": [79.86917419907982, 6.839460199907184]}}, {"id": "522", "type": "Feature", "properties": {"node_id": "J0523", "jtype": "three_way", "gn_name": "Watarappala"}, "geometry": {"type": "Point", "coordinates": [79.8731057, 6.839533699999999]}}, {"id": "523", "type": "Feature", "properties": {"node_id": "J0524", "jtype": "three_way", "gn_name": "Watarappala"}, "geometry": {"type": "Point", "coordinates": [79.8739219489242, 6.839557261597852]}}, {"id": "524", "type": "Feature", "properties": {"node_id": "J0525", "jtype": "three_way", "gn_name": "Watarappala"}, "geometry": {"type": "Point", "coordinates": [79.86992869780886, 6.839568399543293]}}, {"id": "525", "type": "Feature", "properties": {"node_id": "J0526", "jtype": "three_way", "gn_name": "Watarappala"}, "geometry": {"type": "Point", "coordinates": [79.86842070053683, 6.839575200049153]}}, {"id": "526", "type": "Feature", "properties": {"node_id": "J0527", "jtype": "three_way", "gn_name": "Watarappala"}, "geometry": {"type": "Point", "coordinates": [79.86751310007274, 6.839590899303763]}}, {"id": "527", "type": "Feature", "properties": {"node_id": "J0528", "jtype": "three_way", "gn_name": "Watarappala"}, "geometry": {"type": "Point", "coordinates": [79.8703200004841, 6.839691500170574]}}, {"id": "528", "type": "Feature", "properties": {"node_id": "J0529", "jtype": "three_way", "gn_name": "Watarappala"}, "geometry": {"type": "Point", "coordinates": [79.87419439891217, 6.8397486992397285]}}, {"id": "532", "type": "Feature", "properties": {"node_id": "J0533", "jtype": "three_way", "gn_name": "Watarappala"}, "geometry": {"type": "Point", "coordinates": [79.87291070094871, 6.839881698275815]}}, {"id": "533", "type": "Feature", "properties": {"node_id": "J0534", "jtype": "four_way", "gn_name": "Watarappala"}, "geometry": {"type": "Point", "coordinates": [79.871235399976, 6.839938900039376]}}, {"id": "538", "type": "Feature", "properties": {"node_id": "J0539", "jtype": "three_way", "gn_name": "Watarappala"}, "geometry": {"type": "Point", "coordinates": [79.87014030085257, 6.840121197961298]}}, {"id": "539", "type": "Feature", "properties": {"node_id": "J0540", "jtype": "three_way", "gn_name": "Watarappala"}, "geometry": {"type": "Point", "coordinates": [79.86742410023177, 6.840173598570919]}}, {"id": "542", "type": "Feature", "properties": {"node_id": "J0543", "jtype": "three_way", "gn_name": "Watarappala"}, "geometry": {"type": "Point", "coordinates": [79.87265170084159, 6.840352398470493]}}, {"id": "544", "type": "Feature", "properties": {"node_id": "J0545", "jtype": "three_way", "gn_name": "Watarappala"}, "geometry": {"type": "Point", "coordinates": [79.86932989721062, 6.840534100139879]}}, {"id": "546", "type": "Feature", "properties": {"node_id": "J0547", "jtype": "three_way", "gn_name": "Watarappala"}, "geometry": {"type": "Point", "coordinates": [79.86909260191736, 6.840545999903848]}}, {"id": "547", "type": "Feature", "properties": {"node_id": "J0548", "jtype": "three_way", "gn_name": "Watarappala"}, "geometry": {"type": "Point", "coordinates": [79.8696315011415, 6.840553500176366]}}, {"id": "548", "type": "Feature", "properties": {"node_id": "J0549", "jtype": "three_way", "gn_name": "Watarappala"}, "geometry": {"type": "Point", "coordinates": [79.87253179999092, 6.840570300016506]}}, {"id": "549", "type": "Feature", "properties": {"node_id": "J0550", "jtype": "three_way", "gn_name": "Watarappala"}, "geometry": {"type": "Point", "coordinates": [79.86855719762717, 6.840573000119672]}}, {"id": "550", "type": "Feature", "properties": {"node_id": "J0551", "jtype": "three_way", "gn_name": "Watarappala"}, "geometry": {"type": "Point", "coordinates": [79.87086229871382, 6.840584302480336]}}, {"id": "551", "type": "Feature", "properties": {"node_id": "J0552", "jtype": "three_way", "gn_name": "Watarappala"}, "geometry": {"type": "Point", "coordinates": [79.8681486975635, 6.840585900011693]}}, {"id": "552", "type": "Feature", "properties": {"node_id": "J0553", "jtype": "three_way", "gn_name": "Watarappala"}, "geometry": {"type": "Point", "coordinates": [79.86733599941637, 6.840589802263895]}}, {"id": "553", "type": "Feature", "properties": {"node_id": "J0554", "jtype": "three_way", "gn_name": "Watarappala"}, "geometry": {"type": "Point", "coordinates": [79.86993439822069, 6.840600299725082]}}, {"id": "558", "type": "Feature", "properties": {"node_id": "J0559", "jtype": "three_way", "gn_name": "Watarappala"}, "geometry": {"type": "Point", "coordinates": [79.87241930091078, 6.840774798344354]}}, {"id": "559", "type": "Feature", "properties": {"node_id": "J0560", "jtype": "four_way", "gn_name": "Watarappala"}, "geometry": {"type": "Point", "coordinates": [79.87125480098881, 6.840817401288193]}}, {"id": "564", "type": "Feature", "properties": {"node_id": "J0565", "jtype": "three_way", "gn_name": "Watarappala"}, "geometry": {"type": "Point", "coordinates": [79.87319029994056, 6.841056400051409]}}, {"id": "565", "type": "Feature", "properties": {"node_id": "J0566", "jtype": "three_way", "gn_name": "Watarappala"}, "geometry": {"type": "Point", "coordinates": [79.87172570101066, 6.841066698829352]}}, {"id": "568", "type": "Feature", "properties": {"node_id": "J0569", "jtype": "three_way", "gn_name": "Watarappala"}, "geometry": {"type": "Point", "coordinates": [79.87057419903198, 6.8412706024854595]}}, {"id": "571", "type": "Feature", "properties": {"node_id": "J0572", "jtype": "three_way", "gn_name": "Watarappala"}, "geometry": {"type": "Point", "coordinates": [79.86712420027092, 6.841336099035382]}}, {"id": "573", "type": "Feature", "properties": {"node_id": "J0574", "jtype": "four_way", "gn_name": "Watarappala"}, "geometry": {"type": "Point", "coordinates": [79.8728090998981, 6.841433199995248]}}, {"id": "577", "type": "Feature", "properties": {"node_id": "J0578", "jtype": "three_way", "gn_name": "Watarappala"}, "geometry": {"type": "Point", "coordinates": [79.86960319997594, 6.841538500714551]}}, {"id": "582", "type": "Feature", "properties": {"node_id": "J0583", "jtype": "three_way", "gn_name": "Watarappala"}, "geometry": {"type": "Point", "coordinates": [79.87168660140502, 6.8417074985528625]}}, {"id": "583", "type": "Feature", "properties": {"node_id": "J0584", "jtype": "three_way", "gn_name": "Watarappala"}, "geometry": {"type": "Point", "coordinates": [79.87164810021554, 6.84174189980742]}}, {"id": "584", "type": "Feature", "properties": {"node_id": "J0585", "jtype": "three_way", "gn_name": "Watarappala"}, "geometry": {"type": "Point", "coordinates": [79.87038919940954, 6.841745601535451]}}, {"id": "585", "type": "Feature", "properties": {"node_id": "J0586", "jtype": "three_way", "gn_name": "Watarappala"}, "geometry": {"type": "Point", "coordinates": [79.87179480000682, 6.841802800006667]}}, {"id": "586", "type": "Feature", "properties": {"node_id": "J0587", "jtype": "three_way", "gn_name": "Watarappala"}, "geometry": {"type": "Point", "coordinates": [79.86796149972109, 6.841882401306176]}}, {"id": "588", "type": "Feature", "properties": {"node_id": "J0589", "jtype": "three_way", "gn_name": "Watarappala"}, "geometry": {"type": "Point", "coordinates": [79.86693280015687, 6.841950899496216]}}, {"id": "593", "type": "Feature", "properties": {"node_id": "J0594", "jtype": "four_way", "gn_name": "Watarappala"}, "geometry": {"type": "Point", "coordinates": [79.87133679800232, 6.842076399343769]}}, {"id": "597", "type": "Feature", "properties": {"node_id": "J0598", "jtype": "three_way", "gn_name": "Watarappala"}, "geometry": {"type": "Point", "coordinates": [79.86791049969708, 6.842152899969719]}}, {"id": "599", "type": "Feature", "properties": {"node_id": "J0600", "jtype": "four_way", "gn_name": "Kawdana West"}, "geometry": {"type": "Point", "coordinates": [79.869572, 6.842433]}}, {"id": "600", "type": "Feature", "properties": {"node_id": "J0601", "jtype": "three_way", "gn_name": "Watarappala"}, "geometry": {"type": "Point", "coordinates": [79.87061489979908, 6.842234900053642]}}, {"id": "601", "type": "Feature", "properties": {"node_id": "J0602", "jtype": "three_way", "gn_name": "Watarappala"}, "geometry": {"type": "Point", "coordinates": [79.86866349815797, 6.842302799749749]}}, {"id": "602", "type": "Feature", "properties": {"node_id": "J0603", "jtype": "three_way", "gn_name": "Watarappala"}, "geometry": {"type": "Point", "coordinates": [79.87113890130014, 6.842307598481059]}}, {"id": "603", "type": "Feature", "properties": {"node_id": "J0604", "jtype": "three_way", "gn_name": "Watarappala"}, "geometry": {"type": "Point", "coordinates": [79.87017630024799, 6.842351999147177]}}, {"id": "605", "type": "Feature", "properties": {"node_id": "J0606", "jtype": "three_way", "gn_name": "Watarappala"}, "geometry": {"type": "Point", "coordinates": [79.86919949933313, 6.842386800006246]}}, {"id": "606", "type": "Feature", "properties": {"node_id": "J0607", "jtype": "three_way", "gn_name": "Watarappala"}, "geometry": {"type": "Point", "coordinates": [79.86891129756881, 6.842389499999995]}}, {"id": "607", "type": "Feature", "properties": {"node_id": "J0608", "jtype": "four_way", "gn_name": "Watarappala"}, "geometry": {"type": "Point", "coordinates": [79.86957429999997, 6.842397]}}, {"id": "611", "type": "Feature", "properties": {"node_id": "J0612", "jtype": "four_way", "gn_name": "Kawdana West"}, "geometry": {"type": "Point", "coordinates": [79.870501, 6.842867]}}, {"id": "619", "type": "Feature", "properties": {"node_id": "J0620", "jtype": "four_way", "gn_name": "Watarappala"}, "geometry": {"type": "Point", "coordinates": [79.8705103000285, 6.842854800018746]}}, {"id": "621", "type": "Feature", "properties": {"node_id": "J0622", "jtype": "three_way", "gn_name": "Watarappala"}, "geometry": {"type": "Point", "coordinates": [79.87103220135681, 6.843199200985638]}}, {"id": "626", "type": "Feature", "properties": {"node_id": "J0627", "jtype": "three_way", "gn_name": "Wathumulla"}, "geometry": {"type": "Point", "coordinates": [79.87014709994007, 6.828076899993133]}}, {"id": "627", "type": "Feature", "properties": {"node_id": "J0628", "jtype": "three_way", "gn_name": "Wathumulla"}, "geometry": {"type": "Point", "coordinates": [79.86962439973478, 6.828085800107732]}}, {"id": "631", "type": "Feature", "properties": {"node_id": "J0632", "jtype": "three_way", "gn_name": "Wathumulla"}, "geometry": {"type": "Point", "coordinates": [79.87082400035291, 6.828190200253758]}}, {"id": "635", "type": "Feature", "properties": {"node_id": "J0636", "jtype": "three_way", "gn_name": "Wathumulla"}, "geometry": {"type": "Point", "coordinates": [79.87018290013806, 6.828436600005393]}}, {"id": "638", "type": "Feature", "properties": {"node_id": "J0639", "jtype": "four_way", "gn_name": "Wathumulla"}, "geometry": {"type": "Point", "coordinates": [79.8715377, 6.8284953]}}, {"id": "640", "type": "Feature", "properties": {"node_id": "J0641", "jtype": "three_way", "gn_name": "Wathumulla"}, "geometry": {"type": "Point", "coordinates": [79.86855490020265, 6.828651899445395]}}, {"id": "642", "type": "Feature", "properties": {"node_id": "J0643", "jtype": "three_way", "gn_name": "Wathumulla"}, "geometry": {"type": "Point", "coordinates": [79.87259430075953, 6.828669300027347]}}, {"id": "643", "type": "Feature", "properties": {"node_id": "J0644", "jtype": "three_way", "gn_name": "Wathumulla"}, "geometry": {"type": "Point", "coordinates": [79.87283869856434, 6.828678099948306]}}, {"id": "646", "type": "Feature", "properties": {"node_id": "J0647", "jtype": "three_way", "gn_name": "Wathumulla"}, "geometry": {"type": "Point", "coordinates": [79.86849480008358, 6.8287935998029266]}}, {"id": "651", "type": "Feature", "properties": {"node_id": "J0652", "jtype": "three_way", "gn_name": "Wathumulla"}, "geometry": {"type": "Point", "coordinates": [79.87137199999998, 6.8291324]}}, {"id": "652", "type": "Feature", "properties": {"node_id": "J0653", "jtype": "three_way", "gn_name": "Wathumulla"}, "geometry": {"type": "Point", "coordinates": [79.86834540071054, 6.829170298208316]}}, {"id": "656", "type": "Feature", "properties": {"node_id": "J0657", "jtype": "three_way", "gn_name": "Wathumulla"}, "geometry": {"type": "Point", "coordinates": [79.86823320021193, 6.829442899489069]}}, {"id": "660", "type": "Feature", "properties": {"node_id": "J0661", "jtype": "three_way", "gn_name": "Wathumulla"}, "geometry": {"type": "Point", "coordinates": [79.86817909936555, 6.829573301530206]}}, {"id": "667", "type": "Feature", "properties": {"node_id": "J0668", "jtype": "three_way", "gn_name": "Wathumulla"}, "geometry": {"type": "Point", "coordinates": [79.8699928004205, 6.830102700108689]}}, {"id": "669", "type": "Feature", "properties": {"node_id": "J0670", "jtype": "three_way", "gn_name": "Wathumulla"}, "geometry": {"type": "Point", "coordinates": [79.8702051987683, 6.830157599681638]}}, {"id": "672", "type": "Feature", "properties": {"node_id": "J0673", "jtype": "three_way", "gn_name": "Wathumulla"}, "geometry": {"type": "Point", "coordinates": [79.87103849888132, 6.830506899050692]}}, {"id": "673", "type": "Feature", "properties": {"node_id": "J0674", "jtype": "four_way", "gn_name": "Wathumulla"}, "geometry": {"type": "Point", "coordinates": [79.8678375, 6.8305117]}}, {"id": "675", "type": "Feature", "properties": {"node_id": "J0676", "jtype": "three_way", "gn_name": "Wathumulla"}, "geometry": {"type": "Point", "coordinates": [79.86900820190866, 6.830871300326301]}}, {"id": "676", "type": "Feature", "properties": {"node_id": "J0677", "jtype": "three_way", "gn_name": "Wathumulla"}, "geometry": {"type": "Point", "coordinates": [79.8690899984165, 6.830879299971647]}}, {"id": "677", "type": "Feature", "properties": {"node_id": "J0678", "jtype": "three_way", "gn_name": "Wathumulla"}, "geometry": {"type": "Point", "coordinates": [79.86978069847108, 6.831036499554849]}}, {"id": "678", "type": "Feature", "properties": {"node_id": "J0679", "jtype": "three_way", "gn_name": "Wathumulla"}, "geometry": {"type": "Point", "coordinates": [79.87074029809618, 6.831213999647845]}}, {"id": "679", "type": "Feature", "properties": {"node_id": "J0680", "jtype": "three_way", "gn_name": "Wathumulla"}, "geometry": {"type": "Point", "coordinates": [79.87098810079848, 6.831243500197214]}}, {"id": "680", "type": "Feature", "properties": {"node_id": "J0681", "jtype": "four_way", "gn_name": "Wathumulla"}, "geometry": {"type": "Point", "coordinates": [79.87147719720973, 6.831364301490077]}}, {"id": "683", "type": "Feature", "properties": {"node_id": "J0684", "jtype": "three_way", "gn_name": "Wathumulla"}, "geometry": {"type": "Point", "coordinates": [79.86754610033468, 6.831603098126533]}}, {"id": "684", "type": "Feature", "properties": {"node_id": "J0685", "jtype": "three_way", "gn_name": "Wathumulla"}, "geometry": {"type": "Point", "coordinates": [79.87216090240258, 6.831645700691296]}}, {"id": "686", "type": "Feature", "properties": {"node_id": "J0687", "jtype": "three_way", "gn_name": "Wathumulla"}, "geometry": {"type": "Point", "coordinates": [79.87128559988173, 6.831760500241512]}}, {"id": "687", "type": "Feature", "properties": {"node_id": "J0688", "jtype": "three_way", "gn_name": "Wathumulla"}, "geometry": {"type": "Point", "coordinates": [79.87268659906329, 6.831783999774274]}}, {"id": "689", "type": "Feature", "properties": {"node_id": "J0690", "jtype": "three_way", "gn_name": "Wathumulla"}, "geometry": {"type": "Point", "coordinates": [79.86895540006199, 6.831964300702672]}}, {"id": "690", "type": "Feature", "properties": {"node_id": "J0691", "jtype": "three_way", "gn_name": "Wathumulla"}, "geometry": {"type": "Point", "coordinates": [79.86973269978006, 6.831987099993548]}}, {"id": "692", "type": "Feature", "properties": {"node_id": "J0693", "jtype": "three_way", "gn_name": "Wathumulla"}, "geometry": {"type": "Point", "coordinates": [79.8705109014791, 6.83218190136314]}}, {"id": "693", "type": "Feature", "properties": {"node_id": "J0694", "jtype": "three_way", "gn_name": "Wathumulla"}, "geometry": {"type": "Point", "coordinates": [79.87281960009282, 6.832285400697941]}}, {"id": "695", "type": "Feature", "properties": {"node_id": "J0696", "jtype": "three_way", "gn_name": "Wathumulla"}, "geometry": {"type": "Point", "coordinates": [79.87162939999999, 6.8324322]}}, {"id": "697", "type": "Feature", "properties": {"node_id": "J0698", "jtype": "three_way", "gn_name": "Wathumulla"}, "geometry": {"type": "Point", "coordinates": [79.87079989866159, 6.832495798378469]}}, {"id": "699", "type": "Feature", "properties": {"node_id": "J0700", "jtype": "three_way", "gn_name": "Wathumulla"}, "geometry": {"type": "Point", "coordinates": [79.86740530007408, 6.832565199215131]}}, {"id": "701", "type": "Feature", "properties": {"node_id": "J0702", "jtype": "three_way", "gn_name": "Wathumulla"}, "geometry": {"type": "Point", "coordinates": [79.870940999254, 6.832713900575146]}}, {"id": "702", "type": "Feature", "properties": {"node_id": "J0703", "jtype": "three_way", "gn_name": "Wathumulla"}, "geometry": {"type": "Point", "coordinates": [79.87167120057296, 6.832714198889273]}}, {"id": "703", "type": "Feature", "properties": {"node_id": "J0704", "jtype": "three_way", "gn_name": "Wathumulla"}, "geometry": {"type": "Point", "coordinates": [79.86897790126204, 6.832897600022251]}}, {"id": "704", "type": "Feature", "properties": {"node_id": "J0705", "jtype": "three_way", "gn_name": "Wathumulla"}, "geometry": {"type": "Point", "coordinates": [79.86738020001322, 6.832901299788127]}}, {"id": "706", "type": "Feature", "properties": {"node_id": "J0707", "jtype": "three_way", "gn_name": "Wathumulla"}, "geometry": {"type": "Point", "coordinates": [79.86931409939397, 6.833028298607611]}}, {"id": "707", "type": "Feature", "properties": {"node_id": "J0708", "jtype": "three_way", "gn_name": "Wathumulla"}, "geometry": {"type": "Point", "coordinates": [79.87060789817286, 6.833056801976516]}}, {"id": "712", "type": "Feature", "properties": {"node_id": "J0713", "jtype": "three_way", "gn_name": "Wathumulla"}, "geometry": {"type": "Point", "coordinates": [79.87028129999999, 6.8334100999999965]}}, {"id": "713", "type": "Feature", "properties": {"node_id": "J0714", "jtype": "three_way", "gn_name": "Wathumulla"}, "geometry": {"type": "Point", "coordinates": [79.86919980053437, 6.833416998182669]}}, {"id": "718", "type": "Feature", "properties": {"node_id": "J0719", "jtype": "three_way", "gn_name": "Wathumulla"}, "geometry": {"type": "Point", "coordinates": [79.87051909980845, 6.8337698003960465]}}, {"id": "721", "type": "Feature", "properties": {"node_id": "J0722", "jtype": "three_way", "gn_name": "Wathumulla"}, "geometry": {"type": "Point", "coordinates": [79.87193340076189, 6.834111800233612]}}, {"id": "723", "type": "Feature", "properties": {"node_id": "J0724", "jtype": "three_way", "gn_name": "Wathumulla"}, "geometry": {"type": "Point", "coordinates": [79.87204949804904, 6.834147399401775]}}, {"id": "726", "type": "Feature", "properties": {"node_id": "J0727", "jtype": "three_way", "gn_name": "Wathumulla"}, "geometry": {"type": "Point", "coordinates": [79.86898910018036, 6.8341871992542575]}}, {"id": "727", "type": "Feature", "properties": {"node_id": "J0728", "jtype": "three_way", "gn_name": "Wathumulla"}, "geometry": {"type": "Point", "coordinates": [79.87256530016062, 6.834236398309069]}}, {"id": "730", "type": "Feature", "properties": {"node_id": "J0731", "jtype": "three_way", "gn_name": "Wathumulla"}, "geometry": {"type": "Point", "coordinates": [79.87249869984953, 6.834833802525833]}}, {"id": "733", "type": "Feature", "properties": {"node_id": "J0734", "jtype": "three_way", "gn_name": "Wathumulla"}, "geometry": {"type": "Point", "coordinates": [79.86887469995014, 6.835045201462265]}}, {"id": "734", "type": "Feature", "properties": {"node_id": "J0735", "jtype": "three_way", "gn_name": "Wathumulla"}, "geometry": {"type": "Point", "coordinates": [79.87134579956272, 6.835052401045258]}}, {"id": "737", "type": "Feature", "properties": {"node_id": "J0738", "jtype": "four_way", "gn_name": "Wathumulla"}, "geometry": {"type": "Point", "coordinates": [79.86738629781411, 6.83510319936836]}}, {"id": "740", "type": "Feature", "properties": {"node_id": "J0741", "jtype": "three_way", "gn_name": "Wathumulla"}, "geometry": {"type": "Point", "coordinates": [79.86807520115886, 6.835239800214448]}}, {"id": "743", "type": "Feature", "properties": {"node_id": "J0744", "jtype": "three_way", "gn_name": "Wathumulla"}, "geometry": {"type": "Point", "coordinates": [79.87004419963363, 6.83536270000581]}}, {"id": "744", "type": "Feature", "properties": {"node_id": "J0745", "jtype": "three_way", "gn_name": "Wathumulla"}, "geometry": {"type": "Point", "coordinates": [79.86886310173064, 6.835385600062927]}}, {"id": "745", "type": "Feature", "properties": {"node_id": "J0746", "jtype": "three_way", "gn_name": "Wathumulla"}, "geometry": {"type": "Point", "coordinates": [79.86923989994676, 6.8353992999980635]}}, {"id": "746", "type": "Feature", "properties": {"node_id": "J0747", "jtype": "three_way", "gn_name": "Wathumulla"}, "geometry": {"type": "Point", "coordinates": [79.86954880248861, 6.835440098590302]}}, {"id": "750", "type": "Feature", "properties": {"node_id": "J0751", "jtype": "three_way", "gn_name": "Wathumulla"}, "geometry": {"type": "Point", "coordinates": [79.8695378996282, 6.835759502692374]}}, {"id": "755", "type": "Feature", "properties": {"node_id": "J0756", "jtype": "three_way", "gn_name": "Wathumulla"}, "geometry": {"type": "Point", "coordinates": [79.8674081999027, 6.836234197508416]}}, {"id": "763", "type": "Feature", "properties": {"node_id": "J0764", "jtype": "three_way", "gn_name": "Wathumulla"}, "geometry": {"type": "Point", "coordinates": [79.86744179980609, 6.836712697238349]}}, {"id": "766", "type": "Feature", "properties": {"node_id": "J0767", "jtype": "three_way", "gn_name": "Wathumulla"}, "geometry": {"type": "Point", "coordinates": [79.867452899988, 6.8368701998295185]}}, {"id": "781", "type": "Feature", "properties": {"node_id": "J0782", "jtype": "four_way", "gn_name": "Wedikanda"}, "geometry": {"type": "Point", "coordinates": [79.86603379815257, 6.819787299371267]}}, {"id": "782", "type": "Feature", "properties": {"node_id": "J0783", "jtype": "three_way", "gn_name": "Wedikanda"}, "geometry": {"type": "Point", "coordinates": [79.86627049750392, 6.8198651991785155]}}, {"id": "783", "type": "Feature", "properties": {"node_id": "J0784", "jtype": "three_way", "gn_name": "Wedikanda"}, "geometry": {"type": "Point", "coordinates": [79.86651479770417, 6.81994679931125]}}, {"id": "784", "type": "Feature", "properties": {"node_id": "J0785", "jtype": "three_way", "gn_name": "Wedikanda"}, "geometry": {"type": "Point", "coordinates": [79.86668650149052, 6.8200094005074305]}}, {"id": "786", "type": "Feature", "properties": {"node_id": "J0787", "jtype": "three_way", "gn_name": "Wedikanda"}, "geometry": {"type": "Point", "coordinates": [79.86686949999999, 6.8200717]}}, {"id": "790", "type": "Feature", "properties": {"node_id": "J0791", "jtype": "three_way", "gn_name": "Wedikanda"}, "geometry": {"type": "Point", "coordinates": [79.86728797425623, 6.82025148396022]}}, {"id": "793", "type": "Feature", "properties": {"node_id": "J0794", "jtype": "three_way", "gn_name": "Wedikanda"}, "geometry": {"type": "Point", "coordinates": [79.86754519795706, 6.820434798349783]}}, {"id": "794", "type": "Feature", "properties": {"node_id": "J0795", "jtype": "three_way", "gn_name": "Wedikanda"}, "geometry": {"type": "Point", "coordinates": [79.86550469941875, 6.820483601497763]}}, {"id": "795", "type": "Feature", "properties": {"node_id": "J0796", "jtype": "three_way", "gn_name": "Wedikanda"}, "geometry": {"type": "Point", "coordinates": [79.86547539984221, 6.8205591004057196]}}, {"id": "798", "type": "Feature", "properties": {"node_id": "J0799", "jtype": "three_way", "gn_name": "Wedikanda"}, "geometry": {"type": "Point", "coordinates": [79.86658560014625, 6.820610499469496]}}, {"id": "800", "type": "Feature", "properties": {"node_id": "J0801", "jtype": "three_way", "gn_name": "Wedikanda"}, "geometry": {"type": "Point", "coordinates": [79.8659907, 6.8206623]}}, {"id": "801", "type": "Feature", "properties": {"node_id": "J0802", "jtype": "three_way", "gn_name": "Wedikanda"}, "geometry": {"type": "Point", "coordinates": [79.86538810061516, 6.820783598418048]}}, {"id": "805", "type": "Feature", "properties": {"node_id": "J0806", "jtype": "three_way", "gn_name": "Wedikanda"}, "geometry": {"type": "Point", "coordinates": [79.86529220065346, 6.8210334982971395]}}, {"id": "807", "type": "Feature", "properties": {"node_id": "J0808", "jtype": "three_way", "gn_name": "Wedikanda"}, "geometry": {"type": "Point", "coordinates": [79.86813790002878, 6.8210872000252545]}}, {"id": "808", "type": "Feature", "properties": {"node_id": "J0809", "jtype": "three_way", "gn_name": "Wedikanda"}, "geometry": {"type": "Point", "coordinates": [79.86526119919803, 6.821114202167854]}}, {"id": "810", "type": "Feature", "properties": {"node_id": "J0811", "jtype": "three_way", "gn_name": "Wedikanda"}, "geometry": {"type": "Point", "coordinates": [79.86554029838764, 6.821222199376095]}}, {"id": "811", "type": "Feature", "properties": {"node_id": "J0812", "jtype": "three_way", "gn_name": "Wedikanda"}, "geometry": {"type": "Point", "coordinates": [79.8683053999932, 6.821234099994042]}}, {"id": "813", "type": "Feature", "properties": {"node_id": "J0814", "jtype": "three_way", "gn_name": "Wedikanda"}, "geometry": {"type": "Point", "coordinates": [79.86844179909087, 6.821375299058906]}}, {"id": "814", "type": "Feature", "properties": {"node_id": "J0815", "jtype": "three_way", "gn_name": "Wedikanda"}, "geometry": {"type": "Point", "coordinates": [79.86611870145536, 6.821431700516829]}}, {"id": "815", "type": "Feature", "properties": {"node_id": "J0816", "jtype": "three_way", "gn_name": "Wedikanda"}, "geometry": {"type": "Point", "coordinates": [79.86862900025058, 6.821471600074725]}}, {"id": "819", "type": "Feature", "properties": {"node_id": "J0820", "jtype": "three_way", "gn_name": "Wedikanda"}, "geometry": {"type": "Point", "coordinates": [79.86880740189257, 6.821524800498204]}}, {"id": "820", "type": "Feature", "properties": {"node_id": "J0821", "jtype": "three_way", "gn_name": "Wedikanda"}, "geometry": {"type": "Point", "coordinates": [79.86926060263153, 6.8216441008555915]}}, {"id": "824", "type": "Feature", "properties": {"node_id": "J0825", "jtype": "three_way", "gn_name": "Wedikanda"}, "geometry": {"type": "Point", "coordinates": [79.86501729910302, 6.8217735023570185]}}, {"id": "833", "type": "Feature", "properties": {"node_id": "J0834", "jtype": "three_way", "gn_name": "Wedikanda"}, "geometry": {"type": "Point", "coordinates": [79.86570110088934, 6.822060300403972]}}, {"id": "835", "type": "Feature", "properties": {"node_id": "J0836", "jtype": "three_way", "gn_name": "Wedikanda"}, "geometry": {"type": "Point", "coordinates": [79.86798370004892, 6.822191799778104]}}, {"id": "836", "type": "Feature", "properties": {"node_id": "J0837", "jtype": "three_way", "gn_name": "Wedikanda"}, "geometry": {"type": "Point", "coordinates": [79.8677329001639, 6.822266999559978]}}, {"id": "841", "type": "Feature", "properties": {"node_id": "J0842", "jtype": "three_way", "gn_name": "Wedikanda"}, "geometry": {"type": "Point", "coordinates": [79.86694329957758, 6.822463299949609]}}, {"id": "842", "type": "Feature", "properties": {"node_id": "J0843", "jtype": "three_way", "gn_name": "Wedikanda"}, "geometry": {"type": "Point", "coordinates": [79.86478699998756, 6.822531600058517]}}, {"id": "843", "type": "Feature", "properties": {"node_id": "J0844", "jtype": "three_way", "gn_name": "Wedikanda"}, "geometry": {"type": "Point", "coordinates": [79.86963509918746, 6.822547700940364]}}, {"id": "847", "type": "Feature", "properties": {"node_id": "J0848", "jtype": "three_way", "gn_name": "Wedikanda"}, "geometry": {"type": "Point", "coordinates": [79.86519950178669, 6.822677100745086]}}, {"id": "848", "type": "Feature", "properties": {"node_id": "J0849", "jtype": "three_way", "gn_name": "Wedikanda"}, "geometry": {"type": "Point", "coordinates": [79.8652229997472, 6.8226868998945776]}}, {"id": "852", "type": "Feature", "properties": {"node_id": "J0853", "jtype": "three_way", "gn_name": "Wedikanda"}, "geometry": {"type": "Point", "coordinates": [79.86688259999998, 6.822996600000003]}}, {"id": "854", "type": "Feature", "properties": {"node_id": "J0855", "jtype": "three_way", "gn_name": "Wedikanda"}, "geometry": {"type": "Point", "coordinates": [79.86656409999999, 6.823017899999999]}}, {"id": "855", "type": "Feature", "properties": {"node_id": "J0856", "jtype": "four_way", "gn_name": "Wedikanda"}, "geometry": {"type": "Point", "coordinates": [79.86706080207489, 6.82302250038409]}}, {"id": "858", "type": "Feature", "properties": {"node_id": "J0859", "jtype": "three_way", "gn_name": "Wedikanda"}, "geometry": {"type": "Point", "coordinates": [79.86514930051294, 6.823070698388113]}}, {"id": "859", "type": "Feature", "properties": {"node_id": "J0860", "jtype": "three_way", "gn_name": "Wedikanda"}, "geometry": {"type": "Point", "coordinates": [79.86819669834318, 6.823130299262091]}}, {"id": "868", "type": "Feature", "properties": {"node_id": "J0869", "jtype": "three_way", "gn_name": "Wedikanda"}, "geometry": {"type": "Point", "coordinates": [79.8677216993595, 6.823728302309222]}}, {"id": "873", "type": "Feature", "properties": {"node_id": "J0874", "jtype": "three_way", "gn_name": "Wedikanda"}, "geometry": {"type": "Point", "coordinates": [79.86489659865046, 6.824009401587289]}}, {"id": "874", "type": "Feature", "properties": {"node_id": "J0875", "jtype": "three_way", "gn_name": "Wedikanda"}, "geometry": {"type": "Point", "coordinates": [79.86465770000629, 6.824083500259293]}}, {"id": "876", "type": "Feature", "properties": {"node_id": "J0877", "jtype": "three_way", "gn_name": "Wedikanda"}, "geometry": {"type": "Point", "coordinates": [79.86849449998479, 6.824170400107897]}}, {"id": "880", "type": "Feature", "properties": {"node_id": "J0881", "jtype": "three_way", "gn_name": "Wedikanda"}, "geometry": {"type": "Point", "coordinates": [79.86461490002416, 6.824781999875126]}}, {"id": "882", "type": "Feature", "properties": {"node_id": "J0883", "jtype": "three_way", "gn_name": "Wedikanda"}, "geometry": {"type": "Point", "coordinates": [79.86826299993642, 6.824808500170377]}}, {"id": "884", "type": "Feature", "properties": {"node_id": "J0885", "jtype": "three_way", "gn_name": "Wedikanda"}, "geometry": {"type": "Point", "coordinates": [79.86650630028034, 6.824831500090257]}}, {"id": "885", "type": "Feature", "properties": {"node_id": "J0886", "jtype": "three_way", "gn_name": "Wedikanda"}, "geometry": {"type": "Point", "coordinates": [79.8645781999503, 6.824902500194932]}}, {"id": "888", "type": "Feature", "properties": {"node_id": "J0889", "jtype": "three_way", "gn_name": "Wedikanda"}, "geometry": {"type": "Point", "coordinates": [79.8671525004259, 6.825101600216901]}}, {"id": "890", "type": "Feature", "properties": {"node_id": "J0891", "jtype": "four_way", "gn_name": "Wedikanda"}, "geometry": {"type": "Point", "coordinates": [79.86449579993277, 6.825225900338787]}}, {"id": "892", "type": "Feature", "properties": {"node_id": "J0893", "jtype": "three_way", "gn_name": "Wedikanda"}, "geometry": {"type": "Point", "coordinates": [79.86759939965647, 6.82532919982505]}}, {"id": "894", "type": "Feature", "properties": {"node_id": "J0895", "jtype": "three_way", "gn_name": "Wedikanda"}, "geometry": {"type": "Point", "coordinates": [79.86780750185886, 6.8254796011307555]}}, {"id": "905", "type": "Feature", "properties": {"node_id": "J0906", "jtype": "three_way", "gn_name": "Wedikanda"}, "geometry": {"type": "Point", "coordinates": [79.86657759956027, 6.826253797653652]}}, {"id": "907", "type": "Feature", "properties": {"node_id": "J0908", "jtype": "three_way", "gn_name": "Wedikanda"}, "geometry": {"type": "Point", "coordinates": [79.86390990210155, 6.826465900256733]}}, {"id": "908", "type": "Feature", "properties": {"node_id": "J0909", "jtype": "four_way", "gn_name": "Wedikanda"}, "geometry": {"type": "Point", "coordinates": [79.8642667993187, 6.826509499916774]}}, {"id": "909", "type": "Feature", "properties": {"node_id": "J0910", "jtype": "three_way", "gn_name": "Wedikanda"}, "geometry": {"type": "Point", "coordinates": [79.8650091995469, 6.826612399937198]}}, {"id": "911", "type": "Feature", "properties": {"node_id": "J0912", "jtype": "three_way", "gn_name": "Wedikanda"}, "geometry": {"type": "Point", "coordinates": [79.86743529882285, 6.826876899888978]}}, {"id": "914", "type": "Feature", "properties": {"node_id": "J0915", "jtype": "three_way", "gn_name": "Wedikanda"}, "geometry": {"type": "Point", "coordinates": [79.86698849725539, 6.82690600103223]}}, {"id": "915", "type": "Feature", "properties": {"node_id": "J0916", "jtype": "three_way", "gn_name": "Wedikanda"}, "geometry": {"type": "Point", "coordinates": [79.8658192023559, 6.82700380154296]}}, {"id": "918", "type": "Feature", "properties": {"node_id": "J0919", "jtype": "three_way", "gn_name": "Wedikanda"}, "geometry": {"type": "Point", "coordinates": [79.86658940265285, 6.827056099002269]}}, {"id": "919", "type": "Feature", "properties": {"node_id": "J0920", "jtype": "three_way", "gn_name": "Wedikanda"}, "geometry": {"type": "Point", "coordinates": [79.8640350999647, 6.8270710003891315]}}, {"id": "920", "type": "Feature", "properties": {"node_id": "J0921", "jtype": "three_way", "gn_name": "Wedikanda"}, "geometry": {"type": "Point", "coordinates": [79.86653190008913, 6.827073499973021]}}, {"id": "922", "type": "Feature", "properties": {"node_id": "J0923", "jtype": "three_way", "gn_name": "Wedikanda"}, "geometry": {"type": "Point", "coordinates": [79.866035100465, 6.827145199997027]}}, {"id": "924", "type": "Feature", "properties": {"node_id": "J0925", "jtype": "three_way", "gn_name": "Wedikanda"}, "geometry": {"type": "Point", "coordinates": [79.86904248571246, 6.827193666542132]}}, {"id": "927", "type": "Feature", "properties": {"node_id": "J0928", "jtype": "three_way", "gn_name": "Wedikanda"}, "geometry": {"type": "Point", "coordinates": [79.86900089966436, 6.827303100825133]}}, {"id": "932", "type": "Feature", "properties": {"node_id": "J0933", "jtype": "three_way", "gn_name": "Wedikanda"}, "geometry": {"type": "Point", "coordinates": [79.86893350031745, 6.827468799219459]}}, {"id": "938", "type": "Feature", "properties": {"node_id": "J0939", "jtype": "three_way", "gn_name": "Wedikanda"}, "geometry": {"type": "Point", "coordinates": [79.86395449976604, 6.827960200104285]}}, {"id": "939", "type": "Feature", "properties": {"node_id": "J0940", "jtype": "three_way", "gn_name": "Wedikanda"}, "geometry": {"type": "Point", "coordinates": [79.86872250019124, 6.828030699494834]}}, {"id": "940", "type": "Feature", "properties": {"node_id": "J0941", "jtype": "three_way", "gn_name": "Wedikanda"}, "geometry": {"type": "Point", "coordinates": [79.8679714011243, 6.828035500039765]}}, {"id": "941", "type": "Feature", "properties": {"node_id": "J0942", "jtype": "three_way", "gn_name": "Wedikanda"}, "geometry": {"type": "Point", "coordinates": [79.86817780161108, 6.828042800271145]}}, {"id": "943", "type": "Feature", "properties": {"node_id": "J0944", "jtype": "three_way", "gn_name": "Wedikanda"}, "geometry": {"type": "Point", "coordinates": [79.8686613991134, 6.828184102228341]}}, {"id": "944", "type": "Feature", "properties": {"node_id": "J0945", "jtype": "three_way", "gn_name": "Wedikanda"}, "geometry": {"type": "Point", "coordinates": [79.8663302985691, 6.828188399895301]}}, {"id": "946", "type": "Feature", "properties": {"node_id": "J0947", "jtype": "four_way", "gn_name": "Wedikanda"}, "geometry": {"type": "Point", "coordinates": [79.86785840018952, 6.82844920005232]}}, {"id": "948", "type": "Feature", "properties": {"node_id": "J0949", "jtype": "three_way", "gn_name": "Wedikanda"}, "geometry": {"type": "Point", "coordinates": [79.86632160032343, 6.8285665971492]}}, {"id": "949", "type": "Feature", "properties": {"node_id": "J0950", "jtype": "three_way", "gn_name": "Wedikanda"}, "geometry": {"type": "Point", "coordinates": [79.86848689980866, 6.828622700446922]}}, {"id": "952", "type": "Feature", "properties": {"node_id": "J0953", "jtype": "three_way", "gn_name": "Wedikanda"}, "geometry": {"type": "Point", "coordinates": [79.86845060087448, 6.828707497957195]}}, {"id": "953", "type": "Feature", "properties": {"node_id": "J0954", "jtype": "three_way", "gn_name": "Wedikanda"}, "geometry": {"type": "Point", "coordinates": [79.86624169908856, 6.828797902317638]}}, {"id": "955", "type": "Feature", "properties": {"node_id": "J0956", "jtype": "three_way", "gn_name": "Wedikanda"}, "geometry": {"type": "Point", "coordinates": [79.86456729939903, 6.828941199964572]}}, {"id": "958", "type": "Feature", "properties": {"node_id": "J0959", "jtype": "three_way", "gn_name": "Wedikanda"}, "geometry": {"type": "Point", "coordinates": [79.86607540213505, 6.829174497990509]}}, {"id": "960", "type": "Feature", "properties": {"node_id": "J0961", "jtype": "four_way", "gn_name": "Wedikanda"}, "geometry": {"type": "Point", "coordinates": [79.86371299958097, 6.829398699331849]}}, {"id": "962", "type": "Feature", "properties": {"node_id": "J0963", "jtype": "three_way", "gn_name": "Wedikanda"}, "geometry": {"type": "Point", "coordinates": [79.86811640085358, 6.829539297875519]}}, {"id": "966", "type": "Feature", "properties": {"node_id": "J0967", "jtype": "three_way", "gn_name": "Wedikanda"}, "geometry": {"type": "Point", "coordinates": [79.86800880035132, 6.829816499048383]}}, {"id": "970", "type": "Feature", "properties": {"node_id": "J0971", "jtype": "three_way", "gn_name": "Wedikanda"}, "geometry": {"type": "Point", "coordinates": [79.8670796004521, 6.829940400089884]}}, {"id": "973", "type": "Feature", "properties": {"node_id": "J0974", "jtype": "three_way", "gn_name": "Wedikanda"}, "geometry": {"type": "Point", "coordinates": [79.86504939899025, 6.830103799904912]}}, {"id": "974", "type": "Feature", "properties": {"node_id": "J0975", "jtype": "three_way", "gn_name": "Wedikanda"}, "geometry": {"type": "Point", "coordinates": [79.86790249942216, 6.830104001562845]}}, {"id": "982", "type": "Feature", "properties": {"node_id": "J0983", "jtype": "three_way", "gn_name": "Wedikanda"}, "geometry": {"type": "Point", "coordinates": [79.86608850085096, 6.830285100513538]}}, {"id": "983", "type": "Feature", "properties": {"node_id": "J0984", "jtype": "three_way", "gn_name": "Mount Lavinia"}, "geometry": {"type": "Point", "coordinates": [79.867655, 6.830827]}}, {"id": "984", "type": "Feature", "properties": {"node_id": "J0985", "jtype": "three_way", "gn_name": "Wedikanda"}, "geometry": {"type": "Point", "coordinates": [79.86776579916828, 6.830481702535046]}}]}