{"type":"FeatureCollection","features":[{"type":"Feature","properties":{"node_id":2,"degree":3,"jtype":"three_way","gn_name":"Mount Lavinia","gn_pcode":"LK1131005","on_boundary":false,"marshall_cul":false,"exclusion_reason":null},"geometry":{"type":"Point","coordinates":[79.86258234426984,6.833235710285416]}},{"type":"Feature","properties":{"node_id":9,"degree":3,"jtype":"three_way","gn_name":"Mount Lavinia","gn_pcode":"LK1131005","on_boundary":false,"marshall_cul":false,"exclusion_reason":null},"geometry":{"type":"Point","coordinates":[79.86292370407782,6.84612398629048]}},{"type":"Feature","properties":{"node_id":14,"degree":3,"jtype":"three_way","gn_name":"Mount Lavinia","gn_pcode":"LK1131005","on_boundary":false,"marshall_cul":false,"exclusion_reason":null},"geometry":{"type":"Point","coordinates":[79.86304946821758,6.8349482209660275]}},{"type":"Feature","properties":{"node_id":15,"degree":3,"jtype":"three_way","gn_name":"Mount Lavinia","gn_pcode":"LK1131005","on_boundary":false,"marshall_cul":false,"exclusion_reason":null},"geometry":{"type":"Point","coordinates":[79.86304946821758,6.845339104687746]}},{"type":"Feature","properties":{"node_id":17,"degree":3,"jtype":"three_way","gn_name":"Mount Lavinia","gn_pcode":"LK1131005","on_boundary":false,"marshall_cul":false,"exclusion_reason":null},"geometry":{"type":"Point","coordinates":[79.86305845137042,6.847310225353863]}},{"type":"Feature","properties":{"node_id":21,"degree":3,"jtype":"three_way","gn_name":"Mount Lavinia","gn_pcode":"LK1131005","on_boundary":false,"marshall_cul":false,"exclusion_reason":null},"geometry":{"type":"Point","coordinates":[79.863139299746,6.846685889372301]}},{"type":"Feature","properties":{"node_id":22,"degree":3,"jtype":"three_way","gn_name":"Mount Lavinia","gn_pcode":"LK1131005","on_boundary":false,"marshall_cul":false,"exclusion_reason":null},"geometry":{"type":"Point","coordinates":[79.86314828289883,6.8443223243287825]}},{"type":"Feature","properties":{"node_id":23,"degree":3,"jtype":"three_way","gn_name":"Mount Lavinia","gn_pcode":"LK1131005","on_boundary":false,"marshall_cul":false,"exclusion_reason":null},"geometry":{"type":"Point","coordinates":[79.86320218181588,6.843590954661193]}},{"type":"Feature","properties":{"node_id":29,"degree":3,"jtype":"three_way","gn_name":"Mount Lavinia","gn_pcode":"LK1131005","on_boundary":false,"marshall_cul":false,"exclusion_reason":null},"geometry":{"type":"Point","coordinates":[79.8633998111784,6.84434016259936]}},{"type":"Feature","properties":{"node_id":32,"degree":3,"jtype":"three_way","gn_name":"Mount Lavinia","gn_pcode":"LK1131005","on_boundary":false,"marshall_cul":false,"exclusion_reason":null},"geometry":{"type":"Point","coordinates":[79.86353455847102,6.846748323007217]}},{"type":"Feature","properties":{"node_id":33,"degree":3,"jtype":"three_way","gn_name":"Mount Lavinia","gn_pcode":"LK1131005","on_boundary":false,"marshall_cul":false,"exclusion_reason":null},"geometry":{"type":"Point","coordinates":[79.86356150792953,6.842386868011674]}},{"type":"Feature","properties":{"node_id":34,"degree":3,"jtype":"three_way","gn_name":"Mount Lavinia","gn_pcode":"LK1131005","on_boundary":false,"marshall_cul":false,"exclusion_reason":null},"geometry":{"type":"Point","coordinates":[79.86357049108237,6.84795239865405]}},{"type":"Feature","properties":{"node_id":38,"degree":3,"jtype":"three_way","gn_name":"Mount Lavinia","gn_pcode":"LK1131005","on_boundary":false,"marshall_cul":false,"exclusion_reason":null},"geometry":{"type":"Point","coordinates":[79.86363337315227,6.845026935509703]}},{"type":"Feature","properties":{"node_id":39,"degree":3,"jtype":"three_way","gn_name":"Mount Lavinia","gn_pcode":"LK1131005","on_boundary":false,"marshall_cul":false,"exclusion_reason":null},"geometry":{"type":"Point","coordinates":[79.86363337315227,6.845240994396647]}},{"type":"Feature","properties":{"node_id":40,"degree":3,"jtype":"three_way","gn_name":"Mount Lavinia","gn_pcode":"LK1131005","on_boundary":false,"marshall_cul":false,"exclusion_reason":null},"geometry":{"type":"Point","coordinates":[79.86363337315227,6.845339104687746]}},{"type":"Feature","properties":{"node_id":41,"degree":3,"jtype":"three_way","gn_name":"Mount Lavinia","gn_pcode":"LK1131005","on_boundary":false,"marshall_cul":false,"exclusion_reason":null},"geometry":{"type":"Point","coordinates":[79.86363337315227,6.84569586921264]}},{"type":"Feature","properties":{"node_id":43,"degree":3,"jtype":"three_way","gn_name":"Mount Lavinia","gn_pcode":"LK1131005","on_boundary":true,"marshall_cul":false,"exclusion_reason":null},"geometry":{"type":"Point","coordinates":[79.86365133945795,6.8305063837113105]}},{"type":"Feature","properties":{"node_id":46,"degree":3,"jtype":"three_way","gn_name":"Mount Lavinia","gn_pcode":"LK1131005","on_boundary":false,"marshall_cul":false,"exclusion_reason":null},"geometry":{"type":"Point","coordinates":[79.86366930576362,6.835028494753662]}},{"type":"Feature","properties":{"node_id":48,"degree":3,"jtype":"three_way","gn_name":"Mount Lavinia","gn_pcode":"LK1131005","on_boundary":false,"marshall_cul":false,"exclusion_reason":null},"geometry":{"type":"Point","coordinates":[79.86374117098636,6.831576709714479]}},{"type":"Feature","properties":{"node_id":53,"degree":3,"jtype":"three_way","gn_name":"Mount Lavinia","gn_pcode":"LK1131005","on_boundary":false,"marshall_cul":false,"exclusion_reason":null},"geometry":{"type":"Point","coordinates":[79.86378608675057,6.844366920003975]}},{"type":"Feature","properties":{"node_id":54,"degree":3,"jtype":"three_way","gn_name":"Mount Lavinia","gn_pcode":"LK1131005","on_boundary":false,"marshall_cul":false,"exclusion_reason":null},"geometry":{"type":"Point","coordinates":[79.8637950699034,6.83337841974309]}},{"type":"Feature","properties":{"node_id":57,"degree":3,"jtype":"three_way","gn_name":"Mount Lavinia","gn_pcode":"LK1131005","on_boundary":false,"marshall_cul":false,"exclusion_reason":null},"geometry":{"type":"Point","coordinates":[79.86392083404318,6.8385159318441255]}},{"type":"Feature","properties":{"node_id":58,"degree":3,"jtype":"three_way","gn_name":"Mount Lavinia","gn_pcode":"LK1131005","on_boundary":false,"marshall_cul":false,"exclusion_reason":null},"geometry":{"type":"Point","coordinates":[79.86392083404318,6.844375839138514]}},{"type":"Feature","properties":{"node_id":59,"degree":3,"jtype":"three_way","gn_name":"Mount Lavinia","gn_pcode":"LK1131005","on_boundary":false,"marshall_cul":false,"exclusion_reason":null},"geometry":{"type":"Point","coordinates":[79.86394778350171,6.835064171988283]}},{"type":"Feature","properties":{"node_id":62,"degree":3,"jtype":"three_way","gn_name":"Mount Lavinia","gn_pcode":"LK1131005","on_boundary":false,"marshall_cul":false,"exclusion_reason":null},"geometry":{"type":"Point","coordinates":[79.86402863187728,6.844750442638652]}},{"type":"Feature","properties":{"node_id":63,"degree":3,"jtype":"three_way","gn_name":"Mount Lavinia","gn_pcode":"LK1131005","on_boundary":false,"marshall_cul":false,"exclusion_reason":null},"geometry":{"type":"Point","coordinates":[79.86402863187728,6.844919906030232]}},{"type":"Feature","properties":{"node_id":64,"degree":3,"jtype":"three_way","gn_name":"Mount Lavinia","gn_pcode":"LK1131005","on_boundary":false,"marshall_cul":false,"exclusion_reason":null},"geometry":{"type":"Point","coordinates":[79.86403761503013,6.8468018375449295]}},{"type":"Feature","properties":{"node_id":65,"degree":3,"jtype":"three_way","gn_name":"Mount Lavinia","gn_pcode":"LK1131005","on_boundary":false,"marshall_cul":false,"exclusion_reason":null},"geometry":{"type":"Point","coordinates":[79.8640555813358,6.844384758272885]}},{"type":"Feature","properties":{"node_id":67,"degree":3,"jtype":"three_way","gn_name":"Mount Lavinia","gn_pcode":"LK1131005","on_boundary":false,"marshall_cul":false,"exclusion_reason":null},"geometry":{"type":"Point","coordinates":[79.86406456448864,6.8452320752782745]}},{"type":"Feature","properties":{"node_id":68,"degree":3,"jtype":"three_way","gn_name":"Mount Lavinia","gn_pcode":"LK1131005","on_boundary":false,"marshall_cul":false,"exclusion_reason":null},"geometry":{"type":"Point","coordinates":[79.86409151394717,6.846222096400061]}},{"type":"Feature","properties":{"node_id":69,"degree":3,"jtype":"three_way","gn_name":"Mount Lavinia","gn_pcode":"LK1131005","on_boundary":false,"marshall_cul":false,"exclusion_reason":null},"geometry":{"type":"Point","coordinates":[79.86409151394717,6.847996993990023]}},{"type":"Feature","properties":{"node_id":70,"degree":3,"jtype":"three_way","gn_name":"Mount Lavinia","gn_pcode":"LK1131005","on_boundary":false,"marshall_cul":false,"exclusion_reason":null},"geometry":{"type":"Point","coordinates":[79.86415439601706,6.842458221379249]}},{"type":"Feature","properties":{"node_id":73,"degree":3,"jtype":"three_way","gn_name":"Mount Lavinia","gn_pcode":"LK1131005","on_boundary":false,"marshall_cul":false,"exclusion_reason":null},"geometry":{"type":"Point","coordinates":[79.86423524439262,6.833458693794314]}},{"type":"Feature","properties":{"node_id":74,"degree":3,"jtype":"three_way","gn_name":"Mount Lavinia","gn_pcode":"LK1131005","on_boundary":false,"marshall_cul":false,"exclusion_reason":null},"geometry":{"type":"Point","coordinates":[79.86429812646251,6.83311083947501]}},{"type":"Feature","properties":{"node_id":75,"degree":3,"jtype":"three_way","gn_name":"Mount Lavinia","gn_pcode":"LK1131005","on_boundary":false,"marshall_cul":false,"exclusion_reason":null},"geometry":{"type":"Point","coordinates":[79.86435202537956,6.844402596541131]}},{"type":"Feature","properties":{"node_id":76,"degree":3,"jtype":"three_way","gn_name":"Mount Lavinia","gn_pcode":"LK1131005","on_boundary":false,"marshall_cul":false,"exclusion_reason":null},"geometry":{"type":"Point","coordinates":[79.8643610085324,6.831656984068158]}},{"type":"Feature","properties":{"node_id":78,"degree":3,"jtype":"three_way","gn_name":"Mount Lavinia","gn_pcode":"LK1131005","on_boundary":false,"marshall_cul":false,"exclusion_reason":null},"geometry":{"type":"Point","coordinates":[79.86441490744946,6.84366230784882]}},{"type":"Feature","properties":{"node_id":79,"degree":3,"jtype":"three_way","gn_name":"Mount Lavinia","gn_pcode":"LK1131005","on_boundary":false,"marshall_cul":false,"exclusion_reason":null},"geometry":{"type":"Point","coordinates":[79.8644238906023,6.832406210719391]}},{"type":"Feature","properties":{"node_id":80,"degree":3,"jtype":"three_way","gn_name":"Mount Lavinia","gn_pcode":"LK1131005","on_boundary":false,"marshall_cul":false,"exclusion_reason":null},"geometry":{"type":"Point","coordinates":[79.8644688063665,6.84170901048794]}},{"type":"Feature","properties":{"node_id":81,"degree":3,"jtype":"three_way","gn_name":"Mount Lavinia","gn_pcode":"LK1131005","on_boundary":false,"marshall_cul":false,"exclusion_reason":null},"geometry":{"type":"Point","coordinates":[79.86448677267218,6.841387919746116]}},{"type":"Feature","properties":{"node_id":82,"degree":3,"jtype":"three_way","gn_name":"Mount Lavinia","gn_pcode":"LK1131005","on_boundary":false,"marshall_cul":false,"exclusion_reason":null},"geometry":{"type":"Point","coordinates":[79.86450473897787,6.8411738591316285]}},{"type":"Feature","properties":{"node_id":83,"degree":3,"jtype":"three_way","gn_name":"Mount Lavinia","gn_pcode":"LK1131005","on_boundary":false,"marshall_cul":false,"exclusion_reason":null},"geometry":{"type":"Point","coordinates":[79.86453168843639,6.8410668287884056]}},{"type":"Feature","properties":{"node_id":85,"degree":3,"jtype":"three_way","gn_name":"Mount Lavinia","gn_pcode":"LK1131005","on_boundary":false,"marshall_cul":false,"exclusion_reason":null},"geometry":{"type":"Point","coordinates":[79.86460355365912,6.840451403849396]}},{"type":"Feature","properties":{"node_id":86,"degree":3,"jtype":"three_way","gn_name":"Mount Lavinia","gn_pcode":"LK1131005","on_boundary":false,"marshall_cul":false,"exclusion_reason":null},"geometry":{"type":"Point","coordinates":[79.86460355365912,6.846864271164674]}},{"type":"Feature","properties":{"node_id":88,"degree":3,"jtype":"three_way","gn_name":"Mount Lavinia","gn_pcode":"LK1131005","on_boundary":false,"marshall_cul":false,"exclusion_reason":null},"geometry":{"type":"Point","coordinates":[79.86463948627048,6.840201665966799]}},{"type":"Feature","properties":{"node_id":90,"degree":3,"jtype":"three_way","gn_name":"Mount Lavinia","gn_pcode":"LK1131005","on_boundary":false,"marshall_cul":false,"exclusion_reason":null},"geometry":{"type":"Point","coordinates":[79.86465745257617,6.840041120116177]}},{"type":"Feature","properties":{"node_id":91,"degree":3,"jtype":"three_way","gn_name":"Mount Lavinia","gn_pcode":"LK1131005","on_boundary":false,"marshall_cul":false,"exclusion_reason":null},"geometry":{"type":"Point","coordinates":[79.86468440203468,6.832388372003242]}},{"type":"Feature","properties":{"node_id":93,"degree":3,"jtype":"three_way","gn_name":"Mount Lavinia","gn_pcode":"LK1131005","on_boundary":false,"marshall_cul":false,"exclusion_reason":null},"geometry":{"type":"Point","coordinates":[79.86470236834036,6.839791382019064]}},{"type":"Feature","properties":{"node_id":95,"degree":3,"jtype":"three_way","gn_name":"Mount Lavinia","gn_pcode":"LK1131005","on_boundary":false,"marshall_cul":false,"exclusion_reason":null},"geometry":{"type":"Point","coordinates":[79.86473830095173,6.8314607578464885]}},{"type":"Feature","properties":{"node_id":97,"degree":3,"jtype":"three_way","gn_name":"Mount Lavinia","gn_pcode":"LK1131005","on_boundary":false,"marshall_cul":false,"exclusion_reason":null},"geometry":{"type":"Point","coordinates":[79.86473830095173,6.848032670255799]}},{"type":"Feature","properties":{"node_id":98,"degree":3,"jtype":"three_way","gn_name":"Mount Lavinia","gn_pcode":"LK1131005","on_boundary":false,"marshall_cul":false,"exclusion_reason":null},"geometry":{"type":"Point","coordinates":[79.86474728410457,6.833868983178969]}},{"type":"Feature","properties":{"node_id":99,"degree":3,"jtype":"three_way","gn_name":"Mount Lavinia","gn_pcode":"LK1131005","on_boundary":false,"marshall_cul":false,"exclusion_reason":null},"geometry":{"type":"Point","coordinates":[79.86476525041026,6.839309743891629]}},{"type":"Feature","properties":{"node_id":100,"degree":3,"jtype":"three_way","gn_name":"Mount Lavinia","gn_pcode":"LK1131005","on_boundary":false,"marshall_cul":false,"exclusion_reason":null},"geometry":{"type":"Point","coordinates":[79.8647742335631,6.842529574736159]}},{"type":"Feature","properties":{"node_id":101,"degree":3,"jtype":"three_way","gn_name":"Mount Lavinia","gn_pcode":"LK1131005","on_boundary":false,"marshall_cul":false,"exclusion_reason":null},"geometry":{"type":"Point","coordinates":[79.86478321671594,6.839095682345786]}},{"type":"Feature","properties":{"node_id":103,"degree":3,"jtype":"three_way","gn_name":"Mount Lavinia","gn_pcode":"LK1131005","on_boundary":false,"marshall_cul":false,"exclusion_reason":null},"geometry":{"type":"Point","coordinates":[79.86479219986877,6.847577797667313]}},{"type":"Feature","properties":{"node_id":108,"degree":3,"jtype":"three_way","gn_name":"Mount Lavinia","gn_pcode":"LK1131005","on_boundary":false,"marshall_cul":false,"exclusion_reason":null},"geometry":{"type":"Point","coordinates":[79.86490898085572,6.838105646448616]}},{"type":"Feature","properties":{"node_id":110,"degree":3,"jtype":"three_way","gn_name":"Mount Lavinia","gn_pcode":"LK1131005","on_boundary":false,"marshall_cul":false,"exclusion_reason":null},"geometry":{"type":"Point","coordinates":[79.86491796400855,6.8380253731778495]}},{"type":"Feature","properties":{"node_id":111,"degree":3,"jtype":"three_way","gn_name":"Mount Lavinia","gn_pcode":"LK1131005","on_boundary":false,"marshall_cul":false,"exclusion_reason":null},"geometry":{"type":"Point","coordinates":[79.8649269471614,6.845240994396647]}},{"type":"Feature","properties":{"node_id":112,"degree":3,"jtype":"three_way","gn_name":"Mount Lavinia","gn_pcode":"LK1131005","on_boundary":false,"marshall_cul":false,"exclusion_reason":null},"geometry":{"type":"Point","coordinates":[79.86493593031423,6.841539545956659]}},{"type":"Feature","properties":{"node_id":114,"degree":3,"jtype":"three_way","gn_name":"Mount Lavinia","gn_pcode":"LK1131005","on_boundary":false,"marshall_cul":false,"exclusion_reason":null},"geometry":{"type":"Point","coordinates":[79.86495389661992,6.845749383868371]}},{"type":"Feature","properties":{"node_id":116,"degree":3,"jtype":"three_way","gn_name":"Mount Lavinia","gn_pcode":"LK1131005","on_boundary":false,"marshall_cul":false,"exclusion_reason":null},"geometry":{"type":"Point","coordinates":[79.8650347449955,6.846908866602348]}},{"type":"Feature","properties":{"node_id":118,"degree":3,"jtype":"three_way","gn_name":"Mount Lavinia","gn_pcode":"LK1131005","on_boundary":false,"marshall_cul":false,"exclusion_reason":null},"geometry":{"type":"Point","coordinates":[79.86514254282959,6.836018537026024]}},{"type":"Feature","properties":{"node_id":120,"degree":3,"jtype":"three_way","gn_name":"Mount Lavinia","gn_pcode":"LK1131005","on_boundary":false,"marshall_cul":false,"exclusion_reason":null},"geometry":{"type":"Point","coordinates":[79.86515152598243,6.844768280893231]}},{"type":"Feature","properties":{"node_id":121,"degree":3,"jtype":"three_way","gn_name":"Mount Lavinia","gn_pcode":"LK1131005","on_boundary":false,"marshall_cul":false,"exclusion_reason":null},"geometry":{"type":"Point","coordinates":[79.86516050913526,6.831433999719114]}},{"type":"Feature","properties":{"node_id":123,"degree":3,"jtype":"three_way","gn_name":"Mount Lavinia","gn_pcode":"LK1131005","on_boundary":false,"marshall_cul":false,"exclusion_reason":null},"geometry":{"type":"Point","coordinates":[79.86516949228812,6.844456111341863]}},{"type":"Feature","properties":{"node_id":125,"degree":3,"jtype":"three_way","gn_name":"Mount Lavinia","gn_pcode":"LK1131005","on_boundary":false,"marshall_cul":false,"exclusion_reason":null},"geometry":{"type":"Point","coordinates":[79.86524135751084,6.835412024886288]}},{"type":"Feature","properties":{"node_id":126,"degree":3,"jtype":"three_way","gn_name":"Mount Lavinia","gn_pcode":"LK1131005","on_boundary":false,"marshall_cul":false,"exclusion_reason":null},"geometry":{"type":"Point","coordinates":[79.86527729012221,6.835215800205716]}},{"type":"Feature","properties":{"node_id":129,"degree":3,"jtype":"three_way","gn_name":"Mount Lavinia","gn_pcode":"LK1131005","on_boundary":false,"marshall_cul":false,"exclusion_reason":null},"geometry":{"type":"Point","coordinates":[79.86533118903925,6.846944542949487]}},{"type":"Feature","properties":{"node_id":130,"degree":3,"jtype":"three_way","gn_name":"Mount Lavinia","gn_pcode":"LK1131005","on_boundary":false,"marshall_cul":false,"exclusion_reason":null},"geometry":{"type":"Point","coordinates":[79.86534915534493,6.835046333371305]}},{"type":"Feature","properties":{"node_id":135,"degree":3,"jtype":"three_way","gn_name":"Mount Lavinia","gn_pcode":"LK1131005","on_boundary":false,"marshall_cul":false,"exclusion_reason":null},"geometry":{"type":"Point","coordinates":[79.86550186894323,6.848772952168644]}},{"type":"Feature","properties":{"node_id":138,"degree":3,"jtype":"three_way","gn_name":"Mount Lavinia","gn_pcode":"LK1131005","on_boundary":false,"marshall_cul":false,"exclusion_reason":null},"geometry":{"type":"Point","coordinates":[79.86560966677733,6.842636604751534]}},{"type":"Feature","properties":{"node_id":140,"degree":3,"jtype":"three_way","gn_name":"Mount Lavinia","gn_pcode":"LK1131005","on_boundary":false,"marshall_cul":false,"exclusion_reason":null},"geometry":{"type":"Point","coordinates":[79.86561864993017,6.832441888149695]}},{"type":"Feature","properties":{"node_id":141,"degree":3,"jtype":"three_way","gn_name":"Mount Lavinia","gn_pcode":"LK1131005","on_boundary":false,"marshall_cul":false,"exclusion_reason":null},"geometry":{"type":"Point","coordinates":[79.86561864993017,6.844465030474735]}},{"type":"Feature","properties":{"node_id":147,"degree":3,"jtype":"three_way","gn_name":"Mount Lavinia","gn_pcode":"LK1131005","on_boundary":false,"marshall_cul":false,"exclusion_reason":null},"geometry":{"type":"Point","coordinates":[79.86568153200007,6.830220963039294]}},{"type":"Feature","properties":{"node_id":150,"degree":3,"jtype":"three_way","gn_name":"Mount Lavinia","gn_pcode":"LK1131005","on_boundary":false,"marshall_cul":false,"exclusion_reason":null},"geometry":{"type":"Point","coordinates":[79.86574441406995,6.834252514241872]}},{"type":"Feature","properties":{"node_id":153,"degree":3,"jtype":"three_way","gn_name":"Mount Lavinia","gn_pcode":"LK1131005","on_boundary":false,"marshall_cul":false,"exclusion_reason":null},"geometry":{"type":"Point","coordinates":[79.86596000973813,6.849397285419036]}},{"type":"Feature","properties":{"node_id":155,"degree":3,"jtype":"three_way","gn_name":"Mount Lavinia","gn_pcode":"LK1131005","on_boundary":false,"marshall_cul":false,"exclusion_reason":null},"geometry":{"type":"Point","coordinates":[79.86596899289097,6.848077265584268]}},{"type":"Feature","properties":{"node_id":156,"degree":3,"jtype":"three_way","gn_name":"Mount Lavinia","gn_pcode":"LK1131005","on_boundary":false,"marshall_cul":false,"exclusion_reason":null},"geometry":{"type":"Point","coordinates":[79.86596899289097,6.848737275958227]}},{"type":"Feature","properties":{"node_id":157,"degree":3,"jtype":"three_way","gn_name":"Mount Lavinia","gn_pcode":"LK1131005","on_boundary":false,"marshall_cul":false,"exclusion_reason":null},"geometry":{"type":"Point","coordinates":[79.86598695919666,6.8475153641409285]}},{"type":"Feature","properties":{"node_id":161,"degree":3,"jtype":"three_way","gn_name":"Mount Lavinia","gn_pcode":"LK1131005","on_boundary":false,"marshall_cul":false,"exclusion_reason":null},"geometry":{"type":"Point","coordinates":[79.86603187496085,6.846998057465194]}},{"type":"Feature","properties":{"node_id":163,"degree":3,"jtype":"three_way","gn_name":"Mount Lavinia","gn_pcode":"LK1131005","on_boundary":false,"marshall_cul":false,"exclusion_reason":null},"geometry":{"type":"Point","coordinates":[79.8660857738779,6.832468646220676]}},{"type":"Feature","properties":{"node_id":164,"degree":3,"jtype":"three_way","gn_name":"Mount Lavinia","gn_pcode":"LK1131005","on_boundary":false,"marshall_cul":false,"exclusion_reason":null},"geometry":{"type":"Point","coordinates":[79.8660857738779,6.8464272356549145]}},{"type":"Feature","properties":{"node_id":167,"degree":3,"jtype":"three_way","gn_name":"Mount Lavinia","gn_pcode":"LK1131005","on_boundary":false,"marshall_cul":false,"exclusion_reason":null},"geometry":{"type":"Point","coordinates":[79.86612170648928,6.831549951593592]}},{"type":"Feature","properties":{"node_id":169,"degree":3,"jtype":"three_way","gn_name":"Mount Lavinia","gn_pcode":"LK1131005","on_boundary":false,"marshall_cul":false,"exclusion_reason":null},"geometry":{"type":"Point","coordinates":[79.86618458855916,6.845579920771301]}},{"type":"Feature","properties":{"node_id":170,"degree":3,"jtype":"three_way","gn_name":"Mount Lavinia","gn_pcode":"LK1131005","on_boundary":true,"marshall_cul":false,"exclusion_reason":null},"geometry":{"type":"Point","coordinates":[79.86620255486486,6.84553532520944]}},{"type":"Feature","properties":{"node_id":172,"degree":3,"jtype":"three_way","gn_name":"Mount Lavinia","gn_pcode":"LK1131005","on_boundary":true,"marshall_cul":false,"exclusion_reason":null},"geometry":{"type":"Point","coordinates":[79.86622052117053,6.845330185571205]}},{"type":"Feature","properties":{"node_id":173,"degree":3,"jtype":"three_way","gn_name":"Mount Lavinia","gn_pcode":"LK1131005","on_boundary":true,"marshall_cul":false,"exclusion_reason":null},"geometry":{"type":"Point","coordinates":[79.86622950432337,6.830372592792509]}},{"type":"Feature","properties":{"node_id":174,"degree":3,"jtype":"three_way","gn_name":"Mount Lavinia","gn_pcode":"LK1131005","on_boundary":false,"marshall_cul":false,"exclusion_reason":null},"geometry":{"type":"Point","coordinates":[79.86629238639325,6.84448286873998]}},{"type":"Feature","properties":{"node_id":175,"degree":3,"jtype":"three_way","gn_name":"Mount Lavinia","gn_pcode":"LK1131005","on_boundary":false,"marshall_cul":false,"exclusion_reason":null},"geometry":{"type":"Point","coordinates":[79.86631035269895,6.835197961594397]}},{"type":"Feature","properties":{"node_id":176,"degree":3,"jtype":"three_way","gn_name":"Mount Lavinia","gn_pcode":"LK1131005","on_boundary":false,"marshall_cul":false,"exclusion_reason":null},"geometry":{"type":"Point","coordinates":[79.86633730215746,6.843974477919291]}},{"type":"Feature","properties":{"node_id":180,"degree":3,"jtype":"three_way","gn_name":"Mount Lavinia","gn_pcode":"LK1131005","on_boundary":false,"marshall_cul":false,"exclusion_reason":null},"geometry":{"type":"Point","coordinates":[79.86638221792167,6.843644469552912]}},{"type":"Feature","properties":{"node_id":181,"degree":3,"jtype":"three_way","gn_name":"Mount Lavinia","gn_pcode":"LK1131005","on_boundary":false,"marshall_cul":false,"exclusion_reason":null},"geometry":{"type":"Point","coordinates":[79.86640018422736,6.842003343478287]}},{"type":"Feature","properties":{"node_id":182,"degree":3,"jtype":"three_way","gn_name":"Mount Lavinia","gn_pcode":"LK1131005","on_boundary":false,"marshall_cul":false,"exclusion_reason":null},"geometry":{"type":"Point","coordinates":[79.86648103260292,6.843171754468521]}},{"type":"Feature","properties":{"node_id":184,"degree":3,"jtype":"three_way","gn_name":"Mount Lavinia","gn_pcode":"LK1131005","on_boundary":false,"marshall_cul":false,"exclusion_reason":null},"geometry":{"type":"Point","coordinates":[79.86653493151996,6.835171203676169]}},{"type":"Feature","properties":{"node_id":185,"degree":3,"jtype":"three_way","gn_name":"Mount Lavinia","gn_pcode":"LK1131005","on_boundary":false,"marshall_cul":false,"exclusion_reason":null},"geometry":{"type":"Point","coordinates":[79.8665618809785,6.832522162358146]}},{"type":"Feature","properties":{"node_id":186,"degree":3,"jtype":"three_way","gn_name":"Mount Lavinia","gn_pcode":"LK1131005","on_boundary":false,"marshall_cul":false,"exclusion_reason":null},"geometry":{"type":"Point","coordinates":[79.86659781358985,6.842752553907781]}},{"type":"Feature","properties":{"node_id":190,"degree":3,"jtype":"three_way","gn_name":"Mount Lavinia","gn_pcode":"LK1131005","on_boundary":false,"marshall_cul":false,"exclusion_reason":null},"geometry":{"type":"Point","coordinates":[79.86669662827111,6.842047939370088]}},{"type":"Feature","properties":{"node_id":192,"degree":3,"jtype":"three_way","gn_name":"Mount Lavinia","gn_pcode":"LK1131005","on_boundary":false,"marshall_cul":false,"exclusion_reason":null},"geometry":{"type":"Point","coordinates":[79.86675052718816,6.832531081713808]}},{"type":"Feature","properties":{"node_id":193,"degree":3,"jtype":"three_way","gn_name":"Mount Lavinia","gn_pcode":"LK1131005","on_boundary":false,"marshall_cul":false,"exclusion_reason":null},"geometry":{"type":"Point","coordinates":[79.86675052718816,6.835117687835222]}},{"type":"Feature","properties":{"node_id":194,"degree":3,"jtype":"three_way","gn_name":"Mount Lavinia","gn_pcode":"LK1131005","on_boundary":false,"marshall_cul":false,"exclusion_reason":null},"geometry":{"type":"Point","coordinates":[79.86675951034101,6.831576709714479]}},{"type":"Feature","properties":{"node_id":195,"degree":3,"jtype":"three_way","gn_name":"Mount Lavinia","gn_pcode":"LK1131005","on_boundary":false,"marshall_cul":false,"exclusion_reason":null},"geometry":{"type":"Point","coordinates":[79.86677747664669,6.839336501578116]}},{"type":"Feature","properties":{"node_id":197,"degree":3,"jtype":"three_way","gn_name":"Mount Lavinia","gn_pcode":"LK1131005","on_boundary":false,"marshall_cul":false,"exclusion_reason":null},"geometry":{"type":"Point","coordinates":[79.8668223924109,6.842065777725644]}},{"type":"Feature","properties":{"node_id":198,"degree":3,"jtype":"three_way","gn_name":"Mount Lavinia","gn_pcode":"LK1131005","on_boundary":false,"marshall_cul":false,"exclusion_reason":null},"geometry":{"type":"Point","coordinates":[79.86688527448078,6.841842798233315]}},{"type":"Feature","properties":{"node_id":199,"degree":3,"jtype":"three_way","gn_name":"Mount Lavinia","gn_pcode":"LK1131005","on_boundary":false,"marshall_cul":false,"exclusion_reason":null},"geometry":{"type":"Point","coordinates":[79.86691222393931,6.8402908580827155]}},{"type":"Feature","properties":{"node_id":200,"degree":3,"jtype":"three_way","gn_name":"Mount Lavinia","gn_pcode":"LK1131005","on_boundary":false,"marshall_cul":false,"exclusion_reason":null},"geometry":{"type":"Point","coordinates":[79.86693019024499,6.8410311520019995]}},{"type":"Feature","properties":{"node_id":202,"degree":3,"jtype":"three_way","gn_name":"Mount Lavinia","gn_pcode":"LK1131005","on_boundary":false,"marshall_cul":false,"exclusion_reason":null},"geometry":{"type":"Point","coordinates":[79.86694815655066,6.841655495379295]}},{"type":"Feature","properties":{"node_id":204,"degree":3,"jtype":"three_way","gn_name":"Mount Lavinia","gn_pcode":"LK1131005","on_boundary":false,"marshall_cul":false,"exclusion_reason":null},"geometry":{"type":"Point","coordinates":[79.86696612285635,6.830711529714124]}},{"type":"Feature","properties":{"node_id":208,"degree":3,"jtype":"three_way","gn_name":"Mount Lavinia","gn_pcode":"LK1131005","on_boundary":false,"marshall_cul":false,"exclusion_reason":null},"geometry":{"type":"Point","coordinates":[79.86719070167737,6.831594548460905]}},{"type":"Feature","properties":{"node_id":209,"degree":3,"jtype":"three_way","gn_name":"Mount Lavinia","gn_pcode":"LK1131005","on_boundary":false,"marshall_cul":false,"exclusion_reason":null},"geometry":{"type":"Point","coordinates":[79.86730748266432,6.834065208412381]}},{"type":"Feature","properties":{"node_id":214,"degree":3,"jtype":"three_way","gn_name":"Mount Lavinia","gn_pcode":"LK1131005","on_boundary":false,"marshall_cul":false,"exclusion_reason":null},"geometry":{"type":"Point","coordinates":[79.8674152804984,6.837338590198923]}},{"type":"Feature","properties":{"node_id":216,"degree":3,"jtype":"three_way","gn_name":"Mount Lavinia","gn_pcode":"LK1131005","on_boundary":false,"marshall_cul":false,"exclusion_reason":null},"geometry":{"type":"Point","coordinates":[79.8674781625683,6.83160346783387]}}]}