{"type":"FeatureCollection","features":[{"type":"Feature","properties":{"osm_id":15242147,"highway":"tertiary","name":"Hotel Road","nf_road_id":"1-0","marshall_clip_id":"0-0","gn_name":"Mount Lavinia"},"geometry":{"type":"LineString","coordinates":[[79.8657208,6.835270799999999],[79.8656099,6.8351798],[79.8654804,6.835109],[79.8653497,6.835043999999999],[79.86528160000002,6.835005],[79.8652541,6.8349779],[79.86523179999999,6.8349402999999995],[79.86474599999997,6.833872500000001],[79.86457099999998,6.8336824],[79.8644055,6.8335584],[79.8642335,6.833460399999999],[79.8637951,6.8333763],[79.8633846,6.8333598],[79.86257870000001,6.8332384]]}},{"type":"Feature","properties":{"osm_id":15242148,"highway":"residential","name":"Station Road","nf_road_id":"2-0","marshall_clip_id":"1-0","gn_name":"Mount Lavinia"},"geometry":{"type":"LineString","coordinates":[[79.86737599301327,6.832563653126241],[79.86733519999997,6.8325615],[79.86674819999999,6.832531],[79.86656099999999,6.8325255],[79.86614869999998,6.832471199999999],[79.8660832,6.832467599999999],[79.8656153,6.8324416],[79.86468,6.8323897],[79.86442009999999,6.832409399999999],[79.86396979999999,6.832386499999998]]}},{"type":"Feature","properties":{"osm_id":15242149,"highway":"residential","name":"Station Road","nf_road_id":"3-0","marshall_clip_id":"2-0","gn_name":"Mount Lavinia"},"geometry":{"type":"LineString","coordinates":[[79.86468,6.8323897],[79.8646245,6.832240999999999],[79.86444499999999,6.8318107],[79.8643586,6.831661],[79.864254,6.831555699999999],[79.86418050000002,6.831530999999998],[79.86373929999998,6.8315788999999985],[79.86367029999997,6.831611099999999],[79.8635901,6.831626299999999],[79.8635,6.831610100000001],[79.8634499,6.831550499999999],[79.8634375,6.831284400000001],[79.8633957,6.8312082],[79.8633307,6.8311883],[79.86314339999998,6.831164300000001],[79.8630657,6.8312028],[79.8630269,6.8312598],[79.86298359999998,6.831603999999999],[79.86290099999998,6.831941999999998],[79.86285,6.8320879],[79.86261,6.8325513],[79.8625506,6.832781599999999],[79.86252930000002,6.8330393],[79.86253979999996,6.8331796],[79.86257870000001,6.8332384]]}},{"type":"Feature","properties":{"osm_id":15242151,"highway":"service","name":"","nf_road_id":"4-0","marshall_clip_id":"3-0","gn_name":"Mount Lavinia"},"geometry":{"type":"LineString","coordinates":[[79.86201399999999,6.833176000000001],[79.86231769999999,6.833197699999998]]}},{"type":"Feature","properties":{"osm_id":29010346,"highway":"primary","name":"Kawdana Road","nf_road_id":"8-0","marshall_clip_id":"5-0","gn_name":"Mount Lavinia"},"geometry":{"type":"LineString","coordinates":[[79.86599,6.847517099999999],[79.86601661036912,6.847518590180675]]}},{"type":"Feature","properties":{"osm_id":46897989,"highway":"residential","name":"Off Hotel Road","nf_road_id":"9-0","marshall_clip_id":"6-0","gn_name":"Mount Lavinia"},"geometry":{"type":"LineString","coordinates":[[79.8645299,6.8410697],[79.86523159999999,6.841169799999999],[79.8653274,6.8411666],[79.86540639999997,6.841080100000001],[79.8654335,6.8410718],[79.8657288,6.841104099999999],[79.86694829999998,6.8412825]]}},{"type":"Feature","properties":{"osm_id":46897991,"highway":"residential","name":"","nf_road_id":"10-0","marshall_clip_id":"7-0","gn_name":"Mount Lavinia"},"geometry":{"type":"LineString","coordinates":[[79.86542759999998,6.8416892],[79.8667885,6.8418242000000005],[79.8668886,6.841843599999997]]}},{"type":"Feature","properties":{"osm_id":46898066,"highway":"residential","name":"Beach Road","nf_road_id":"14-0","marshall_clip_id":"11-0","gn_name":"Mount Lavinia"},"geometry":{"type":"LineString","coordinates":[[79.86298919999999,6.842324],[79.86355829999997,6.8423899],[79.8639262,6.8424313],[79.8641564,6.842459],[79.86477669999996,6.842526000000001],[79.8656102,6.8426333],[79.8665992,6.8427545]]}},{"type":"Feature","properties":{"osm_id":46898081,"highway":"residential","name":"De Alwis Avenue","nf_road_id":"15-0","marshall_clip_id":"12-0","gn_name":"Mount Lavinia"},"geometry":{"type":"LineString","coordinates":[[79.8630986,6.841039399999999],[79.8645065,6.841171800000001]]}},{"type":"Feature","properties":{"osm_id":46898097,"highway":"residential","name":"Samudra Mawatha","nf_road_id":"16-0","marshall_clip_id":"13-0","gn_name":"Mount Lavinia"},"geometry":{"type":"LineString","coordinates":[[79.86302749999999,6.841550999999998],[79.86446969999997,6.8417086]]}},{"type":"Feature","properties":{"osm_id":46898128,"highway":"residential","name":"Siripala Road","nf_road_id":"17-0","marshall_clip_id":"14-0","gn_name":"Mount Lavinia"},"geometry":{"type":"LineString","coordinates":[[79.86305879999999,6.8429991],[79.86648299999999,6.843167599999998]]}},{"type":"Feature","properties":{"osm_id":46898160,"highway":"residential","name":"De Seram Road","nf_road_id":"18-0","marshall_clip_id":"15-0","gn_name":"Mount Lavinia"},"geometry":{"type":"LineString","coordinates":[[79.86458809999998,6.8407113],[79.86460439999999,6.840449399999999],[79.864636,6.840202],[79.86465599999997,6.840045000000001],[79.8646813,6.839876000000001],[79.86469929999998,6.8397891],[79.8647678,6.8393068],[79.86477959999999,6.8390924],[79.86484019999999,6.8386396]]}},{"type":"Feature","properties":{"osm_id":46898174,"highway":"residential","name":"De Saram Road","nf_road_id":"19-0","marshall_clip_id":"16-0","gn_name":"Mount Lavinia"},"geometry":{"type":"LineString","coordinates":[[79.86346649999999,6.839643600000001],[79.86469929999998,6.8397891]]}},{"type":"Feature","properties":{"osm_id":46898186,"highway":"residential","name":"","nf_road_id":"20-0","marshall_clip_id":"17-0","gn_name":"Mount Lavinia"},"geometry":{"type":"LineString","coordinates":[[79.8632889,6.840277],[79.86460439999999,6.840449399999999]]}},{"type":"Feature","properties":{"osm_id":46898204,"highway":"residential","name":"De Seram Road","nf_road_id":"21-0","marshall_clip_id":"18-0","gn_name":"Mount Lavinia"},"geometry":{"type":"LineString","coordinates":[[79.8641564,6.842459],[79.8642094,6.842011600000001],[79.8642488,6.841959599999998],[79.8643874,6.8419524],[79.86443799999998,6.8419256],[79.86446969999997,6.8417086],[79.8644885,6.841391599999999],[79.8645065,6.841171800000001],[79.8645299,6.8410697],[79.86458809999998,6.8407113]]}},{"type":"Feature","properties":{"osm_id":46898206,"highway":"residential","name":"","nf_road_id":"22-0","marshall_clip_id":"19-0","gn_name":"Mount Lavinia"},"geometry":{"type":"LineString","coordinates":[[79.8652746,6.835214299999998],[79.865243,6.8354107],[79.86514509999998,6.836018799999998],[79.8651377,6.836081000000002],[79.86503160000001,6.8368139],[79.8650083,6.8370659],[79.8649194,6.838027699999999],[79.8649122,6.838105399999999],[79.86484019999999,6.8386396]]}},{"type":"Feature","properties":{"osm_id":46898224,"highway":"residential","name":"","nf_road_id":"23-0","marshall_clip_id":"20-0","gn_name":"Mount Lavinia"},"geometry":{"type":"LineString","coordinates":[[79.86334829999998,6.8358118],[79.86514509999998,6.836018799999998]]}},{"type":"Feature","properties":{"osm_id":46898225,"highway":"residential","name":"Cross Road","nf_road_id":"24-0","marshall_clip_id":"21-0","gn_name":"Mount Lavinia"},"geometry":{"type":"LineString","coordinates":[[79.8657208,6.835270799999999],[79.8658749,6.8352578],[79.8663071,6.835199000000001],[79.8665306,6.8351686]]}},{"type":"Feature","properties":{"osm_id":46898227,"highway":"residential","name":"De Seram Road","nf_road_id":"25-0","marshall_clip_id":"22-0","gn_name":"Mount Lavinia"},"geometry":{"type":"LineString","coordinates":[[79.86338059999997,6.840538400000002],[79.86458809999998,6.8407113],[79.86693249999999,6.8410269999999995]]}},{"type":"Feature","properties":{"osm_id":46898236,"highway":"residential","name":"","nf_road_id":"26-0","marshall_clip_id":"23-0","gn_name":"Mount Lavinia"},"geometry":{"type":"LineString","coordinates":[[79.86289459999998,6.8349228],[79.86305379999997,6.834945199999999],[79.86327209999997,6.834976600000001],[79.86366949999997,6.835030100000001],[79.8639451,6.8350643],[79.8649547,6.835189699999999],[79.8652746,6.835214299999998]]}},{"type":"Feature","properties":{"osm_id":46898237,"highway":"residential","name":"Mount Avenue","nf_road_id":"27-0","marshall_clip_id":"24-0","gn_name":"Mount Lavinia"},"geometry":{"type":"LineString","coordinates":[[79.8637951,6.8333763],[79.8637707,6.8338446],[79.86366949999997,6.835030100000001]]}},{"type":"Feature","properties":{"osm_id":46898239,"highway":"residential","name":"College Avenue","nf_road_id":"28-0","marshall_clip_id":"25-0","gn_name":"Mount Lavinia"},"geometry":{"type":"LineString","coordinates":[[79.86343169999998,6.8384560999999975],[79.8639229,6.838518599999998],[79.86484019999999,6.8386396],[79.8653577,6.8387062],[79.8656586,6.838747599999999],[79.8658533,6.838767599999997],[79.86630379999998,6.8388391],[79.8666888,6.838899699999998],[79.86711549999997,6.838954299999999],[79.86748509999997,6.838976300000001],[79.86751698665724,6.838968120379309]]}},{"type":"Feature","properties":{"osm_id":46940573,"highway":"tertiary","name":"Sri Dharmapala Mawatha","nf_road_id":"30-0","marshall_clip_id":"27-0","gn_name":"Mount Lavinia"},"geometry":{"type":"LineString","coordinates":[[79.8628982,6.8443025],[79.86314879999999,6.844320300000001],[79.86340170000001,6.8443379],[79.8637884,6.8443658],[79.86392219999999,6.844375299999999],[79.8640583,6.844384999999999],[79.86435499999997,6.844406099999999],[79.86516569999998,6.844457599999997],[79.86561679999997,6.844468299999998],[79.8662967,6.8444842999999995]]}},{"type":"Feature","properties":{"osm_id":46940578,"highway":"residential","name":"Auburn lane","nf_road_id":"35-0","marshall_clip_id":"32-0","gn_name":"Mount Lavinia"},"geometry":{"type":"LineString","coordinates":[[79.86292019999999,6.846634200000001],[79.86293729999998,6.846649899999999],[79.86314279999998,6.846681899999999],[79.86353310000001,6.8467439999999975],[79.8640384,6.846798999999997],[79.86460169999998,6.846867499999999],[79.8650388,6.8469104],[79.8653353,6.846945500000001],[79.86602769999999,6.847001099999998]]}},{"type":"Feature","properties":{"osm_id":48701240,"highway":"trunk","name":"Galle Road","nf_road_id":"45-0","marshall_clip_id":"35-0","gn_name":"Mount Lavinia"},"geometry":{"type":"LineString","coordinates":[[79.86765902521621,6.83083258184488],[79.86762449999998,6.830961],[79.8675501,6.8312386],[79.86749900000001,6.831472599999999],[79.86747399999997,6.8315998],[79.86743899999998,6.831777999999998],[79.8673919,6.8321057],[79.8673506,6.832403500000001],[79.86733519999997,6.8325615],[79.8673269,6.8326457],[79.86732389999999,6.832792399999999],[79.867322,6.832885500000001],[79.8673075,6.8331442000000004],[79.8673081,6.8331777],[79.86731259999999,6.8334329999999985],[79.8673089,6.833711999999999],[79.86731069999998,6.8339631999999995],[79.8673133,6.8342144],[79.8673092,6.834534099999999],[79.86731919999998,6.8350896],[79.86731829999997,6.8351199],[79.8673105,6.8356431],[79.8673337,6.8360769],[79.86733829999999,6.8362241],[79.867359,6.836571399999998],[79.867395,6.837129199999999],[79.8674111,6.8373401000000005],[79.867428,6.8375622],[79.86743799999999,6.837693300000001],[79.8674589,6.8380749],[79.8674671,6.838249899999998],[79.8674751,6.838419100000001],[79.86748509999997,6.838669],[79.86748900000002,6.8388765],[79.86748509999997,6.838976300000001],[79.86748079999998,6.839083199999999],[79.8674793,6.8391203],[79.867468,6.839307299999999],[79.8674427,6.8395742],[79.8674268,6.839746599999997],[79.8673899,6.8399791999999975],[79.8673202,6.8403626],[79.8672678,6.8405826],[79.86721399999999,6.840760399999999],[79.8672044,6.8407921],[79.86716309999998,6.840940599999999],[79.86712869999998,6.841043499999999],[79.86703999999999,6.8413086],[79.8669503,6.841654099999999],[79.8668886,6.841843599999997],[79.8668469,6.841971299999998],[79.8668215,6.842064899999999],[79.8668096,6.842101899999999],[79.8665992,6.8427545],[79.86648299999999,6.843167599999998],[79.86642739999999,6.843330299999999],[79.8663799,6.8436448],[79.8663407,6.843972],[79.86631079999998,6.844320099999999],[79.8662967,6.8444842999999995],[79.8662176,6.845330599999999],[79.86619879999999,6.8455321],[79.8661875,6.845576799999998],[79.86608690000001,6.8464234999999976],[79.8660731,6.846552],[79.8660419,6.846844099999999],[79.86602769999999,6.847001099999998],[79.86599,6.847517099999999],[79.8659689,6.848074399999999],[79.86597079999997,6.848496399999998],[79.8659672,6.848741699999998],[79.8659654,6.8488504],[79.86595839999997,6.8493938],[79.86595778922924,6.849421381122238]]}},{"type":"Feature","properties":{"osm_id":49000457,"highway":"residential","name":"Old Quarry Road","nf_road_id":"52-0","marshall_clip_id":"38-0","gn_name":"Mount Lavinia"},"geometry":{"type":"LineString","coordinates":[[79.8643586,6.831661],[79.8644155,6.8316208000000005],[79.8645405,6.8315665],[79.86473959999996,6.8314642999999995],[79.86483269999998,6.8314224999999995],[79.8649206,6.831405],[79.86515949999998,6.8314303999999995],[79.86532999999997,6.831499900000002],[79.86558169999999,6.831650099999998],[79.8656512,6.831648999999999],[79.86597019999998,6.8315612],[79.8661233,6.8315497999999995],[79.86676379999997,6.8315804999999985],[79.8671891,6.831590399999998],[79.86747399999997,6.8315998]]}},{"type":"Feature","properties":{"osm_id":50133642,"highway":"residential","name":"Samudrasanna Road","nf_road_id":"60-0","marshall_clip_id":"43-0","gn_name":"Mount Lavinia"},"geometry":{"type":"LineString","coordinates":[[79.86703106254942,6.830725683273923],[79.8669637,6.830713099999997],[79.86679890390697,6.830643255765943]]}},{"type":"Feature","properties":{"osm_id":50133642,"highway":"residential","name":"Samudrasanna Road","nf_road_id":"60-0","marshall_clip_id":"43-1","gn_name":"Mount Lavinia"},"geometry":{"type":"LineString","coordinates":[[79.8664911641616,6.830512828818875],[79.86640119999998,6.830474699999998],[79.86623149999998,6.830371400000001],[79.86615983050622,6.8303281477130415]]}},{"type":"Feature","properties":{"osm_id":50133642,"highway":"residential","name":"Samudrasanna Road","nf_road_id":"60-0","marshall_clip_id":"43-2","gn_name":"Mount Lavinia"},"geometry":{"type":"LineString","coordinates":[[79.86606257580631,6.830281031604893],[79.8656775,6.830220599999999],[79.86528399299297,6.830147424365026]]}},{"type":"Feature","properties":{"osm_id":50133642,"highway":"residential","name":"Samudrasanna Road","nf_road_id":"60-0","marshall_clip_id":"43-3","gn_name":"Mount Lavinia"},"geometry":{"type":"LineString","coordinates":[[79.86495308234615,6.830094729727817],[79.86479192108831,6.830079553106995]]}},{"type":"Feature","properties":{"osm_id":50133642,"highway":"residential","name":"Samudrasanna Road","nf_road_id":"60-0","marshall_clip_id":"43-4","gn_name":"Mount Lavinia"},"geometry":{"type":"LineString","coordinates":[[79.86470501464622,6.830123856223947],[79.8646276077551,6.830207459319742]]}},{"type":"Feature","properties":{"osm_id":50133642,"highway":"residential","name":"Samudrasanna Road","nf_road_id":"60-0","marshall_clip_id":"43-5","gn_name":"Mount Lavinia"},"geometry":{"type":"LineString","coordinates":[[79.86366033768542,6.830506414078229],[79.8636511,6.8305083]]}},{"type":"Feature","properties":{"osm_id":53755647,"highway":"residential","name":"Mihindu Road","nf_road_id":"96-0","marshall_clip_id":"66-0","gn_name":"Mount Lavinia"},"geometry":{"type":"LineString","coordinates":[[79.86619810193457,6.845577366515588],[79.8661875,6.845576799999998]]}},{"type":"Feature","properties":{"osm_id":53757724,"highway":"residential","name":"Dhakshinaramna Road","nf_road_id":"112-0","marshall_clip_id":"81-0","gn_name":"Mount Lavinia"},"geometry":{"type":"LineString","coordinates":[[79.86734022873851,6.835093862158674],[79.86731919999998,6.8350896]]}},{"type":"Feature","properties":{"osm_id":53757725,"highway":"residential","name":"Simon Abeywickrema Avenue","nf_road_id":"113-0","marshall_clip_id":"82-0","gn_name":"Mount Lavinia"},"geometry":{"type":"LineString","coordinates":[[79.86474599999997,6.833872500000001],[79.86485909999998,6.8338402],[79.86500049999997,6.8338129],[79.8652199,6.83381],[79.8656666,6.8338128]]}},{"type":"Feature","properties":{"osm_id":53757726,"highway":"residential","name":"Circular Road","nf_road_id":"114-0","marshall_clip_id":"83-0","gn_name":"Mount Lavinia"},"geometry":{"type":"LineString","coordinates":[[79.8665306,6.8351686],[79.8665401,6.835050499999998],[79.8665325,6.8348965999999995],[79.8665191,6.834758299999998],[79.86649769999997,6.8346423],[79.8664561,6.834529100000001],[79.8664299,6.834466399999999],[79.866385,6.834365299999999],[79.86636889999998,6.834274800000001],[79.86637359999997,6.8341836],[79.86637609999998,6.8341327],[79.86638699999999,6.834078399999999],[79.8664064,6.833990899999997],[79.8664702,6.8337781],[79.86650499999999,6.833502499999998],[79.86653569999999,6.833044400000001],[79.86656099999999,6.8325255]]}},{"type":"Feature","properties":{"osm_id":53757728,"highway":"residential","name":"","nf_road_id":"115-0","marshall_clip_id":"84-0","gn_name":"Mount Lavinia"},"geometry":{"type":"LineString","coordinates":[[79.86728209999998,6.8340186],[79.8667462,6.834082099999998],[79.86637609999998,6.8341327],[79.86574619999999,6.8342560999999975]]}},{"type":"Feature","properties":{"osm_id":98371180,"highway":"service","name":"","nf_road_id":"124-0","marshall_clip_id":"93-0","gn_name":"Mount Lavinia"},"geometry":{"type":"LineString","coordinates":[[79.86231769999999,6.833197699999998],[79.86257870000001,6.8332384]]}},{"type":"Feature","properties":{"osm_id":109077753,"highway":"residential","name":"","nf_road_id":"133-0","marshall_clip_id":"97-0","gn_name":"Mount Lavinia"},"geometry":{"type":"LineString","coordinates":[[79.8636347,6.8450299],[79.8636933,6.844977900000001],[79.8638267,6.844928999999997],[79.8640266,6.844915499999999]]}},{"type":"Feature","properties":{"osm_id":109077756,"highway":"residential","name":"Alponsu Avenue","nf_road_id":"136-0","marshall_clip_id":"99-0","gn_name":"Mount Lavinia"},"geometry":{"type":"LineString","coordinates":[[79.86408919999998,6.848000800000001],[79.86474049999998,6.848030699999999],[79.8659689,6.848074399999999]]}},{"type":"Feature","properties":{"osm_id":109077758,"highway":"residential","name":"Alponsu Avenue","nf_road_id":"137-0","marshall_clip_id":"100-0","gn_name":"Mount Lavinia"},"geometry":{"type":"LineString","coordinates":[[79.86408919999998,6.848000800000001],[79.8635743,6.847955599999998],[79.86310859999998,6.847900699999998]]}},{"type":"Feature","properties":{"osm_id":109077759,"highway":"residential","name":"","nf_road_id":"138-0","marshall_clip_id":"101-0","gn_name":"Mount Lavinia"},"geometry":{"type":"LineString","coordinates":[[79.8640668,6.845236499999997],[79.8640559,6.845089299999999],[79.8640519,6.845024099999999],[79.8640266,6.844915499999999]]}},{"type":"Feature","properties":{"osm_id":109077762,"highway":"residential","name":"","nf_road_id":"139-0","marshall_clip_id":"102-0","gn_name":"Mount Lavinia"},"geometry":{"type":"LineString","coordinates":[[79.86353310000001,6.8467439999999975],[79.8635605,6.846455999999999],[79.86360569999998,6.8461586999999975],[79.86363159999998,6.8456943],[79.86363509999998,6.8453403],[79.86363619999999,6.845245099999998],[79.8636347,6.8450299]]}},{"type":"Feature","properties":{"osm_id":109077763,"highway":"residential","name":"","nf_road_id":"140-0","marshall_clip_id":"103-0","gn_name":"Mount Lavinia"},"geometry":{"type":"LineString","coordinates":[[79.86268209999997,6.8484719],[79.8640595,6.848638500000001],[79.8639991,6.8488902000000005],[79.8629024,6.848756899999999]]}},{"type":"Feature","properties":{"osm_id":109077767,"highway":"residential","name":"","nf_road_id":"142-0","marshall_clip_id":"105-0","gn_name":"Mount Lavinia"},"geometry":{"type":"LineString","coordinates":[[79.8649042,6.8449392],[79.8649133,6.844958899999999],[79.8649227,6.845245],[79.86495069999997,6.845745599999999]]}},{"type":"Feature","properties":{"osm_id":109077768,"highway":"residential","name":"Ediriweera Avenue","nf_road_id":"143-0","marshall_clip_id":"106-0","gn_name":"Mount Lavinia"},"geometry":{"type":"LineString","coordinates":[[79.86565527342579,6.8494155186648005],[79.86595839999997,6.8493938]]}},{"type":"Feature","properties":{"osm_id":109077773,"highway":"residential","name":"Dudley Senanayake Mawatha","nf_road_id":"145-0","marshall_clip_id":"107-0","gn_name":"Mount Lavinia"},"geometry":{"type":"LineString","coordinates":[[79.86363159999998,6.8456943],[79.8643263,6.845720999999997],[79.86495069999997,6.845745599999999],[79.86529769999999,6.8457512],[79.8653505,6.8457721],[79.86536939999999,6.8458266],[79.865353,6.8462968],[79.86536849999997,6.8463314],[79.8654013,6.846356700000001],[79.86608690000001,6.8464234999999976]]}},{"type":"Feature","properties":{"osm_id":109077774,"highway":"residential","name":"","nf_road_id":"146-0","marshall_clip_id":"108-0","gn_name":"Mount Lavinia"},"geometry":{"type":"LineString","coordinates":[[79.8641918,6.8474976],[79.8647904,6.847580999999998]]}},{"type":"Feature","properties":{"osm_id":109077775,"highway":"residential","name":"","nf_road_id":"147-0","marshall_clip_id":"109-0","gn_name":"Mount Lavinia"},"geometry":{"type":"LineString","coordinates":[[79.86474049999998,6.848030699999999],[79.8647904,6.847580999999998],[79.86481180000001,6.847418],[79.86501289999998,6.847430199999997],[79.8650388,6.8469104]]}},{"type":"Feature","properties":{"osm_id":109077777,"highway":"residential","name":"","nf_road_id":"148-0","marshall_clip_id":"110-0","gn_name":"Mount Lavinia"},"geometry":{"type":"LineString","coordinates":[[79.8640595,6.848638500000001],[79.86408919999998,6.848000800000001]]}},{"type":"Feature","properties":{"osm_id":109078667,"highway":"residential","name":"","nf_road_id":"150-0","marshall_clip_id":"112-0","gn_name":"Mount Lavinia"},"geometry":{"type":"LineString","coordinates":[[79.8671891,6.831590399999998],[79.8671749,6.831597899999998],[79.86699990000001,6.831740899999997],[79.86692009999999,6.831803400000001],[79.8668627,6.8319071],[79.86682059999998,6.832059199999999],[79.86674819999999,6.832531]]}},{"type":"Feature","properties":{"osm_id":109078668,"highway":"residential","name":"Sangamitta Avenue","nf_road_id":"151-0","marshall_clip_id":"113-0","gn_name":"Mount Lavinia"},"geometry":{"type":"LineString","coordinates":[[79.865227,6.8437056],[79.8644122,6.843660299999998],[79.8632049,6.8435938],[79.86291829999998,6.8435877]]}},{"type":"Feature","properties":{"osm_id":109078669,"highway":"residential","name":"","nf_road_id":"152-0","marshall_clip_id":"114-0","gn_name":"Mount Lavinia"},"geometry":{"type":"LineString","coordinates":[[79.86435499999997,6.844406099999999],[79.86437729999999,6.844160399999997],[79.8644122,6.843660299999998]]}},{"type":"Feature","properties":{"osm_id":109078670,"highway":"residential","name":"","nf_road_id":"153-0","marshall_clip_id":"115-0","gn_name":"Mount Lavinia"},"geometry":{"type":"LineString","coordinates":[[79.86369120660143,6.829502118473343],[79.8636097,6.8298889],[79.86361125537425,6.829912170517318]]}},{"type":"Feature","properties":{"osm_id":109078670,"highway":"residential","name":"","nf_road_id":"153-0","marshall_clip_id":"115-1","gn_name":"Mount Lavinia"},"geometry":{"type":"LineString","coordinates":[[79.86363393274608,6.830251454757325],[79.8636511,6.8305083],[79.86368909999999,6.831259299999997],[79.86373929999998,6.8315788999999985]]}},{"type":"Feature","properties":{"osm_id":153609095,"highway":"residential","name":"Lilian Avenue","nf_road_id":"217-0","marshall_clip_id":"144-0","gn_name":"Mount Lavinia"},"geometry":{"type":"LineString","coordinates":[[79.86442009999999,6.832409399999999],[79.86429489999999,6.8331145],[79.8642335,6.833460399999999]]}},{"type":"Feature","properties":{"osm_id":164720832,"highway":"residential","name":"","nf_road_id":"222-0","marshall_clip_id":"148-0","gn_name":"Mount Lavinia"},"geometry":{"type":"LineString","coordinates":[[79.8669665902875,6.830701311640797],[79.8669637,6.830713099999997]]}},{"type":"Feature","properties":{"osm_id":164732215,"highway":"residential","name":"Cross Road","nf_road_id":"224-0","marshall_clip_id":"150-0","gn_name":"Mount Lavinia"},"geometry":{"type":"LineString","coordinates":[[79.86731919999998,6.8350896],[79.86724359999998,6.835069399999999],[79.86704759999999,6.835056599999996],[79.8667546,6.8351135],[79.8665306,6.8351686]]}},{"type":"Feature","properties":{"osm_id":164732217,"highway":"residential","name":"","nf_road_id":"226-0","marshall_clip_id":"152-0","gn_name":"Mount Lavinia"},"geometry":{"type":"LineString","coordinates":[[79.86505031759309,6.8301139994037],[79.8650806,6.8304506],[79.86515949999998,6.8314303999999995]]}},{"type":"Feature","properties":{"osm_id":164733360,"highway":"residential","name":"Barnes Avenue","nf_road_id":"227-0","marshall_clip_id":"153-0","gn_name":"Mount Lavinia"},"geometry":{"type":"LineString","coordinates":[[79.86465599999997,6.840045000000001],[79.86495109999997,6.840084999999999],[79.8655866,6.8401534999999996],[79.8662932,6.840220799999998],[79.8665317,6.8402687],[79.86690979999999,6.840286800000001]]}},{"type":"Feature","properties":{"osm_id":164733361,"highway":"residential","name":"","nf_road_id":"228-0","marshall_clip_id":"154-0","gn_name":"Mount Lavinia"},"geometry":{"type":"LineString","coordinates":[[79.8654959,6.8396277],[79.8656662,6.839639699999999],[79.8656997,6.8396556],[79.86569739999999,6.8397182999999995],[79.8655866,6.8401534999999996],[79.8655047,6.840552799999998]]}},{"type":"Feature","properties":{"osm_id":189316080,"highway":"residential","name":"","nf_road_id":"252-0","marshall_clip_id":"155-0","gn_name":"Mount Lavinia"},"geometry":{"type":"LineString","coordinates":[[79.8640384,6.846798999999997],[79.86405329999997,6.8466510000000005],[79.8640929,6.8462249]]}},{"type":"Feature","properties":{"osm_id":189316081,"highway":"residential","name":"Sri Gunalankara Mawatha","nf_road_id":"253-0","marshall_clip_id":"156-0","gn_name":"Mount Lavinia"},"geometry":{"type":"LineString","coordinates":[[79.86469949999997,6.848871499999999],[79.86486959999999,6.848895299999998],[79.86504789999998,6.848903899999999],[79.8653978,6.8489105],[79.86543459999999,6.848894699999998],[79.8654325,6.8488416999999995],[79.8654624,6.848811499999998],[79.8654876,6.8488031],[79.86549869999999,6.8487737],[79.8659672,6.848741699999998]]}},{"type":"Feature","properties":{"osm_id":189316082,"highway":"residential","name":"","nf_road_id":"254-0","marshall_clip_id":"157-0","gn_name":"Mount Lavinia"},"geometry":{"type":"LineString","coordinates":[[79.8637884,6.8443658],[79.8637715,6.844565199999998],[79.8637569,6.844692199999997]]}},{"type":"Feature","properties":{"osm_id":189316083,"highway":"residential","name":"","nf_road_id":"255-0","marshall_clip_id":"158-0","gn_name":"Mount Lavinia"},"geometry":{"type":"LineString","coordinates":[[79.86303379999997,6.8474986],[79.86305979999999,6.8473121999999975],[79.86314279999998,6.846681899999999]]}},{"type":"Feature","properties":{"osm_id":189316084,"highway":"residential","name":"","nf_road_id":"256-0","marshall_clip_id":"159-0","gn_name":"Mount Lavinia"},"geometry":{"type":"LineString","coordinates":[[79.86463660000001,6.846553500000001],[79.86460169999998,6.846867499999999]]}},{"type":"Feature","properties":{"osm_id":189316085,"highway":"residential","name":"","nf_road_id":"257-0","marshall_clip_id":"160-0","gn_name":"Mount Lavinia"},"geometry":{"type":"LineString","coordinates":[[79.86551489999997,6.8439687],[79.8660659,6.843967],[79.86628069999998,6.843974199999999],[79.8663407,6.843972]]}},{"type":"Feature","properties":{"osm_id":189316086,"highway":"residential","name":"","nf_road_id":"258-0","marshall_clip_id":"161-0","gn_name":"Mount Lavinia"},"geometry":{"type":"LineString","coordinates":[[79.8632049,6.8435938],[79.8631812,6.8438409],[79.86314879999999,6.844320300000001]]}},{"type":"Feature","properties":{"osm_id":189316087,"highway":"residential","name":"","nf_road_id":"259-0","marshall_clip_id":"162-0","gn_name":"Mount Lavinia"},"geometry":{"type":"LineString","coordinates":[[79.86363619999999,6.845245099999998],[79.8640668,6.845236499999997],[79.864206,6.845241699999998],[79.8649227,6.845245]]}},{"type":"Feature","properties":{"osm_id":307836015,"highway":"residential","name":"","nf_road_id":"266-0","marshall_clip_id":"166-0","gn_name":"Mount Lavinia"},"geometry":{"type":"LineString","coordinates":[[79.86481769999997,6.8421025],[79.86477669999996,6.842526000000001]]}},{"type":"Feature","properties":{"osm_id":374052846,"highway":"residential","name":"","nf_road_id":"285-0","marshall_clip_id":"170-0","gn_name":"Mount Lavinia"},"geometry":{"type":"LineString","coordinates":[[79.8642237,6.8486619],[79.8640595,6.848638500000001]]}},{"type":"Feature","properties":{"osm_id":375190503,"highway":"residential","name":"","nf_road_id":"338-0","marshall_clip_id":"203-0","gn_name":"Mount Lavinia"},"geometry":{"type":"LineString","coordinates":[[79.86676379999997,6.8315804999999985],[79.8667622,6.831522100000001],[79.86674279999998,6.831385],[79.8666927,6.831087799999997],[79.86667809999997,6.8310033999999975],[79.86666759999997,6.830924499999999]]}},{"type":"Feature","properties":{"osm_id":376599211,"highway":"service","name":"","nf_road_id":"415-0","marshall_clip_id":"243-0","gn_name":"Mount Lavinia"},"geometry":{"type":"LineString","coordinates":[[79.86403149999998,6.8381134999999995],[79.8644079,6.83811],[79.86469409999997,6.8380725],[79.8649122,6.838105399999999]]}},{"type":"Feature","properties":{"osm_id":376599230,"highway":"residential","name":"Kongahawatte Road","nf_road_id":"423-0","marshall_clip_id":"250-0","gn_name":"Mount Lavinia"},"geometry":{"type":"LineString","coordinates":[[79.86561439999998,6.8307026],[79.86591269999997,6.8307515],[79.86593439999999,6.830750799999999],[79.86595559999999,6.8307420999999975],[79.86623149999998,6.830371400000001]]}},{"type":"Feature","properties":{"osm_id":376599231,"highway":"service","name":"","nf_road_id":"424-0","marshall_clip_id":"251-0","gn_name":"Mount Lavinia"},"geometry":{"type":"LineString","coordinates":[[79.8628595,6.8338228],[79.8628812,6.8345754],[79.86292899999998,6.834682199999999],[79.86305379999997,6.834945199999999]]}},{"type":"Feature","properties":{"osm_id":509577294,"highway":"residential","name":"Sri Gunarathna Mawatha","nf_road_id":"537-0","marshall_clip_id":"317-0","gn_name":"Mount Lavinia"},"geometry":{"type":"LineString","coordinates":[[79.86745122231814,6.837336625994417],[79.8674111,6.8373401000000005]]}},{"type":"Feature","properties":{"osm_id":524651604,"highway":"living_street","name":"","nf_road_id":"563-0","marshall_clip_id":"334-0","gn_name":"Mount Lavinia"},"geometry":{"type":"LineString","coordinates":[[79.8648646,6.848382499999998],[79.8648585,6.848471300000001],[79.86491079999999,6.848517199999999],[79.8654531,6.8486211999999975],[79.86547999999999,6.848697099999997],[79.86549869999999,6.8487737]]}},{"type":"Feature","properties":{"osm_id":524651605,"highway":"living_street","name":"","nf_road_id":"564-0","marshall_clip_id":"335-0","gn_name":"Mount Lavinia"},"geometry":{"type":"LineString","coordinates":[[79.86292449999998,6.847658],[79.8635858,6.8477267],[79.8635743,6.847955599999998]]}},{"type":"Feature","properties":{"osm_id":524651606,"highway":"residential","name":"","nf_road_id":"565-0","marshall_clip_id":"336-0","gn_name":"Mount Lavinia"},"geometry":{"type":"LineString","coordinates":[[79.8630527,6.845339499999997],[79.86363509999998,6.8453403]]}},{"type":"Feature","properties":{"osm_id":524651607,"highway":"residential","name":"","nf_road_id":"566-0","marshall_clip_id":"337-0","gn_name":"Mount Lavinia"},"geometry":{"type":"LineString","coordinates":[[79.86309399999999,6.8446885],[79.86328549999999,6.844701099999999],[79.8633504,6.844676799999999],[79.8633813,6.844594399999999],[79.86340170000001,6.8443379]]}},{"type":"Feature","properties":{"osm_id":524651609,"highway":"living_street","name":"","nf_road_id":"567-0","marshall_clip_id":"338-0","gn_name":"Mount Lavinia"},"geometry":{"type":"LineString","coordinates":[[79.8637479,6.843984000000001],[79.86394029999998,6.843986500000001],[79.8639629,6.844002599999998],[79.86392219999999,6.844375299999999]]}},{"type":"Feature","properties":{"osm_id":524651610,"highway":"living_street","name":"","nf_road_id":"568-0","marshall_clip_id":"339-0","gn_name":"Mount Lavinia"},"geometry":{"type":"LineString","coordinates":[[79.8651405,6.8415453],[79.86493479999997,6.8415361],[79.8646971,6.8414165],[79.8644885,6.841391599999999]]}},{"type":"Feature","properties":{"osm_id":524651611,"highway":"living_street","name":"","nf_road_id":"569-0","marshall_clip_id":"340-0","gn_name":"Mount Lavinia"},"geometry":{"type":"LineString","coordinates":[[79.86491099999999,6.8418025],[79.86493479999997,6.8415361]]}},{"type":"Feature","properties":{"osm_id":524651612,"highway":"living_street","name":"","nf_road_id":"570-0","marshall_clip_id":"341-0","gn_name":"Mount Lavinia"},"geometry":{"type":"LineString","coordinates":[[79.8638666,6.839313699999999],[79.8642175,6.839362699999999],[79.86435439999998,6.839328199999997],[79.8644772,6.839289499999999],[79.8647678,6.8393068]]}},{"type":"Feature","properties":{"osm_id":524651613,"highway":"living_street","name":"","nf_road_id":"571-0","marshall_clip_id":"342-0","gn_name":"Mount Lavinia"},"geometry":{"type":"LineString","coordinates":[[79.86611249999997,6.8311647],[79.8661233,6.8315497999999995]]}},{"type":"Feature","properties":{"osm_id":530462045,"highway":"living_street","name":"","nf_road_id":"573-0","marshall_clip_id":"344-0","gn_name":"Mount Lavinia"},"geometry":{"type":"LineString","coordinates":[[79.8653353,6.846945500000001],[79.8653017,6.8471596],[79.8652834,6.8473251]]}},{"type":"Feature","properties":{"osm_id":532086472,"highway":"residential","name":"Simon Abeywickrema Avenue","nf_road_id":"574-0","marshall_clip_id":"345-0","gn_name":"Mount Lavinia"},"geometry":{"type":"LineString","coordinates":[[79.8656666,6.8338128],[79.8656997,6.8338327],[79.86574619999999,6.8342560999999975],[79.86581019999997,6.8348509],[79.865742,6.835090399999999],[79.8657208,6.835270799999999]]}},{"type":"Feature","properties":{"osm_id":532086604,"highway":"tertiary","name":"Hotel Road","nf_road_id":"593-0","marshall_clip_id":"361-0","gn_name":"Mount Lavinia"},"geometry":{"type":"LineString","coordinates":[[79.86703999999999,6.8413086],[79.86694829999998,6.8412825]]}},{"type":"Feature","properties":{"osm_id":589745461,"highway":"residential","name":"","nf_road_id":"648-0","marshall_clip_id":"381-0","gn_name":"Mount Lavinia"},"geometry":{"type":"LineString","coordinates":[[79.8660832,6.832467599999999],[79.86610380000002,6.832229199999996],[79.8661101,6.8321562]]}},{"type":"Feature","properties":{"osm_id":589745466,"highway":"residential","name":"","nf_road_id":"649-0","marshall_clip_id":"382-0","gn_name":"Mount Lavinia"},"geometry":{"type":"LineString","coordinates":[[79.8656153,6.8324416],[79.8655723,6.8329738],[79.8655777,6.832999099999998],[79.86559109999997,6.833010399999999],[79.8656112,6.8330191],[79.86591559999998,6.833032399999999]]}},{"type":"Feature","properties":{"osm_id":609390205,"highway":"residential","name":"","nf_road_id":"656-0","marshall_clip_id":"383-0","gn_name":"Mount Lavinia"},"geometry":{"type":"LineString","coordinates":[[79.8652746,6.835214299999998],[79.86529289999997,6.835122399999999],[79.8653497,6.835043999999999]]}},{"type":"Feature","properties":{"osm_id":610241584,"highway":"service","name":"","nf_road_id":"659-0","marshall_clip_id":"384-0","gn_name":"Mount Lavinia"},"geometry":{"type":"LineString","coordinates":[[79.86355829999997,6.8423899],[79.86361549999997,6.841908199999999]]}},{"type":"Feature","properties":{"osm_id":610541474,"highway":"residential","name":"","nf_road_id":"660-0","marshall_clip_id":"385-0","gn_name":"Mount Lavinia"},"geometry":{"type":"LineString","coordinates":[[79.86291979999999,6.8461231],[79.86290219999997,6.846608999999997],[79.86292019999999,6.846634200000001]]}},{"type":"Feature","properties":{"osm_id":610541475,"highway":"residential","name":"","nf_road_id":"661-0","marshall_clip_id":"386-0","gn_name":"Mount Lavinia"},"geometry":{"type":"LineString","coordinates":[[79.86304929999999,6.845036399999997],[79.8630866,6.845023799999999],[79.8636347,6.8450299]]}},{"type":"Feature","properties":{"osm_id":610541476,"highway":"residential","name":"","nf_road_id":"662-0","marshall_clip_id":"387-0","gn_name":"Mount Lavinia"},"geometry":{"type":"LineString","coordinates":[[79.86291979999999,6.8461231],[79.86303819999999,6.845642599999998],[79.8630527,6.845339499999997],[79.8630344,6.845066],[79.86304929999999,6.845036399999997]]}},{"type":"Feature","properties":{"osm_id":610541477,"highway":"residential","name":"","nf_road_id":"663-0","marshall_clip_id":"388-0","gn_name":"Mount Lavinia"},"geometry":{"type":"LineString","coordinates":[[79.8648091,6.8462917],[79.8640929,6.8462249],[79.8636813,6.846170899999997],[79.86360569999998,6.8461586999999975],[79.86291979999999,6.8461231]]}},{"type":"Feature","properties":{"osm_id":610541478,"highway":"residential","name":"","nf_road_id":"664-0","marshall_clip_id":"389-0","gn_name":"Mount Lavinia"},"geometry":{"type":"LineString","coordinates":[[79.8640266,6.844915499999999],[79.8640278,6.8447527],[79.8640583,6.844384999999999]]}},{"type":"Feature","properties":{"osm_id":610541479,"highway":"residential","name":"","nf_road_id":"665-0","marshall_clip_id":"390-0","gn_name":"Mount Lavinia"},"geometry":{"type":"LineString","coordinates":[[79.8640278,6.8447527],[79.86428749999999,6.844756799999997],[79.8643146,6.844785199999999],[79.8643149,6.844895399999999],[79.86432019999998,6.8449176],[79.8643374,6.844927599999998],[79.8643572,6.844930899999998],[79.8648709,6.8449233000000005],[79.8649042,6.8449392]]}},{"type":"Feature","properties":{"osm_id":610541480,"highway":"service","name":"","nf_road_id":"666-0","marshall_clip_id":"391-0","gn_name":"Mount Lavinia"},"geometry":{"type":"LineString","coordinates":[[79.8657024,6.845518499999998],[79.8657196,6.845525900000001],[79.86619879999999,6.8455321]]}},{"type":"Feature","properties":{"osm_id":610541481,"highway":"service","name":"","nf_road_id":"667-0","marshall_clip_id":"392-0","gn_name":"Mount Lavinia"},"geometry":{"type":"LineString","coordinates":[[79.8656236,6.8454277999999995],[79.86565269999998,6.845469999999997],[79.8657024,6.845518499999998]]}},{"type":"Feature","properties":{"osm_id":610541482,"highway":"service","name":"","nf_road_id":"668-0","marshall_clip_id":"393-0","gn_name":"Mount Lavinia"},"geometry":{"type":"LineString","coordinates":[[79.8651327,6.8453601],[79.86515189999999,6.845370699999999],[79.86560509999998,6.8453438],[79.86595409999997,6.8453272],[79.8662176,6.845330599999999]]}},{"type":"Feature","properties":{"osm_id":610541483,"highway":"service","name":"","nf_road_id":"669-0","marshall_clip_id":"394-0","gn_name":"Mount Lavinia"},"geometry":{"type":"LineString","coordinates":[[79.86516569999998,6.844457599999997],[79.8651549,6.844766199999998],[79.8651487,6.8449438],[79.86512589999997,6.8453332],[79.8651327,6.8453601]]}},{"type":"Feature","properties":{"osm_id":610544137,"highway":"residential","name":"","nf_road_id":"672-0","marshall_clip_id":"397-0","gn_name":"Mount Lavinia"},"geometry":{"type":"LineString","coordinates":[[79.8663799,6.8436448],[79.86564899999999,6.843588899999999]]}},{"type":"Feature","properties":{"osm_id":610544391,"highway":"residential","name":"","nf_road_id":"673-0","marshall_clip_id":"398-0","gn_name":"Mount Lavinia"},"geometry":{"type":"LineString","coordinates":[[79.8668215,6.842064899999999],[79.8666962,6.8420476],[79.8664023,6.842007099999999],[79.86569649999997,6.841954300000001]]}},{"type":"Feature","properties":{"osm_id":674475978,"highway":"residential","name":"","nf_road_id":"676-0","marshall_clip_id":"400-0","gn_name":"Mount Lavinia"},"geometry":{"type":"LineString","coordinates":[[79.86305979999999,6.8473121999999975],[79.8638154,6.847426599999999]]}},{"type":"Feature","properties":{"osm_id":687500136,"highway":"tertiary","name":"Hotel Road","nf_road_id":"682-0","marshall_clip_id":"403-0","gn_name":"Mount Lavinia"},"geometry":{"type":"LineString","coordinates":[[79.86694829999998,6.8412825],[79.8669503,6.841654099999999]]}},{"type":"Feature","properties":{"osm_id":687500142,"highway":"tertiary","name":"Hotel Road","nf_road_id":"683-0","marshall_clip_id":"404-0","gn_name":"Mount Lavinia"},"geometry":{"type":"LineString","coordinates":[[79.86694829999998,6.8412825],[79.8669321,6.8411374999999985],[79.86693249999999,6.8410269999999995],[79.86692720000002,6.840687199999999],[79.86690979999999,6.840286800000001],[79.8668829,6.839874699999998],[79.8667817,6.839333300000001],[79.8666888,6.838899699999998],[79.8665118,6.8381607],[79.86637049999997,6.837590900000001],[79.86624489999998,6.8369426],[79.8662312,6.836872199999998],[79.86596279999999,6.835886099999999],[79.8659155,6.835764099999998],[79.8658824,6.835679000000001],[79.8657928,6.835458199999999],[79.8657208,6.835270799999999]]}},{"type":"Feature","properties":{"osm_id":963694988,"highway":"residential","name":"","nf_road_id":"717-0","marshall_clip_id":"423-0","gn_name":"Mount Lavinia"},"geometry":{"type":"LineString","coordinates":[[79.86459979999997,6.830962999999999],[79.8646211,6.830978099999999],[79.86462719999997,6.831007700000001],[79.86473959999996,6.8314642999999995]]}},{"type":"Feature","properties":{"osm_id":963694989,"highway":"residential","name":"","nf_road_id":"718-0","marshall_clip_id":"424-0","gn_name":"Mount Lavinia"},"geometry":{"type":"LineString","coordinates":[[79.86439509999997,6.8309741],[79.86459979999997,6.830962999999999]]}},{"type":"Feature","properties":{"osm_id":1075934333,"highway":"service","name":"","nf_road_id":"729-0","marshall_clip_id":"431-0","gn_name":"Mount Lavinia"},"geometry":{"type":"LineString","coordinates":[[79.865424,6.844160399999997],[79.8655681,6.8441683],[79.86559189999997,6.8441773999999995],[79.86561579999997,6.8441982999999995],[79.865617,6.84431],[79.86561679999997,6.844468299999998]]}},{"type":"Feature","properties":{"osm_id":1075934337,"highway":"service","name":"","nf_road_id":"733-0","marshall_clip_id":"435-0","gn_name":"Mount Lavinia"},"geometry":{"type":"LineString","coordinates":[[79.86663420000001,6.8422380999999985],[79.8666962,6.8420476]]}},{"type":"Feature","properties":{"osm_id":1075934338,"highway":"service","name":"","nf_road_id":"734-0","marshall_clip_id":"436-0","gn_name":"Mount Lavinia"},"geometry":{"type":"LineString","coordinates":[[79.8663725,6.842215799999999],[79.8664023,6.842007099999999]]}},{"type":"Feature","properties":{"osm_id":1095303373,"highway":"living_street","name":"","nf_road_id":"756-0","marshall_clip_id":"451-0","gn_name":"Mount Lavinia"},"geometry":{"type":"LineString","coordinates":[[79.86567381341153,6.830196784466069],[79.8656775,6.830220599999999]]}},{"type":"Feature","properties":{"osm_id":1104877250,"highway":"residential","name":"","nf_road_id":"770-0","marshall_clip_id":"464-0","gn_name":"Mount Lavinia"},"geometry":{"type":"LineString","coordinates":[[79.86429489999999,6.8331145],[79.86473409999998,6.8331428999999995]]}},{"type":"Feature","properties":{"osm_id":1105724008,"highway":"service","name":"","nf_road_id":"774-0","marshall_clip_id":"465-0","gn_name":"Mount Lavinia"},"geometry":{"type":"LineString","coordinates":[[79.8639093,6.835344],[79.8639451,6.8350643]]}},{"type":"Feature","properties":{"osm_id":1105724009,"highway":"service","name":"","nf_road_id":"775-0","marshall_clip_id":"466-0","gn_name":"Mount Lavinia"},"geometry":{"type":"LineString","coordinates":[[79.8649701,6.8353174],[79.865243,6.8354107]]}},{"type":"Feature","properties":{"osm_id":1123505273,"highway":"service","name":"","nf_road_id":"786-0","marshall_clip_id":"470-0","gn_name":"Mount Lavinia"},"geometry":{"type":"LineString","coordinates":[[79.8657788,6.844808799999998],[79.8651549,6.844766199999998]]}},{"type":"Feature","properties":{"osm_id":1123505274,"highway":"service","name":"","nf_road_id":"787-0","marshall_clip_id":"471-0","gn_name":"Mount Lavinia"},"geometry":{"type":"LineString","coordinates":[[79.8633796,6.841840699999999],[79.86358339999997,6.841861999999999],[79.86361549999997,6.841908199999999]]}},{"type":"Feature","properties":{"osm_id":1184390888,"highway":"residential","name":"","nf_road_id":"811-0","marshall_clip_id":"473-0","gn_name":"Mount Lavinia"},"geometry":{"type":"LineString","coordinates":[[79.86336619999997,6.839854100000001],[79.863904,6.8399326],[79.8639777,6.839952599999999],[79.8640005,6.839974599999999],[79.8640092,6.8400092],[79.86400189999999,6.8401044],[79.8640139,6.840124999999999],[79.8640394,6.8401363],[79.864636,6.840202]]}},{"type":"Feature","properties":{"osm_id":1201003164,"highway":"tertiary","name":"","nf_road_id":"812-0","marshall_clip_id":"474-0","gn_name":"Mount Lavinia"},"geometry":{"type":"LineString","coordinates":[[79.86709188795194,6.841325546777846],[79.86703999999999,6.8413086]]}},{"type":"Feature","properties":{"osm_id":1245413693,"highway":"living_street","name":"","nf_road_id":"852-0","marshall_clip_id":"482-0","gn_name":"Mount Lavinia"},"geometry":{"type":"LineString","coordinates":[[79.8639229,6.838518599999998],[79.8638181,6.839225599999997],[79.8638195,6.8392574999999995],[79.8638315,6.8392848],[79.8638666,6.839313699999999]]}},{"type":"Feature","properties":{"osm_id":1344525778,"highway":"residential","name":"","nf_road_id":"901-0","marshall_clip_id":"500-0","gn_name":"Mount Lavinia"},"geometry":{"type":"LineString","coordinates":[[79.8656102,6.8426333],[79.86564469999999,6.8422108999999995]]}},{"type":"Feature","properties":{"osm_id":1498946138,"highway":"service","name":"","nf_road_id":"938-0","marshall_clip_id":"535-0","gn_name":"Mount Lavinia"},"geometry":{"type":"LineString","coordinates":[[79.8673337,6.8360769],[79.86698309999998,6.836137700000001],[79.8669469,6.836159],[79.86695099999999,6.836208199999998],[79.8669858,6.836240199999999],[79.86716289999998,6.836240199999999],[79.86733829999999,6.8362241]]}},{"type":"Feature","properties":{"osm_id":1498946140,"highway":"service","name":"","nf_road_id":"940-0","marshall_clip_id":"537-0","gn_name":"Mount Lavinia"},"geometry":{"type":"LineString","coordinates":[[79.8649194,6.838027699999999],[79.8651794,6.838063099999999],[79.8656555,6.838136299999998],[79.8659357,6.838167],[79.86603629999998,6.838188299999998]]}},{"type":"Feature","properties":{"osm_id":1498946141,"highway":"residential","name":"","nf_road_id":"941-0","marshall_clip_id":"538-0","gn_name":"Mount Lavinia"},"geometry":{"type":"LineString","coordinates":[[79.8667546,6.8351135],[79.8667672,6.8351495999999985],[79.8667806,6.835256199999998],[79.86677529999997,6.8352908],[79.866727,6.8353241],[79.86671089999999,6.835362699999999],[79.8667149,6.8355663999999985]]}},{"type":"Feature","properties":{"osm_id":1498946142,"highway":"residential","name":"","nf_road_id":"942-0","marshall_clip_id":"539-0","gn_name":"Mount Lavinia"},"geometry":{"type":"LineString","coordinates":[[79.8663071,6.835199000000001],[79.86635279999997,6.835522499999999],[79.8663662,6.8356064]]}},{"type":"Feature","properties":{"osm_id":1498946146,"highway":"residential","name":"","nf_road_id":"946-0","marshall_clip_id":"543-0","gn_name":"Mount Lavinia"},"geometry":{"type":"LineString","coordinates":[[79.8667817,6.839333300000001],[79.8660216,6.839220199999999]]}},{"type":"Feature","properties":{"osm_id":1498946147,"highway":"residential","name":"","nf_road_id":"947-0","marshall_clip_id":"544-0","gn_name":"Mount Lavinia"},"geometry":{"type":"LineString","coordinates":[[79.86477959999999,6.8390924],[79.8650533,6.839117699999999],[79.86510159999997,6.8391257],[79.86511629999998,6.8391402999999995],[79.8651136,6.8392828],[79.8650935,6.839396],[79.86510019999997,6.8394413],[79.8651566,6.839465199999998]]}}]}