{"type":"FeatureCollection","features":[{"type":"Feature","properties":{"edge_id":1,"u":73,"v":54,"length_m":49.82,"gn_name":"Mount Lavinia"},"geometry":{"type":"LineString","coordinates":[[79.86423524439262,6.833458693794314],[79.8637950699034,6.83337841974309]]}},{"type":"Feature","properties":{"edge_id":2,"u":213,"v":211,"length_m":5.099,"gn_name":"Mount Lavinia"},"geometry":{"type":"LineString","coordinates":[[79.86737934788705,6.832566759134794],[79.86733443212285,6.832557839779798]]}},{"type":"Feature","properties":{"edge_id":3,"u":211,"v":192,"length_m":65.069,"gn_name":"Mount Lavinia"},"geometry":{"type":"LineString","coordinates":[[79.86733443212285,6.832557839779798],[79.86675052718816,6.832531081713808]]}},{"type":"Feature","properties":{"edge_id":4,"u":185,"v":192,"length_m":21.024,"gn_name":"Mount Lavinia"},"geometry":{"type":"LineString","coordinates":[[79.8665618809785,6.832522162358146],[79.86675052718816,6.832531081713808]]}},{"type":"Feature","properties":{"edge_id":5,"u":163,"v":140,"length_m":52.086,"gn_name":"Mount Lavinia"},"geometry":{"type":"LineString","coordinates":[[79.8660857738779,6.832468646220676],[79.86561864993017,6.832441888149695]]}},{"type":"Feature","properties":{"edge_id":6,"u":91,"v":140,"length_m":104.173,"gn_name":"Mount Lavinia"},"geometry":{"type":"LineString","coordinates":[[79.86468440203468,6.832388372003242],[79.86561864993017,6.832441888149695]]}},{"type":"Feature","properties":{"edge_id":7,"u":91,"v":79,"length_m":29.069,"gn_name":"Mount Lavinia"},"geometry":{"type":"LineString","coordinates":[[79.86468440203468,6.832388372003242],[79.8644238906023,6.832406210719391]]}},{"type":"Feature","properties":{"edge_id":8,"u":60,"v":79,"length_m":51.039,"gn_name":"Mount Lavinia"},"geometry":{"type":"LineString","coordinates":[[79.86396574980739,6.832388372003242],[79.8644238906023,6.832406210719391]]}},{"type":"Feature","properties":{"edge_id":9,"u":50,"v":48,"length_m":2.0,"gn_name":"Mount Lavinia"},"geometry":{"type":"LineString","coordinates":[[79.86375913729204,6.831576709714479],[79.86374117098636,6.831576709714479]]}},{"type":"Feature","properties":{"edge_id":10,"u":157,"v":158,"length_m":3.0,"gn_name":"Mount Lavinia"},"geometry":{"type":"LineString","coordinates":[[79.86598695919666,6.8475153641409285],[79.86601390865518,6.8475153641409285]]}},{"type":"Feature","properties":{"edge_id":11,"u":33,"v":11,"length_m":64.382,"gn_name":"Mount Lavinia"},"geometry":{"type":"LineString","coordinates":[[79.86356150792953,6.842386868011674],[79.8629865861477,6.8423244338063]]}},{"type":"Feature","properties":{"edge_id":12,"u":100,"v":70,"length_m":69.462,"gn_name":"Mount Lavinia"},"geometry":{"type":"LineString","coordinates":[[79.8647742335631,6.842529574736159],[79.86415439601706,6.842458221379249]]}},{"type":"Feature","properties":{"edge_id":13,"u":100,"v":138,"length_m":93.771,"gn_name":"Mount Lavinia"},"geometry":{"type":"LineString","coordinates":[[79.8647742335631,6.842529574736159],[79.86560966677733,6.842636604751534]]}},{"type":"Feature","properties":{"edge_id":14,"u":186,"v":138,"length_m":110.766,"gn_name":"Mount Lavinia"},"geometry":{"type":"LineString","coordinates":[[79.86659781358985,6.842752553907781],[79.86560966677733,6.842636604751534]]}},{"type":"Feature","properties":{"edge_id":15,"u":82,"v":18,"length_m":157.715,"gn_name":"Mount Lavinia"},"geometry":{"type":"LineString","coordinates":[[79.86450473897787,6.8411738591316285],[79.86309438398179,6.841040071198851]]}},{"type":"Feature","properties":{"edge_id":16,"u":80,"v":12,"length_m":161.009,"gn_name":"Mount Lavinia"},"geometry":{"type":"LineString","coordinates":[[79.8644688063665,6.84170901048794],[79.8630315019119,6.841548465144014]]}},{"type":"Feature","properties":{"edge_id":17,"u":16,"v":182,"length_m":381.473,"gn_name":"Mount Lavinia"},"geometry":{"type":"LineString","coordinates":[[79.86305845137042,6.843002290456372],[79.86648103260292,6.843171754468521]]}},{"type":"Feature","properties":{"edge_id":18,"u":84,"v":85,"length_m":29.069,"gn_name":"Mount Lavinia"},"geometry":{"type":"LineString","coordinates":[[79.86458558735343,6.840710060804428],[79.86460355365912,6.840451403849396]]}},{"type":"Feature","properties":{"edge_id":19,"u":88,"v":85,"length_m":28.284,"gn_name":"Mount Lavinia"},"geometry":{"type":"LineString","coordinates":[[79.86463948627048,6.840201665966799],[79.86460355365912,6.840451403849396]]}},{"type":"Feature","properties":{"edge_id":20,"u":88,"v":90,"length_m":18.111,"gn_name":"Mount Lavinia"},"geometry":{"type":"LineString","coordinates":[[79.86463948627048,6.840201665966799],[79.86465745257617,6.840041120116177]]}},{"type":"Feature","properties":{"edge_id":21,"u":99,"v":93,"length_m":54.452,"gn_name":"Mount Lavinia"},"geometry":{"type":"LineString","coordinates":[[79.86476525041026,6.839309743891629],[79.86470236834036,6.839791382019064]]}},{"type":"Feature","properties":{"edge_id":22,"u":101,"v":99,"length_m":24.083,"gn_name":"Mount Lavinia"},"geometry":{"type":"LineString","coordinates":[[79.86478321671594,6.839095682345786],[79.86476525041026,6.839309743891629]]}},{"type":"Feature","properties":{"edge_id":23,"u":101,"v":106,"length_m":51.352,"gn_name":"Mount Lavinia"},"geometry":{"type":"LineString","coordinates":[[79.86478321671594,6.839095682345786],[79.86483711563298,6.8386408012423905]]}},{"type":"Feature","properties":{"edge_id":24,"u":93,"v":31,"length_m":139.043,"gn_name":"Mount Lavinia"},"geometry":{"type":"LineString","coordinates":[[79.86470236834036,6.839791382019064],[79.86346269324828,6.839639755253543]]}},{"type":"Feature","properties":{"edge_id":25,"u":24,"v":85,"length_m":147.363,"gn_name":"Mount Lavinia"},"geometry":{"type":"LineString","coordinates":[[79.8632920133443,6.8402730196608665],[79.86460355365912,6.840451403849396]]}},{"type":"Feature","properties":{"edge_id":26,"u":80,"v":81,"length_m":36.056,"gn_name":"Mount Lavinia"},"geometry":{"type":"LineString","coordinates":[[79.8644688063665,6.84170901048794],[79.86448677267218,6.841387919746116]]}},{"type":"Feature","properties":{"edge_id":27,"u":82,"v":81,"length_m":24.083,"gn_name":"Mount Lavinia"},"geometry":{"type":"LineString","coordinates":[[79.86450473897787,6.8411738591316285],[79.86448677267218,6.841387919746116]]}},{"type":"Feature","properties":{"edge_id":28,"u":82,"v":83,"length_m":12.369,"gn_name":"Mount Lavinia"},"geometry":{"type":"LineString","coordinates":[[79.86450473897787,6.8411738591316285],[79.86453168843639,6.8410668287884056]]}},{"type":"Feature","properties":{"edge_id":29,"u":84,"v":83,"length_m":40.447,"gn_name":"Mount Lavinia"},"geometry":{"type":"LineString","coordinates":[[79.86458558735343,6.840710060804428],[79.86453168843639,6.8410668287884056]]}},{"type":"Feature","properties":{"edge_id":30,"u":125,"v":126,"length_m":22.361,"gn_name":"Mount Lavinia"},"geometry":{"type":"LineString","coordinates":[[79.86524135751084,6.835412024886288],[79.86527729012221,6.835215800205716]]}},{"type":"Feature","properties":{"edge_id":31,"u":125,"v":118,"length_m":68.884,"gn_name":"Mount Lavinia"},"geometry":{"type":"LineString","coordinates":[[79.86524135751084,6.835412024886288],[79.86514254282959,6.836018537026024]]}},{"type":"Feature","properties":{"edge_id":32,"u":110,"v":108,"length_m":9.055,"gn_name":"Mount Lavinia"},"geometry":{"type":"LineString","coordinates":[[79.86491796400855,6.8380253731778495],[79.86490898085572,6.838105646448616]]}},{"type":"Feature","properties":{"edge_id":33,"u":106,"v":108,"length_m":60.531,"gn_name":"Mount Lavinia"},"geometry":{"type":"LineString","coordinates":[[79.86483711563298,6.8386408012423905],[79.86490898085572,6.838105646448616]]}},{"type":"Feature","properties":{"edge_id":34,"u":118,"v":25,"length_m":201.318,"gn_name":"Mount Lavinia"},"geometry":{"type":"LineString","coordinates":[[79.86514254282959,6.836018537026024],[79.86334591226135,6.835813393300189]]}},{"type":"Feature","properties":{"edge_id":35,"u":175,"v":184,"length_m":25.179,"gn_name":"Mount Lavinia"},"geometry":{"type":"LineString","coordinates":[[79.86631035269895,6.835197961594397],[79.86653493151996,6.835171203676169]]}},{"type":"Feature","properties":{"edge_id":36,"u":84,"v":27,"length_m":135.34,"gn_name":"Mount Lavinia"},"geometry":{"type":"LineString","coordinates":[[79.86458558735343,6.840710060804428],[79.86338184487272,6.840540595918678]]}},{"type":"Feature","properties":{"edge_id":37,"u":84,"v":200,"length_m":263.471,"gn_name":"Mount Lavinia"},"geometry":{"type":"LineString","coordinates":[[79.86458558735343,6.840710060804428],[79.86693019024499,6.8410311520019995]]}},{"type":"Feature","properties":{"edge_id":38,"u":14,"v":5,"length_m":17.263,"gn_name":"Mount Lavinia"},"geometry":{"type":"LineString","coordinates":[[79.86304946821758,6.8349482209660275],[79.86289675461929,6.8349214630338215]]}},{"type":"Feature","properties":{"edge_id":39,"u":46,"v":59,"length_m":31.257,"gn_name":"Mount Lavinia"},"geometry":{"type":"LineString","coordinates":[[79.86366930576362,6.835028494753662],[79.86394778350171,6.835064171988283]]}},{"type":"Feature","properties":{"edge_id":40,"u":57,"v":30,"length_m":54.452,"gn_name":"Mount Lavinia"},"geometry":{"type":"LineString","coordinates":[[79.86392083404318,6.8385159318441255],[79.86343574378976,6.838453497132754]]}},{"type":"Feature","properties":{"edge_id":41,"u":106,"v":57,"length_m":102.956,"gn_name":"Mount Lavinia"},"geometry":{"type":"LineString","coordinates":[[79.86483711563298,6.8386408012423905],[79.86392083404318,6.8385159318441255]]}},{"type":"Feature","properties":{"edge_id":42,"u":217,"v":218,"length_m":3.162,"gn_name":"Mount Lavinia"},"geometry":{"type":"LineString","coordinates":[[79.86748714572114,6.838979732301737],[79.86751409517966,6.838970813066413]]}},{"type":"Feature","properties":{"edge_id":43,"u":22,"v":6,"length_m":28.071,"gn_name":"Mount Lavinia"},"geometry":{"type":"LineString","coordinates":[[79.86314828289883,6.8443223243287825],[79.86289675461929,6.844304486057538]]}},{"type":"Feature","properties":{"edge_id":44,"u":22,"v":29,"length_m":28.071,"gn_name":"Mount Lavinia"},"geometry":{"type":"LineString","coordinates":[[79.86314828289883,6.8443223243287825],[79.8633998111784,6.84434016259936]]}},{"type":"Feature","properties":{"edge_id":45,"u":53,"v":29,"length_m":43.105,"gn_name":"Mount Lavinia"},"geometry":{"type":"LineString","coordinates":[[79.86378608675057,6.844366920003975],[79.8633998111784,6.84434016259936]]}},{"type":"Feature","properties":{"edge_id":46,"u":53,"v":58,"length_m":15.033,"gn_name":"Mount Lavinia"},"geometry":{"type":"LineString","coordinates":[[79.86378608675057,6.844366920003975],[79.86392083404318,6.844375839138514]]}},{"type":"Feature","properties":{"edge_id":47,"u":65,"v":58,"length_m":15.033,"gn_name":"Mount Lavinia"},"geometry":{"type":"LineString","coordinates":[[79.8640555813358,6.844384758272885],[79.86392083404318,6.844375839138514]]}},{"type":"Feature","properties":{"edge_id":48,"u":75,"v":65,"length_m":33.061,"gn_name":"Mount Lavinia"},"geometry":{"type":"LineString","coordinates":[[79.86435202537956,6.844402596541131],[79.8640555813358,6.844384758272885]]}},{"type":"Feature","properties":{"edge_id":49,"u":75,"v":123,"length_m":91.198,"gn_name":"Mount Lavinia"},"geometry":{"type":"LineString","coordinates":[[79.86435202537956,6.844402596541131],[79.86516949228812,6.844456111341863]]}},{"type":"Feature","properties":{"edge_id":50,"u":141,"v":123,"length_m":50.01,"gn_name":"Mount Lavinia"},"geometry":{"type":"LineString","coordinates":[[79.86561864993017,6.844465030474735],[79.86516949228812,6.844456111341863]]}},{"type":"Feature","properties":{"edge_id":51,"u":174,"v":141,"length_m":75.027,"gn_name":"Mount Lavinia"},"geometry":{"type":"LineString","coordinates":[[79.86629238639325,6.84448286873998],[79.86561864993017,6.844465030474735]]}},{"type":"Feature","properties":{"edge_id":52,"u":32,"v":21,"length_m":44.553,"gn_name":"Mount Lavinia"},"geometry":{"type":"LineString","coordinates":[[79.86353455847102,6.846748323007217],[79.863139299746,6.846685889372301]]}},{"type":"Feature","properties":{"edge_id":53,"u":32,"v":64,"length_m":56.321,"gn_name":"Mount Lavinia"},"geometry":{"type":"LineString","coordinates":[[79.86353455847102,6.846748323007217],[79.86403761503013,6.8468018375449295]]}},{"type":"Feature","properties":{"edge_id":54,"u":86,"v":64,"length_m":63.388,"gn_name":"Mount Lavinia"},"geometry":{"type":"LineString","coordinates":[[79.86460355365912,6.846864271164674],[79.86403761503013,6.8468018375449295]]}},{"type":"Feature","properties":{"edge_id":55,"u":116,"v":86,"length_m":48.26,"gn_name":"Mount Lavinia"},"geometry":{"type":"LineString","coordinates":[[79.8650347449955,6.846908866602348],[79.86460355365912,6.846864271164674]]}},{"type":"Feature","properties":{"edge_id":56,"u":116,"v":129,"length_m":33.242,"gn_name":"Mount Lavinia"},"geometry":{"type":"LineString","coordinates":[[79.8650347449955,6.846908866602348],[79.86533118903925,6.846944542949487]]}},{"type":"Feature","properties":{"edge_id":57,"u":161,"v":129,"length_m":78.23,"gn_name":"Mount Lavinia"},"geometry":{"type":"LineString","coordinates":[[79.86603187496085,6.846998057465194],[79.86533118903925,6.846944542949487]]}},{"type":"Feature","properties":{"edge_id":58,"u":206,"v":202,"length_m":40.262,"gn_name":"Mount Lavinia"},"geometry":{"type":"LineString","coordinates":[[79.86703798807908,6.841307647026928],[79.86694815655066,6.841655495379295]]}},{"type":"Feature","properties":{"edge_id":59,"u":202,"v":198,"length_m":22.136,"gn_name":"Mount Lavinia"},"geometry":{"type":"LineString","coordinates":[[79.86694815655066,6.841655495379295],[79.86688527448078,6.841842798233315]]}},{"type":"Feature","properties":{"edge_id":60,"u":186,"v":182,"length_m":48.765,"gn_name":"Mount Lavinia"},"geometry":{"type":"LineString","coordinates":[[79.86659781358985,6.842752553907781],[79.86648103260292,6.843171754468521]]}},{"type":"Feature","properties":{"edge_id":61,"u":180,"v":176,"length_m":37.336,"gn_name":"Mount Lavinia"},"geometry":{"type":"LineString","coordinates":[[79.86638221792167,6.843644469552912],[79.86633730215746,6.843974477919291]]}},{"type":"Feature","properties":{"edge_id":62,"u":172,"v":174,"length_m":95.336,"gn_name":"Mount Lavinia"},"geometry":{"type":"LineString","coordinates":[[79.86622052117053,6.845330185571205],[79.86629238639325,6.84448286873998]]}},{"type":"Feature","properties":{"edge_id":63,"u":172,"v":170,"length_m":23.087,"gn_name":"Mount Lavinia"},"geometry":{"type":"LineString","coordinates":[[79.86622052117053,6.845330185571205],[79.86620255486486,6.84553532520944]]}},{"type":"Feature","properties":{"edge_id":64,"u":170,"v":169,"length_m":5.385,"gn_name":"Mount Lavinia"},"geometry":{"type":"LineString","coordinates":[[79.86620255486486,6.84553532520944],[79.86618458855916,6.845579920771301]]}},{"type":"Feature","properties":{"edge_id":65,"u":164,"v":169,"length_m":95.635,"gn_name":"Mount Lavinia"},"geometry":{"type":"LineString","coordinates":[[79.8660857738779,6.8464272356549145],[79.86618458855916,6.845579920771301]]}},{"type":"Feature","properties":{"edge_id":66,"u":157,"v":161,"length_m":58.215,"gn_name":"Mount Lavinia"},"geometry":{"type":"LineString","coordinates":[[79.86598695919666,6.8475153641409285],[79.86603187496085,6.846998057465194]]}},{"type":"Feature","properties":{"edge_id":67,"u":157,"v":155,"length_m":63.032,"gn_name":"Mount Lavinia"},"geometry":{"type":"LineString","coordinates":[[79.86598695919666,6.8475153641409285],[79.86596899289097,6.848077265584268]]}},{"type":"Feature","properties":{"edge_id":68,"u":154,"v":153,"length_m":3.0,"gn_name":"Mount Lavinia"},"geometry":{"type":"LineString","coordinates":[[79.86596000973813,6.849424042540079],[79.86596000973813,6.849397285419036]]}},{"type":"Feature","properties":{"edge_id":69,"u":194,"v":167,"length_m":71.063,"gn_name":"Mount Lavinia"},"geometry":{"type":"LineString","coordinates":[[79.86675951034101,6.831576709714479],[79.86612170648928,6.831549951593592]]}},{"type":"Feature","properties":{"edge_id":70,"u":208,"v":194,"length_m":48.042,"gn_name":"Mount Lavinia"},"geometry":{"type":"LineString","coordinates":[[79.86719070167737,6.831594548460905],[79.86675951034101,6.831576709714479]]}},{"type":"Feature","properties":{"edge_id":71,"u":216,"v":208,"length_m":32.016,"gn_name":"Mount Lavinia"},"geometry":{"type":"LineString","coordinates":[[79.8674781625683,6.83160346783387],[79.86719070167737,6.831594548460905]]}},{"type":"Feature","properties":{"edge_id":72,"u":171,"v":169,"length_m":2.0,"gn_name":"Mount Lavinia"},"geometry":{"type":"LineString","coordinates":[[79.86620255486486,6.845579920771301],[79.86618458855916,6.845579920771301]]}},{"type":"Feature","properties":{"edge_id":73,"u":212,"v":210,"length_m":3.0,"gn_name":"Mount Lavinia"},"geometry":{"type":"LineString","coordinates":[[79.86734341527568,6.835090929912502],[79.86731646581715,6.835090929912502]]}},{"type":"Feature","properties":{"edge_id":74,"u":178,"v":150,"length_m":71.197,"gn_name":"Mount Lavinia"},"geometry":{"type":"LineString","coordinates":[[79.86637323476883,6.834136563022746],[79.86574441406995,6.834252514241872]]}},{"type":"Feature","properties":{"edge_id":75,"u":69,"v":97,"length_m":72.111,"gn_name":"Mount Lavinia"},"geometry":{"type":"LineString","coordinates":[[79.86409151394717,6.847996993990023],[79.86473830095173,6.848032670255799]]}},{"type":"Feature","properties":{"edge_id":76,"u":97,"v":155,"length_m":137.091,"gn_name":"Mount Lavinia"},"geometry":{"type":"LineString","coordinates":[[79.86473830095173,6.848032670255799],[79.86596899289097,6.848077265584268]]}},{"type":"Feature","properties":{"edge_id":77,"u":69,"v":34,"length_m":58.215,"gn_name":"Mount Lavinia"},"geometry":{"type":"LineString","coordinates":[[79.86409151394717,6.847996993990023],[79.86357049108237,6.84795239865405]]}},{"type":"Feature","properties":{"edge_id":78,"u":34,"v":20,"length_m":51.352,"gn_name":"Mount Lavinia"},"geometry":{"type":"LineString","coordinates":[[79.86357049108237,6.84795239865405],[79.86311235028748,6.847898884245379]]}},{"type":"Feature","properties":{"edge_id":79,"u":41,"v":35,"length_m":52.086,"gn_name":"Mount Lavinia"},"geometry":{"type":"LineString","coordinates":[[79.86363337315227,6.84569586921264],[79.86360642369374,6.846159662696297]]}},{"type":"Feature","properties":{"edge_id":80,"u":40,"v":41,"length_m":40.0,"gn_name":"Mount Lavinia"},"geometry":{"type":"LineString","coordinates":[[79.86363337315227,6.845339104687746],[79.86363337315227,6.84569586921264]]}},{"type":"Feature","properties":{"edge_id":81,"u":40,"v":39,"length_m":11.0,"gn_name":"Mount Lavinia"},"geometry":{"type":"LineString","coordinates":[[79.86363337315227,6.845339104687746],[79.86363337315227,6.845240994396647]]}},{"type":"Feature","properties":{"edge_id":82,"u":38,"v":39,"length_m":24.0,"gn_name":"Mount Lavinia"},"geometry":{"type":"LineString","coordinates":[[79.86363337315227,6.845026935509703],[79.86363337315227,6.845240994396647]]}},{"type":"Feature","properties":{"edge_id":83,"u":66,"v":3,"length_m":154.175,"gn_name":"Mount Lavinia"},"geometry":{"type":"LineString","coordinates":[[79.8640555813358,6.848639166365822],[79.86268115895109,6.848469704295054]]}},{"type":"Feature","properties":{"edge_id":84,"u":111,"v":114,"length_m":57.079,"gn_name":"Mount Lavinia"},"geometry":{"type":"LineString","coordinates":[[79.8649269471614,6.845240994396647],[79.86495389661992,6.845749383868371]]}},{"type":"Feature","properties":{"edge_id":85,"u":145,"v":153,"length_m":34.059,"gn_name":"Mount Lavinia"},"geometry":{"type":"LineString","coordinates":[[79.86565458254154,6.849415123499897],[79.86596000973813,6.849397285419036]]}},{"type":"Feature","properties":{"edge_id":86,"u":71,"v":103,"length_m":67.602,"gn_name":"Mount Lavinia"},"geometry":{"type":"LineString","coordinates":[[79.86419032862842,6.847497525989033],[79.86479219986877,6.847577797667313]]}},{"type":"Feature","properties":{"edge_id":87,"u":103,"v":97,"length_m":51.352,"gn_name":"Mount Lavinia"},"geometry":{"type":"LineString","coordinates":[[79.86479219986877,6.847577797667313],[79.86473830095173,6.848032670255799]]}},{"type":"Feature","properties":{"edge_id":88,"u":69,"v":66,"length_m":72.111,"gn_name":"Mount Lavinia"},"geometry":{"type":"LineString","coordinates":[[79.86409151394717,6.847996993990023],[79.8640555813358,6.848639166365822]]}},{"type":"Feature","properties":{"edge_id":89,"u":78,"v":124,"length_m":90.139,"gn_name":"Mount Lavinia"},"geometry":{"type":"LineString","coordinates":[[79.86441490744946,6.84366230784882],[79.86522339120516,6.84370690358567]]}},{"type":"Feature","properties":{"edge_id":90,"u":23,"v":78,"length_m":135.237,"gn_name":"Mount Lavinia"},"geometry":{"type":"LineString","coordinates":[[79.86320218181588,6.843590954661193],[79.86441490744946,6.84366230784882]]}},{"type":"Feature","properties":{"edge_id":91,"u":23,"v":8,"length_m":32.0,"gn_name":"Mount Lavinia"},"geometry":{"type":"LineString","coordinates":[[79.86320218181588,6.843590954661193],[79.86291472092498,6.843590954661193]]}},{"type":"Feature","properties":{"edge_id":92,"u":37,"v":43,"length_m":29.069,"gn_name":"Mount Lavinia"},"geometry":{"type":"LineString","coordinates":[[79.86363337315227,6.830247721234532],[79.86365133945795,6.8305063837113105]]}},{"type":"Feature","properties":{"edge_id":93,"u":43,"v":45,"length_m":28.018,"gn_name":"Mount Lavinia"},"geometry":{"type":"LineString","coordinates":[[79.86365133945795,6.8305063837113105],[79.86366032261078,6.830756126659615]]}},{"type":"Feature","properties":{"edge_id":94,"u":74,"v":79,"length_m":80.231,"gn_name":"Mount Lavinia"},"geometry":{"type":"LineString","coordinates":[[79.86429812646251,6.83311083947501],[79.8644238906023,6.832406210719391]]}},{"type":"Feature","properties":{"edge_id":95,"u":73,"v":74,"length_m":39.623,"gn_name":"Mount Lavinia"},"geometry":{"type":"LineString","coordinates":[[79.86423524439262,6.833458693794314],[79.86429812646251,6.83311083947501]]}},{"type":"Feature","properties":{"edge_id":96,"u":203,"v":204,"length_m":1.0,"gn_name":"Mount Lavinia"},"geometry":{"type":"LineString","coordinates":[[79.86696612285635,6.830702610324527],[79.86696612285635,6.830711529714124]]}},{"type":"Feature","properties":{"edge_id":97,"u":193,"v":184,"length_m":24.739,"gn_name":"Mount Lavinia"},"geometry":{"type":"LineString","coordinates":[[79.86675052718816,6.835117687835222],[79.86653493151996,6.835171203676169]]}},{"type":"Feature","properties":{"edge_id":98,"u":134,"v":137,"length_m":44.911,"gn_name":"Mount Lavinia"},"geometry":{"type":"LineString","coordinates":[[79.86550186894323,6.840549515124691],[79.86558271731882,6.8401570699025935]]}},{"type":"Feature","properties":{"edge_id":99,"u":135,"v":156,"length_m":52.154,"gn_name":"Mount Lavinia"},"geometry":{"type":"LineString","coordinates":[[79.86550186894323,6.848772952168644],[79.86596899289097,6.848737275958227]]}},{"type":"Feature","properties":{"edge_id":100,"u":13,"v":17,"length_m":21.213,"gn_name":"Mount Lavinia"},"geometry":{"type":"LineString","coordinates":[[79.8630315019119,6.847497525989033],[79.86305845137042,6.847310225353863]]}},{"type":"Feature","properties":{"edge_id":101,"u":21,"v":17,"length_m":70.576,"gn_name":"Mount Lavinia"},"geometry":{"type":"LineString","coordinates":[[79.863139299746,6.846685889372301],[79.86305845137042,6.847310225353863]]}},{"type":"Feature","properties":{"edge_id":102,"u":86,"v":89,"length_m":35.228,"gn_name":"Mount Lavinia"},"geometry":{"type":"LineString","coordinates":[[79.86460355365912,6.846864271164674],[79.86463948627048,6.84655210298426]]}},{"type":"Feature","properties":{"edge_id":103,"u":39,"v":67,"length_m":48.01,"gn_name":"Mount Lavinia"},"geometry":{"type":"LineString","coordinates":[[79.86363337315227,6.845240994396647],[79.86406456448864,6.8452320752782745]]}},{"type":"Feature","properties":{"edge_id":104,"u":100,"v":105,"length_m":48.26,"gn_name":"Mount Lavinia"},"geometry":{"type":"LineString","coordinates":[[79.8647742335631,6.842529574736159],[79.8648191493273,6.842101454434753]]}},{"type":"Feature","properties":{"edge_id":105,"u":66,"v":72,"length_m":19.235,"gn_name":"Mount Lavinia"},"geometry":{"type":"LineString","coordinates":[[79.8640555813358,6.848639166365822],[79.86422626123978,6.8486659235293885]]}},{"type":"Feature","properties":{"edge_id":106,"u":215,"v":214,"length_m":4.0,"gn_name":"Mount Lavinia"},"geometry":{"type":"LineString","coordinates":[[79.86745121310977,6.837338590198923],[79.8674152804984,6.837338590198923]]}},{"type":"Feature","properties":{"edge_id":107,"u":40,"v":15,"length_m":65.0,"gn_name":"Mount Lavinia"},"geometry":{"type":"LineString","coordinates":[[79.86363337315227,6.845339104687746],[79.86304946821758,6.845339104687746]]}},{"type":"Feature","properties":{"edge_id":108,"u":119,"v":112,"length_m":23.022,"gn_name":"Mount Lavinia"},"geometry":{"type":"LineString","coordinates":[[79.86514254282959,6.841548465144014],[79.86493593031423,6.841539545956659]]}},{"type":"Feature","properties":{"edge_id":109,"u":109,"v":112,"length_m":29.155,"gn_name":"Mount Lavinia"},"geometry":{"type":"LineString","coordinates":[[79.86490898085572,6.841798202322354],[79.86493593031423,6.841539545956659]]}},{"type":"Feature","properties":{"edge_id":110,"u":165,"v":167,"length_m":43.012,"gn_name":"Mount Lavinia"},"geometry":{"type":"LineString","coordinates":[[79.86611272333644,6.83116641836303],[79.86612170648928,6.831549951593592]]}},{"type":"Feature","properties":{"edge_id":111,"u":201,"v":206,"length_m":10.44,"gn_name":"Mount Lavinia"},"geometry":{"type":"LineString","coordinates":[[79.86694815655066,6.841280889450866],[79.86703798807908,6.841307647026928]]}},{"type":"Feature","properties":{"edge_id":112,"u":104,"v":68,"length_m":80.399,"gn_name":"Mount Lavinia"},"geometry":{"type":"LineString","coordinates":[[79.86481016617446,6.84629344919436],[79.86409151394717,6.846222096400061]]}},{"type":"Feature","properties":{"edge_id":113,"u":35,"v":9,"length_m":76.105,"gn_name":"Mount Lavinia"},"geometry":{"type":"LineString","coordinates":[[79.86360642369374,6.846159662696297],[79.86292370407782,6.84612398629048]]}},{"type":"Feature","properties":{"edge_id":114,"u":63,"v":62,"length_m":19.0,"gn_name":"Mount Lavinia"},"geometry":{"type":"LineString","coordinates":[[79.86402863187728,6.844919906030232],[79.86402863187728,6.844750442638652]]}},{"type":"Feature","properties":{"edge_id":115,"u":65,"v":62,"length_m":41.11,"gn_name":"Mount Lavinia"},"geometry":{"type":"LineString","coordinates":[[79.8640555813358,6.844384758272885],[79.86402863187728,6.844750442638652]]}},{"type":"Feature","properties":{"edge_id":116,"u":120,"v":123,"length_m":35.057,"gn_name":"Mount Lavinia"},"geometry":{"type":"LineString","coordinates":[[79.86515152598243,6.844768280893231],[79.86516949228812,6.844456111341863]]}},{"type":"Feature","properties":{"edge_id":117,"u":144,"v":180,"length_m":82.219,"gn_name":"Mount Lavinia"},"geometry":{"type":"LineString","coordinates":[[79.8656455993887,6.843590954661193],[79.86638221792167,6.843644469552912]]}},{"type":"Feature","properties":{"edge_id":118,"u":190,"v":197,"length_m":14.142,"gn_name":"Mount Lavinia"},"geometry":{"type":"LineString","coordinates":[[79.86669662827111,6.842047939370088],[79.8668223924109,6.842065777725644]]}},{"type":"Feature","properties":{"edge_id":119,"u":181,"v":190,"length_m":33.377,"gn_name":"Mount Lavinia"},"geometry":{"type":"LineString","coordinates":[[79.86640018422736,6.842003343478287],[79.86669662827111,6.842047939370088]]}},{"type":"Feature","properties":{"edge_id":120,"u":181,"v":148,"length_m":78.16,"gn_name":"Mount Lavinia"},"geometry":{"type":"LineString","coordinates":[[79.86640018422736,6.842003343478287],[79.86569949830574,6.84195874758232]]}},{"type":"Feature","properties":{"edge_id":121,"u":55,"v":17,"length_m":85.0,"gn_name":"Mount Lavinia"},"geometry":{"type":"LineString","coordinates":[[79.86381303620908,6.847426173374781],[79.86305845137042,6.847310225353863]]}},{"type":"Feature","properties":{"edge_id":122,"u":201,"v":202,"length_m":42.0,"gn_name":"Mount Lavinia"},"geometry":{"type":"LineString","coordinates":[[79.86694815655066,6.841280889450866],[79.86694815655066,6.841655495379295]]}},{"type":"Feature","properties":{"edge_id":123,"u":189,"v":195,"length_m":50.01,"gn_name":"Mount Lavinia"},"geometry":{"type":"LineString","coordinates":[[79.86668764511828,6.838899459177833],[79.86677747664669,6.839336501578116]]}},{"type":"Feature","properties":{"edge_id":124,"u":187,"v":190,"length_m":22.136,"gn_name":"Mount Lavinia"},"geometry":{"type":"LineString","coordinates":[[79.86663374620122,6.842235242070177],[79.86669662827111,6.842047939370088]]}},{"type":"Feature","properties":{"edge_id":125,"u":181,"v":179,"length_m":24.187,"gn_name":"Mount Lavinia"},"geometry":{"type":"LineString","coordinates":[[79.86640018422736,6.842003343478287],[79.86637323476883,6.842217403720952]]}},{"type":"Feature","properties":{"edge_id":126,"u":147,"v":146,"length_m":3.162,"gn_name":"Mount Lavinia"},"geometry":{"type":"LineString","coordinates":[[79.86568153200007,6.830220963039294],[79.86567254884721,6.830194204842561]]}},{"type":"Feature","properties":{"edge_id":127,"u":96,"v":74,"length_m":49.163,"gn_name":"Mount Lavinia"},"geometry":{"type":"LineString","coordinates":[[79.86473830095173,6.833146516852739],[79.86429812646251,6.83311083947501]]}},{"type":"Feature","properties":{"edge_id":128,"u":59,"v":56,"length_m":31.257,"gn_name":"Mount Lavinia"},"geometry":{"type":"LineString","coordinates":[[79.86394778350171,6.835064171988283],[79.86391185089035,6.8353406704663096]]}},{"type":"Feature","properties":{"edge_id":129,"u":115,"v":125,"length_m":31.953,"gn_name":"Mount Lavinia"},"geometry":{"type":"LineString","coordinates":[[79.86497186292561,6.835313912556071],[79.86524135751084,6.835412024886288]]}},{"type":"Feature","properties":{"edge_id":130,"u":120,"v":151,"length_m":70.178,"gn_name":"Mount Lavinia"},"geometry":{"type":"LineString","coordinates":[[79.86515152598243,6.844768280893231],[79.8657803466813,6.84481287652676]]}},{"type":"Feature","properties":{"edge_id":131,"u":207,"v":206,"length_m":6.325,"gn_name":"Mount Lavinia"},"geometry":{"type":"LineString","coordinates":[[79.86709188699612,6.8413254854101355],[79.86703798807908,6.841307647026928]]}},{"type":"Feature","properties":{"edge_id":132,"u":138,"v":143,"length_m":48.166,"gn_name":"Mount Lavinia"},"geometry":{"type":"LineString","coordinates":[[79.86560966677733,6.842636604751534],[79.8656455993887,6.8422084845460915]]}},{"type":"Feature","properties":{"edge_id":133,"u":159,"v":195,"length_m":85.0,"gn_name":"Mount Lavinia"},"geometry":{"type":"LineString","coordinates":[[79.86602289180802,6.839220551592518],[79.86677747664669,6.839336501578116]]}},{"type":"Feature","properties":{"edge_id":134,"u":50,"v":52,"length_m":5.099,"gn_name":"Mount Lavinia"},"geometry":{"type":"LineString","coordinates":[[79.86375913729204,6.831576709714479],[79.86376812044487,6.831621306579298]]}},{"type":"Feature","properties":{"edge_id":135,"u":50,"v":45,"length_m":92.655,"gn_name":"Mount Lavinia"},"geometry":{"type":"LineString","coordinates":[[79.86375913729204,6.831576709714479],[79.86366032261078,6.830756126659615]]}},{"type":"Feature","properties":{"edge_id":136,"u":42,"v":45,"length_m":22.091,"gn_name":"Mount Lavinia"},"geometry":{"type":"LineString","coordinates":[[79.8636423563051,6.830559900068353],[79.86366032261078,6.830756126659615]]}},{"type":"Feature","properties":{"edge_id":137,"u":204,"v":205,"length_m":14.56,"gn_name":"Mount Lavinia"},"geometry":{"type":"LineString","coordinates":[[79.86696612285635,6.830711529714124],[79.86702900492624,6.83072936849282]]}},{"type":"Feature","properties":{"edge_id":138,"u":204,"v":196,"length_m":41.231,"gn_name":"Mount Lavinia"},"geometry":{"type":"LineString","coordinates":[[79.86696612285635,6.830711529714124],[79.86679544295237,6.8306401745926895]]}},{"type":"Feature","properties":{"edge_id":139,"u":173,"v":168,"length_m":18.868,"gn_name":"Mount Lavinia"},"geometry":{"type":"LineString","coordinates":[[79.86622950432337,6.830372592792509],[79.86615763910065,6.830327995811259]]}},{"type":"Feature","properties":{"edge_id":140,"u":147,"v":162,"length_m":42.579,"gn_name":"Mount Lavinia"},"geometry":{"type":"LineString","coordinates":[[79.86568153200007,6.830220963039294],[79.86605882441938,6.830283398825851]]}},{"type":"Feature","properties":{"edge_id":141,"u":147,"v":127,"length_m":89.443,"gn_name":"Mount Lavinia"},"geometry":{"type":"LineString","coordinates":[[79.86568153200007,6.830220963039294],[79.86528627327505,6.830149607844681]]}},{"type":"Feature","properties":{"edge_id":142,"u":102,"v":113,"length_m":18.111,"gn_name":"Mount Lavinia"},"geometry":{"type":"LineString","coordinates":[[79.86479219986877,6.830078252639423],[79.86495389661992,6.830096091441735]]}},{"type":"Feature","properties":{"edge_id":143,"u":87,"v":92,"length_m":12.042,"gn_name":"Mount Lavinia"},"geometry":{"type":"LineString","coordinates":[[79.86463050311764,6.830203124241639],[79.86470236834036,6.830122849643956]]}},{"type":"Feature","properties":{"edge_id":144,"u":43,"v":44,"length_m":1.0,"gn_name":"Mount Lavinia"},"geometry":{"type":"LineString","coordinates":[[79.86365133945795,6.8305063837113105],[79.86366032261078,6.8305063837113105]]}},{"type":"Feature","properties":{"edge_id":145,"u":149,"v":130,"length_m":48.298,"gn_name":"Mount Lavinia"},"geometry":{"type":"LineString","coordinates":[[79.86571746461142,6.835269316035679],[79.86534915534493,6.835046333371305]]}},{"type":"Feature","properties":{"edge_id":146,"u":98,"v":130,"length_m":149.739,"gn_name":"Mount Lavinia"},"geometry":{"type":"LineString","coordinates":[[79.86474728410457,6.833868983178969],[79.86534915534493,6.835046333371305]]}},{"type":"Feature","properties":{"edge_id":147,"u":73,"v":98,"length_m":73.758,"gn_name":"Mount Lavinia"},"geometry":{"type":"LineString","coordinates":[[79.86423524439262,6.833458693794314],[79.86474728410457,6.833868983178969]]}},{"type":"Feature","properties":{"edge_id":148,"u":54,"v":2,"length_m":136.138,"gn_name":"Mount Lavinia"},"geometry":{"type":"LineString","coordinates":[[79.8637950699034,6.83337841974309],[79.86258234426984,6.833235710285416]]}},{"type":"Feature","properties":{"edge_id":149,"u":163,"v":185,"length_m":53.39,"gn_name":"Mount Lavinia"},"geometry":{"type":"LineString","coordinates":[[79.8660857738779,6.832468646220676],[79.8665618809785,6.832522162358146]]}},{"type":"Feature","properties":{"edge_id":150,"u":91,"v":76,"length_m":89.62,"gn_name":"Mount Lavinia"},"geometry":{"type":"LineString","coordinates":[[79.86468440203468,6.832388372003242],[79.8643610085324,6.831656984068158]]}},{"type":"Feature","properties":{"edge_id":151,"u":50,"v":76,"length_m":72.088,"gn_name":"Mount Lavinia"},"geometry":{"type":"LineString","coordinates":[[79.86375913729204,6.831576709714479],[79.8643610085324,6.831656984068158]]}},{"type":"Feature","properties":{"edge_id":152,"u":48,"v":2,"length_m":356.058,"gn_name":"Mount Lavinia"},"geometry":{"type":"LineString","coordinates":[[79.86374117098636,6.831576709714479],[79.86258234426984,6.833235710285416]]}},{"type":"Feature","properties":{"edge_id":153,"u":1,"v":2,"length_m":63.407,"gn_name":"Mount Lavinia"},"geometry":{"type":"LineString","coordinates":[[79.86201640564084,6.833173274884289],[79.86258234426984,6.833235710285416]]}},{"type":"Feature","properties":{"edge_id":154,"u":201,"v":83,"length_m":276.368,"gn_name":"Mount Lavinia"},"geometry":{"type":"LineString","coordinates":[[79.86694815655066,6.841280889450866],[79.86453168843639,6.8410668287884056]]}},{"type":"Feature","properties":{"edge_id":155,"u":132,"v":198,"length_m":162.924,"gn_name":"Mount Lavinia"},"geometry":{"type":"LineString","coordinates":[[79.8654300037205,6.8416911721190585],[79.86688527448078,6.841842798233315]]}},{"type":"Feature","properties":{"edge_id":156,"u":70,"v":33,"length_m":66.483,"gn_name":"Mount Lavinia"},"geometry":{"type":"LineString","coordinates":[[79.86415439601706,6.842458221379249],[79.86356150792953,6.842386868011674]]}},{"type":"Feature","properties":{"edge_id":157,"u":93,"v":90,"length_m":28.455,"gn_name":"Mount Lavinia"},"geometry":{"type":"LineString","coordinates":[[79.86470236834036,6.839791382019064],[79.86465745257617,6.840041120116177]]}},{"type":"Feature","properties":{"edge_id":158,"u":80,"v":70,"length_m":104.097,"gn_name":"Mount Lavinia"},"geometry":{"type":"LineString","coordinates":[[79.8644688063665,6.84170901048794],[79.86415439601706,6.842458221379249]]}},{"type":"Feature","properties":{"edge_id":159,"u":110,"v":118,"length_m":226.428,"gn_name":"Mount Lavinia"},"geometry":{"type":"LineString","coordinates":[[79.86491796400855,6.8380253731778495],[79.86514254282959,6.836018537026024]]}},{"type":"Feature","properties":{"edge_id":160,"u":175,"v":149,"length_m":66.535,"gn_name":"Mount Lavinia"},"geometry":{"type":"LineString","coordinates":[[79.86631035269895,6.835197961594397],[79.86571746461142,6.835269316035679]]}},{"type":"Feature","properties":{"edge_id":161,"u":46,"v":14,"length_m":69.587,"gn_name":"Mount Lavinia"},"geometry":{"type":"LineString","coordinates":[[79.86366930576362,6.835028494753662],[79.86304946821758,6.8349482209660275]]}},{"type":"Feature","properties":{"edge_id":162,"u":59,"v":126,"length_m":148.996,"gn_name":"Mount Lavinia"},"geometry":{"type":"LineString","coordinates":[[79.86394778350171,6.835064171988283],[79.86527729012221,6.835215800205716]]}},{"type":"Feature","properties":{"edge_id":163,"u":46,"v":54,"length_m":185.541,"gn_name":"Mount Lavinia"},"geometry":{"type":"LineString","coordinates":[[79.86366930576362,6.835028494753662],[79.8637950699034,6.83337841974309]]}},{"type":"Feature","properties":{"edge_id":164,"u":106,"v":189,"length_m":208.09,"gn_name":"Mount Lavinia"},"geometry":{"type":"LineString","coordinates":[[79.86483711563298,6.8386408012423905],[79.86668764511828,6.838899459177833]]}},{"type":"Feature","properties":{"edge_id":165,"u":189,"v":217,"length_m":89.483,"gn_name":"Mount Lavinia"},"geometry":{"type":"LineString","coordinates":[[79.86668764511828,6.838899459177833],[79.86748714572114,6.838979732301737]]}},{"type":"Feature","properties":{"edge_id":166,"u":216,"v":219,"length_m":88.392,"gn_name":"Mount Lavinia"},"geometry":{"type":"LineString","coordinates":[[79.8674781625683,6.83160346783387],[79.86765782562512,6.830836401151021]]}},{"type":"Feature","properties":{"edge_id":167,"u":216,"v":211,"length_m":108.244,"gn_name":"Mount Lavinia"},"geometry":{"type":"LineString","coordinates":[[79.8674781625683,6.83160346783387],[79.86733443212285,6.832557839779798]]}},{"type":"Feature","properties":{"edge_id":168,"u":209,"v":211,"length_m":169.152,"gn_name":"Mount Lavinia"},"geometry":{"type":"LineString","coordinates":[[79.86730748266432,6.834065208412381],[79.86733443212285,6.832557839779798]]}},{"type":"Feature","properties":{"edge_id":169,"u":210,"v":209,"length_m":115.051,"gn_name":"Mount Lavinia"},"geometry":{"type":"LineString","coordinates":[[79.86731646581715,6.835090929912502],[79.86730748266432,6.834065208412381]]}},{"type":"Feature","properties":{"edge_id":170,"u":217,"v":214,"length_m":184.27,"gn_name":"Mount Lavinia"},"geometry":{"type":"LineString","coordinates":[[79.86748714572114,6.838979732301737],[79.8674152804984,6.837338590198923]]}},{"type":"Feature","properties":{"edge_id":171,"u":217,"v":206,"length_m":266.949,"gn_name":"Mount Lavinia"},"geometry":{"type":"LineString","coordinates":[[79.86748714572114,6.838979732301737],[79.86703798807908,6.841307647026928]]}},{"type":"Feature","properties":{"edge_id":172,"u":197,"v":198,"length_m":25.962,"gn_name":"Mount Lavinia"},"geometry":{"type":"LineString","coordinates":[[79.8668223924109,6.842065777725644],[79.86688527448078,6.841842798233315]]}},{"type":"Feature","properties":{"edge_id":173,"u":186,"v":197,"length_m":80.967,"gn_name":"Mount Lavinia"},"geometry":{"type":"LineString","coordinates":[[79.86659781358985,6.842752553907781],[79.8668223924109,6.842065777725644]]}},{"type":"Feature","properties":{"edge_id":174,"u":180,"v":182,"length_m":54.329,"gn_name":"Mount Lavinia"},"geometry":{"type":"LineString","coordinates":[[79.86638221792167,6.843644469552912],[79.86648103260292,6.843171754468521]]}},{"type":"Feature","properties":{"edge_id":175,"u":174,"v":176,"length_m":57.226,"gn_name":"Mount Lavinia"},"geometry":{"type":"LineString","coordinates":[[79.86629238639325,6.84448286873998],[79.86633730215746,6.843974477919291]]}},{"type":"Feature","properties":{"edge_id":176,"u":161,"v":164,"length_m":64.307,"gn_name":"Mount Lavinia"},"geometry":{"type":"LineString","coordinates":[[79.86603187496085,6.846998057465194],[79.8660857738779,6.8464272356549145]]}},{"type":"Feature","properties":{"edge_id":177,"u":155,"v":156,"length_m":74.0,"gn_name":"Mount Lavinia"},"geometry":{"type":"LineString","coordinates":[[79.86596899289097,6.848077265584268],[79.86596899289097,6.848737275958227]]}},{"type":"Feature","properties":{"edge_id":178,"u":153,"v":156,"length_m":74.008,"gn_name":"Mount Lavinia"},"geometry":{"type":"LineString","coordinates":[[79.86596000973813,6.849397285419036],[79.86596899289097,6.848737275958227]]}},{"type":"Feature","properties":{"edge_id":179,"u":95,"v":76,"length_m":47.503,"gn_name":"Mount Lavinia"},"geometry":{"type":"LineString","coordinates":[[79.86473830095173,6.8314607578464885],[79.8643610085324,6.831656984068158]]}},{"type":"Feature","properties":{"edge_id":180,"u":95,"v":121,"length_m":48.09,"gn_name":"Mount Lavinia"},"geometry":{"type":"LineString","coordinates":[[79.86473830095173,6.8314607578464885],[79.86516050913526,6.831433999719114]]}},{"type":"Feature","properties":{"edge_id":181,"u":167,"v":121,"length_m":114.435,"gn_name":"Mount Lavinia"},"geometry":{"type":"LineString","coordinates":[[79.86612170648928,6.831549951593592],[79.86516050913526,6.831433999719114]]}},{"type":"Feature","properties":{"edge_id":182,"u":178,"v":184,"length_m":119.023,"gn_name":"Mount Lavinia"},"geometry":{"type":"LineString","coordinates":[[79.86637323476883,6.834136563022746],[79.86653493151996,6.835171203676169]]}},{"type":"Feature","properties":{"edge_id":183,"u":178,"v":185,"length_m":182.921,"gn_name":"Mount Lavinia"},"geometry":{"type":"LineString","coordinates":[[79.86637323476883,6.834136563022746],[79.8665618809785,6.832522162358146]]}},{"type":"Feature","properties":{"edge_id":184,"u":209,"v":178,"length_m":104.459,"gn_name":"Mount Lavinia"},"geometry":{"type":"LineString","coordinates":[[79.86730748266432,6.834065208412381],[79.86637323476883,6.834136563022746]]}},{"type":"Feature","properties":{"edge_id":185,"u":38,"v":63,"length_m":46.781,"gn_name":"Mount Lavinia"},"geometry":{"type":"LineString","coordinates":[[79.86363337315227,6.845026935509703],[79.86402863187728,6.844919906030232]]}},{"type":"Feature","properties":{"edge_id":186,"u":63,"v":67,"length_m":35.401,"gn_name":"Mount Lavinia"},"geometry":{"type":"LineString","coordinates":[[79.86402863187728,6.844919906030232],[79.86406456448864,6.8452320752782745]]}},{"type":"Feature","properties":{"edge_id":187,"u":32,"v":35,"length_m":66.513,"gn_name":"Mount Lavinia"},"geometry":{"type":"LineString","coordinates":[[79.86353455847102,6.846748323007217],[79.86360642369374,6.846159662696297]]}},{"type":"Feature","properties":{"edge_id":188,"u":66,"v":7,"length_m":151.554,"gn_name":"Mount Lavinia"},"geometry":{"type":"LineString","coordinates":[[79.8640555813358,6.848639166365822],[79.86290573777212,6.84875511406377]]}},{"type":"Feature","properties":{"edge_id":189,"u":41,"v":114,"length_m":147.123,"gn_name":"Mount Lavinia"},"geometry":{"type":"LineString","coordinates":[[79.86363337315227,6.84569586921264],[79.86495389661992,6.845749383868371]]}},{"type":"Feature","properties":{"edge_id":190,"u":164,"v":114,"length_m":188.963,"gn_name":"Mount Lavinia"},"geometry":{"type":"LineString","coordinates":[[79.8660857738779,6.8464272356549145],[79.86495389661992,6.845749383868371]]}},{"type":"Feature","properties":{"edge_id":191,"u":116,"v":103,"length_m":99.167,"gn_name":"Mount Lavinia"},"geometry":{"type":"LineString","coordinates":[[79.8650347449955,6.846908866602348],[79.86479219986877,6.847577797667313]]}},{"type":"Feature","properties":{"edge_id":192,"u":208,"v":192,"length_m":123.198,"gn_name":"Mount Lavinia"},"geometry":{"type":"LineString","coordinates":[[79.86719070167737,6.831594548460905],[79.86675052718816,6.832531081713808]]}},{"type":"Feature","properties":{"edge_id":193,"u":75,"v":78,"length_m":83.309,"gn_name":"Mount Lavinia"},"geometry":{"type":"LineString","coordinates":[[79.86435202537956,6.844402596541131],[79.86441490744946,6.84366230784882]]}},{"type":"Feature","properties":{"edge_id":194,"u":36,"v":47,"length_m":47.147,"gn_name":"Mount Lavinia"},"geometry":{"type":"LineString","coordinates":[[79.86361540684658,6.829908783984277],[79.86368727206931,6.829498491202144]]}},{"type":"Feature","properties":{"edge_id":195,"u":48,"v":45,"length_m":92.577,"gn_name":"Mount Lavinia"},"geometry":{"type":"LineString","coordinates":[[79.86374117098636,6.831576709714479],[79.86366032261078,6.830756126659615]]}},{"type":"Feature","properties":{"edge_id":196,"u":210,"v":193,"length_m":64.071,"gn_name":"Mount Lavinia"},"geometry":{"type":"LineString","coordinates":[[79.86731646581715,6.835090929912502],[79.86675052718816,6.835117687835222]]}},{"type":"Feature","properties":{"edge_id":197,"u":121,"v":117,"length_m":148.486,"gn_name":"Mount Lavinia"},"geometry":{"type":"LineString","coordinates":[[79.86516050913526,6.831433999719114],[79.86505271130117,6.830113930243383]]}},{"type":"Feature","properties":{"edge_id":198,"u":90,"v":137,"length_m":103.832,"gn_name":"Mount Lavinia"},"geometry":{"type":"LineString","coordinates":[[79.86465745257617,6.840041120116177],[79.86558271731882,6.8401570699025935]]}},{"type":"Feature","properties":{"edge_id":199,"u":199,"v":137,"length_m":149.016,"gn_name":"Mount Lavinia"},"geometry":{"type":"LineString","coordinates":[[79.86691222393931,6.8402908580827155],[79.86558271731882,6.8401570699025935]]}},{"type":"Feature","properties":{"edge_id":200,"u":133,"v":137,"length_m":81.194,"gn_name":"Mount Lavinia"},"geometry":{"type":"LineString","coordinates":[[79.86549288579039,6.839630836030543],[79.86558271731882,6.8401570699025935]]}},{"type":"Feature","properties":{"edge_id":201,"u":68,"v":64,"length_m":65.284,"gn_name":"Mount Lavinia"},"geometry":{"type":"LineString","coordinates":[[79.86409151394717,6.846222096400061],[79.86403761503013,6.8468018375449295]]}},{"type":"Feature","properties":{"edge_id":202,"u":135,"v":94,"length_m":99.942,"gn_name":"Mount Lavinia"},"geometry":{"type":"LineString","coordinates":[[79.86550186894323,6.848772952168644],[79.86470236834036,6.848871061733535]]}},{"type":"Feature","properties":{"edge_id":203,"u":53,"v":51,"length_m":36.126,"gn_name":"Mount Lavinia"},"geometry":{"type":"LineString","coordinates":[[79.86378608675057,6.844366920003975],[79.86375913729204,6.844688008742378]]}},{"type":"Feature","properties":{"edge_id":204,"u":136,"v":176,"length_m":92.021,"gn_name":"Mount Lavinia"},"geometry":{"type":"LineString","coordinates":[[79.86551085209607,6.8439655587772545],[79.86633730215746,6.843974477919291]]}},{"type":"Feature","properties":{"edge_id":205,"u":22,"v":23,"length_m":82.219,"gn_name":"Mount Lavinia"},"geometry":{"type":"LineString","coordinates":[[79.86314828289883,6.8443223243287825],[79.86320218181588,6.843590954661193]]}},{"type":"Feature","properties":{"edge_id":206,"u":111,"v":67,"length_m":96.031,"gn_name":"Mount Lavinia"},"geometry":{"type":"LineString","coordinates":[[79.8649269471614,6.845240994396647],[79.86406456448864,6.8452320752782745]]}},{"type":"Feature","properties":{"edge_id":207,"u":194,"v":188,"length_m":73.773,"gn_name":"Mount Lavinia"},"geometry":{"type":"LineString","coordinates":[[79.86675951034101,6.831576709714479],[79.8666696788126,6.830925595014559]]}},{"type":"Feature","properties":{"edge_id":208,"u":108,"v":61,"length_m":98.592,"gn_name":"Mount Lavinia"},"geometry":{"type":"LineString","coordinates":[[79.86490898085572,6.838105646448616],[79.86402863187728,6.8381145657000895]]}},{"type":"Feature","properties":{"edge_id":209,"u":173,"v":139,"length_m":89.342,"gn_name":"Mount Lavinia"},"geometry":{"type":"LineString","coordinates":[[79.86622950432337,6.830372592792509],[79.86561864993017,6.830702610324527]]}},{"type":"Feature","properties":{"edge_id":210,"u":4,"v":14,"length_m":130.136,"gn_name":"Mount Lavinia"},"geometry":{"type":"LineString","coordinates":[[79.86286082200793,6.83382438652378],[79.86304946821758,6.8349482209660275]]}},{"type":"Feature","properties":{"edge_id":211,"u":135,"v":107,"length_m":97.793,"gn_name":"Mount Lavinia"},"geometry":{"type":"LineString","coordinates":[[79.86550186894323,6.848772952168644],[79.86486406509151,6.848380513707313]]}},{"type":"Feature","properties":{"edge_id":212,"u":10,"v":34,"length_m":99.511,"gn_name":"Mount Lavinia"},"geometry":{"type":"LineString","coordinates":[[79.86292370407782,6.847658069332086],[79.86357049108237,6.84795239865405]]}},{"type":"Feature","properties":{"edge_id":213,"u":19,"v":29,"length_m":67.222,"gn_name":"Mount Lavinia"},"geometry":{"type":"LineString","coordinates":[[79.86309438398179,6.844688008742378],[79.8633998111784,6.84434016259936]]}},{"type":"Feature","properties":{"edge_id":214,"u":49,"v":58,"length_m":66.902,"gn_name":"Mount Lavinia"},"geometry":{"type":"LineString","coordinates":[[79.8637501541392,6.843983397061162],[79.86392083404318,6.844375839138514]]}},{"type":"Feature","properties":{"edge_id":215,"u":81,"v":112,"length_m":53.609,"gn_name":"Mount Lavinia"},"geometry":{"type":"LineString","coordinates":[[79.86448677267218,6.841387919746116],[79.86493593031423,6.841539545956659]]}},{"type":"Feature","properties":{"edge_id":216,"u":128,"v":129,"length_m":43.292,"gn_name":"Mount Lavinia"},"geometry":{"type":"LineString","coordinates":[[79.86528627327505,6.847328063512761],[79.86533118903925,6.846944542949487]]}},{"type":"Feature","properties":{"edge_id":217,"u":98,"v":150,"length_m":154.416,"gn_name":"Mount Lavinia"},"geometry":{"type":"LineString","coordinates":[[79.86474728410457,6.833868983178969],[79.86574441406995,6.834252514241872]]}},{"type":"Feature","properties":{"edge_id":218,"u":149,"v":150,"length_m":115.481,"gn_name":"Mount Lavinia"},"geometry":{"type":"LineString","coordinates":[[79.86571746461142,6.835269316035679],[79.86574441406995,6.834252514241872]]}},{"type":"Feature","properties":{"edge_id":219,"u":166,"v":163,"length_m":35.136,"gn_name":"Mount Lavinia"},"geometry":{"type":"LineString","coordinates":[[79.86611272333644,6.832156468632737],[79.8660857738779,6.832468646220676]]}},{"type":"Feature","properties":{"edge_id":220,"u":152,"v":140,"length_m":101.287,"gn_name":"Mount Lavinia"},"geometry":{"type":"LineString","coordinates":[[79.86591509397392,6.8330305653653856],[79.86561864993017,6.832441888149695]]}},{"type":"Feature","properties":{"edge_id":221,"u":130,"v":126,"length_m":21.015,"gn_name":"Mount Lavinia"},"geometry":{"type":"LineString","coordinates":[[79.86534915534493,6.835046333371305],[79.86527729012221,6.835215800205716]]}},{"type":"Feature","properties":{"edge_id":222,"u":9,"v":21,"length_m":82.832,"gn_name":"Mount Lavinia"},"geometry":{"type":"LineString","coordinates":[[79.86292370407782,6.84612398629048],[79.863139299746,6.846685889372301]]}},{"type":"Feature","properties":{"edge_id":223,"u":15,"v":9,"length_m":89.557,"gn_name":"Mount Lavinia"},"geometry":{"type":"LineString","coordinates":[[79.86304946821758,6.845339104687746],[79.86292370407782,6.84612398629048]]}},{"type":"Feature","properties":{"edge_id":224,"u":38,"v":15,"length_m":99.793,"gn_name":"Mount Lavinia"},"geometry":{"type":"LineString","coordinates":[[79.86363337315227,6.845026935509703],[79.86304946821758,6.845339104687746]]}},{"type":"Feature","properties":{"edge_id":225,"u":35,"v":68,"length_m":54.452,"gn_name":"Mount Lavinia"},"geometry":{"type":"LineString","coordinates":[[79.86360642369374,6.846159662696297],[79.86409151394717,6.846222096400061]]}},{"type":"Feature","properties":{"edge_id":226,"u":111,"v":62,"length_m":148.409,"gn_name":"Mount Lavinia"},"geometry":{"type":"LineString","coordinates":[[79.8649269471614,6.845240994396647],[79.86402863187728,6.844750442638652]]}},{"type":"Feature","properties":{"edge_id":227,"u":170,"v":142,"length_m":69.147,"gn_name":"Mount Lavinia"},"geometry":{"type":"LineString","coordinates":[[79.86620255486486,6.84553532520944],[79.86562763308301,6.845428295843971]]}},{"type":"Feature","properties":{"edge_id":228,"u":172,"v":120,"length_m":188.236,"gn_name":"Mount Lavinia"},"geometry":{"type":"LineString","coordinates":[[79.86622052117053,6.845330185571205],[79.86515152598243,6.844768280893231]]}},{"type":"Feature","properties":{"edge_id":229,"u":201,"v":200,"length_m":28.125,"gn_name":"Mount Lavinia"},"geometry":{"type":"LineString","coordinates":[[79.86694815655066,6.841280889450866],[79.86693019024499,6.8410311520019995]]}},{"type":"Feature","properties":{"edge_id":230,"u":199,"v":200,"length_m":83.045,"gn_name":"Mount Lavinia"},"geometry":{"type":"LineString","coordinates":[[79.86691222393931,6.8402908580827155],[79.86693019024499,6.8410311520019995]]}},{"type":"Feature","properties":{"edge_id":231,"u":199,"v":195,"length_m":108.284,"gn_name":"Mount Lavinia"},"geometry":{"type":"LineString","coordinates":[[79.86691222393931,6.8402908580827155],[79.86677747664669,6.839336501578116]]}},{"type":"Feature","properties":{"edge_id":232,"u":149,"v":189,"length_m":421.8,"gn_name":"Mount Lavinia"},"geometry":{"type":"LineString","coordinates":[[79.86571746461142,6.835269316035679],[79.86668764511828,6.838899459177833]]}},{"type":"Feature","properties":{"edge_id":233,"u":95,"v":77,"length_m":81.405,"gn_name":"Mount Lavinia"},"geometry":{"type":"LineString","coordinates":[[79.86473830095173,6.8314607578464885],[79.86439694114377,6.830970191940091]]}},{"type":"Feature","properties":{"edge_id":234,"u":141,"v":131,"length_m":52.799,"gn_name":"Mount Lavinia"},"geometry":{"type":"LineString","coordinates":[[79.86561864993017,6.844465030474735],[79.86542102056767,6.84416177986359]]}},{"type":"Feature","properties":{"edge_id":235,"u":28,"v":33,"length_m":82.826,"gn_name":"Mount Lavinia"},"geometry":{"type":"LineString","coordinates":[[79.86338184487272,6.841842798233315],[79.86356150792953,6.842386868011674]]}},{"type":"Feature","properties":{"edge_id":236,"u":88,"v":26,"length_m":160.574,"gn_name":"Mount Lavinia"},"geometry":{"type":"LineString","coordinates":[[79.86463948627048,6.840201665966799],[79.86336387856703,6.839853816555584]]}},{"type":"Feature","properties":{"edge_id":237,"u":57,"v":99,"length_m":193.521,"gn_name":"Mount Lavinia"},"geometry":{"type":"LineString","coordinates":[[79.86392083404318,6.8385159318441255],[79.86476525041026,6.839309743891629]]}},{"type":"Feature","properties":{"edge_id":238,"u":110,"v":160,"length_m":125.312,"gn_name":"Mount Lavinia"},"geometry":{"type":"LineString","coordinates":[[79.86491796400855,6.8380253731778495],[79.86603187496085,6.838185919705895]]}},{"type":"Feature","properties":{"edge_id":239,"u":193,"v":191,"length_m":53.848,"gn_name":"Mount Lavinia"},"geometry":{"type":"LineString","coordinates":[[79.86675052718816,6.835117687835222],[79.8667145945768,6.8355636529933745]]}},{"type":"Feature","properties":{"edge_id":240,"u":175,"v":177,"length_m":46.395,"gn_name":"Mount Lavinia"},"geometry":{"type":"LineString","coordinates":[[79.86631035269895,6.835197961594397],[79.86636425161599,6.835608249486304]]}},{"type":"Feature","properties":{"edge_id":241,"u":101,"v":122,"length_m":79.427,"gn_name":"Mount Lavinia"},"geometry":{"type":"LineString","coordinates":[[79.86478321671594,6.839095682345786],[79.86516050913526,6.839461370761901]]}},{"type":"Feature","properties":{"edge_id":242,"u":173,"v":183,"length_m":66.279,"gn_name":"Mount Lavinia"},"geometry":{"type":"LineString","coordinates":[[79.86622950432337,6.830372592792509],[79.86649001575576,6.830515303104567]]}},{"type":"Feature","properties":{"edge_id":243,"u":210,"v":214,"length_m":346.65,"gn_name":"Mount Lavinia"},"geometry":{"type":"LineString","coordinates":[[79.86731646581715,6.835090929912502],[79.8674152804984,6.837338590198923]]}}]}