{
"type": "FeatureCollection",
"name": "boundary_2000m",
"crs": { "type": "name", "properties": { "name": "urn:ogc:def:crs:OGC:1.3:CRS84" } },
"xy_coordinate_resolution": 1e-15,
"features": [
{ "type": "Feature", "properties": { "id": 1 }, "geometry": { "type": "MultiPolygon", "coordinates": [ [ [ [ 79.885897577929285, 6.83051412404657 ], [ 79.885889700759336, 6.829946066218624 ], [ 79.88586397538684, 6.829378535989473 ], [ 79.885820427263283, 6.828812093448254 ], [ 79.885759099429066, 6.828247297608701 ], [ 79.885680052470804, 6.827684705857453 ], [ 79.885583364461226, 6.827124873403968 ], [ 79.885469130881944, 6.826568352732608 ], [ 79.885337464528931, 6.826015693057415 ], [ 79.885188495400996, 6.825467439780107 ], [ 79.885022370571235, 6.824924133951892 ], [ 79.884839254041694, 6.824386311739516 ], [ 79.884639326581222, 6.823854503896194 ], [ 79.884422785546917, 6.823329235237867 ], [ 79.884189844689146, 6.822811024125311 ], [ 79.883940733940378, 6.822300381952675 ], [ 79.883675699188103, 6.821797812642827 ], [ 79.883395002031961, 6.821303812150151 ], [ 79.88309891952548, 6.820818867971171 ], [ 79.882787743902384, 6.820343458663532 ], [ 79.882461782288189, 6.819878053373824 ], [ 79.88212135639688, 6.81942311137468 ], [ 79.881766802213335, 6.818979081611658 ], [ 79.881398469661661, 6.81854640226025 ], [ 79.881016722259758, 6.818125500293608 ], [ 79.880621936760505, 6.817716791061264 ], [ 79.880214502779893, 6.817320677879355 ], [ 79.879794822412521, 6.816937551632726 ], [ 79.879363309834645, 6.816567790389273 ], [ 79.878920390895559, 6.81621175902698 ], [ 79.878466502697293, 6.815869808873959 ], [ 79.87800209316319, 6.815542277361824 ], [ 79.877527620595984, 6.815229487692849 ], [ 79.877043553225576, 6.81493174852111 ], [ 79.876550368746933, 6.814649353648 ], [ 79.876048553848847, 6.814382581732424 ], [ 79.875538603733617, 6.814131696015903 ], [ 79.875021021628569, 6.813896944062908 ], [ 79.874496318289474, 6.813678557516662 ], [ 79.873965011496651, 6.813476751870636 ], [ 79.873427625544153, 6.813291726256018 ], [ 79.872884690722515, 6.813123663245264 ], [ 79.872336742795582, 6.812972728672047 ], [ 79.871784322471953, 6.81283907146769 ], [ 79.871227974871587, 6.812722823514263 ], [ 79.870668248988039, 6.812624099514538 ], [ 79.870105697146826, 6.812542996878848 ], [ 79.869540874460654, 6.81247959562905 ], [ 79.868974338281788, 6.812433958319597 ], [ 79.868406647652222, 6.812406129975869 ], [ 79.867838362752209, 6.812396138049789 ], [ 79.867270044347734, 6.812403992392792 ], [ 79.866702253237264, 6.81242968524613 ], [ 79.866135549698626, 6.812473191248527 ], [ 79.865570492936314, 6.812534467461286 ], [ 79.865007640529825, 6.812613453410639 ], [ 79.864447547883728, 6.812710071147444 ], [ 79.863890767679706, 6.812824225324116 ], [ 79.86333784933143, 6.812955803288707 ], [ 79.862789338442553, 6.813104675196056 ], [ 79.862245776268551, 6.813270694135929 ], [ 79.861707699182801, 6.813453696277945 ], [ 79.861175638147358, 6.813653501033228 ], [ 79.860650118189298, 6.813869911232584 ], [ 79.860131657882775, 6.814102713321012 ], [ 79.859620768837402, 6.814351677568419 ], [ 79.859117955193511, 6.814616558296247 ], [ 79.85862371312497, 6.814897094119859 ], [ 79.858138530349464, 6.815193008206424 ], [ 79.857662885647542, 6.815504008548016 ], [ 79.857197248390079, 6.815829788249713 ], [ 79.856742078075371, 6.816170025832343 ], [ 79.856297823875607, 6.816524385549693 ], [ 79.85586492419381, 6.816892517719669 ], [ 79.855443806231278, 6.817274059069358 ], [ 79.855034885565971, 6.81766863309336 ], [ 79.854638565742519, 6.818075850425276 ], [ 79.854255237873986, 6.818495309221814 ], [ 79.85388528025598, 6.818926595559263 ], [ 79.8535290579932, 6.819369283841854 ], [ 79.85318692263921, 6.819822937221643 ], [ 79.852859211849506, 6.820287108029496 ], [ 79.852546249048174, 6.820761338216783 ], [ 79.852248343108727, 6.821245159807257 ], [ 79.851965788049156, 6.821738095358791 ], [ 79.851698862741756, 6.822239658434423 ], [ 79.851447830637767, 6.822749354082288 ], [ 79.851212939507278, 6.823266679323954 ], [ 79.850994421194585, 6.823791123650684 ], [ 79.850792491389299, 6.824322169527152 ], [ 79.850607349413238, 6.824859292902035 ], [ 79.850439178023663, 6.825401963725134 ], [ 79.850288143232646, 6.825949646470316 ], [ 79.850154394143132, 6.826501800663961 ], [ 79.850038062801588, 6.827057881418222 ], [ 79.849939264067373, 6.827617339968699 ], [ 79.849858095499386, 6.828179624215898 ], [ 79.849794637259308, 6.828744179270037 ], [ 79.849748952032456, 6.829310447998577 ], [ 79.849721084965637, 6.829877871575989 ], [ 79.849711063622294, 6.830445890035174 ], [ 79.849718897955157, 6.831013942820069 ], [ 79.849744580296061, 6.831581469338787 ], [ 79.849788085363329, 6.832147909516829 ], [ 79.849849370286492, 6.832712704349784 ], [ 79.849928374648314, 6.833275296454993 ], [ 79.850025020544152, 6.833835130621599 ], [ 79.850139212658618, 6.834391654358479 ], [ 79.850270838359336, 6.834944318439495 ], [ 79.850419767807978, 6.83549257744553 ], [ 79.85058585408801, 6.836035890302785 ], [ 79.850768933349556, 6.836573720816761 ], [ 79.850968824970835, 6.837105538201481 ], [ 79.851185331736204, 6.837630817603359 ], [ 79.851418240030497, 6.838149040619201 ], [ 79.851667320049799, 6.838659695807901 ], [ 79.851932326027892, 6.83916227919521 ], [ 79.852212996478642, 6.839656294771187 ], [ 79.852509054454003, 6.840141254979786 ], [ 79.852820207816976, 6.840616681200101 ], [ 79.853146149529948, 6.841082104218792 ], [ 79.853486557957467, 6.841537064693255 ], [ 79.85384109718359, 6.841981113605025 ], [ 79.854209417343213, 6.842413812703037 ], [ 79.854591154967366, 6.842834734936203 ], [ 79.854985933341723, 6.843243464875012 ], [ 79.855393362878445, 6.843639599121613 ], [ 79.855813041500468, 6.844022746708023 ], [ 79.856244555038387, 6.844392529482128 ], [ 79.856687477639156, 6.844748582480965 ], [ 79.857141372186319, 6.845090554291049 ], [ 79.857605790731427, 6.845418107395282 ], [ 79.858080274936199, 6.845730918506182 ], [ 79.858564356524795, 6.846028678885052 ], [ 79.859057557746155, 6.846311094646797 ], [ 79.859559391845423, 6.846577887050083 ], [ 79.860069363544469, 6.846828792772524 ], [ 79.860586969530829, 6.847063564170707 ], [ 79.861111698954502, 6.847281969524657 ], [ 79.861643033932182, 6.847483793266677 ], [ 79.862180450058588, 6.847668836194178 ], [ 79.862723416924112, 6.847836915666361 ], [ 79.863271398638446, 6.84798786578459 ], [ 79.863823854359666, 6.848121537556201 ], [ 79.864380238828076, 6.848237799041628 ], [ 79.864940002904689, 6.848336535484692 ], [ 79.865502594113167, 6.84841764942595 ], [ 79.86606745718548, 6.848481060798941 ], [ 79.866634034609973, 6.848526707009248 ], [ 79.867201767181911, 6.848554542996371 ], [ 79.867770094555453, 6.848564541278206 ], [ 79.868338455797044, 6.848556691978251 ], [ 79.868906289939133, 6.848531002835355 ], [ 79.869473036534032, 6.848487499196132 ], [ 79.870038136207413, 6.848426223989969 ], [ 79.870601031210327, 6.848347237686651 ], [ 79.871161165970193, 6.848250618236724 ], [ 79.871717987639045, 6.84813646099453 ], [ 79.872270946639617, 6.848004878624121 ], [ 79.872819497207786, 6.847856000988034 ], [ 79.873363097931488, 6.847689975019123 ], [ 79.873901212285247, 6.847506964575506 ], [ 79.874433309159883, 6.847307150278819 ], [ 79.874958863386908, 6.847090729335911 ], [ 79.875477356256894, 6.846857915344189 ], [ 79.875988276031748, 6.846608938080719 ], [ 79.876491118449835, 6.84634404327543 ], [ 79.876985387223741, 6.84606349236851 ], [ 79.877470594530379, 6.845767562252322 ], [ 79.877946261492411, 6.845456544998053 ], [ 79.878411918651068, 6.845130747567374 ], [ 79.878867106429567, 6.844790491509414 ], [ 79.879311375586752, 6.844436112643323 ], [ 79.8797442876606, 6.84406796072674 ], [ 79.880165415400882, 6.843686399110524 ], [ 79.880574343191071, 6.843291804380052 ], [ 79.880970667458399, 6.84288456598345 ], [ 79.881353997072281, 6.842465085847131 ], [ 79.881723953730216, 6.84203377797903 ], [ 79.882080172331314, 6.841591068059891 ], [ 79.882422301336419, 6.841137393023045 ], [ 79.88275000311512, 6.840673200623089 ], [ 79.883062954278884, 6.840198948993883 ], [ 79.88336084600013, 6.839715106196285 ], [ 79.883643384316954, 6.839222149756116 ], [ 79.883910290423188, 6.838720566192774 ], [ 79.884161300943347, 6.83821085053899 ], [ 79.884396168192509, 6.837693505852143 ], [ 79.884614660420638, 6.837169042717706 ], [ 79.884816562041081, 6.836637978745244 ], [ 79.88500167384322, 6.836100838057485 ], [ 79.885169813188909, 6.835558150772964 ], [ 79.885320814192539, 6.835010452482769 ], [ 79.885454527884463, 6.834458283721873 ], [ 79.885570822357948, 6.833902189435614 ], [ 79.885669582899141, 6.833342718441805 ], [ 79.885750712099863, 6.832780422889033 ], [ 79.8858141299538, 6.832215857711705 ], [ 79.88585977393501, 6.831649580082313 ], [ 79.885887599059487, 6.831082148861516 ], [ 79.885897577929285, 6.83051412404657 ] ] ] ] } }
]
}
