{"type": "FeatureCollection", "name": "pois_access_primary", "crs": {"type": "name", "properties": {"name": "urn:ogc:def:crs:OGC:1.3:CRS84"}}, "features": [{"type": "Feature", "properties": {"poi_id": "poi_0001", "name": "", "dest_group": "food", "source": "osm", "in_primary": true, "osm_key": "shop", "osm_value": "convenience", "gmaps_category": null, "osm_type": "node", "osm_id": 1528655557}, "geometry": {"type": "Point", "coordinates": [79.8755543, 6.8442284]}}, {"type": "Feature", "properties": {"poi_id": "poi_0002", "name": "", "dest_group": "food", "source": "osm", "in_primary": true, "osm_key": "shop", "osm_value": "convenience", "gmaps_category": null, "osm_type": "node", "osm_id": 5632202903}, "geometry": {"type": "Point", "coordinates": [79.8675087, 6.8323034]}}, {"type": "Feature", "properties": {"poi_id": "poi_0003", "name": "", "dest_group": "food", "source": "osm", "in_primary": false, "osm_key": "shop", "osm_value": "supermarket", "gmaps_category": null, "osm_type": "node", "osm_id": 11842911170}, "geometry": {"type": "Point", "coordinates": [79.8624579, 6.8508443]}}, {"type": "Feature", "properties": {"poi_id": "poi_0004", "name": "", "dest_group": "food", "source": "osm", "in_primary": false, "osm_key": "shop", "osm_value": "bakery", "gmaps_category": null, "osm_type": "node", "osm_id": 11842917686}, "geometry": {"type": "Point", "coordinates": [79.8657289, 6.8511507]}}, {"type": "Feature", "properties": {"poi_id": "poi_0005", "name": "", "dest_group": "food", "source": "osm", "in_primary": true, "osm_key": "shop", "osm_value": "convenience", "gmaps_category": null, "osm_type": "way", "osm_id": 587974607}, "geometry": {"type": "Point", "coordinates": [79.8671846, 6.8334886]}}, {"type": "Feature", "properties": {"poi_id": "poi_0006", "name": "", "dest_group": "food", "source": "osm", "in_primary": true, "osm_key": "shop", "osm_value": "convenience", "gmaps_category": null, "osm_type": "way", "osm_id": 587989200}, "geometry": {"type": "Point", "coordinates": [79.8670929, 6.8338052]}}, {"type": "Feature", "properties": {"poi_id": "poi_0007", "name": "", "dest_group": "food", "source": "osm", "in_primary": true, "osm_key": "shop", "osm_value": "convenience", "gmaps_category": null, "osm_type": "way", "osm_id": 589745455}, "geometry": {"type": "Point", "coordinates": [79.8664935, 6.8324407]}}, {"type": "Feature", "properties": {"poi_id": "poi_0008", "name": "", "dest_group": "food", "source": "osm", "in_primary": true, "osm_key": "shop", "osm_value": "convenience", "gmaps_category": null, "osm_type": "way", "osm_id": 589816152}, "geometry": {"type": "Point", "coordinates": [79.8675933, 6.8338757]}}, {"type": "Feature", "properties": {"poi_id": "poi_0009", "name": "", "dest_group": "food", "source": "osm", "in_primary": true, "osm_key": "shop", "osm_value": "convenience", "gmaps_category": null, "osm_type": "way", "osm_id": 589816171}, "geometry": {"type": "Point", "coordinates": [79.8684142, 6.8329838]}}, {"type": "Feature", "properties": {"poi_id": "poi_0010", "name": "", "dest_group": "food", "source": "osm", "in_primary": true, "osm_key": "shop", "osm_value": "convenience", "gmaps_category": null, "osm_type": "way", "osm_id": 589816205}, "geometry": {"type": "Point", "coordinates": [79.867754, 6.831417]}}, {"type": "Feature", "properties": {"poi_id": "poi_0011", "name": "", "dest_group": "food", "source": "osm", "in_primary": true, "osm_key": "shop", "osm_value": "convenience", "gmaps_category": null, "osm_type": "way", "osm_id": 589816287}, "geometry": {"type": "Point", "coordinates": [79.8675109, 6.8334512]}}, {"type": "Feature", "properties": {"poi_id": "poi_0012", "name": "", "dest_group": "food", "source": "osm", "in_primary": true, "osm_key": "shop", "osm_value": "convenience", "gmaps_category": null, "osm_type": "way", "osm_id": 589816292}, "geometry": {"type": "Point", "coordinates": [79.8675901, 6.8329744]}}, {"type": "Feature", "properties": {"poi_id": "poi_0013", "name": "", "dest_group": "food", "source": "osm", "in_primary": true, "osm_key": "shop", "osm_value": "convenience", "gmaps_category": null, "osm_type": "way", "osm_id": 589816294}, "geometry": {"type": "Point", "coordinates": [79.8678953, 6.8330246]}}, {"type": "Feature", "properties": {"poi_id": "poi_0014", "name": "", "dest_group": "food", "source": "osm", "in_primary": true, "osm_key": "shop", "osm_value": "convenience", "gmaps_category": null, "osm_type": "way", "osm_id": 589816303}, "geometry": {"type": "Point", "coordinates": [79.8676803, 6.8319045]}}, {"type": "Feature", "properties": {"poi_id": "poi_0015", "name": "", "dest_group": "food", "source": "osm", "in_primary": true, "osm_key": "shop", "osm_value": "convenience", "gmaps_category": null, "osm_type": "way", "osm_id": 589816330}, "geometry": {"type": "Point", "coordinates": [79.8675828, 6.8326428]}}, {"type": "Feature", "properties": {"poi_id": "poi_0016", "name": "", "dest_group": "food", "source": "osm", "in_primary": true, "osm_key": "shop", "osm_value": "convenience", "gmaps_category": null, "osm_type": "way", "osm_id": 589816372}, "geometry": {"type": "Point", "coordinates": [79.8671695, 6.8317286]}}, {"type": "Feature", "properties": {"poi_id": "poi_0017", "name": "", "dest_group": "food", "source": "osm", "in_primary": true, "osm_key": "shop", "osm_value": "convenience", "gmaps_category": null, "osm_type": "way", "osm_id": 589816387}, "geometry": {"type": "Point", "coordinates": [79.8671834, 6.8324613]}}, {"type": "Feature", "properties": {"poi_id": "poi_0018", "name": "", "dest_group": "food", "source": "osm", "in_primary": true, "osm_key": "shop", "osm_value": "convenience", "gmaps_category": null, "osm_type": "way", "osm_id": 589816411}, "geometry": {"type": "Point", "coordinates": [79.8672828, 6.8320646]}}, {"type": "Feature", "properties": {"poi_id": "poi_0019", "name": "5-Star Bakery", "dest_group": "food", "source": "osm", "in_primary": true, "osm_key": "shop", "osm_value": "bakery", "gmaps_category": null, "osm_type": "node", "osm_id": 1737502125}, "geometry": {"type": "Point", "coordinates": [79.8725833, 6.8318676]}}, {"type": "Feature", "properties": {"poi_id": "poi_0020", "name": "AL-BARAKA", "dest_group": "food", "source": "osm", "in_primary": false, "osm_key": "amenity", "osm_value": "restaurant", "gmaps_category": null, "osm_type": "node", "osm_id": 11842920970}, "geometry": {"type": "Point", "coordinates": [79.8626288, 6.8513988]}}, {"type": "Feature", "properties": {"poi_id": "poi_0021", "name": "Addara beach club", "dest_group": "food", "source": "osm", "in_primary": true, "osm_key": "amenity", "osm_value": "restaurant", "gmaps_category": null, "osm_type": "node", "osm_id": 8594256619}, "geometry": {"type": "Point", "coordinates": [79.8627809, 6.8419469]}}, {"type": "Feature", "properties": {"poi_id": "poi_0022", "name": "Al-baraka", "dest_group": "food", "source": "osm", "in_primary": false, "osm_key": "amenity", "osm_value": "restaurant", "gmaps_category": null, "osm_type": "node", "osm_id": 11842861784}, "geometry": {"type": "Point", "coordinates": [79.8629631, 6.8510001]}}, {"type": "Feature", "properties": {"poi_id": "poi_0023", "name": "Anura's Place", "dest_group": "food", "source": "osm", "in_primary": false, "osm_key": "amenity", "osm_value": "restaurant", "gmaps_category": null, "osm_type": "node", "osm_id": 3401467559}, "geometry": {"type": "Point", "coordinates": [79.8614268, 6.8528082]}}, {"type": "Feature", "properties": {"poi_id": "poi_0024", "name": "Arthur's Pizza", "dest_group": "food", "source": "osm", "in_primary": true, "osm_key": "amenity", "osm_value": "restaurant", "gmaps_category": null, "osm_type": "node", "osm_id": 4457451959}, "geometry": {"type": "Point", "coordinates": [79.8668302, 6.8417637]}}, {"type": "Feature", "properties": {"poi_id": "poi_0025", "name": "As'sada", "dest_group": "food", "source": "osm", "in_primary": false, "osm_key": "shop", "osm_value": "convenience", "gmaps_category": null, "osm_type": "node", "osm_id": 12014266945}, "geometry": {"type": "Point", "coordinates": [79.8672259, 6.8512387]}}, {"type": "Feature", "properties": {"poi_id": "poi_0026", "name": "Barista", "dest_group": "food", "source": "osm", "in_primary": false, "osm_key": "amenity", "osm_value": "cafe", "gmaps_category": null, "osm_type": "node", "osm_id": 11862652191}, "geometry": {"type": "Point", "coordinates": [79.8678351, 6.8512209]}}, {"type": "Feature", "properties": {"poi_id": "poi_0027", "name": "Barnes Garden Caf\u00e9", "dest_group": "food", "source": "osm", "in_primary": true, "osm_key": "amenity", "osm_value": "cafe", "gmaps_category": null, "osm_type": "node", "osm_id": 6782430786}, "geometry": {"type": "Point", "coordinates": [79.8645778, 6.8401482]}}, {"type": "Feature", "properties": {"poi_id": "poi_0028", "name": "Big Taste", "dest_group": "food", "source": "osm", "in_primary": true, "osm_key": "amenity", "osm_value": "restaurant", "gmaps_category": null, "osm_type": "node", "osm_id": 12388308625}, "geometry": {"type": "Point", "coordinates": [79.8674677, 6.8350413]}}, {"type": "Feature", "properties": {"poi_id": "poi_0029", "name": "Bloom Kandy", "dest_group": "food", "source": "osm", "in_primary": false, "osm_key": "shop", "osm_value": "supermarket", "gmaps_category": null, "osm_type": "node", "osm_id": 8602519972}, "geometry": {"type": "Point", "coordinates": [79.8656125, 6.8532849]}}, {"type": "Feature", "properties": {"poi_id": "poi_0030", "name": "Burger King", "dest_group": "food", "source": "osm", "in_primary": true, "osm_key": "amenity", "osm_value": "fast_food", "gmaps_category": null, "osm_type": "node", "osm_id": 4590512291}, "geometry": {"type": "Point", "coordinates": [79.8666388, 6.8421829]}}, {"type": "Feature", "properties": {"poi_id": "poi_0031", "name": "Caravan fresh", "dest_group": "food", "source": "osm", "in_primary": false, "osm_key": "shop", "osm_value": "bakery", "gmaps_category": null, "osm_type": "node", "osm_id": 11842845569}, "geometry": {"type": "Point", "coordinates": [79.8653421, 6.8522925]}}, {"type": "Feature", "properties": {"poi_id": "poi_0032", "name": "Cargills Food City", "dest_group": "food", "source": "osm", "in_primary": true, "osm_key": "shop", "osm_value": "supermarket", "gmaps_category": null, "osm_type": "node", "osm_id": 269032442}, "geometry": {"type": "Point", "coordinates": [79.8671266, 6.8329646]}}, {"type": "Feature", "properties": {"poi_id": "poi_0033", "name": "Cargills Food City", "dest_group": "food", "source": "osm", "in_primary": false, "osm_key": "shop", "osm_value": "supermarket", "gmaps_category": null, "osm_type": "node", "osm_id": 1643928268}, "geometry": {"type": "Point", "coordinates": [79.8690532, 6.8277078]}}, {"type": "Feature", "properties": {"poi_id": "poi_0034", "name": "Cargills Food City", "dest_group": "food", "source": "osm", "in_primary": true, "osm_key": "shop", "osm_value": "supermarket", "gmaps_category": null, "osm_type": "node", "osm_id": 1643928818}, "geometry": {"type": "Point", "coordinates": [79.8672887, 6.8372488]}}, {"type": "Feature", "properties": {"poi_id": "poi_0035", "name": "Cargils Express", "dest_group": "food", "source": "osm", "in_primary": false, "osm_key": "shop", "osm_value": "supermarket", "gmaps_category": null, "osm_type": "node", "osm_id": 11843054575}, "geometry": {"type": "Point", "coordinates": [79.8665595, 6.8513189]}}, {"type": "Feature", "properties": {"poi_id": "poi_0036", "name": "Cargils foodcity", "dest_group": "food", "source": "osm", "in_primary": false, "osm_key": "shop", "osm_value": "supermarket", "gmaps_category": null, "osm_type": "node", "osm_id": 11842860079}, "geometry": {"type": "Point", "coordinates": [79.8626682, 6.8510681]}}, {"type": "Feature", "properties": {"poi_id": "poi_0037", "name": "Cargils foodcity", "dest_group": "food", "source": "osm", "in_primary": false, "osm_key": "shop", "osm_value": "supermarket", "gmaps_category": null, "osm_type": "node", "osm_id": 11842860293}, "geometry": {"type": "Point", "coordinates": [79.8630749, 6.851907]}}, {"type": "Feature", "properties": {"poi_id": "poi_0038", "name": "Casserole", "dest_group": "food", "source": "osm", "in_primary": true, "osm_key": "amenity", "osm_value": "restaurant", "gmaps_category": null, "osm_type": "node", "osm_id": 7615406295}, "geometry": {"type": "Point", "coordinates": [79.8671105, 6.841861]}}, {"type": "Feature", "properties": {"poi_id": "poi_0039", "name": "Catamaran Seafood Restaurant", "dest_group": "food", "source": "osm", "in_primary": true, "osm_key": "amenity", "osm_value": "restaurant", "gmaps_category": null, "osm_type": "node", "osm_id": 7133250596}, "geometry": {"type": "Point", "coordinates": [79.8632997, 6.8378187]}}, {"type": "Feature", "properties": {"poi_id": "poi_0040", "name": "Chamenka Guest House", "dest_group": "food", "source": "osm", "in_primary": false, "osm_key": "amenity", "osm_value": "cafe", "gmaps_category": null, "osm_type": "node", "osm_id": 8602536581}, "geometry": {"type": "Point", "coordinates": [79.8741895, 6.8472465]}}, {"type": "Feature", "properties": {"poi_id": "poi_0041", "name": "Clock Inn Dehiwala", "dest_group": "food", "source": "osm", "in_primary": false, "osm_key": "amenity", "osm_value": "cafe", "gmaps_category": null, "osm_type": "node", "osm_id": 8604573682}, "geometry": {"type": "Point", "coordinates": [79.8675939, 6.8508778]}}, {"type": "Feature", "properties": {"poi_id": "poi_0042", "name": "Cup Cafe", "dest_group": "food", "source": "osm", "in_primary": true, "osm_key": "amenity", "osm_value": "cafe", "gmaps_category": null, "osm_type": "node", "osm_id": 5103202333}, "geometry": {"type": "Point", "coordinates": [79.8663307, 6.843834]}}, {"type": "Feature", "properties": {"poi_id": "poi_0043", "name": "Dehiwala Super Market Complex", "dest_group": "food", "source": "osm", "in_primary": false, "osm_key": "shop", "osm_value": "supermarket", "gmaps_category": null, "osm_type": "node", "osm_id": 3401467701}, "geometry": {"type": "Point", "coordinates": [79.8650976, 6.8510925]}}, {"type": "Feature", "properties": {"poi_id": "poi_0044", "name": "Dinducal Thalapakattu Buriyani", "dest_group": "food", "source": "osm", "in_primary": true, "osm_key": "amenity", "osm_value": "restaurant", "gmaps_category": null, "osm_type": "node", "osm_id": 1643932408}, "geometry": {"type": "Point", "coordinates": [79.866877, 6.8414038]}}, {"type": "Feature", "properties": {"poi_id": "poi_0045", "name": "Domino's", "dest_group": "food", "source": "osm", "in_primary": false, "osm_key": "amenity", "osm_value": "fast_food", "gmaps_category": null, "osm_type": "node", "osm_id": 9379008232}, "geometry": {"type": "Point", "coordinates": [79.8692647, 6.8270175]}}, {"type": "Feature", "properties": {"poi_id": "poi_0046", "name": "Family bakers", "dest_group": "food", "source": "osm", "in_primary": true, "osm_key": "amenity", "osm_value": "cafe", "gmaps_category": null, "osm_type": "node", "osm_id": 4609648100}, "geometry": {"type": "Point", "coordinates": [79.8685577, 6.8287196]}}, {"type": "Feature", "properties": {"poi_id": "poi_0047", "name": "Frangipani", "dest_group": "food", "source": "osm", "in_primary": false, "osm_key": "amenity", "osm_value": "cafe", "gmaps_category": null, "osm_type": "node", "osm_id": 8604570879}, "geometry": {"type": "Point", "coordinates": [79.8669764, 6.8508326]}}, {"type": "Feature", "properties": {"poi_id": "poi_0048", "name": "Gihans beach Resort", "dest_group": "food", "source": "osm", "in_primary": false, "osm_key": "amenity", "osm_value": "restaurant", "gmaps_category": null, "osm_type": "node", "osm_id": 8594231615}, "geometry": {"type": "Point", "coordinates": [79.8614723, 6.8525115]}}, {"type": "Feature", "properties": {"poi_id": "poi_0049", "name": "Harpo's Pizza & Pasta", "dest_group": "food", "source": "osm", "in_primary": false, "osm_key": "amenity", "osm_value": "cafe", "gmaps_category": null, "osm_type": "node", "osm_id": 8602525039}, "geometry": {"type": "Point", "coordinates": [79.8661238, 6.8500515]}}, {"type": "Feature", "properties": {"poi_id": "poi_0050", "name": "KAwdana Sapupakaraya", "dest_group": "food", "source": "osm", "in_primary": false, "osm_key": "shop", "osm_value": "convenience", "gmaps_category": null, "osm_type": "node", "osm_id": 1528655559}, "geometry": {"type": "Point", "coordinates": [79.8720352, 6.8455706]}}, {"type": "Feature", "properties": {"poi_id": "poi_0051", "name": "KFC", "dest_group": "food", "source": "osm", "in_primary": false, "osm_key": "amenity", "osm_value": "fast_food", "gmaps_category": null, "osm_type": "node", "osm_id": 11842950270}, "geometry": {"type": "Point", "coordinates": [79.8679117, 6.8509393]}}, {"type": "Feature", "properties": {"poi_id": "poi_0052", "name": "Keels Super", "dest_group": "food", "source": "osm", "in_primary": false, "osm_key": "shop", "osm_value": "supermarket", "gmaps_category": null, "osm_type": "node", "osm_id": 4711114094}, "geometry": {"type": "Point", "coordinates": [79.8739314, 6.8194372]}}, {"type": "Feature", "properties": {"poi_id": "poi_0053", "name": "La Langousterie", "dest_group": "food", "source": "osm", "in_primary": true, "osm_key": "amenity", "osm_value": "restaurant", "gmaps_category": null, "osm_type": "node", "osm_id": 8594261102}, "geometry": {"type": "Point", "coordinates": [79.8630609, 6.8359409]}}, {"type": "Feature", "properties": {"poi_id": "poi_0054", "name": "La Voile Blanche", "dest_group": "food", "source": "osm", "in_primary": true, "osm_key": "amenity", "osm_value": "restaurant", "gmaps_category": null, "osm_type": "node", "osm_id": 5105388327}, "geometry": {"type": "Point", "coordinates": [79.8629698, 6.8401723]}}, {"type": "Feature", "properties": {"poi_id": "poi_0055", "name": "Lavinia Breeze", "dest_group": "food", "source": "osm", "in_primary": true, "osm_key": "amenity", "osm_value": "restaurant", "gmaps_category": null, "osm_type": "node", "osm_id": 661807990}, "geometry": {"type": "Point", "coordinates": [79.8632205, 6.8413324]}}, {"type": "Feature", "properties": {"poi_id": "poi_0056", "name": "Little Star", "dest_group": "food", "source": "osm", "in_primary": true, "osm_key": "shop", "osm_value": "bakery", "gmaps_category": null, "osm_type": "node", "osm_id": 5648067221}, "geometry": {"type": "Point", "coordinates": [79.8672866, 6.8369601]}}, {"type": "Feature", "properties": {"poi_id": "poi_0057", "name": "McDonald's", "dest_group": "food", "source": "osm", "in_primary": true, "osm_key": "amenity", "osm_value": "fast_food", "gmaps_category": null, "osm_type": "node", "osm_id": 8792949875}, "geometry": {"type": "Point", "coordinates": [79.868797, 6.8273551]}}, {"type": "Feature", "properties": {"poi_id": "poi_0058", "name": "Milano Hotel", "dest_group": "food", "source": "osm", "in_primary": false, "osm_key": "shop", "osm_value": "bakery", "gmaps_category": null, "osm_type": "node", "osm_id": 12002014228}, "geometry": {"type": "Point", "coordinates": [79.8658303, 6.8506979]}}, {"type": "Feature", "properties": {"poi_id": "poi_0059", "name": "Mini supermarket and Gem Store", "dest_group": "food", "source": "osm", "in_primary": true, "osm_key": "shop", "osm_value": "supermarket", "gmaps_category": null, "osm_type": "node", "osm_id": 5317654428}, "geometry": {"type": "Point", "coordinates": [79.8629655, 6.8333578]}}, {"type": "Feature", "properties": {"poi_id": "poi_0060", "name": "Mount Casadi", "dest_group": "food", "source": "osm", "in_primary": true, "osm_key": "amenity", "osm_value": "restaurant", "gmaps_category": null, "osm_type": "node", "osm_id": 4574074789}, "geometry": {"type": "Point", "coordinates": [79.8626033, 6.8300254]}}, {"type": "Feature", "properties": {"poi_id": "poi_0061", "name": "Mount Sea Pal", "dest_group": "food", "source": "osm", "in_primary": true, "osm_key": "amenity", "osm_value": "restaurant", "gmaps_category": null, "osm_type": "node", "osm_id": 5648049123}, "geometry": {"type": "Point", "coordinates": [79.8627295, 6.8430029]}}, {"type": "Feature", "properties": {"poi_id": "poi_0062", "name": "Mount breeze hotel", "dest_group": "food", "source": "osm", "in_primary": true, "osm_key": "amenity", "osm_value": "restaurant", "gmaps_category": null, "osm_type": "node", "osm_id": 8594250504}, "geometry": {"type": "Point", "coordinates": [79.8633535, 6.8406729]}}, {"type": "Feature", "properties": {"poi_id": "poi_0063", "name": "P&S Bakers", "dest_group": "food", "source": "osm", "in_primary": false, "osm_key": "shop", "osm_value": "bakery", "gmaps_category": null, "osm_type": "node", "osm_id": 12002014238}, "geometry": {"type": "Point", "coordinates": [79.8661788, 6.8497764]}}, {"type": "Feature", "properties": {"poi_id": "poi_0064", "name": "Piyasena", "dest_group": "food", "source": "osm", "in_primary": false, "osm_key": "shop", "osm_value": "supermarket", "gmaps_category": null, "osm_type": "node", "osm_id": 12002014234}, "geometry": {"type": "Point", "coordinates": [79.8660824, 6.8492954]}}, {"type": "Feature", "properties": {"poi_id": "poi_0065", "name": "Pizza Hut", "dest_group": "food", "source": "osm", "in_primary": true, "osm_key": "amenity", "osm_value": "restaurant", "gmaps_category": null, "osm_type": "node", "osm_id": 9887018987}, "geometry": {"type": "Point", "coordinates": [79.8680707, 6.8294278]}}, {"type": "Feature", "properties": {"poi_id": "poi_0066", "name": "Popeyes", "dest_group": "food", "source": "osm", "in_primary": true, "osm_key": "amenity", "osm_value": "fast_food", "gmaps_category": null, "osm_type": "node", "osm_id": 9936308592}, "geometry": {"type": "Point", "coordinates": [79.8663069, 6.8362743]}}, {"type": "Feature", "properties": {"poi_id": "poi_0067", "name": "Rata Anurata Mila Aduwata", "dest_group": "food", "source": "osm", "in_primary": false, "osm_key": "shop", "osm_value": "convenience", "gmaps_category": null, "osm_type": "node", "osm_id": 13475413198}, "geometry": {"type": "Point", "coordinates": [79.8660702, 6.8488459]}}, {"type": "Feature", "properties": {"poi_id": "poi_0068", "name": "Saravana Bawan", "dest_group": "food", "source": "osm", "in_primary": false, "osm_key": "amenity", "osm_value": "fast_food", "gmaps_category": null, "osm_type": "node", "osm_id": 3401467571}, "geometry": {"type": "Point", "coordinates": [79.8658407, 6.853661]}}, {"type": "Feature", "properties": {"poi_id": "poi_0069", "name": "Sawadee Beach Front", "dest_group": "food", "source": "osm", "in_primary": true, "osm_key": "amenity", "osm_value": "restaurant", "gmaps_category": null, "osm_type": "node", "osm_id": 1249816131}, "geometry": {"type": "Point", "coordinates": [79.862988, 6.840448]}}, {"type": "Feature", "properties": {"poi_id": "poi_0070", "name": "Singer Mega", "dest_group": "food", "source": "osm", "in_primary": true, "osm_key": "shop", "osm_value": "convenience", "gmaps_category": null, "osm_type": "node", "osm_id": 4711114092}, "geometry": {"type": "Point", "coordinates": [79.8673029, 6.834159]}}, {"type": "Feature", "properties": {"poi_id": "poi_0071", "name": "Softlogic GLOMARK", "dest_group": "food", "source": "osm", "in_primary": true, "osm_key": "shop", "osm_value": "supermarket", "gmaps_category": null, "osm_type": "node", "osm_id": 9936308591}, "geometry": {"type": "Point", "coordinates": [79.8668182, 6.8362154]}}, {"type": "Feature", "properties": {"poi_id": "poi_0072", "name": "Street Burger", "dest_group": "food", "source": "osm", "in_primary": true, "osm_key": "amenity", "osm_value": "restaurant", "gmaps_category": null, "osm_type": "way", "osm_id": 1084320749}, "geometry": {"type": "Point", "coordinates": [79.8671004, 6.8359661]}}, {"type": "Feature", "properties": {"poi_id": "poi_0073", "name": "Subway", "dest_group": "food", "source": "osm", "in_primary": true, "osm_key": "amenity", "osm_value": "fast_food", "gmaps_category": null, "osm_type": "node", "osm_id": 4590512292}, "geometry": {"type": "Point", "coordinates": [79.8671806, 6.8414014]}}, {"type": "Feature", "properties": {"poi_id": "poi_0074", "name": "Sumanadisi Bakery", "dest_group": "food", "source": "osm", "in_primary": false, "osm_key": "amenity", "osm_value": "cafe", "gmaps_category": null, "osm_type": "node", "osm_id": 673953437}, "geometry": {"type": "Point", "coordinates": [79.8721663, 6.850891]}}, {"type": "Feature", "properties": {"poi_id": "poi_0075", "name": "Sunil beach resort", "dest_group": "food", "source": "osm", "in_primary": true, "osm_key": "amenity", "osm_value": "restaurant", "gmaps_category": null, "osm_type": "node", "osm_id": 8594249343}, "geometry": {"type": "Point", "coordinates": [79.863301, 6.8366611]}}, {"type": "Feature", "properties": {"poi_id": "poi_0076", "name": "Surf club", "dest_group": "food", "source": "osm", "in_primary": true, "osm_key": "amenity", "osm_value": "restaurant", "gmaps_category": null, "osm_type": "node", "osm_id": 8594255220}, "geometry": {"type": "Point", "coordinates": [79.8625959, 6.8439888]}}, {"type": "Feature", "properties": {"poi_id": "poi_0077", "name": "Taco Bell", "dest_group": "food", "source": "osm", "in_primary": true, "osm_key": "amenity", "osm_value": "fast_food", "gmaps_category": null, "osm_type": "node", "osm_id": 9733862244}, "geometry": {"type": "Point", "coordinates": [79.8683375, 6.8295734]}}, {"type": "Feature", "properties": {"poi_id": "poi_0078", "name": "The Pit Stop", "dest_group": "food", "source": "osm", "in_primary": true, "osm_key": "amenity", "osm_value": "cafe", "gmaps_category": null, "osm_type": "node", "osm_id": 5648049122}, "geometry": {"type": "Point", "coordinates": [79.8648538, 6.8389624]}}, {"type": "Feature", "properties": {"poi_id": "poi_0079", "name": "Thilanka beach resort", "dest_group": "food", "source": "osm", "in_primary": true, "osm_key": "amenity", "osm_value": "restaurant", "gmaps_category": null, "osm_type": "node", "osm_id": 8594263247}, "geometry": {"type": "Point", "coordinates": [79.8648847, 6.8352839]}}, {"type": "Feature", "properties": {"poi_id": "poi_0080", "name": "belta", "dest_group": "food", "source": "osm", "in_primary": false, "osm_key": "shop", "osm_value": "supermarket", "gmaps_category": null, "osm_type": "node", "osm_id": 13437163128}, "geometry": {"type": "Point", "coordinates": [79.8722983, 6.8210621]}}, {"type": "Feature", "properties": {"poi_id": "poi_0081", "name": "caravan fresh", "dest_group": "food", "source": "osm", "in_primary": false, "osm_key": "amenity", "osm_value": "restaurant", "gmaps_category": null, "osm_type": "node", "osm_id": 11842861787}, "geometry": {"type": "Point", "coordinates": [79.8653481, 6.8513935]}}, {"type": "Feature", "properties": {"poi_id": "poi_0082", "name": "foodcity", "dest_group": "food", "source": "osm", "in_primary": false, "osm_key": "shop", "osm_value": "supermarket", "gmaps_category": null, "osm_type": "node", "osm_id": 11842861789}, "geometry": {"type": "Point", "coordinates": [79.8645289, 6.849665]}}, {"type": "Feature", "properties": {"poi_id": "poi_0083", "name": "88 Grand Restaurant - Mount Lavinia", "dest_group": "food", "source": "gmaps", "in_primary": true, "osm_key": null, "osm_value": null, "gmaps_category": "Restaurant", "place_id": "ChIJV99NkVVb4joRKcCDzc-o7ok"}, "geometry": {"type": "Point", "coordinates": [79.8678938, 6.8306922]}}, {"type": "Feature", "properties": {"poi_id": "poi_0084", "name": "88 Spicy Hut", "dest_group": "food", "source": "gmaps", "in_primary": true, "osm_key": null, "osm_value": null, "gmaps_category": "Restaurant", "place_id": "ChIJKVHBq99b4joR3Q7Tu8KV6eU"}, "geometry": {"type": "Point", "coordinates": [79.8693989, 6.8310259]}}, {"type": "Feature", "properties": {"poi_id": "poi_0085", "name": "Al Bite Restaurant", "dest_group": "food", "source": "gmaps", "in_primary": true, "osm_key": null, "osm_value": null, "gmaps_category": "Restaurant", "place_id": "ChIJQ5lZ1gRb4joRNZTgnOCYYWQ"}, "geometry": {"type": "Point", "coordinates": [79.866241, 6.8461347]}}, {"type": "Feature", "properties": {"poi_id": "poi_0086", "name": "Amaa Rasa Mount Lavinia", "dest_group": "food", "source": "gmaps", "in_primary": true, "osm_key": null, "osm_value": null, "gmaps_category": "Restaurant", "place_id": "ChIJ1wMeOStb4joR0QJrqJJ8Uyk"}, "geometry": {"type": "Point", "coordinates": [79.8682674, 6.8305728]}}, {"type": "Feature", "properties": {"poi_id": "poi_0087", "name": "Arpico Super Center - Dehiwala", "dest_group": "food", "source": "gmaps", "in_primary": true, "osm_key": null, "osm_value": null, "gmaps_category": "Shop supermarket furniture store", "place_id": "ChIJNdDH3ARb4joR_jsUUmXbHD4"}, "geometry": {"type": "Point", "coordinates": [79.8662806, 6.846739]}}, {"type": "Feature", "properties": {"poi_id": "poi_0088", "name": "Bakesloft", "dest_group": "food", "source": "gmaps", "in_primary": true, "osm_key": null, "osm_value": null, "gmaps_category": "Bakery", "place_id": "ChIJ54Du0CVb4joRDP9TNlyXKyo"}, "geometry": {"type": "Point", "coordinates": [79.8638915, 6.8451698]}}, {"type": "Feature", "properties": {"poi_id": "poi_0089", "name": "Barista - Mount Lavinia", "dest_group": "food", "source": "gmaps", "in_primary": true, "osm_key": null, "osm_value": null, "gmaps_category": "Cafe", "place_id": "ChIJz00X8I5b4joR8zP7lK_Pvcs"}, "geometry": {"type": "Point", "coordinates": [79.8665362, 6.8425708]}}, {"type": "Feature", "properties": {"poi_id": "poi_0090", "name": "Beach House Bistro Mt. Lavinia", "dest_group": "food", "source": "gmaps", "in_primary": true, "osm_key": null, "osm_value": null, "gmaps_category": "Restaurant", "place_id": "ChIJh6VRJQBb4joRTsAODIkSufU"}, "geometry": {"type": "Point", "coordinates": [79.8629274, 6.8410237]}}, {"type": "Feature", "properties": {"poi_id": "poi_0091", "name": "Buba Beach Seafood Restaurant", "dest_group": "food", "source": "gmaps", "in_primary": true, "osm_key": null, "osm_value": null, "gmaps_category": "Seafood restaurant", "place_id": "ChIJxz3PVjtb4joRaryMireShKY"}, "geometry": {"type": "Point", "coordinates": [79.8628477, 6.8295008]}}, {"type": "Feature", "properties": {"poi_id": "poi_0092", "name": "Caf\u00e9 Maitland By Mount Lavinia Hotel", "dest_group": "food", "source": "gmaps", "in_primary": true, "osm_key": null, "osm_value": null, "gmaps_category": "Food court", "place_id": "ChIJFzCAv7Fb4joRoPhxIs114ag"}, "geometry": {"type": "Point", "coordinates": [79.8653279, 6.8355936]}}, {"type": "Feature", "properties": {"poi_id": "poi_0093", "name": "Cakies cake corner", "dest_group": "food", "source": "gmaps", "in_primary": true, "osm_key": null, "osm_value": null, "gmaps_category": "Bakery", "place_id": "ChIJ91R-HwBb4joRW0AuFgMZD44"}, "geometry": {"type": "Point", "coordinates": [79.86957579999999, 6.841578999999999]}}, {"type": "Feature", "properties": {"poi_id": "poi_0094", "name": "Caravan Fresh - The Cake & Pastry Shop", "dest_group": "food", "source": "gmaps", "in_primary": true, "osm_key": null, "osm_value": null, "gmaps_category": "Bakery", "place_id": "ChIJ1Zt8glBb4joROyOQigdolqU"}, "geometry": {"type": "Point", "coordinates": [79.8676414, 6.8381759]}}, {"type": "Feature", "properties": {"poi_id": "poi_0095", "name": "Cargills Food City - Mt. Lavinia 02", "dest_group": "food", "source": "gmaps", "in_primary": true, "osm_key": null, "osm_value": null, "gmaps_category": "Supermarket", "place_id": "ChIJmaUcqHxb4joR-EYJoF0zsus"}, "geometry": {"type": "Point", "coordinates": [79.8660256, 6.844351]}}, {"type": "Feature", "properties": {"poi_id": "poi_0096", "name": "Ceylon Tour Tech", "dest_group": "food", "source": "gmaps", "in_primary": true, "osm_key": null, "osm_value": null, "gmaps_category": "Restaurant", "place_id": "ChIJsQKLvxpb4joRTmsJjTyRFdg"}, "geometry": {"type": "Point", "coordinates": [79.8646715, 6.8444494]}}, {"type": "Feature", "properties": {"poi_id": "poi_0097", "name": "Cooper", "dest_group": "food", "source": "gmaps", "in_primary": true, "osm_key": null, "osm_value": null, "gmaps_category": "Hamburger restaurant", "place_id": "ChIJB2zbdQBb4joREuii1TIinb4"}, "geometry": {"type": "Point", "coordinates": [79.8677648, 6.8266356]}}, {"type": "Feature", "properties": {"poi_id": "poi_0098", "name": "Crepe Runner - Mount Lavinia", "dest_group": "food", "source": "gmaps", "in_primary": true, "osm_key": null, "osm_value": null, "gmaps_category": "Restaurant", "place_id": "ChIJpw1eX2Bb4joRG0auJTNQiog"}, "geometry": {"type": "Point", "coordinates": [79.8674812, 6.8357353]}}, {"type": "Feature", "properties": {"poi_id": "poi_0099", "name": "Crispy Day", "dest_group": "food", "source": "gmaps", "in_primary": true, "osm_key": null, "osm_value": null, "gmaps_category": "Fast food restaurant", "place_id": "ChIJeaGvHABb4joRTEVEiXqdCps"}, "geometry": {"type": "Point", "coordinates": [79.8659998, 6.8465008]}}, {"type": "Feature", "properties": {"poi_id": "poi_0100", "name": "D & G Spicy", "dest_group": "food", "source": "gmaps", "in_primary": true, "osm_key": null, "osm_value": null, "gmaps_category": "Restaurant", "place_id": "ChIJU7PuhOBb4joRszke2j78s-Q"}, "geometry": {"type": "Point", "coordinates": [79.8630931, 6.8440355]}}, {"type": "Feature", "properties": {"poi_id": "poi_0101", "name": "Day To Day Mount", "dest_group": "food", "source": "gmaps", "in_primary": true, "osm_key": null, "osm_value": null, "gmaps_category": "Chocolate shop", "place_id": "ChIJe-mCYBlb4joRHSQPBfkLZbs"}, "geometry": {"type": "Point", "coordinates": [79.867532, 6.8401059]}}, {"type": "Feature", "properties": {"poi_id": "poi_0102", "name": "Dwaraka Indian Vegetarian Restaurant - Mount Lavinia", "dest_group": "food", "source": "gmaps", "in_primary": true, "osm_key": null, "osm_value": null, "gmaps_category": "Vegetarian restaurant", "place_id": "ChIJlTXnZdZb4joRsWQI_yqltPQ"}, "geometry": {"type": "Point", "coordinates": [79.8663024, 6.8316865]}}, {"type": "Feature", "properties": {"poi_id": "poi_0103", "name": "Earth Bistro - Mt Lavinia", "dest_group": "food", "source": "gmaps", "in_primary": true, "osm_key": null, "osm_value": null, "gmaps_category": "Restaurant", "place_id": "ChIJn0sFIptb4joRMLymChnxSsk"}, "geometry": {"type": "Point", "coordinates": [79.8709086, 6.8323265]}}, {"type": "Feature", "properties": {"poi_id": "poi_0104", "name": "FOODADO", "dest_group": "food", "source": "gmaps", "in_primary": true, "osm_key": null, "osm_value": null, "gmaps_category": "Fast food restaurant", "place_id": "ChIJH8WvGgBb4joRIcl-tHOybrI"}, "geometry": {"type": "Point", "coordinates": [79.8655643, 6.8469308]}}, {"type": "Feature", "properties": {"poi_id": "poi_0105", "name": "Fresh Khana", "dest_group": "food", "source": "gmaps", "in_primary": true, "osm_key": null, "osm_value": null, "gmaps_category": "Restaurant", "place_id": "ChIJf0EmMgpb4joRshy44Th1p0s"}, "geometry": {"type": "Point", "coordinates": [79.8699658, 6.8450115]}}, {"type": "Feature", "properties": {"poi_id": "poi_0106", "name": "Full Meals Mushroom House", "dest_group": "food", "source": "gmaps", "in_primary": true, "osm_key": null, "osm_value": null, "gmaps_category": "Restaurant", "place_id": "ChIJgb1iJQBb4joRShOEvNqZFEg"}, "geometry": {"type": "Point", "coordinates": [79.8651665, 6.8456156]}}, {"type": "Feature", "properties": {"poi_id": "poi_0107", "name": "Gemi Rasa (\u0d9c\u0dd0\u0db8\u0dd2 \u0dbb\u0dc3) Restaurant", "dest_group": "food", "source": "gmaps", "in_primary": true, "osm_key": null, "osm_value": null, "gmaps_category": "Restaurant", "place_id": "ChIJy7O9xF9b4joR56u-XY25BuQ"}, "geometry": {"type": "Point", "coordinates": [79.8668138, 6.8230571]}}, {"type": "Feature", "properties": {"poi_id": "poi_0108", "name": "Governor's Restaurant", "dest_group": "food", "source": "gmaps", "in_primary": true, "osm_key": null, "osm_value": null, "gmaps_category": "Restaurant", "place_id": "ChIJr__iPz1b4joRgW2cmwj5CLA"}, "geometry": {"type": "Point", "coordinates": [79.8619444, 6.8336111]}}, {"type": "Feature", "properties": {"poi_id": "poi_0109", "name": "Haqiqi Biriyani", "dest_group": "food", "source": "gmaps", "in_primary": true, "osm_key": null, "osm_value": null, "gmaps_category": "Sri Lankan restaurant", "place_id": "ChIJm60OvvlZ4joR82dXPIcZJAE"}, "geometry": {"type": "Point", "coordinates": [79.8659089, 6.8473889]}}, {"type": "Feature", "properties": {"poi_id": "poi_0110", "name": "Heba's Kitchen", "dest_group": "food", "source": "gmaps", "in_primary": true, "osm_key": null, "osm_value": null, "gmaps_category": "Restaurant", "place_id": "ChIJ9XT3Cnpb4joRq2I5c85zdyQ"}, "geometry": {"type": "Point", "coordinates": [79.8674607, 6.8205544]}}, {"type": "Feature", "properties": {"poi_id": "poi_0111", "name": "KOZY Kitchen", "dest_group": "food", "source": "gmaps", "in_primary": true, "osm_key": null, "osm_value": null, "gmaps_category": "Asian restaurant", "place_id": "ChIJtfGGSQBb4joRSfn8DRf8ca0"}, "geometry": {"type": "Point", "coordinates": [79.8682864, 6.8342085]}}, {"type": "Feature", "properties": {"poi_id": "poi_0112", "name": "Krusty Kitchen", "dest_group": "food", "source": "gmaps", "in_primary": true, "osm_key": null, "osm_value": null, "gmaps_category": "Restaurant", "place_id": "ChIJ6Uqi6E1b4joRpodlBf4y9qs"}, "geometry": {"type": "Point", "coordinates": [79.8694394, 6.8336481]}}, {"type": "Feature", "properties": {"poi_id": "poi_0113", "name": "Lavinia Bay Sea Food Restaurant", "dest_group": "food", "source": "gmaps", "in_primary": true, "osm_key": null, "osm_value": null, "gmaps_category": "Restaurant", "place_id": "ChIJJan-JOFb4joR7oYBLhTpyJ4"}, "geometry": {"type": "Point", "coordinates": [79.86360909999999, 6.8397649]}}, {"type": "Feature", "properties": {"poi_id": "poi_0114", "name": "Life style tea and coffee bar by Eshara & Hiruka", "dest_group": "food", "source": "gmaps", "in_primary": true, "osm_key": null, "osm_value": null, "gmaps_category": "Coffee shop", "place_id": "ChIJNVKOUgBb4joRIgcGnP6nymY"}, "geometry": {"type": "Point", "coordinates": [79.8690135, 6.8306809]}}, {"type": "Feature", "properties": {"poi_id": "poi_0115", "name": "Loon Tao", "dest_group": "food", "source": "gmaps", "in_primary": true, "osm_key": null, "osm_value": null, "gmaps_category": "Chinese restaurant", "place_id": "ChIJ86lZXxdb4joRgVbfDe976uo"}, "geometry": {"type": "Point", "coordinates": [79.8630945, 6.8391584]}}, {"type": "Feature", "properties": {"poi_id": "poi_0116", "name": "Love Lavin beach Boulevard Restaurant", "dest_group": "food", "source": "gmaps", "in_primary": true, "osm_key": null, "osm_value": null, "gmaps_category": "Restaurant", "place_id": "ChIJh2xIBQBb4joRo4V_YWFU-bg"}, "geometry": {"type": "Point", "coordinates": [79.8627188, 6.842375]}}, {"type": "Feature", "properties": {"poi_id": "poi_0117", "name": "Mamma's Kitchen", "dest_group": "food", "source": "gmaps", "in_primary": true, "osm_key": null, "osm_value": null, "gmaps_category": "Restaurant", "place_id": "ChIJi1FJDz5b4joRH3Ge0863AI8"}, "geometry": {"type": "Point", "coordinates": [79.8694912, 6.8463313]}}, {"type": "Feature", "properties": {"poi_id": "poi_0118", "name": "Manna Deli", "dest_group": "food", "source": "gmaps", "in_primary": true, "osm_key": null, "osm_value": null, "gmaps_category": "Restaurant", "place_id": "ChIJA_NiT2Jb4joRnscHPha9Jik"}, "geometry": {"type": "Point", "coordinates": [79.8697535, 6.8435891]}}, {"type": "Feature", "properties": {"poi_id": "poi_0119", "name": "Mathara", "dest_group": "food", "source": "gmaps", "in_primary": true, "osm_key": null, "osm_value": null, "gmaps_category": "Restaurant", "place_id": "ChIJ8S1sWgBb4joRKrQRhRpOEdQ"}, "geometry": {"type": "Point", "coordinates": [79.868249, 6.8282962]}}, {"type": "Feature", "properties": {"poi_id": "poi_0120", "name": "MealZone", "dest_group": "food", "source": "gmaps", "in_primary": true, "osm_key": null, "osm_value": null, "gmaps_category": "Restaurant", "place_id": "ChIJr8-_LwVb4joRUq7EcKyiDxc"}, "geometry": {"type": "Point", "coordinates": [79.8655041, 6.8462483]}}, {"type": "Feature", "properties": {"poi_id": "poi_0121", "name": "Mullet's Restaurant", "dest_group": "food", "source": "gmaps", "in_primary": true, "osm_key": null, "osm_value": null, "gmaps_category": "Takeout Restaurant", "place_id": "ChIJtW6uLQBb4joRkYhkBVt50PA"}, "geometry": {"type": "Point", "coordinates": [79.8718001, 6.8315577]}}, {"type": "Feature", "properties": {"poi_id": "poi_0122", "name": "Nesmart super", "dest_group": "food", "source": "gmaps", "in_primary": true, "osm_key": null, "osm_value": null, "gmaps_category": "Grocery store", "place_id": "ChIJmf8wTgBb4joRnJxuhbNVcJ4"}, "geometry": {"type": "Point", "coordinates": [79.8665135, 6.843551499999999]}}, {"type": "Feature", "properties": {"poi_id": "poi_0123", "name": "Nildiya Restaurant", "dest_group": "food", "source": "gmaps", "in_primary": true, "osm_key": null, "osm_value": null, "gmaps_category": "Restaurant", "place_id": "ChIJb0CTDSRb4joRk-2h90FyccY"}, "geometry": {"type": "Point", "coordinates": [79.8676802, 6.8293256]}}, {"type": "Feature", "properties": {"poi_id": "poi_0124", "name": "Nook Cafe@mount", "dest_group": "food", "source": "gmaps", "in_primary": true, "osm_key": null, "osm_value": null, "gmaps_category": "Cafe", "place_id": "ChIJMfNRNYFb4joRMcWLl78sQ40"}, "geometry": {"type": "Point", "coordinates": [79.8682902, 6.8287957]}}, {"type": "Feature", "properties": {"poi_id": "poi_0125", "name": "Olivia Restaurant and Bar", "dest_group": "food", "source": "gmaps", "in_primary": true, "osm_key": null, "osm_value": null, "gmaps_category": "Italian restaurant", "place_id": "ChIJ2fQYT6pb4joR5H_LZDmfCec"}, "geometry": {"type": "Point", "coordinates": [79.86332, 6.8348985]}}, {"type": "Feature", "properties": {"poi_id": "poi_0126", "name": "Pathani Catering", "dest_group": "food", "source": "gmaps", "in_primary": true, "osm_key": null, "osm_value": null, "gmaps_category": "Asian restaurant", "place_id": "ChIJxysUSABb4joRSTr-Jcl-NoY"}, "geometry": {"type": "Point", "coordinates": [79.8712977, 6.8303417]}}, {"type": "Feature", "properties": {"poi_id": "poi_0127", "name": "RR CAFE", "dest_group": "food", "source": "gmaps", "in_primary": true, "osm_key": null, "osm_value": null, "gmaps_category": "Coffee shop", "place_id": "ChIJC8rJOgBb4joReKtKRTJcSGs"}, "geometry": {"type": "Point", "coordinates": [79.8745507, 6.8424422]}}, {"type": "Feature", "properties": {"poi_id": "poi_0128", "name": "Ranga's", "dest_group": "food", "source": "gmaps", "in_primary": true, "osm_key": null, "osm_value": null, "gmaps_category": "Restaurant", "place_id": "ChIJU5Oy_hdb4joR-aZkJ6ER3UI"}, "geometry": {"type": "Point", "coordinates": [79.8629826, 6.8353687]}}, {"type": "Feature", "properties": {"poi_id": "poi_0129", "name": "Ranveli beach Mount Lavinia", "dest_group": "food", "source": "gmaps", "in_primary": true, "osm_key": null, "osm_value": null, "gmaps_category": "American restaurant", "place_id": "ChIJAd33EABb4joR0UbnNG3HgCE"}, "geometry": {"type": "Point", "coordinates": [79.8630058, 6.8363517]}}, {"type": "Feature", "properties": {"poi_id": "poi_0130", "name": "Redmark", "dest_group": "food", "source": "gmaps", "in_primary": true, "osm_key": null, "osm_value": null, "gmaps_category": "Restaurant", "place_id": "ChIJYfqOfoVb4joRcIiQqIEc5qo"}, "geometry": {"type": "Point", "coordinates": [79.8699456, 6.8460623]}}, {"type": "Feature", "properties": {"poi_id": "poi_0131", "name": "Reef House Cafe", "dest_group": "food", "source": "gmaps", "in_primary": true, "osm_key": null, "osm_value": null, "gmaps_category": "Restaurant", "place_id": "ChIJl26KbxBb4joROD9rHSGr8eU"}, "geometry": {"type": "Point", "coordinates": [79.862481, 6.84363]}}, {"type": "Feature", "properties": {"poi_id": "poi_0132", "name": "Ruhunu Bath Kade - Mount Lavinia", "dest_group": "food", "source": "gmaps", "in_primary": true, "osm_key": null, "osm_value": null, "gmaps_category": "Restaurant", "place_id": "ChIJqaAbdCJb4joRYEs5bQj6pEw"}, "geometry": {"type": "Point", "coordinates": [79.8671622, 6.8348543]}}, {"type": "Feature", "properties": {"poi_id": "poi_0133", "name": "S I Royal Shawarma", "dest_group": "food", "source": "gmaps", "in_primary": true, "osm_key": null, "osm_value": null, "gmaps_category": "Shawarma restaurant", "place_id": "ChIJXQhRKbJb4joR4wbUVTV7Eu4"}, "geometry": {"type": "Point", "coordinates": [79.8702397, 6.8471997]}}, {"type": "Feature", "properties": {"poi_id": "poi_0134", "name": "SEVEN ELEVEN CAFE PVT LTD", "dest_group": "food", "source": "gmaps", "in_primary": true, "osm_key": null, "osm_value": null, "gmaps_category": "Restaurant", "place_id": "ChIJUYmB3zdb4joRQyG6uD9OhgY"}, "geometry": {"type": "Point", "coordinates": [79.8712096, 6.8390053]}}, {"type": "Feature", "properties": {"poi_id": "poi_0135", "name": "SHAWARMAS DEHIWALA", "dest_group": "food", "source": "gmaps", "in_primary": true, "osm_key": null, "osm_value": null, "gmaps_category": "Turkish restaurant", "place_id": "ChIJd40Y_bBb4joRweUOb5y5UhA"}, "geometry": {"type": "Point", "coordinates": [79.8655761, 6.8488336]}}, {"type": "Feature", "properties": {"poi_id": "poi_0136", "name": "SILK", "dest_group": "food", "source": "gmaps", "in_primary": true, "osm_key": null, "osm_value": null, "gmaps_category": "Asian restaurant", "place_id": "ChIJ0W1-CgBb4joR8A0KLI0_GBE"}, "geometry": {"type": "Point", "coordinates": [79.8643257, 6.8431276]}}, {"type": "Feature", "properties": {"poi_id": "poi_0137", "name": "Sandpit Cafe Mount Lavinia", "dest_group": "food", "source": "gmaps", "in_primary": true, "osm_key": null, "osm_value": null, "gmaps_category": "Cafe", "place_id": "ChIJRZoRGTRb4joRAvwpNhYeW2I"}, "geometry": {"type": "Point", "coordinates": [79.8661718, 6.8417774]}}, {"type": "Feature", "properties": {"poi_id": "poi_0138", "name": "Senior Quality Executive", "dest_group": "food", "source": "gmaps", "in_primary": true, "osm_key": null, "osm_value": null, "gmaps_category": "Fast food restaurant", "place_id": "ChIJlZBtdJNb4joR1XBMXLJwbsY"}, "geometry": {"type": "Point", "coordinates": [79.8660217, 6.8432852]}}, {"type": "Feature", "properties": {"poi_id": "poi_0139", "name": "Shani Snack Bar", "dest_group": "food", "source": "gmaps", "in_primary": true, "osm_key": null, "osm_value": null, "gmaps_category": "Restaurant", "place_id": "ChIJo2gSPRlb4joR_jOL85Nul_Y"}, "geometry": {"type": "Point", "coordinates": [79.8676423, 6.838821]}}, {"type": "Feature", "properties": {"poi_id": "poi_0140", "name": "Sharifa caterings", "dest_group": "food", "source": "gmaps", "in_primary": true, "osm_key": null, "osm_value": null, "gmaps_category": "Cafe", "place_id": "ChIJy7Afv1pb4joRBpSjxlUVoHc"}, "geometry": {"type": "Point", "coordinates": [79.8705107, 6.8416229]}}, {"type": "Feature", "properties": {"poi_id": "poi_0141", "name": "Spiceland Restaurant", "dest_group": "food", "source": "gmaps", "in_primary": true, "osm_key": null, "osm_value": null, "gmaps_category": "Sri Lankan restaurant", "place_id": "ChIJP4uRG3Vb4joRihJVafSTUiA"}, "geometry": {"type": "Point", "coordinates": [79.8665414, 6.8475405]}}, {"type": "Feature", "properties": {"poi_id": "poi_0142", "name": "Subway - Mount Lavinia", "dest_group": "food", "source": "gmaps", "in_primary": true, "osm_key": null, "osm_value": null, "gmaps_category": "Sandwich shop", "place_id": "ChIJt7DM6hhb4joR-anjdYAx36k"}, "geometry": {"type": "Point", "coordinates": [79.8671235, 6.8363521]}}, {"type": "Feature", "properties": {"poi_id": "poi_0143", "name": "Thai Cuisine La Rambla", "dest_group": "food", "source": "gmaps", "in_primary": true, "osm_key": null, "osm_value": null, "gmaps_category": "Restaurant", "place_id": "ChIJx_4KxCJb4joR2ZOqSBzsUjY"}, "geometry": {"type": "Point", "coordinates": [79.8644648, 6.8335122]}}, {"type": "Feature", "properties": {"poi_id": "poi_0144", "name": "The Angler", "dest_group": "food", "source": "gmaps", "in_primary": true, "osm_key": null, "osm_value": null, "gmaps_category": "Restaurant", "place_id": "ChIJ51vjxCJb4joRC4W4K5acZ3U"}, "geometry": {"type": "Point", "coordinates": [79.8641661, 6.8333576]}}, {"type": "Feature", "properties": {"poi_id": "poi_0145", "name": "The Monarch Store & Cafe", "dest_group": "food", "source": "gmaps", "in_primary": true, "osm_key": null, "osm_value": null, "gmaps_category": "Cafe", "place_id": "ChIJodec-C9b4joRcctmd6LgBMU"}, "geometry": {"type": "Point", "coordinates": [79.867983, 6.8297449]}}, {"type": "Feature", "properties": {"poi_id": "poi_0146", "name": "The Mount Bakers", "dest_group": "food", "source": "gmaps", "in_primary": true, "osm_key": null, "osm_value": null, "gmaps_category": "Bakery", "place_id": "ChIJzZsPQgBb4joRFbfo7OnisCM"}, "geometry": {"type": "Point", "coordinates": [79.8675007, 6.8354067]}}, {"type": "Feature", "properties": {"poi_id": "poi_0147", "name": "The Templers Cafe", "dest_group": "food", "source": "gmaps", "in_primary": true, "osm_key": null, "osm_value": null, "gmaps_category": "Coffee shop", "place_id": "ChIJr5a3NpJb4joRH8ghVCqYQLw"}, "geometry": {"type": "Point", "coordinates": [79.8696478, 6.831174]}}, {"type": "Feature", "properties": {"poi_id": "poi_0148", "name": "The fresh made", "dest_group": "food", "source": "gmaps", "in_primary": true, "osm_key": null, "osm_value": null, "gmaps_category": "Asian restaurant", "place_id": "ChIJ3-UPqhRb4joRLS5ktvy16rc"}, "geometry": {"type": "Point", "coordinates": [79.8718641, 6.8441956]}}, {"type": "Feature", "properties": {"poi_id": "poi_0149", "name": "Time 2 Eat", "dest_group": "food", "source": "gmaps", "in_primary": true, "osm_key": null, "osm_value": null, "gmaps_category": "Restaurant", "place_id": "ChIJY7M97FJb4joR0OYbfcpsJq0"}, "geometry": {"type": "Point", "coordinates": [79.8661387, 6.8471996]}}, {"type": "Feature", "properties": {"poi_id": "poi_0150", "name": "Umay Kitchen", "dest_group": "food", "source": "gmaps", "in_primary": true, "osm_key": null, "osm_value": null, "gmaps_category": "Fast food restaurant", "place_id": "ChIJx62Ea2tZ4joRwHbBv22yI4U"}, "geometry": {"type": "Point", "coordinates": [79.8687406, 6.8215723]}}, {"type": "Feature", "properties": {"poi_id": "poi_0151", "name": "Wadiya by Rasa Malaysia Beach Restaurant", "dest_group": "food", "source": "gmaps", "in_primary": true, "osm_key": null, "osm_value": null, "gmaps_category": "Restaurant", "place_id": "ChIJ7U-yX6tb4joRSlEOgJjgApQ"}, "geometry": {"type": "Point", "coordinates": [79.8631369, 6.8387354]}}, {"type": "Feature", "properties": {"poi_id": "poi_0152", "name": "abdhullaah foods", "dest_group": "food", "source": "gmaps", "in_primary": true, "osm_key": null, "osm_value": null, "gmaps_category": "Restaurant", "place_id": "ChIJ0bE93m5b4joRJ-Arylk1m80"}, "geometry": {"type": "Point", "coordinates": [79.8656242, 6.8247128]}}, {"type": "Feature", "properties": {"poi_id": "poi_0153", "name": "Ginsomin", "dest_group": "health", "source": "osm", "in_primary": true, "osm_key": "amenity", "osm_value": "pharmacy", "gmaps_category": null, "osm_type": "node", "osm_id": 7133250972}, "geometry": {"type": "Point", "coordinates": [79.8676622, 6.8381734]}}, {"type": "Feature", "properties": {"poi_id": "poi_0154", "name": "Harcourts", "dest_group": "health", "source": "osm", "in_primary": false, "osm_key": "amenity", "osm_value": "pharmacy", "gmaps_category": null, "osm_type": "node", "osm_id": 1838453716}, "geometry": {"type": "Point", "coordinates": [79.8651499, 6.8513541]}}, {"type": "Feature", "properties": {"poi_id": "poi_0155", "name": "Maharhishi Ayurveda Hospital", "dest_group": "health", "source": "osm", "in_primary": true, "osm_key": "amenity", "osm_value": "hospital", "gmaps_category": null, "osm_type": "node", "osm_id": 8594262509}, "geometry": {"type": "Point", "coordinates": [79.8656752, 6.8303971]}}, {"type": "Feature", "properties": {"poi_id": "poi_0156", "name": "Navajeevana Health care centre", "dest_group": "health", "source": "osm", "in_primary": false, "osm_key": "amenity", "osm_value": "clinic", "gmaps_category": null, "osm_type": "node", "osm_id": 12402598679}, "geometry": {"type": "Point", "coordinates": [79.8647643, 6.8514888]}}, {"type": "Feature", "properties": {"poi_id": "poi_0157", "name": "Siddhalepa", "dest_group": "health", "source": "osm", "in_primary": false, "osm_key": "amenity", "osm_value": "hospital", "gmaps_category": null, "osm_type": "node", "osm_id": 621908264}, "geometry": {"type": "Point", "coordinates": [79.8773217, 6.8311854]}}, {"type": "Feature", "properties": {"poi_id": "poi_0158", "name": "Sri Jeewarakshaka Bhayshajyalaya", "dest_group": "health", "source": "osm", "in_primary": false, "osm_key": "amenity", "osm_value": "hospital", "gmaps_category": null, "osm_type": "node", "osm_id": 11862652180}, "geometry": {"type": "Point", "coordinates": [79.8660313, 6.8522186]}}, {"type": "Feature", "properties": {"poi_id": "poi_0159", "name": "dehiwal urban health muster", "dest_group": "health", "source": "osm", "in_primary": false, "osm_key": "amenity", "osm_value": "clinic", "gmaps_category": null, "osm_type": "node", "osm_id": 11842965710}, "geometry": {"type": "Point", "coordinates": [79.8650781, 6.8494075]}}, {"type": "Feature", "properties": {"poi_id": "poi_0160", "name": "no place", "dest_group": "health", "source": "osm", "in_primary": true, "osm_key": "amenity", "osm_value": "pharmacy", "gmaps_category": null, "osm_type": "node", "osm_id": 11842763172}, "geometry": {"type": "Point", "coordinates": [79.8653421, 6.848993]}}, {"type": "Feature", "properties": {"poi_id": "poi_0161", "name": "Healthcare Pharmacy (Pvt) Ltd", "dest_group": "health", "source": "gmaps", "in_primary": true, "osm_key": null, "osm_value": null, "gmaps_category": "Pharmacy", "place_id": "ChIJwQmFGyRb4joRuRyAQjtQclg"}, "geometry": {"type": "Point", "coordinates": [79.8685345, 6.8290174]}}, {"type": "Feature", "properties": {"poi_id": "poi_0162", "name": "Medicare Pharmacy (pvt) ltd", "dest_group": "health", "source": "gmaps", "in_primary": true, "osm_key": null, "osm_value": null, "gmaps_category": "Pharmacy", "place_id": "ChIJm4TtSSJb4joR-9EfECFY6iQ"}, "geometry": {"type": "Point", "coordinates": [79.8675017, 6.8327425]}}, {"type": "Feature", "properties": {"poi_id": "poi_0163", "name": "Medix Pharmacy", "dest_group": "health", "source": "gmaps", "in_primary": true, "osm_key": null, "osm_value": null, "gmaps_category": "Pharmacy", "place_id": "ChIJD6DnBYFb4joRkjw0V-mhHG8"}, "geometry": {"type": "Point", "coordinates": [79.8708175, 6.8390393]}}, {"type": "Feature", "properties": {"poi_id": "poi_0164", "name": "The Mount Pharmacy - Mount Lavinia", "dest_group": "health", "source": "gmaps", "in_primary": true, "osm_key": null, "osm_value": null, "gmaps_category": "Pharmacy", "place_id": "ChIJS7V8yCNb4joRdLFyihkYbLA"}, "geometry": {"type": "Point", "coordinates": [79.867642, 6.83188]}}, {"type": "Feature", "properties": {"poi_id": "poi_0165", "name": "", "dest_group": "transit", "source": "osm", "in_primary": true, "osm_key": "highway", "osm_value": "bus_stop", "gmaps_category": null, "osm_type": "node", "osm_id": 4142166091}, "geometry": {"type": "Point", "coordinates": [79.8673845, 6.8375563]}}, {"type": "Feature", "properties": {"poi_id": "poi_0166", "name": "", "dest_group": "transit", "source": "osm", "in_primary": true, "osm_key": "highway", "osm_value": "bus_stop", "gmaps_category": null, "osm_type": "node", "osm_id": 4142166191}, "geometry": {"type": "Point", "coordinates": [79.8662705, 6.8445882]}}, {"type": "Feature", "properties": {"poi_id": "poi_0167", "name": "", "dest_group": "transit", "source": "osm", "in_primary": false, "osm_key": "highway", "osm_value": "bus_stop", "gmaps_category": null, "osm_type": "node", "osm_id": 8552319907}, "geometry": {"type": "Point", "coordinates": [79.8712851, 6.8225851]}}, {"type": "Feature", "properties": {"poi_id": "poi_0168", "name": "", "dest_group": "transit", "source": "osm", "in_primary": false, "osm_key": "highway", "osm_value": "bus_stop", "gmaps_category": null, "osm_type": "node", "osm_id": 8557668832}, "geometry": {"type": "Point", "coordinates": [79.8735358, 6.8194095]}}, {"type": "Feature", "properties": {"poi_id": "poi_0169", "name": "", "dest_group": "transit", "source": "osm", "in_primary": true, "osm_key": "highway", "osm_value": "bus_stop", "gmaps_category": null, "osm_type": "node", "osm_id": 10605417758}, "geometry": {"type": "Point", "coordinates": [79.8659654, 6.8488504]}}, {"type": "Feature", "properties": {"poi_id": "poi_0170", "name": "", "dest_group": "transit", "source": "osm", "in_primary": true, "osm_key": "highway", "osm_value": "bus_stop", "gmaps_category": null, "osm_type": "node", "osm_id": 10605417759}, "geometry": {"type": "Point", "coordinates": [79.8676676, 6.8308008]}}, {"type": "Feature", "properties": {"poi_id": "poi_0171", "name": "", "dest_group": "transit", "source": "osm", "in_primary": false, "osm_key": "highway", "osm_value": "bus_stop", "gmaps_category": null, "osm_type": "node", "osm_id": 12402598681}, "geometry": {"type": "Point", "coordinates": [79.8664065, 6.8512811]}}, {"type": "Feature", "properties": {"poi_id": "poi_0172", "name": "CTB Depot", "dest_group": "transit", "source": "osm", "in_primary": false, "osm_key": "amenity", "osm_value": "bus_station", "gmaps_category": null, "osm_type": "way", "osm_id": 319057681}, "geometry": {"type": "Point", "coordinates": [79.8686977, 6.8261733]}}, {"type": "Feature", "properties": {"poi_id": "poi_0173", "name": "Cargills Food City Ratmalana", "dest_group": "transit", "source": "osm", "in_primary": true, "osm_key": "highway", "osm_value": "bus_stop", "gmaps_category": null, "osm_type": "node", "osm_id": 10605365166}, "geometry": {"type": "Point", "coordinates": [79.8688536, 6.8276844]}}, {"type": "Feature", "properties": {"poi_id": "poi_0174", "name": "Dehiala railway station", "dest_group": "transit", "source": "osm", "in_primary": false, "osm_key": "amenity", "osm_value": "bus_station", "gmaps_category": null, "osm_type": "node", "osm_id": 11843006169}, "geometry": {"type": "Point", "coordinates": [79.8623123, 6.8509062]}}, {"type": "Feature", "properties": {"poi_id": "poi_0175", "name": "Dehiwala Bus Stop", "dest_group": "transit", "source": "osm", "in_primary": false, "osm_key": "highway", "osm_value": "bus_stop", "gmaps_category": null, "osm_type": "node", "osm_id": 12402598680}, "geometry": {"type": "Point", "coordinates": [79.8650205, 6.8512749]}}, {"type": "Feature", "properties": {"poi_id": "poi_0176", "name": "Dehiwala Junction", "dest_group": "transit", "source": "osm", "in_primary": false, "osm_key": "highway", "osm_value": "bus_stop", "gmaps_category": null, "osm_type": "node", "osm_id": 8572280708}, "geometry": {"type": "Point", "coordinates": [79.8658814, 6.8518203]}}, {"type": "Feature", "properties": {"poi_id": "poi_0177", "name": "Hotel Road halt", "dest_group": "transit", "source": "osm", "in_primary": true, "osm_key": "highway", "osm_value": "bus_stop", "gmaps_category": null, "osm_type": "node", "osm_id": 1659163617}, "geometry": {"type": "Point", "coordinates": [79.8668469, 6.8419713]}}, {"type": "Feature", "properties": {"poi_id": "poi_0178", "name": "Hotel Road halt", "dest_group": "transit", "source": "osm", "in_primary": true, "osm_key": "highway", "osm_value": "bus_stop", "gmaps_category": null, "osm_type": "node", "osm_id": 8557817531}, "geometry": {"type": "Point", "coordinates": [79.867214, 6.8407604]}}, {"type": "Feature", "properties": {"poi_id": "poi_0179", "name": "Karagampitiya", "dest_group": "transit", "source": "osm", "in_primary": false, "osm_key": "highway", "osm_value": "bus_stop", "gmaps_category": null, "osm_type": "node", "osm_id": 3773070276}, "geometry": {"type": "Point", "coordinates": [79.8720234, 6.8504176]}}, {"type": "Feature", "properties": {"poi_id": "poi_0180", "name": "Mount Lavinia", "dest_group": "transit", "source": "osm", "in_primary": true, "osm_key": "highway", "osm_value": "bus_stop", "gmaps_category": null, "osm_type": "node", "osm_id": 621917718}, "geometry": {"type": "Point", "coordinates": [79.8672498, 6.8335379]}}, {"type": "Feature", "properties": {"poi_id": "poi_0181", "name": "Mount Lavinia", "dest_group": "transit", "source": "osm", "in_primary": true, "osm_key": "highway", "osm_value": "bus_stop", "gmaps_category": null, "osm_type": "node", "osm_id": 1664611741}, "geometry": {"type": "Point", "coordinates": [79.8673945, 6.8352314]}}, {"type": "Feature", "properties": {"poi_id": "poi_0182", "name": "Mount Lavinia Bus Stand", "dest_group": "transit", "source": "osm", "in_primary": true, "osm_key": "amenity", "osm_value": "bus_station", "gmaps_category": null, "osm_type": "node", "osm_id": 1664611736}, "geometry": {"type": "Point", "coordinates": [79.8672728, 6.8330085]}}, {"type": "Feature", "properties": {"poi_id": "poi_0183", "name": "Mount Lavinia Police Station halt", "dest_group": "transit", "source": "osm", "in_primary": false, "osm_key": "highway", "osm_value": "bus_stop", "gmaps_category": null, "osm_type": "node", "osm_id": 8557817527}, "geometry": {"type": "Point", "coordinates": [79.8697525, 6.8254423]}}, {"type": "Feature", "properties": {"poi_id": "poi_0184", "name": "Templers Road", "dest_group": "transit", "source": "osm", "in_primary": true, "osm_key": "highway", "osm_value": "bus_stop", "gmaps_category": null, "osm_type": "node", "osm_id": 1643862630}, "geometry": {"type": "Point", "coordinates": [79.8682418, 6.8295398]}}, {"type": "Feature", "properties": {"poi_id": "poi_0185", "name": "255 Kottawa Bus Stop", "dest_group": "transit", "source": "gmaps", "in_primary": true, "osm_key": null, "osm_value": null, "gmaps_category": "Bus stop", "place_id": "ChIJq4-5TCJb4joRzR_JUYdvDVA"}, "geometry": {"type": "Point", "coordinates": [79.8670798, 6.8325858]}}, {"type": "Feature", "properties": {"poi_id": "poi_0186", "name": "Bus Stop", "dest_group": "transit", "source": "gmaps", "in_primary": true, "osm_key": null, "osm_value": null, "gmaps_category": "Bus stop", "place_id": "ChIJr42M3xhb4joRe2ERgXEARTw"}, "geometry": {"type": "Point", "coordinates": [79.8675799, 6.8377605]}}, {"type": "Feature", "properties": {"poi_id": "poi_0187", "name": "Mt. Lavinia Bus Stop", "dest_group": "transit", "source": "gmaps", "in_primary": true, "osm_key": null, "osm_value": null, "gmaps_category": "Bus stop", "place_id": "ChIJXyYHSiJb4joRxWPHZ6rwR50"}, "geometry": {"type": "Point", "coordinates": [79.86747369999999, 6.832802699999999]}}, {"type": "Feature", "properties": {"poi_id": "poi_0188", "name": "", "dest_group": "education", "source": "osm", "in_primary": true, "osm_key": "amenity", "osm_value": "school", "gmaps_category": null, "osm_type": "node", "osm_id": 1533913616}, "geometry": {"type": "Point", "coordinates": [79.8677567, 6.8465091]}}, {"type": "Feature", "properties": {"poi_id": "poi_0189", "name": "", "dest_group": "education", "source": "osm", "in_primary": true, "osm_key": "amenity", "osm_value": "school", "gmaps_category": null, "osm_type": "way", "osm_id": 587989178}, "geometry": {"type": "Point", "coordinates": [79.8656927, 6.8322327]}}, {"type": "Feature", "properties": {"poi_id": "poi_0190", "name": "", "dest_group": "education", "source": "osm", "in_primary": false, "osm_key": "amenity", "osm_value": "school", "gmaps_category": null, "osm_type": "way", "osm_id": 1340702294}, "geometry": {"type": "Point", "coordinates": [79.8635896, 6.8502155]}}, {"type": "Feature", "properties": {"poi_id": "poi_0191", "name": "British College of Applied Studies", "dest_group": "education", "source": "osm", "in_primary": true, "osm_key": "amenity", "osm_value": "college", "gmaps_category": null, "osm_type": "node", "osm_id": 6466232466}, "geometry": {"type": "Point", "coordinates": [79.8674429, 6.8305038]}}, {"type": "Feature", "properties": {"poi_id": "poi_0192", "name": "Faculty of Engineering", "dest_group": "education", "source": "osm", "in_primary": false, "osm_key": "amenity", "osm_value": "college", "gmaps_category": null, "osm_type": "way", "osm_id": 583232430}, "geometry": {"type": "Point", "coordinates": [79.8730385, 6.825584]}}, {"type": "Feature", "properties": {"poi_id": "poi_0193", "name": "Girls High School", "dest_group": "education", "source": "osm", "in_primary": true, "osm_key": "amenity", "osm_value": "school", "gmaps_category": null, "osm_type": "node", "osm_id": 652406107}, "geometry": {"type": "Point", "coordinates": [79.8649848, 6.8346059]}}, {"type": "Feature", "properties": {"poi_id": "poi_0194", "name": "Hejaaz International Boys School", "dest_group": "education", "source": "osm", "in_primary": true, "osm_key": "amenity", "osm_value": "school", "gmaps_category": null, "osm_type": "node", "osm_id": 5606158822}, "geometry": {"type": "Point", "coordinates": [79.8682149, 6.8431388]}}, {"type": "Feature", "properties": {"poi_id": "poi_0195", "name": "Lalith Athulathmudali College", "dest_group": "education", "source": "osm", "in_primary": true, "osm_key": "amenity", "osm_value": "school", "gmaps_category": null, "osm_type": "node", "osm_id": 1654309527}, "geometry": {"type": "Point", "coordinates": [79.8717788, 6.8295595]}}, {"type": "Feature", "properties": {"poi_id": "poi_0196", "name": "MSTI", "dest_group": "education", "source": "osm", "in_primary": false, "osm_key": "amenity", "osm_value": "college", "gmaps_category": null, "osm_type": "node", "osm_id": 11842923969}, "geometry": {"type": "Point", "coordinates": [79.8639902, 6.8511164]}}, {"type": "Feature", "properties": {"poi_id": "poi_0197", "name": "Metropolitn College", "dest_group": "education", "source": "osm", "in_primary": false, "osm_key": "amenity", "osm_value": "college", "gmaps_category": null, "osm_type": "node", "osm_id": 11862652313}, "geometry": {"type": "Point", "coordinates": [79.8676804, 6.8511982]}}, {"type": "Feature", "properties": {"poi_id": "poi_0198", "name": "Najaa International School", "dest_group": "education", "source": "osm", "in_primary": true, "osm_key": "amenity", "osm_value": "school", "gmaps_category": null, "osm_type": "node", "osm_id": 7133210345}, "geometry": {"type": "Point", "coordinates": [79.8691585, 6.8386201]}}, {"type": "Feature", "properties": {"poi_id": "poi_0199", "name": "Presbyterian Girls School", "dest_group": "education", "source": "osm", "in_primary": false, "osm_key": "amenity", "osm_value": "school", "gmaps_category": null, "osm_type": "node", "osm_id": 621925764}, "geometry": {"type": "Point", "coordinates": [79.8633844, 6.850498]}}, {"type": "Feature", "properties": {"poi_id": "poi_0200", "name": "Science College", "dest_group": "education", "source": "osm", "in_primary": false, "osm_key": "amenity", "osm_value": "school", "gmaps_category": null, "osm_type": "way", "osm_id": 633523970}, "geometry": {"type": "Point", "coordinates": [79.8764537, 6.8301351]}}, {"type": "Feature", "properties": {"poi_id": "poi_0201", "name": "St. Thomas College", "dest_group": "education", "source": "osm", "in_primary": true, "osm_key": "amenity", "osm_value": "school", "gmaps_category": null, "osm_type": "way", "osm_id": 232514709}, "geometry": {"type": "Point", "coordinates": [79.8653408, 6.8371518]}}, {"type": "Feature", "properties": {"poi_id": "poi_0202", "name": "Subodha adarsha kanishta vidyalaya", "dest_group": "education", "source": "osm", "in_primary": false, "osm_key": "amenity", "osm_value": "college", "gmaps_category": null, "osm_type": "node", "osm_id": 11842921794}, "geometry": {"type": "Point", "coordinates": [79.867935, 6.8492376]}}, {"type": "Feature", "properties": {"poi_id": "poi_0203", "name": "Sumaga Vidyalaya", "dest_group": "education", "source": "osm", "in_primary": false, "osm_key": "amenity", "osm_value": "school", "gmaps_category": null, "osm_type": "node", "osm_id": 673953421}, "geometry": {"type": "Point", "coordinates": [79.8701386, 6.8484516]}}, {"type": "Feature", "properties": {"poi_id": "poi_0204", "name": "msti maritime academy", "dest_group": "education", "source": "osm", "in_primary": false, "osm_key": "amenity", "osm_value": "college", "gmaps_category": null, "osm_type": "node", "osm_id": 11842859892}, "geometry": {"type": "Point", "coordinates": [79.8658444, 6.8506857]}}, {"type": "Feature", "properties": {"poi_id": "poi_0205", "name": "suboda adarsha colleg", "dest_group": "education", "source": "osm", "in_primary": true, "osm_key": "amenity", "osm_value": "college", "gmaps_category": null, "osm_type": "node", "osm_id": 11842924070}, "geometry": {"type": "Point", "coordinates": [79.8673831, 6.8419008]}}, {"type": "Feature", "properties": {"poi_id": "poi_0206", "name": "the briish iinternational pre school", "dest_group": "education", "source": "osm", "in_primary": false, "osm_key": "amenity", "osm_value": "college", "gmaps_category": null, "osm_type": "node", "osm_id": 11842861788}, "geometry": {"type": "Point", "coordinates": [79.8660181, 6.8503979]}}, {"type": "Feature", "properties": {"poi_id": "poi_0207", "name": "", "dest_group": "finance", "source": "osm", "in_primary": true, "osm_key": "amenity", "osm_value": "bank", "gmaps_category": null, "osm_type": "node", "osm_id": 652398687}, "geometry": {"type": "Point", "coordinates": [79.8681916, 6.8285195]}}, {"type": "Feature", "properties": {"poi_id": "poi_0208", "name": "", "dest_group": "finance", "source": "osm", "in_primary": false, "osm_key": "amenity", "osm_value": "bank", "gmaps_category": null, "osm_type": "node", "osm_id": 5576010117}, "geometry": {"type": "Point", "coordinates": [79.8737491, 6.829748]}}, {"type": "Feature", "properties": {"poi_id": "poi_0209", "name": "", "dest_group": "finance", "source": "osm", "in_primary": false, "osm_key": "amenity", "osm_value": "bank", "gmaps_category": null, "osm_type": "node", "osm_id": 5576013454}, "geometry": {"type": "Point", "coordinates": [79.8739101, 6.8314188]}}, {"type": "Feature", "properties": {"poi_id": "poi_0210", "name": "", "dest_group": "finance", "source": "osm", "in_primary": true, "osm_key": "amenity", "osm_value": "atm", "gmaps_category": null, "osm_type": "node", "osm_id": 9379015327}, "geometry": {"type": "Point", "coordinates": [79.8678021, 6.8307287]}}, {"type": "Feature", "properties": {"poi_id": "poi_0211", "name": "", "dest_group": "finance", "source": "osm", "in_primary": false, "osm_key": "amenity", "osm_value": "atm", "gmaps_category": null, "osm_type": "node", "osm_id": 11842769883}, "geometry": {"type": "Point", "coordinates": [79.8658046, 6.8515598]}}, {"type": "Feature", "properties": {"poi_id": "poi_0212", "name": "", "dest_group": "finance", "source": "osm", "in_primary": false, "osm_key": "amenity", "osm_value": "atm", "gmaps_category": null, "osm_type": "node", "osm_id": 11842855269}, "geometry": {"type": "Point", "coordinates": [79.8665855, 6.8525561]}}, {"type": "Feature", "properties": {"poi_id": "poi_0213", "name": "", "dest_group": "finance", "source": "osm", "in_primary": false, "osm_key": "amenity", "osm_value": "atm", "gmaps_category": null, "osm_type": "node", "osm_id": 11842857373}, "geometry": {"type": "Point", "coordinates": [79.8643661, 6.8512856]}}, {"type": "Feature", "properties": {"poi_id": "poi_0214", "name": "", "dest_group": "finance", "source": "osm", "in_primary": false, "osm_key": "amenity", "osm_value": "bank", "gmaps_category": null, "osm_type": "node", "osm_id": 11842913869}, "geometry": {"type": "Point", "coordinates": [79.8658459, 6.8528181]}}, {"type": "Feature", "properties": {"poi_id": "poi_0215", "name": "", "dest_group": "finance", "source": "osm", "in_primary": false, "osm_key": "amenity", "osm_value": "atm", "gmaps_category": null, "osm_type": "node", "osm_id": 11842933569}, "geometry": {"type": "Point", "coordinates": [79.8615473, 6.8509325]}}, {"type": "Feature", "properties": {"poi_id": "poi_0216", "name": "", "dest_group": "finance", "source": "osm", "in_primary": true, "osm_key": "amenity", "osm_value": "atm", "gmaps_category": null, "osm_type": "node", "osm_id": 13105594130}, "geometry": {"type": "Point", "coordinates": [79.8663138, 6.83707]}}, {"type": "Feature", "properties": {"poi_id": "poi_0217", "name": "", "dest_group": "finance", "source": "osm", "in_primary": true, "osm_key": "amenity", "osm_value": "atm", "gmaps_category": null, "osm_type": "node", "osm_id": 13105617596}, "geometry": {"type": "Point", "coordinates": [79.8665877, 6.8387503]}}, {"type": "Feature", "properties": {"poi_id": "poi_0218", "name": "BOC", "dest_group": "finance", "source": "osm", "in_primary": true, "osm_key": "amenity", "osm_value": "atm", "gmaps_category": null, "osm_type": "node", "osm_id": 5185255622}, "geometry": {"type": "Point", "coordinates": [79.8672378, 6.8337799]}}, {"type": "Feature", "properties": {"poi_id": "poi_0219", "name": "Bank of Ceylon", "dest_group": "finance", "source": "osm", "in_primary": false, "osm_key": "amenity", "osm_value": "bank", "gmaps_category": null, "osm_type": "node", "osm_id": 3772997718}, "geometry": {"type": "Point", "coordinates": [79.8659759, 6.852549]}}, {"type": "Feature", "properties": {"poi_id": "poi_0220", "name": "Bank of Ceylon (BOC)", "dest_group": "finance", "source": "osm", "in_primary": true, "osm_key": "amenity", "osm_value": "bank", "gmaps_category": null, "osm_type": "node", "osm_id": 4711149289}, "geometry": {"type": "Point", "coordinates": [79.8671766, 6.835776]}}, {"type": "Feature", "properties": {"poi_id": "poi_0221", "name": "Commercial Attidiya", "dest_group": "finance", "source": "osm", "in_primary": false, "osm_key": "amenity", "osm_value": "bank", "gmaps_category": null, "osm_type": "node", "osm_id": 1249848054}, "geometry": {"type": "Point", "coordinates": [79.873196, 6.8199152]}}, {"type": "Feature", "properties": {"poi_id": "poi_0222", "name": "Commercial Bank of Ceylon", "dest_group": "finance", "source": "osm", "in_primary": true, "osm_key": "amenity", "osm_value": "bank", "gmaps_category": null, "osm_type": "node", "osm_id": 1870009410}, "geometry": {"type": "Point", "coordinates": [79.8665767, 6.8467332]}}, {"type": "Feature", "properties": {"poi_id": "poi_0223", "name": "Commercial Bank of Ceylon", "dest_group": "finance", "source": "osm", "in_primary": false, "osm_key": "amenity", "osm_value": "bank", "gmaps_category": null, "osm_type": "node", "osm_id": 13437123547}, "geometry": {"type": "Point", "coordinates": [79.8725796, 6.8212089]}}, {"type": "Feature", "properties": {"poi_id": "poi_0224", "name": "Commercial Bank of Ceylon", "dest_group": "finance", "source": "osm", "in_primary": true, "osm_key": "amenity", "osm_value": "bank", "gmaps_category": null, "osm_type": "way", "osm_id": 1084325596}, "geometry": {"type": "Point", "coordinates": [79.8670411, 6.8407391]}}, {"type": "Feature", "properties": {"poi_id": "poi_0225", "name": "DFCV Bank", "dest_group": "finance", "source": "osm", "in_primary": true, "osm_key": "amenity", "osm_value": "bank", "gmaps_category": null, "osm_type": "node", "osm_id": 1870009411}, "geometry": {"type": "Point", "coordinates": [79.867355, 6.840981]}}, {"type": "Feature", "properties": {"poi_id": "poi_0226", "name": "HNB", "dest_group": "finance", "source": "osm", "in_primary": true, "osm_key": "amenity", "osm_value": "bank", "gmaps_category": null, "osm_type": "node", "osm_id": 1249816149}, "geometry": {"type": "Point", "coordinates": [79.8675555, 6.8324776]}}, {"type": "Feature", "properties": {"poi_id": "poi_0227", "name": "HNB", "dest_group": "finance", "source": "osm", "in_primary": false, "osm_key": "amenity", "osm_value": "bank", "gmaps_category": null, "osm_type": "node", "osm_id": 1999705296}, "geometry": {"type": "Point", "coordinates": [79.8657056, 6.8524925]}}, {"type": "Feature", "properties": {"poi_id": "poi_0228", "name": "HNB", "dest_group": "finance", "source": "osm", "in_primary": false, "osm_key": "amenity", "osm_value": "atm", "gmaps_category": null, "osm_type": "node", "osm_id": 3401467564}, "geometry": {"type": "Point", "coordinates": [79.8623944, 6.8509958]}}, {"type": "Feature", "properties": {"poi_id": "poi_0229", "name": "LOLC inance", "dest_group": "finance", "source": "osm", "in_primary": false, "osm_key": "amenity", "osm_value": "bank", "gmaps_category": null, "osm_type": "node", "osm_id": 11842913769}, "geometry": {"type": "Point", "coordinates": [79.8658779, 6.8497509]}}, {"type": "Feature", "properties": {"poi_id": "poi_0230", "name": "NDB", "dest_group": "finance", "source": "osm", "in_primary": true, "osm_key": "amenity", "osm_value": "bank", "gmaps_category": null, "osm_type": "node", "osm_id": 4609647907}, "geometry": {"type": "Point", "coordinates": [79.8677045, 6.8367957]}}, {"type": "Feature", "properties": {"poi_id": "poi_0231", "name": "NSB", "dest_group": "finance", "source": "osm", "in_primary": false, "osm_key": "amenity", "osm_value": "atm", "gmaps_category": null, "osm_type": "node", "osm_id": 3401467565}, "geometry": {"type": "Point", "coordinates": [79.8632278, 6.8504671]}}, {"type": "Feature", "properties": {"poi_id": "poi_0232", "name": "People's Bank", "dest_group": "finance", "source": "osm", "in_primary": false, "osm_key": "amenity", "osm_value": "bank", "gmaps_category": null, "osm_type": "node", "osm_id": 12401966987}, "geometry": {"type": "Point", "coordinates": [79.8642632, 6.8508756]}}, {"type": "Feature", "properties": {"poi_id": "poi_0233", "name": "Peoples Bank", "dest_group": "finance", "source": "osm", "in_primary": false, "osm_key": "amenity", "osm_value": "bank", "gmaps_category": null, "osm_type": "node", "osm_id": 1533913599}, "geometry": {"type": "Point", "coordinates": [79.8654691, 6.8511002]}}, {"type": "Feature", "properties": {"poi_id": "poi_0234", "name": "SDB bank Dehiwala Branch", "dest_group": "finance", "source": "osm", "in_primary": false, "osm_key": "amenity", "osm_value": "bank", "gmaps_category": null, "osm_type": "node", "osm_id": 12401564251}, "geometry": {"type": "Point", "coordinates": [79.8660942, 6.8481577]}}, {"type": "Feature", "properties": {"poi_id": "poi_0235", "name": "Sampath Bank", "dest_group": "finance", "source": "osm", "in_primary": false, "osm_key": "amenity", "osm_value": "bank", "gmaps_category": null, "osm_type": "node", "osm_id": 1249848075}, "geometry": {"type": "Point", "coordinates": [79.8710449, 6.8233451]}}, {"type": "Feature", "properties": {"poi_id": "poi_0236", "name": "Sampath Bank", "dest_group": "finance", "source": "osm", "in_primary": true, "osm_key": "amenity", "osm_value": "bank", "gmaps_category": null, "osm_type": "node", "osm_id": 4609647908}, "geometry": {"type": "Point", "coordinates": [79.8671491, 6.835413]}}, {"type": "Feature", "properties": {"poi_id": "poi_0237", "name": "Seylan Bank", "dest_group": "finance", "source": "osm", "in_primary": false, "osm_key": "amenity", "osm_value": "bank", "gmaps_category": null, "osm_type": "way", "osm_id": 609795244}, "geometry": {"type": "Point", "coordinates": [79.8696088, 6.8252429]}}, {"type": "Feature", "properties": {"poi_id": "poi_0238", "name": "Siyapatha Finance", "dest_group": "finance", "source": "osm", "in_primary": false, "osm_key": "amenity", "osm_value": "bank", "gmaps_category": null, "osm_type": "node", "osm_id": 11842950269}, "geometry": {"type": "Point", "coordinates": [79.8660789, 6.8516481]}}, {"type": "Feature", "properties": {"poi_id": "poi_0239", "name": "amana bank", "dest_group": "finance", "source": "osm", "in_primary": false, "osm_key": "amenity", "osm_value": "bank", "gmaps_category": null, "osm_type": "node", "osm_id": 13437156165}, "geometry": {"type": "Point", "coordinates": [79.8723936, 6.8209561]}}, {"type": "Feature", "properties": {"poi_id": "poi_0240", "name": "DFCC - LIOC ATM/CDM", "dest_group": "finance", "source": "gmaps", "in_primary": true, "osm_key": null, "osm_value": null, "gmaps_category": "ATM", "place_id": "ChIJq_nuMxxb4joRJ7OzhMahMp4"}, "geometry": {"type": "Point", "coordinates": [79.8669268, 6.842455999999999]}}, {"type": "Feature", "properties": {"poi_id": "poi_0241", "name": "HNB ATM", "dest_group": "finance", "source": "gmaps", "in_primary": true, "osm_key": null, "osm_value": null, "gmaps_category": "ATM", "place_id": "ChIJaZPSDRlb4joRiKaZlZyWHww"}, "geometry": {"type": "Point", "coordinates": [79.866824, 6.84167]}}, {"type": "Feature", "properties": {"poi_id": "poi_0242", "name": "NSB Mount Lavinia", "dest_group": "finance", "source": "gmaps", "in_primary": true, "osm_key": null, "osm_value": null, "gmaps_category": "Bank", "place_id": "ChIJBeVxR2pb4joRsdU_yFlwzo4"}, "geometry": {"type": "Point", "coordinates": [79.867072, 6.8345318]}}, {"type": "Feature", "properties": {"poi_id": "poi_0243", "name": "Nation Trust Bank", "dest_group": "finance", "source": "gmaps", "in_primary": true, "osm_key": null, "osm_value": null, "gmaps_category": "Private sector bank", "place_id": "ChIJvXW3xhtb4joRfmEinDjAKoE"}, "geometry": {"type": "Point", "coordinates": [79.8672873, 6.8415754]}}, {"type": "Feature", "properties": {"poi_id": "poi_0244", "name": "Sampath & ComBank ATM", "dest_group": "finance", "source": "gmaps", "in_primary": true, "osm_key": null, "osm_value": null, "gmaps_category": "ATM", "place_id": "ChIJW9l43gRb4joRVLbwc405UIA"}, "geometry": {"type": "Point", "coordinates": [79.8662806, 6.846739]}}, {"type": "Feature", "properties": {"poi_id": "poi_0245", "name": "Seylan Off Site Kiosks ATM - Mount Lavinia", "dest_group": "finance", "source": "gmaps", "in_primary": true, "osm_key": null, "osm_value": null, "gmaps_category": "ATM", "place_id": "ChIJmX0Fscpb4joREbD2-3-k_qc"}, "geometry": {"type": "Point", "coordinates": [79.86416609999999, 6.833357599999999]}}, {"type": "Feature", "properties": {"poi_id": "poi_0246", "name": "", "dest_group": "open_space", "source": "osm", "in_primary": true, "osm_key": "leisure", "osm_value": "playground", "gmaps_category": null, "osm_type": "way", "osm_id": 49000663}, "geometry": {"type": "Point", "coordinates": [79.8633072, 6.8322013]}}, {"type": "Feature", "properties": {"poi_id": "poi_0247", "name": "", "dest_group": "open_space", "source": "osm", "in_primary": true, "osm_key": "leisure", "osm_value": "park", "gmaps_category": null, "osm_type": "way", "osm_id": 587522491}, "geometry": {"type": "Point", "coordinates": [79.8699751, 6.8312787]}}, {"type": "Feature", "properties": {"poi_id": "poi_0248", "name": "", "dest_group": "open_space", "source": "osm", "in_primary": true, "osm_key": "leisure", "osm_value": "park", "gmaps_category": null, "osm_type": "way", "osm_id": 587522492}, "geometry": {"type": "Point", "coordinates": [79.870423, 6.8345829]}}, {"type": "Feature", "properties": {"poi_id": "poi_0249", "name": "", "dest_group": "open_space", "source": "osm", "in_primary": true, "osm_key": "leisure", "osm_value": "park", "gmaps_category": null, "osm_type": "way", "osm_id": 587522493}, "geometry": {"type": "Point", "coordinates": [79.8689586, 6.8219334]}}, {"type": "Feature", "properties": {"poi_id": "poi_0250", "name": "", "dest_group": "open_space", "source": "osm", "in_primary": false, "osm_key": "leisure", "osm_value": "park", "gmaps_category": null, "osm_type": "way", "osm_id": 587522494}, "geometry": {"type": "Point", "coordinates": [79.8691946, 6.821504]}}, {"type": "Feature", "properties": {"poi_id": "poi_0251", "name": "", "dest_group": "open_space", "source": "osm", "in_primary": false, "osm_key": "leisure", "osm_value": "park", "gmaps_category": null, "osm_type": "way", "osm_id": 587522495}, "geometry": {"type": "Point", "coordinates": [79.8688499, 6.8211125]}}, {"type": "Feature", "properties": {"poi_id": "poi_0252", "name": "", "dest_group": "open_space", "source": "osm", "in_primary": false, "osm_key": "leisure", "osm_value": "park", "gmaps_category": null, "osm_type": "way", "osm_id": 587522496}, "geometry": {"type": "Point", "coordinates": [79.870175, 6.8193542]}}, {"type": "Feature", "properties": {"poi_id": "poi_0253", "name": "Childern park", "dest_group": "open_space", "source": "osm", "in_primary": true, "osm_key": "leisure", "osm_value": "park", "gmaps_category": null, "osm_type": "way", "osm_id": 1340702293}, "geometry": {"type": "Point", "coordinates": [79.8664519, 6.8448385]}}, {"type": "Feature", "properties": {"poi_id": "poi_0254", "name": "Beach", "dest_group": "open_space", "source": "gmaps", "in_primary": true, "osm_key": null, "osm_value": null, "gmaps_category": "Park", "place_id": "ChIJy_xBXgBb4joRHm3YYyJnSv8"}, "geometry": {"type": "Point", "coordinates": [79.863693, 6.834962]}}, {"type": "Feature", "properties": {"poi_id": "poi_0255", "name": "Mount Lavinia Children's Park", "dest_group": "open_space", "source": "gmaps", "in_primary": true, "osm_key": null, "osm_value": null, "gmaps_category": "Park", "place_id": "ChIJ3wudLCNb4joRMHqv89u6TDk"}, "geometry": {"type": "Point", "coordinates": [79.8637656, 6.8324375]}}, {"type": "Feature", "properties": {"poi_id": "poi_0256", "name": "Mount Lavinia Children\u2019s Park basketball court", "dest_group": "open_space", "source": "gmaps", "in_primary": true, "osm_key": null, "osm_value": null, "gmaps_category": "Playground", "place_id": "ChIJkS0m6yNb4joRwwooBYmf3pw"}, "geometry": {"type": "Point", "coordinates": [79.8638825, 6.832064]}}, {"type": "Feature", "properties": {"poi_id": "poi_0257", "name": "Netz Premier", "dest_group": "open_space", "source": "gmaps", "in_primary": true, "osm_key": null, "osm_value": null, "gmaps_category": "Indoor playground", "place_id": "ChIJxWsSlo1b4joRp9VY9ee_SW8"}, "geometry": {"type": "Point", "coordinates": [79.8665625, 6.8413125]}}]}