{"type": "FeatureCollection", "features": [{"type": "Feature", "properties": {"name": "beach_link_2103_169", "from_id": 2103, "to_id": 169, "id": 2115, "length_m": 209.1}, "geometry": {"type": "LineString", "coordinates": [[79.862476, 6.83185], [79.864359, 6.831661]]}}, {"type": "Feature", "properties": {"name": "beach_link_3623_757", "from_id": 3623, "to_id": 757, "id": 2116, "length_m": 247.3}, "geometry": {"type": "LineString", "coordinates": [[79.862014, 6.833176], [79.864234, 6.83346]]}}, {"type": "Feature", "properties": {"name": "beach_link_512_528", "from_id": 512, "to_id": 528, "id": 2117, "length_m": 153.4}, "geometry": {"type": "LineString", "coordinates": [[79.862682, 6.848472], [79.86406, 6.848638]]}}, {"type": "Feature", "properties": {"name": "beach_link_504_528", "from_id": 504, "to_id": 528, "id": 2118, "length_m": 179.9}, "geometry": {"type": "LineString", "coordinates": [[79.862706, 6.849542], [79.86406, 6.848638]]}}, {"type": "Feature", "properties": {"name": "beach_link_1114_805", "from_id": 1114, "to_id": 805, "id": 2119, "length_m": 195.9}, "geometry": {"type": "LineString", "coordinates": [[79.862378, 6.850673], [79.864114, 6.851026]]}}]}