{"type": "FeatureCollection", "crs": {"type": "name", "properties": {"name": "urn:ogc:def:crs:OGC:1.3:CRS84"}}, "features": [{"type": "Feature", "properties": {"id": 111, "name": "access_aoi_500m", "buffer_m": 500}, "geometry": {"type": "Polygon", "coordinates": [[[79.85793140910984, 6.83709303111578], [79.85806436133063, 6.837249286105555], [79.85807285908948, 6.837258175151431], [79.85830108417562, 6.837469835001151], [79.85830925737172, 6.837490464022834], [79.85830415461693, 6.837509417157557], [79.85828782687729, 6.837571870643746], [79.85828011180679, 6.837602283744642], [79.85826914925802, 6.837646448263799], [79.8582634288085, 6.837670010613985], [79.85826194661348, 6.837675358628583], [79.85826211898757, 6.837675405724664], [79.85826161637222, 6.837677475981232], [79.85826214848422, 6.837675413783742], [79.85826260996598, 6.837675539869882], [79.85822241620917, 6.837813377068204], [79.85821671376577, 6.837835460111064], [79.85816732667928, 6.838048238393602], [79.85816218329893, 6.838073172653679], [79.85812992318301, 6.83824702702182], [79.85812533886578, 6.838274812498836], [79.8581039953258, 6.838418881688572], [79.85809997007163, 6.838449518382359], [79.85808576558182, 6.838570485868154], [79.85808229939072, 6.838603973778617], [79.85807286918313, 6.838706766027205], [79.85806996205511, 6.838743105154276], [79.85806378595817, 6.83883139787771], [79.85806143789323, 6.838870588221357], [79.85805751504614, 6.838947161491056], [79.85805572604427, 6.838989203051257], [79.85805243608394, 6.839097962135018], [79.85805170930195, 6.839138438308757], [79.8580511601964, 6.839256101843218], [79.85805149563423, 6.839295012630494], [79.85805442884133, 6.839422442429997], [79.85805582649904, 6.83945978783081], [79.85806315666721, 6.839597897970981], [79.85806561654475, 6.839633677985367], [79.85807846728386, 6.839783416662154], [79.85808198938128, 6.839817631290185], [79.85808708953131, 6.839859561346376], [79.85808296591796, 6.839888962210927], [79.85808187404612, 6.839896797990725], [79.85807312470892, 6.839960000152296], [79.85807210622983, 6.839967403257337], [79.85806321712684, 6.840032422375222], [79.85806226509641, 6.840039427626341], [79.85806196573265, 6.840041643662569], [79.85804299804109, 6.840112895842711], [79.85803550659581, 6.840142302628061], [79.85801411577009, 6.840229991752972], [79.85800704362211, 6.840260320988948], [79.8579883884721, 6.840343973408994], [79.85798173562145, 6.840375225095523], [79.85796551282361, 6.840455024645084], [79.85795927927028, 6.840487198782101], [79.85794581262637, 6.840559968853404], [79.85794016948984, 6.84057577163258], [79.85793407570226, 6.840593885329967], [79.85788235242651, 6.84075810952648], [79.85787709723355, 6.840775999591823], [79.8578297313578, 6.840950295932511], [79.85782531475945, 6.840967962365589], [79.85778338231265, 6.841152316269715], [79.85777980430895, 6.841169759070325], [79.85774668125748, 6.84135011635401], [79.85774388594209, 6.841367335522468], [79.85771738295003, 6.841556219303172], [79.85771537032295, 6.841573214839344], [79.85769650044466, 6.841770125737187], [79.85769527050589, 6.841786897640969], [79.8576901862455, 6.841888271198009], [79.85763438181239, 6.842093781459885], [79.85763214556005, 6.842103173739814], [79.85758753372308, 6.842312945193053], [79.85758552109598, 6.842323679222543], [79.85755747085315, 6.842490882302628], [79.85755568185131, 6.842502958081574], [79.85753769969308, 6.842638800162571], [79.85753613431646, 6.842652217690918], [79.85752448619802, 6.842764466002679], [79.85752314444662, 6.84277922528039], [79.8575155974662, 6.842873365237966], [79.85751447934004, 6.842889466265022], [79.85750965157318, 6.842969451368438], [79.85750875707225, 6.842986894144826], [79.85750451441106, 6.843095830238035], [79.85750406716062, 6.843112630087741], [79.85750317374568, 6.843179759619621], [79.85750280062497, 6.843182170624376], [79.85749986554379, 6.843201681952797], [79.85749434363301, 6.843239497764142], [79.85749160422392, 6.843258841371878], [79.85748630843041, 6.843297459325488], [79.85748376469338, 6.843316635212528], [79.8574787133062, 6.843356071908152], [79.85747636524127, 6.843375080074495], [79.85747157756097, 6.843415352024663], [79.85746942516813, 6.843434192470303], [79.85746492153697, 6.843475316122485], [79.8574629648162, 6.843493988847413], [79.85745876666299, 6.843535980483384], [79.8574570056143, 6.8435544854876], [79.85745313549137, 6.8435973611734], [79.85745157011473, 6.843615698456897], [79.85744243145996, 6.84374508510833], [79.8574412574275, 6.843766077937865], [79.85743677225028, 6.843866856079686], [79.85743598956198, 6.843890504455235], [79.85743405637037, 6.84397110316471], [79.85743366502624, 6.843997407086265], [79.85743330772517, 6.844045441183098], [79.8574225632817, 6.844080507233241], [79.85738929899804, 6.844194495491013], [79.85736811050728, 6.844270891650423], [79.85733436995044, 6.844400065340675], [79.8573165917445, 6.844472575982421], [79.85728315398916, 6.84461974524404], [79.85726878606799, 6.844688370367634], [79.85723688698498, 6.844856934369017], [79.8572259293486, 6.844921673973953], [79.85719748977161, 6.845115710655962], [79.85718994242004, 6.845176564741735], [79.85716790112465, 6.845400884033341], [79.85716376405784, 6.845457852599496], [79.85715254899823, 6.845717948341245], [79.85715182221622, 6.845771031387453], [79.85715797956613, 6.846072808757302], [79.85716066306894, 6.8461220062835], [79.85716565003946, 6.846200582218797], [79.85716922804318, 6.846250003361977], [79.85717553000323, 6.846327577428866], [79.85718000250787, 6.846377222189056], [79.8571875666131, 6.846453743716074], [79.85719293361868, 6.846503612093317], [79.85720165971267, 6.846578640904146], [79.85714679419223, 6.846805328926106], [79.85714539653452, 6.846813575119327], [79.85709024347858, 6.847302530995403], [79.85708971236866, 6.847311881330338], [79.85708486400817, 6.847704976644669], [79.85708519944603, 6.847715431121157], [79.85710667300974, 6.848031442840325], [79.85710787499535, 6.848043001458413], [79.85714206037953, 6.848298958560788], [79.8571441289129, 6.848311621320605], [79.85718355998954, 6.848521176396162], [79.85718649507072, 6.848534943297864], [79.85722717144657, 6.848708536307465], [79.85723097307553, 6.848723407351202], [79.85723515305764, 6.848739726087928], [79.85723921445702, 6.848755545248103], [79.8572431685619, 6.848770906980317], [79.85724702954182, 6.848785863939874], [79.85725081539135, 6.848800482634275], [79.85725454933902, 6.848814848398534], [79.85725573211916, 6.848819386748499], [79.8572582618796, 6.848829072493636], [79.85725964580351, 6.848834357830493], [79.85726199386843, 6.848843302818689], [79.85737741323175, 6.849204068254423], [79.85740940928169, 6.849508632472389], [79.8574100801574, 6.849513356549251], [79.85747266989473, 6.849856457232385], [79.85756206703705, 6.850193653758487], [79.85756296153798, 6.850196560878564], [79.85760689658153, 6.8503316192069], [79.85760775614102, 6.850334124500774], [79.8576737290205, 6.850513705433159], [79.85767455363857, 6.850515808900867], [79.8577808571758, 6.850764423039267], [79.85778164685243, 6.850766124680861], [79.85796978403248, 6.851127245111583], [79.85797053876763, 6.851128544927179], [79.85814860153368, 6.85141036167719], [79.85834732887743, 6.851678214607907], [79.85834804867119, 6.851679112597753], [79.85861181660813, 6.851979576679903], [79.85890155165436, 6.852255457576886], [79.85921493935327, 6.852504551545967], [79.85921562420558, 6.852505047710705], [79.85954864653532, 6.852724461168799], [79.85989999561919, 6.852913613181022], [79.8602668894469, 6.853071006063367], [79.86064642292366, 6.853195393598331], [79.86069879856944, 6.853210028011184], [79.86071972346926, 6.853216254685036], [79.86074471358894, 6.853223522439856], [79.8608023417377, 6.853239868463149], [79.86082660507539, 6.853246577159673], [79.8608885014312, 6.853263219421281], [79.86091203798686, 6.85326936905955], [79.86097865102346, 6.853286233632839], [79.86100146079713, 6.853291824212885], [79.86107329668111, 6.853308810097382], [79.86109537967278, 6.853313841619244], [79.86117301016807, 6.853330812898974], [79.86117915156613, 6.853332099043874], [79.8614583243398, 6.853416090216581], [79.86189102535056, 6.853501376112177], [79.86192300375875, 6.853506072198606], [79.86192856016457, 6.853506884642518], [79.86202225913681, 6.853520525655456], [79.86206521197728, 6.853526568645362], [79.86213766655248, 6.853536408064408], [79.86226273171964, 6.853550207636022], [79.862266327421, 6.853550730391655], [79.86231624701202, 6.853557704006273], [79.86242470524957, 6.853572239511648], [79.86243577006557, 6.853573708513022], [79.86255118863849, 6.853588886934934], [79.86256100397027, 6.853590166799609], [79.86268338287853, 6.85360598813806], [79.86269214893706, 6.853607112720146], [79.86282148818067, 6.853623576975139], [79.86282936459371, 6.853624572579242], [79.86296566417265, 6.853641679750774], [79.86297277976703, 6.853642567110503], [79.86311603968134, 6.853660317198577], [79.86312249956616, 6.853661112867131], [79.86327271981578, 6.853679505871754], [79.86327861059955, 6.853680223218245], [79.86343579118451, 6.853699259139411], [79.86344118487125, 6.853699909074372], [79.86360468681663, 6.853719511305446], [79.86375259395165, 6.853737286576709], [79.86388535240872, 6.853753288070943], [79.86400282831787, 6.853767499176976], [79.86410480468221, 6.853779892777852], [79.86419090435649, 6.853790421318136], [79.8642604069527, 6.853798992881206], [79.86431173478543, 6.853805402865597], [79.86435168757883, 6.853810494841048], [79.86449469032, 6.853826413130141], [79.86454869581354, 6.853831556462596], [79.86465412203562, 6.853840354165427], [79.86471651347537, 6.853844826628353], [79.86479732967133, 6.853849893224694], [79.86486810705729, 6.853853694818138], [79.86493197209084, 6.853856672681703], [79.86501113542302, 6.853859803405696], [79.86506284710049, 6.853861552351669], [79.86515039637885, 6.853864012206228], [79.86519310656976, 6.853865010419975], [79.8652890417943, 6.853866799405103], [79.86532490354769, 6.85386732595228], [79.86542922471848, 6.853868444067984], [79.86545975747767, 6.853868668270958], [79.86546402815114, 6.853868685217916], [79.86559628281198, 6.853874728608785], [79.86569915041875, 6.853876517593915], [79.86570374357781, 6.853876595141427], [79.8659085842904, 6.853879949488543], [79.86634731932108, 6.8538658341256], [79.86678257133016, 6.853809265520845], [79.8672101830919, 6.853710783963452], [79.86762607035479, 6.853571330055455], [79.86802626085174, 6.853392235728755], [79.86840693224025, 6.853175211524765], [79.86876444861082, 6.852922330258178], [79.86909539521461, 6.852636007220774], [79.86939661107891, 6.852318977114337], [79.86942232035706, 6.852285983989077], [79.86942317524748, 6.852285953915359], [79.86946664505291, 6.852284215395442], [79.86951405360212, 6.852282090975581], [79.8695594548738, 6.852279827875772], [79.86960580120314, 6.852277284162504], [79.86965325064831, 6.852274429769993], [79.86969853475783, 6.852271466763313], [79.86974815706418, 6.85226794576637], [79.86979237895382, 6.852264563466266], [79.8698443072404, 6.852260290774269], [79.8698874669102, 6.852256489180727], [79.86993022424551, 6.852252518397786], [79.86997201421073, 6.852248437275279], [79.87001753621347, 6.852243759084288], [79.87005795647414, 6.852239398432794], [79.87010650450077, 6.852233895490384], [79.87014555505691, 6.852229255309897], [79.87019742199254, 6.852222788048606], [79.87023510284416, 6.852217868339108], [79.87029061747278, 6.85221027012201], [79.87032692861986, 6.852205070883479], [79.87038646060401, 6.852196141963637], [79.8704214020465, 6.852190663196049], [79.8704853675485, 6.852180163158719], [79.87051893928648, 6.852174404862047], [79.87058780727051, 6.852162043130392], [79.87062000930392, 6.852156005304599], [79.87091660820839, 6.852090001645933], [79.87094633638769, 6.852082328574591], [79.87127728944768, 6.851983261990585], [79.87130454377281, 6.851973953672597], [79.87166891387488, 6.85183158743086], [79.87169369434592, 6.851820643864553], [79.87208651309034, 6.851623743865032], [79.87210881970724, 6.85161116504799], [79.8725194772119, 6.851349316961878], [79.87253930997467, 6.851335102890816], [79.87295076344434, 6.851001774866367], [79.87296812235299, 6.850985925537111], [79.87335812415218, 6.850582169379123], [79.87337300920667, 6.85056468478681], [79.873512432311, 6.85037973289704], [79.87351315726318, 6.850380319579929], [79.87352340005714, 6.850367842835055], [79.87353653068926, 6.850352458334609], [79.87358359924609, 6.850297397843079], [79.87363833608008, 6.850233443135166], [79.87366822112291, 6.850198550245468], [79.8737001141848, 6.850161328163568], [79.87373406365364, 6.850121720689887], [79.87376779778661, 6.850081895994135], [79.8738026972994, 6.850040204114041], [79.87383383786602, 6.850002586861377], [79.87386942223107, 6.849959119963179], [79.8738982399576, 6.849923548173024], [79.87393450917493, 6.849878306256633], [79.87396124022793, 6.849844631185011], [79.87399819429753, 6.849797614250355], [79.87402304537657, 6.849765699459238], [79.87406068429844, 6.849716907506244], [79.87408383689176, 6.849686627921145], [79.87412216066589, 6.849636060949747], [79.87414377462494, 6.849607301929326], [79.87418278325137, 6.849554959939466], [79.87420299980073, 6.849527616383784], [79.87424269327943, 6.849473499375411], [79.87424536285123, 6.849469855887296], [79.87428142241988, 6.849420588724079], [79.87428467528595, 6.849416138659148], [79.87429750196948, 6.849398568411096], [79.874308513939, 6.849388472101404], [79.87435496398375, 6.849346445236978], [79.87439096510313, 6.849314245702143], [79.87441279448653, 6.849295334687183], [79.87443835434676, 6.84927386455776], [79.8744676423072, 6.849249986319052], [79.87448480015514, 6.849236396276302], [79.87452358820906, 6.849223472993327], [79.87461542140001, 6.849193319761739], [79.87469410247338, 6.849167932797118], [79.87475835556626, 6.849147638496811], [79.87480629014644, 6.849132895617497], [79.87483498035259, 6.849124367322732], [79.8748396444123, 6.849123042340044], [79.87486133411345, 6.84911725847189], [79.8748800069174, 6.849112236271255], [79.87494049754267, 6.849095827917778], [79.87495709096062, 6.849091292940819], [79.875021047777, 6.849073682612389], [79.8750358901789, 6.849069568562324], [79.87510331318637, 6.849050756258935], [79.8751166673746, 6.849047008075838], [79.87518755657315, 6.849026993797484], [79.87519963534628, 6.849023565440494], [79.87527399073593, 6.849002349187167], [79.87528496822303, 6.848999201903717], [79.8753627898038, 6.848976783675417], [79.87537280985786, 6.848973884641363], [79.87545409762974, 6.848950264438082], [79.87546328012381, 6.848947585685313], [79.87554803408676, 6.848922763507053], [79.87555983470389, 6.848919289963334], [79.8756497879535, 6.848892678799058], [79.87566027466374, 6.848889562662488], [79.8757554272, 6.848861162512192], [79.87576480770217, 6.848858351635809], [79.87586515952508, 6.84882816249949], [79.87587359996259, 6.848825614349462], [79.87597915107213, 6.848793636227112], [79.87598678592278, 6.848791315779705], [79.87609753631898, 6.848757548671324], [79.8761044755944, 6.848755426833718], [79.87612187429127, 6.848750091504859], [79.87615867061517, 6.848744029749609], [79.876517370935, 6.848654303686137], [79.87654788792696, 6.848645328180812], [79.87662732766982, 6.848623766158986], [79.8770366720388, 6.848491424132907], [79.87743137526749, 6.848320780615966], [79.87780781143356, 6.84811340317653], [79.87795182608303, 6.848024848288154], [79.87833302670872, 6.847762477200774], [79.87868494181032, 6.847462471962254], [79.87900381844341, 6.847128031864581], [79.87928625599717, 6.846762723424317], [79.87952924245978, 6.84637044235095], [79.87973018653949, 6.845955372004509], [79.87988694529906, 6.845521938785367], [79.87999784700885, 6.845074764931848], [79.88004553093225, 6.844734173879703], [79.88004563803943, 6.844734188646977], [79.88006352805797, 6.84460627517859], [79.8800850301048, 6.844425536005444], [79.88009313292511, 6.844343001330214], [79.88009874699867, 6.844293009393234], [79.88010530326521, 6.844239822744096], [79.88011180069044, 6.844191627914848], [79.88011812801463, 6.844148581015085], [79.88012415881158, 6.844110849355628], [79.880129749258, 6.844078611986618], [79.88013473556549, 6.844052060153586], [79.8801389310345, 6.844031397590758], [79.88014457752475, 6.844005644137269], [79.88016355337085, 6.843966337412915], [79.88032315321419, 6.843519121263273], [79.88032389047859, 6.843516643921555], [79.88042758792953, 6.843092995256336], [79.8804891254956, 6.842661317241096], [79.88048953780462, 6.842656865705128], [79.88050800174797, 6.842308664437803], [79.88050808910158, 6.842302238707334], [79.88050672786738, 6.842116853845305], [79.8805064902656, 6.842108453920323], [79.88050176454469, 6.84199389030862], [79.88050120198746, 6.841983516189129], [79.88049630498004, 6.841905841722705], [79.88049541746739, 6.841893493408713], [79.8804910282297, 6.841837408672429], [79.88048981576165, 6.841823086163941], [79.88048602301502, 6.841780706777955], [79.88048448559154, 6.841764410074973], [79.8803903989771, 6.841183406732307], [79.88038421084762, 6.841156617072407], [79.8803216906636, 6.84091674565544], [79.88031085182816, 6.840879463039725], [79.88027097042074, 6.840749721014663], [79.88025548087927, 6.840701945443606], [79.88022832887404, 6.84062086948903], [79.88020818862657, 6.840562600962873], [79.88018862544769, 6.840507192691161], [79.88016383449423, 6.840438431210035], [79.8801491053419, 6.840398187579387], [79.88011966368246, 6.840318933143378], [79.88010818807597, 6.840288386169862], [79.8800740957105, 6.840198638779023], [79.88006490916568, 6.840174664439614], [79.88002616609421, 6.840074424093983], [79.88002437789537, 6.840069805131183], [79.87998821350234, 6.839976546108226], [79.8799861313834, 6.839971187132732], [79.87995254566887, 6.839884909432445], [79.87995009072263, 6.839878617128261], [79.87991908368653, 6.83979932075065], [79.87991614601722, 6.839791828077431], [79.87988771765959, 6.839719513022493], [79.87988413951999, 6.839710440349397], [79.87985828984083, 6.839645106617137], [79.87985383644912, 6.839633895434363], [79.8798305654484, 6.839575543024785], [79.87982487150964, 6.839561336577208], [79.87980417918737, 6.839509965490314], [79.87979664376971, 6.839491379144447], [79.87977911612622, 6.839448425447795], [79.87976377099663, 6.839410745059572], [79.87973609932311, 6.83934255481778], [79.87971448294238, 6.839288956734299], [79.87970317570763, 6.839260673730941], [79.87969881812307, 6.839248912330635], [79.87969661763798, 6.839249716046219], [79.87967074888272, 6.839169946127708], [79.87966905771691, 6.839165585421051], [79.87946198867002, 6.838709689849444], [79.8794589417762, 6.838703875568355], [79.8793234609504, 6.838463744152742], [79.87931905832865, 6.838456476297728], [79.87922640759459, 6.838310034087487], [79.87922064924486, 6.838301312658798], [79.87915395210356, 6.838203161980418], [79.87914683802586, 6.83819298697819], [79.87909673889772, 6.838122787391042], [79.87908826909204, 6.838111158815359], [79.87904933903843, 6.838058525865906], [79.87903951350478, 6.83804544371682], [79.87900842808129, 6.838004547543931], [79.8789972468197, 6.837990011821479], [79.87895296174436, 6.837933390212214], [79.87894164770529, 6.837919161974515], [79.87889564054618, 6.837862267779157], [79.87888419372959, 6.837848347026272], [79.8788364315339, 6.837791239102373], [79.87882485193987, 6.837777625834373], [79.87877530476759, 6.837720367117583], [79.87876359239606, 6.837707061334532], [79.87871223377641, 6.837649718849864], [79.8787003886274, 6.83763672055184], [79.87864719594901, 6.83757936529371], [79.87863521802252, 6.83756667448078], [79.87858017297603, 6.837509381304773], [79.87856806227207, 6.837496997977018], [79.87851115128788, 6.837439845436556], [79.87849890780642, 6.837427769594043], [79.87836766356236, 6.837303448394853], [79.87835103143573, 6.837288318646111], [79.87826731106749, 6.837214050125613], [79.87824629029566, 6.837195866470948], [79.87818838037767, 6.837146624658716], [79.87816297096067, 6.837125387098291], [79.87812057622746, 6.837090392105916], [79.87809077816529, 6.837066100639827], [79.87805841817612, 6.837039969492479], [79.87802423146876, 6.83701262412079], [79.87799872857784, 6.836992376125963], [79.87796015322529, 6.83696197684871], [79.87793954069673, 6.836945830432176], [79.87789657669902, 6.836912377249391], [79.87787957307695, 6.836899203008438], [79.87783222043404, 6.836862695920138], [79.87778162636631, 6.836824257741706], [79.87771162468039, 6.836771852175637], [79.87768512513611, 6.836752165369608], [79.87759247440712, 6.83668386132589], [79.87757617086577, 6.836671898591012], [79.87754744410562, 6.836650919664242], [79.87742373109467, 6.836333456850848], [79.87722753006041, 6.835946479728753], [79.87699443641888, 6.835580231045853], [79.8769577524304, 6.835533371847858], [79.87696193236111, 6.835494446025699], [79.87696609738103, 6.835453746271844], [79.87696930602976, 6.835421206359618], [79.87697666509783, 6.83534364494206], [79.87698132069326, 6.835297604117506], [79.87698844249465, 6.835228830045562], [79.87699730284282, 6.835144682726738], [79.8770078182489, 6.835046042731371], [79.87701993961028, 6.834933414068445], [79.87703363613257, 6.834807106365091], [79.87704901961341, 6.834666109711016], [79.8770629063169, 6.834538777769531], [79.877075121835, 6.834426708977771], [79.87708566901921, 6.834329877067874], [79.87709455286664, 6.834248235945009], [79.87709818277375, 6.834214829737589], [79.87710225420041, 6.834193470195176], [79.87710683851766, 6.834169039180311], [79.8771109934429, 6.834146577246421], [79.87711568957276, 6.834120818457798], [79.87711934410424, 6.83410050493262], [79.87712415204675, 6.834073418370236], [79.87712738816927, 6.834054960240561], [79.87713230792437, 6.834026545904416], [79.87713519106815, 6.834009700945047], [79.87714022263589, 6.833979958835133], [79.87714199678676, 6.833969394003701], [79.87714681521167, 6.833940486992337], [79.87714866853875, 6.833929279822626], [79.87715327382085, 6.833901207909807], [79.87715521098811, 6.833889298235666], [79.87715960312744, 6.833862061421393], [79.87716162903794, 6.833849381324941], [79.87716580803445, 6.833822979609209], [79.87716792779636, 6.83380945220958], [79.87717014220038, 6.833795176640298], [79.87717205452869, 6.833785575492121], [79.87718844932155, 6.833735522971196], [79.87719918333269, 6.833692587023111], [79.87727574261153, 6.833318554847314], [79.8773198106552, 6.832939392430383], [79.87732696666262, 6.832840997394359], [79.87733836705357, 6.832471405103938], [79.87732541666237, 6.832225862754188], [79.87732564745468, 6.832225852004926], [79.87732028044911, 6.832112250337381], [79.87730428790925, 6.831891229376953], [79.87729355389811, 6.831781205663838], [79.87728176741633, 6.831673934134331], [79.87727822943383, 6.831644986972819], [79.87727406747446, 6.831602726069776], [79.87726626225582, 6.831533112579648], [79.87727411422975, 6.831518047694164], [79.87727678375595, 6.831512764570146], [79.87732650845939, 6.831411166793689], [79.87732903123157, 6.831405841738979], [79.87737652460727, 6.831302176646033], [79.87737890062535, 6.8312968096606], [79.87742401360808, 6.831191243865867], [79.8774262428721, 6.831185834949664], [79.87746883746789, 6.831078549898403], [79.87747091997787, 6.831073099051398], [79.87751087104161, 6.830964289582198], [79.87751280679751, 6.830958796804349], [79.8775458679205, 6.830861398660663], [79.87756115829575, 6.830814577262335], [79.8775610784042, 6.830814551541376], [79.87759273634309, 6.830714437718804], [79.87759716691798, 6.830699776328809], [79.87760607232815, 6.830669929044884], [79.87761286494455, 6.830646867753174], [79.8776169554896, 6.83063289557253], [79.87762611014753, 6.830601434379101], [79.87762845920064, 6.830593332837956], [79.8776399759001, 6.830553471742808], [79.8776415002838, 6.830548183309918], [79.87765537902476, 6.83049992231305], [79.87767268890455, 6.830439537685217], [79.87769208298812, 6.830371712953871], [79.87771365711711, 6.830296119419452], [79.8777141728715, 6.830294087217914], [79.87778877366473, 6.830064300639431], [79.87779950767586, 6.830022706442507], [79.87781360469684, 6.829966568648758], [79.8778229969566, 6.829928105193325], [79.8778966373966, 6.829559250104384], [79.87790468790494, 6.829507592749406], [79.87795076861093, 6.829069947937633], [79.8779531879081, 6.828629924105933], [79.87791192224374, 6.828191805040881], [79.87782737335365, 6.827759855997185], [79.87770036435109, 6.827338282173496], [79.87753213171351, 6.826931187772436], [79.87732431324496, 6.826542536043479], [79.87707893213154, 6.826176110697686], [79.87679837724494, 6.82583547907002], [79.8764853798859, 6.825523957387947], [79.87614298719417, 6.825244578484535], [79.87577453248332, 6.825000062270422], [79.87570386691, 6.824958020390728], [79.87568401206997, 6.824946276743614], [79.87565415810172, 6.824928722022379], [79.87560254565744, 6.824898831497896], [79.87557392162772, 6.824882506724046], [79.87551597021475, 6.82485002056757], [79.87548988992206, 6.824835652529334], [79.87541744519314, 6.824796600537844], [79.87539390863745, 6.824784189235324], [79.87530088282458, 6.824736506496754], [79.8752798900059, 6.824726051930075], [79.87515633495735, 6.824666847988349], [79.87513788587573, 6.824658350157698], [79.87496648986343, 6.824583672065437], [79.87495058451876, 6.824577130971085], [79.87469877351748, 6.82448225175072], [79.87468541190988, 6.824477667393088], [79.87428576890834, 6.824360846552885], [79.87427495103773, 6.824358218932625], [79.873991342046, 6.824306179991944], [79.87401158651001, 6.824273973048414], [79.87401115626653, 6.824273706426761], [79.87407139724925, 6.824184840204995], [79.87427907364521, 6.823802921296039], [79.87444837673922, 6.823402766288491], [79.8745777029784, 6.822988165206464], [79.87466582745027, 6.82256304490847], [79.87471191548465, 6.822131431895436], [79.87471553055909, 6.821697414174574], [79.87467663843341, 6.821265102540314], [79.8745956074741, 6.82083859163898], [79.87447320516524, 6.82042192118599], [79.87431059083929, 6.820019037702939], [79.87410930469652, 6.819633757136986], [79.87387125321706, 6.819269728716658], [79.87359869110354, 6.818930400386424], [79.87329419992585, 6.818618986147566], [79.87296066366972, 6.818338435614669], [79.87260124142108, 6.818091406076221], [79.87221933744493, 6.817880237323992], [79.87181856894168, 6.817706929489698], [79.87140273178696, 6.817573124098932], [79.87097576457907, 6.817480088521892], [79.8709678869607, 6.817479155945327], [79.87094700330579, 6.81745803766769], [79.87093352988556, 6.817444564159093], [79.87090804180549, 6.817419279548219], [79.8708922342969, 6.817403723515172], [79.87087290424563, 6.817384815557801], [79.87085476264868, 6.817367177000317], [79.87083960172785, 6.817352505800756], [79.87081912604253, 6.817332784718844], [79.8708069178491, 6.817321070823708], [79.87078410807541, 6.81729926721738], [79.87073803534457, 6.817255845900925], [79.87071533738352, 6.817234755102892], [79.87066688846261, 6.817190394179501], [79.87064430231418, 6.817170016189851], [79.87059333669175, 6.817124731844388], [79.87057086235592, 6.81710506666322], [79.87051723236932, 6.817058882566818], [79.8704948698461, 6.817039930194229], [79.87043842077149, 6.816992878643252], [79.87041617006089, 6.816974639079346], [79.87035674032819, 6.816926762249175], [79.87033460143022, 6.816909235494062], [79.87027202301265, 6.816860586825543], [79.8702499959273, 6.816843772879339], [79.8701840949062, 6.816794418568616], [79.87016217963344, 6.81677831743144], [79.87011418895266, 6.816743544025496], [79.87009279081326, 6.816728253534746], [79.8700409128591, 6.816691733770504], [79.87002003185304, 6.816677253926236], [79.86996381856163, 6.816638900233838], [79.86994345468895, 6.81662523103613], [79.86988239352215, 6.816584960792317], [79.86986254678278, 6.816572102241247], [79.86979605030271, 6.816529842345193], [79.86977672069672, 6.816517794440846], [79.86970411443758, 6.816473487688935], [79.86968530196495, 6.816462250431405], [79.86960581058487, 6.816415864427869], [79.86958751524556, 6.816405437817263], [79.86950024685598, 6.816356977263733], [79.86948246865003, 6.816347361300163], [79.8694709034865, 6.816341127673629], [79.86945414557067, 6.816332126684356], [79.86944101443507, 6.816325101665316], [79.86942527680937, 6.816316715650344], [79.86941023916465, 6.816308739092057], [79.86939552182908, 6.816300968051387], [79.86937813088845, 6.81629183375228], [79.86936443384296, 6.816284677685914], [79.86934409177903, 6.816274115723434], [79.8693314150237, 6.816267574631377], [79.86930730336616, 6.816255224921301], [79.86929564690095, 6.816249298803558], [79.86926661486689, 6.81623467060712], [79.86925597869177, 6.816229359463699], [79.86922035621292, 6.816211767318076], [79.86921074032793, 6.816207071148983], [79.86919350987479, 6.81619870152867], [79.8691827479105, 6.816193502198512], [79.86916875531257, 6.816186771796546], [79.86915684726897, 6.816181069305325], [79.8691452586881, 6.816175540082992], [79.86913220456519, 6.816169334430709], [79.86912244972007, 6.816164711502533], [79.86910824951784, 6.816158002689193], [79.86909992522139, 6.816154080309811], [79.86908457893983, 6.81614686833541], [79.8690773921066, 6.816143498612727], [79.86906089974575, 6.816135783477265], [79.86905463219946, 6.816132857376457], [79.8690369937593, 6.816124639079937], [79.86903163548077, 6.816122146766499], [79.86896750834137, 6.816092370230266], [79.86892821678936, 6.816074113395641], [79.86886702310488, 6.816042378846944], [79.86886221516237, 6.816040058715742], [79.86862859357142, 6.815935394741336], [79.86862361791, 6.815933333178522], [79.86838919295313, 6.815843760646152], [79.8683840495728, 6.815841957651896], [79.86824809635505, 6.815797487161294], [79.86808424451104, 6.81570415049649], [79.86807918499017, 6.81570146697168], [79.86786147898052, 6.815593420801823], [79.86785598618575, 6.815590877043354], [79.86765617603001, 6.815504143221126], [79.86765024996136, 6.815501739229171], [79.86764241537642, 6.815498569566797], [79.86763398051221, 6.815495166240956], [79.86762973049534, 6.815493453940499], [79.86761878683554, 6.81548905128077], [79.8676026668663, 6.81548257712779], [79.86758487545264, 6.815475441341238], [79.86756507180796, 6.815467506081214], [79.8675430779759, 6.815458699537944], [79.86751879195785, 6.815448980623043], [79.86749215109712, 6.815438324129242], [79.86745951757584, 6.815425417645716], [79.86743031351818, 6.815413998683431], [79.86740391945554, 6.815403773800611], [79.86737150777346, 6.815391334539108], [79.8673497224631, 6.815383038081057], [79.86731410315659, 6.815369578520339], [79.86729581788694, 6.81536271421208], [79.86725699095602, 6.81534823435216], [79.86724142585562, 6.815342462201659], [79.86719939130029, 6.815326962042543], [79.86718598195388, 6.815322041469363], [79.86714073977413, 6.81530552101106], [79.86712906768942, 6.815301277074151], [79.86708061788524, 6.815283736316655], [79.86707036622718, 6.815280038804493], [79.86702101826525, 6.815262307563468], [79.8669822225835, 6.815248320203867], [79.86692384696376, 6.815227124369796], [79.86688369134933, 6.815212300235109], [79.86688260894275, 6.815215190969172], [79.86636156202809, 6.81504946172883], [79.86635267292512, 6.815047281363119], [79.86597246282345, 6.814971149701925], [79.86596027524831, 6.814969248869978], [79.86573428537703, 6.814939815027422], [79.86571879932971, 6.814938193729486], [79.86557010238414, 6.814925102872296], [79.86555131786463, 6.81492376110845], [79.8654463729087, 6.814917489885665], [79.86542428991704, 6.814916427655938], [79.86534638131897, 6.814913352874383], [79.86532099985513, 6.81491257017879], [79.86526092210516, 6.814911116923622], [79.86523224216916, 6.81491061376217], [79.8651845261555, 6.814910028372516], [79.86515254774733, 6.814909804745206], [79.86466105714166, 6.814933130055939], [79.86417508537306, 6.815009697452403], [79.86370046467486, 6.815138588010506], [79.86366854217299, 6.815149154396], [79.86328864672718, 6.815294201684444], [79.86292353471805, 6.815472800028644], [79.86257620424186, 6.815683482841994], [79.86254433764628, 6.815704839216385], [79.86218439581793, 6.815973074142593], [79.86185329426415, 6.816275727481377], [79.86182148357487, 6.816307873818161], [79.86140504332205, 6.816793834906824], [79.8613732885391, 6.8168367711879], [79.86111805999798, 6.817222168975308], [79.86108636112134, 6.817275895190071], [79.86092369128127, 6.817577574897614], [79.86089204831093, 6.817642091039978], [79.8607838777863, 6.81788009614976], [79.86075229072227, 6.817955402216145], [79.86067748604775, 6.818145937376686], [79.86064595489003, 6.818232033364902], [79.86064309374309, 6.81823986852749], [79.86061343544668, 6.818321324276051], [79.86061024161603, 6.818330124904779], [79.86058245618095, 6.818406940413683], [79.86057886830288, 6.818416896533516], [79.8605529557291, 6.818489071802758], [79.86054889643961, 6.818500426767027], [79.86052485672717, 6.8185679617966], [79.86052022712539, 6.818581032372081], [79.86049806027427, 6.818643927161979], [79.86049273193099, 6.818659133441696], [79.86047243794118, 6.81871738799192], [79.86046624111127, 6.818735299198782], [79.86044781998277, 6.818788913509312], [79.86044052576945, 6.818810320495474], [79.8604239775023, 6.818859294566307], [79.86041653508111, 6.818881513424402], [79.86039995886077, 6.818931437902973], [79.86039288172529, 6.81895293608317], [79.8603762775518, 6.819003810969464], [79.86036954233438, 6.819024621311407], [79.86035291020778, 6.819076446605417], [79.86034649535456, 6.81909660008791], [79.86032983527475, 6.819149375789626], [79.86032372087321, 6.819168901680264], [79.86030703284025, 6.819222627789673], [79.86030120048602, 6.819241553714755], [79.86028448449993, 6.819296230231845], [79.86027891715648, 6.819314582307091], [79.86026217321724, 6.81937020923186], [79.8602568550999, 6.81938801215041], [79.8602416797135, 6.819439203922032], [79.86024114071344, 6.819441005397663], [79.86022980768472, 6.819465564083488], [79.86018685619594, 6.819557637780962], [79.86013545279373, 6.819666924223489], [79.86007410385339, 6.819796510918806], [79.86007169103961, 6.819801615858755], [79.86001167561793, 6.819928803211901], [79.86000896757297, 6.819934552866796], [79.85995266992079, 6.820054304650177], [79.85994960898294, 6.820060829359393], [79.85989702910024, 6.820173145573], [79.85989354156737, 6.820180613334831], [79.85984467945418, 6.820285493978663], [79.85984066960425, 6.820294125092295], [79.85979552526048, 6.820391570166342], [79.85979086647312, 6.82040165931001], [79.85974943989889, 6.82049166881427], [79.85974396114042, 6.820503619278009], [79.85970625233567, 6.820586193212467], [79.8596997168682, 6.820600571999035], [79.85966572583294, 6.820675710363682], [79.85963460921322, 6.820744503572842], [79.85960643698644, 6.820806796962688], [79.85958120255889, 6.820862605135208], [79.85955889582483, 6.820911950477631], [79.85953950044386, 6.820954869205523], [79.85952298817656, 6.820991423943748], [79.85950930562744, 6.821021733201155], [79.85949833823032, 6.821046051555168], [79.85949071628109, 6.821063047416528], [79.85947780192394, 6.821092006993264], [79.8594728733684, 6.821103099651187], [79.85945733141477, 6.821138208944177], [79.85945388320287, 6.821146018718749], [79.85943571365277, 6.821187277727994], [79.85943316599531, 6.821193074084092], [79.85941236884874, 6.821240482809587], [79.85941040973265, 6.821244955446621], [79.85938698498958, 6.82129851388837], [79.85935937926232, 6.821361777947526], [79.85932943745644, 6.821430530649141], [79.8592970845479, 6.821504940676197], [79.85929352472459, 6.82151315090079], [79.85926277625516, 6.82158426398585], [79.859259136631, 6.82159270543616], [79.85922894722468, 6.82166292401577], [79.8592252252656, 6.821671606474471], [79.85919559492235, 6.82174093054863], [79.85919178799583, 6.82174986435692], [79.85916271671564, 6.821818293925622], [79.85915882209117, 6.821827490012847], [79.85913030987408, 6.821895025076086], [79.85912632471634, 6.821904495010754], [79.85909837156234, 6.821971135568531], [79.85909429293187, 6.821980891594358], [79.85906689884095, 6.822046637646666], [79.85906272368736, 6.822056692741036], [79.85903588865949, 6.822121544287874], [79.85899878660074, 6.822214137511335], [79.8589698271332, 6.822288828588769], [79.85894237072617, 6.822361524044686], [79.85891128681891, 6.822446054652428], [79.85889022605556, 6.822504591005496], [79.8588570177086, 6.822598961143348], [79.85884039439661, 6.822647080196445], [79.85880506160994, 6.822751289864273], [79.8587916322037, 6.822791529685996], [79.85875417497734, 6.822905578883695], [79.85874311502701, 6.822939719140175], [79.85870353336094, 6.823063607867676], [79.85869427632633, 6.823092932092327], [79.85865257022053, 6.823226660349568], [79.8586447148271, 6.823252116888204], [79.85860088428161, 6.823395684675139], [79.85857709988693, 6.823476319228401], [79.8585392513164, 6.823609264765732], [79.85851300348861, 6.823705564031752], [79.85848113689305, 6.823827887319048], [79.8584523916935, 6.823944702650222], [79.85842650707289, 6.824056403686966], [79.85839559006116, 6.824200703423561], [79.8583756874155, 6.824301782209133], [79.85834376708902, 6.824483850816781], [79.85832984641836, 6.824574307350446], [79.85830004525808, 6.824809749077899], [79.85829210656233, 6.82488958335883], [79.85827214062544, 6.825202645570858], [79.85827018390466, 6.825271857598283], [79.85827882938854, 6.825700515730632], [79.85828285464272, 6.825759105504288], [79.85828647648458, 6.825807882681937], [79.85829111670814, 6.825866025199489], [79.85829533793101, 6.8259154286488], [79.85830059312397, 6.82597312391026], [79.8583054358198, 6.826023147030582], [79.85831130598214, 6.826080395035967], [79.8583167924226, 6.826131030059192], [79.85832327755433, 6.826187830808529], [79.8583294301393, 6.826239068745707], [79.858335063277, 6.826283778952756], [79.85832897151262, 6.826372414178778], [79.8583215943478, 6.826472853658674], [79.85831451615269, 6.826562685632502], [79.8583078459306, 6.826641255181175], [79.85830173751185, 6.826707702914733], [79.85829641347445, 6.826760878804283], [79.85829220529911, 6.826799208729424], [79.85828962360665, 6.82682048066241], [79.85828657869662, 6.826842955025848], [79.8582812049023, 6.826880511592973], [79.8582753581924, 6.826919346108899], [79.85826902707521, 6.826959443242449], [79.85826220070747, 6.827000787909393], [79.85825486886168, 6.827043365287046], [79.85824702189763, 6.827087160807364], [79.85823865072851, 6.827132160188575], [79.8582270684681, 6.827192243268887], [79.85822250780237, 6.827216257926016], [79.85820925800736, 6.827287091338823], [79.85820437913975, 6.827313620274499], [79.85819219156458, 6.827381043392979], [79.85818696957274, 6.827410499799008], [79.85817584421744, 6.827474512623143], [79.85817025512807, 6.827507404578151], [79.85816019199264, 6.827568007107927], [79.8581542152419, 6.827604966154055], [79.85814521432631, 6.827662158389456], [79.85813883706263, 6.827703978985301], [79.8581308983669, 6.827757760926306], [79.85812412294752, 6.827805455781841], [79.85811724647164, 6.827855827428426], [79.85811010355286, 6.827910706677975], [79.8581076359254, 6.827930637538284], [79.85810712704286, 6.827934370673653], [79.85810443638853, 6.827952745034863], [79.85809968637696, 6.827983431232554], [79.85809298741079, 6.828024830904657], [79.85808443343532, 6.828075811148869], [79.85807410261226, 6.828135546728], [79.85806205946332, 6.82820342237927], [79.85805265481551, 6.82825527511901], [79.85804745587816, 6.828281783123815], [79.85804262563902, 6.828304624961262], [79.85803827476308, 6.828323756423573], [79.85803452147557, 6.82833913677675], [79.85803149179318, 6.828350729655987], [79.8580293196939, 6.82835850407036], [79.85802814720576, 6.828362435527938], [79.85801854619235, 6.828392635163063], [79.85800028879221, 6.828449212278906], [79.85798271988378, 6.828502818033312], [79.85796587963542, 6.828553378550523], [79.85794981339573, 6.828600812351479], [79.85793457253153, 6.828645029353599], [79.85792021541694, 6.828685929747053], [79.85790680861238, 6.828723402710349], [79.85788928504535, 6.828771417435835], [79.85788476397376, 6.828783862811675], [79.85786234554423, 6.82884586310257], [79.85785795595375, 6.828858058580695], [79.85783548161791, 6.828920785654289], [79.85783121837638, 6.828932738371828], [79.85780868813428, 6.828996192228111], [79.85780454636068, 6.829007909054607], [79.85778196021222, 6.829072089693577], [79.85777793525159, 6.829083577273349], [79.85775529319685, 6.829148484695001], [79.85775138061975, 6.829159749421345], [79.8577286826587, 6.829225383625678], [79.85772487824126, 6.829236431672902], [79.8577021243739, 6.829302792659909], [79.85769842408871, 6.829313629985562], [79.857675614315, 6.829380717755239], [79.85763708172256, 6.829499508602979], [79.85761376879212, 6.829574982325128], [79.85758493144662, 6.829672273651411], [79.85756111535943, 6.829756133325637], [79.85753893239833, 6.829837154704052], [79.85751461315432, 6.829929400330077], [79.85749715003185, 6.829997847217988], [79.85747232763109, 6.83009847879562], [79.857458307282, 6.830157024951173], [79.85743298172446, 6.830266042480271], [79.85742153382022, 6.830316664367659], [79.85739570510593, 6.830434067848112], [79.85738621988851, 6.830478254914713], [79.85735988801744, 6.830604044346437], [79.85735192783899, 6.830642938600625], [79.85733015655994, 6.830751795196539], [79.85731340796876, 6.830830743344698], [79.85729697434437, 6.830903796089253], [79.85728099368485, 6.830970806044281], [79.85726562139392, 6.831031617156792], [79.8572510326087, 6.831086064717922], [79.85723742483326, 6.83113397554872], [79.85722502089469, 6.831175168468309], [79.8572127760618, 6.831213514237129], [79.85720143970899, 6.831247191059187], [79.85719424732, 6.831267422616339], [79.85717265086913, 6.831309920208386], [79.8571396661474, 6.831376225363545], [79.85710110960294, 6.831455700959325], [79.85707181469755, 6.831517645394154], [79.8570285488822, 6.831611964866166], [79.85700294379312, 6.831669548580333], [79.85695434279233, 6.83178307203287], [79.85693242751958, 6.831836295025954], [79.8568779574999, 6.831975159274083], [79.85685973204349, 6.832024021545561], [79.85679922852178, 6.83219706225736], [79.8567846928817, 6.832241563806587], [79.85671902179763, 6.832461790195399], [79.85670817597389, 6.832501931021567], [79.85664079886836, 6.832788853888746], [79.85663364286091, 6.832824633990882], [79.85661197829572, 6.832941020507262], [79.85660633175861, 6.832973781655308], [79.8565842060943, 6.833115900100775], [79.8565800690275, 6.833145642294595], [79.85655908876477, 6.833322446274154], [79.8565564611683, 6.833349169513608], [79.85654012596565, 6.83357385851557], [79.85653900783949, 6.833597562800517], [79.8565348820522, 6.833889959082723], [79.85653527339636, 6.833910644413066], [79.85655989448234, 6.83430061910641], [79.85656179529681, 6.834318285482238], [79.8566517907477, 6.834849004580388], [79.8566552010325, 6.834863652002313], [79.85675723742338, 6.835229991357277], [79.8568903207381, 6.835586373145134], [79.85689524049322, 6.835598001615188], [79.85702181855262, 6.835871032126706], [79.85702704579242, 6.835881374750413], [79.85720153611867, 6.8361945941312], [79.85720707084315, 6.836203650909265], [79.85744767772862, 6.836557910047397], [79.8574535199378, 6.836565680980843], [79.8577827178204, 6.836955110093759], [79.85778886751427, 6.836961595184013], [79.85793140910984, 6.83709303111578]]]}}], "name": "access_aoi_500m"}