{"type":"FeatureCollection","features":[{"type":"Feature","properties":{"id":108,"FSI":0,"GSI":0,"OSR":null,"Density_V":0,"FSI_Norm":0,"GSI_Norm":0,"Area_build":null,"Floor_Area":null,"Hex_area":152.0257},"geometry":{"type":"MultiPolygon","coordinates":[[[[79.863545,6.832004],[79.863595,6.832137],[79.86365,6.832268],[79.863682,6.83234],[79.863716,6.832281],[79.863529,6.831956],[79.863545,6.832004]]]]}},{"type":"Feature","properties":{"id":109,"FSI":2.3942,"GSI":0.5964,"OSR":0.1686,"Density_V":0.1122,"FSI_Norm":0.0474,"GSI_Norm":0.177,"Area_build":1376.6488,"Floor_Area":5526.259,"Hex_area":2308.1793},"geometry":{"type":"MultiPolygon","coordinates":[[[[79.863316,6.831039],[79.863335,6.831179],[79.863359,6.831319],[79.863388,6.831458],[79.863421,6.831596],[79.863458,6.831733],[79.863476,6.831793],[79.863718,6.831377],[79.863458,6.830924],[79.863303,6.830924],[79.863316,6.831039]]]]}},{"type":"Feature","properties":{"id":110,"FSI":3.9113,"GSI":0.7359,"OSR":0.0675,"Density_V":0.1479,"FSI_Norm":0.0774,"GSI_Norm":0.2184,"Area_build":2441.0997,"Floor_Area":12974.185,"Hex_area":3317.1148},"geometry":{"type":"MultiPolygon","coordinates":[[[[79.863302,6.830046],[79.86329,6.830188],[79.863283,6.83033],[79.863281,6.830472],[79.863283,6.830614],[79.863289,6.830756],[79.8633,6.830897],[79.863303,6.830924],[79.863458,6.830924],[79.86372,6.830473],[79.863459,6.83002],[79.863305,6.83002],[79.863302,6.830046]]]]}},{"type":"Feature","properties":{"id":111,"FSI":1.6896,"GSI":0.3438,"OSR":0.3884,"Density_V":0.0677,"FSI_Norm":0.0334,"GSI_Norm":0.102,"Area_build":793.4898,"Floor_Area":3899.845,"Hex_area":2308.1806},"geometry":{"type":"MultiPolygon","coordinates":[[[[79.863463,6.829211],[79.863425,6.829348],[79.863392,6.829486],[79.863363,6.829625],[79.863338,6.829765],[79.863318,6.829905],[79.863305,6.83002],[79.863459,6.83002],[79.863721,6.829568],[79.863481,6.829151],[79.863463,6.829211]]]]}},{"type":"Feature","properties":{"id":112,"FSI":0,"GSI":0,"OSR":null,"Density_V":0,"FSI_Norm":0,"GSI_Norm":0,"Area_build":null,"Floor_Area":null,"Hex_area":152.0269},"geometry":{"type":"MultiPolygon","coordinates":[[[[79.863656,6.828677],[79.863602,6.828808],[79.863551,6.828941],[79.863535,6.828988],[79.863723,6.828664],[79.863689,6.828605],[79.863656,6.828677]]]]}},{"type":"Feature","properties":{"id":127,"FSI":50.5527,"GSI":3.3702,"OSR":-0.0469,"Density_V":1,"FSI_Norm":1,"GSI_Norm":1,"Area_build":303.7141,"Floor_Area":4555.711,"Hex_area":90.118},"geometry":{"type":"MultiPolygon","coordinates":[[[[79.864225,6.833245],[79.864314,6.833356],[79.864377,6.83343],[79.864237,6.833186],[79.864181,6.833186],[79.864225,6.833245]]]]}},{"type":"Feature","properties":{"id":128,"FSI":3.0647,"GSI":0.5694,"OSR":0.1405,"Density_V":0.1148,"FSI_Norm":0.0606,"GSI_Norm":0.169,"Area_build":2966.5813,"Floor_Area":15967.68,"Hex_area":5210.1813},"geometry":{"type":"MultiPolygon","coordinates":[[[[79.863708,6.832398],[79.86377,6.832525],[79.863836,6.832651],[79.863907,6.832774],[79.863981,6.832896],[79.864058,6.833014],[79.86414,6.833131],[79.864181,6.833186],[79.864237,6.833186],[79.864499,6.832735],[79.864238,6.832282],[79.863716,6.832281],[79.863682,6.83234],[79.863708,6.832398]]]]}},{"type":"Feature","properties":{"id":129,"FSI":1.6979,"GSI":0.3713,"OSR":0.3703,"Density_V":0.0719,"FSI_Norm":0.0336,"GSI_Norm":0.1102,"Area_build":3203.6542,"Floor_Area":14650.582,"Hex_area":8628.8997},"geometry":{"type":"MultiPolygon","coordinates":[[[[79.8635,6.831869],[79.863529,6.831956],[79.863716,6.832281],[79.864238,6.832282],[79.8645,6.83183],[79.86424,6.831378],[79.863718,6.831377],[79.863476,6.831793],[79.8635,6.831869]]]]}},{"type":"Feature","properties":{"id":130,"FSI":3.3349,"GSI":0.658,"OSR":0.1025,"Density_V":0.1306,"FSI_Norm":0.066,"GSI_Norm":0.1952,"Area_build":5698.1666,"Floor_Area":28878.011,"Hex_area":8659.4059},"geometry":{"type":"MultiPolygon","coordinates":[[[[79.863458,6.830924],[79.863718,6.831377],[79.86424,6.831378],[79.864502,6.830926],[79.864242,6.830474],[79.86372,6.830473],[79.863458,6.830924]]]]}},{"type":"Feature","properties":{"id":131,"FSI":3.2309,"GSI":0.6168,"OSR":0.1186,"Density_V":0.1235,"FSI_Norm":0.0639,"GSI_Norm":0.183,"Area_build":5340.7127,"Floor_Area":27977.417,"Hex_area":8659.4059},"geometry":{"type":"MultiPolygon","coordinates":[[[[79.863459,6.83002],[79.86372,6.830473],[79.864242,6.830474],[79.864504,6.830022],[79.864244,6.829569],[79.863721,6.829568],[79.863459,6.83002]]]]}},{"type":"Feature","properties":{"id":132,"FSI":1.127,"GSI":0.1984,"OSR":0.7113,"Density_V":0.0406,"FSI_Norm":0.0223,"GSI_Norm":0.0589,"Area_build":1711.9532,"Floor_Area":9724.962,"Hex_area":8628.9001},"geometry":{"type":"MultiPolygon","coordinates":[[[[79.863505,6.829075],[79.863481,6.829151],[79.863721,6.829568],[79.864244,6.829569],[79.864506,6.829118],[79.864245,6.828665],[79.863723,6.828664],[79.863535,6.828988],[79.863505,6.829075]]]]}},{"type":"Feature","properties":{"id":133,"FSI":1.2056,"GSI":0.2836,"OSR":0.5942,"Density_V":0.054,"FSI_Norm":0.0238,"GSI_Norm":0.0841,"Area_build":1477.6981,"Floor_Area":6281.569,"Hex_area":5210.185},"geometry":{"type":"MultiPolygon","coordinates":[[[[79.86415,6.827816],[79.864068,6.827932],[79.86399,6.828051],[79.863915,6.828172],[79.863845,6.828295],[79.863778,6.82842],[79.863715,6.828548],[79.863689,6.828605],[79.863723,6.828664],[79.864245,6.828665],[79.864507,6.828214],[79.864247,6.827761],[79.864191,6.827761],[79.86415,6.827816]]]]}},{"type":"Feature","properties":{"id":134,"FSI":2.4759,"GSI":0.6143,"OSR":0.1558,"Density_V":0.1157,"FSI_Norm":0.049,"GSI_Norm":0.1823,"Area_build":55.3579,"Floor_Area":223.126,"Hex_area":90.1194},"geometry":{"type":"MultiPolygon","coordinates":[[[[79.864324,6.827592],[79.864235,6.827703],[79.864191,6.827761],[79.864247,6.827761],[79.864388,6.827518],[79.864324,6.827592]]]]}},{"type":"Feature","properties":{"id":146,"FSI":2.9581,"GSI":0.7047,"OSR":0.0998,"Density_V":0.1338,"FSI_Norm":0.0585,"GSI_Norm":0.2091,"Area_build":1394.801,"Floor_Area":5854.622,"Hex_area":1979.1561},"geometry":{"type":"MultiPolygon","coordinates":[[[[79.8646,6.833671],[79.864702,6.83377],[79.864807,6.833866],[79.864914,6.833958],[79.865025,6.834047],[79.865139,6.834133],[79.865222,6.834192],[79.86528,6.834092],[79.865019,6.83364],[79.864569,6.833639],[79.8646,6.833671]]]]}},{"type":"Feature","properties":{"id":147,"FSI":3.2815,"GSI":0.683,"OSR":0.0966,"Density_V":0.1338,"FSI_Norm":0.0649,"GSI_Norm":0.2027,"Area_build":5855.9967,"Floor_Area":28134.089,"Hex_area":8573.6437},"geometry":{"type":"MultiPolygon","coordinates":[[[[79.864406,6.833464],[79.864501,6.833569],[79.864569,6.833639],[79.865019,6.83364],[79.865281,6.833188],[79.865021,6.832736],[79.864499,6.832735],[79.864237,6.833186],[79.864377,6.83343],[79.864406,6.833464]]]]}},{"type":"Feature","properties":{"id":148,"FSI":2.2608,"GSI":0.5117,"OSR":0.216,"Density_V":0.0982,"FSI_Norm":0.0447,"GSI_Norm":0.1518,"Area_build":4431.2509,"Floor_Area":19577.279,"Hex_area":8659.4097},"geometry":{"type":"MultiPolygon","coordinates":[[[[79.864238,6.832282],[79.864499,6.832735],[79.865021,6.832736],[79.865283,6.832284],[79.865023,6.831831],[79.8645,6.83183],[79.864238,6.832282]]]]}},{"type":"Feature","properties":{"id":149,"FSI":2.4458,"GSI":0.5625,"OSR":0.1789,"Density_V":0.1077,"FSI_Norm":0.0484,"GSI_Norm":0.1669,"Area_build":4871.2676,"Floor_Area":21179.249,"Hex_area":8659.4097},"geometry":{"type":"MultiPolygon","coordinates":[[[[79.86424,6.831378],[79.8645,6.83183],[79.865023,6.831831],[79.865285,6.83138],[79.865024,6.830927],[79.864502,6.830926],[79.86424,6.831378]]]]}},{"type":"Feature","properties":{"id":150,"FSI":2.7589,"GSI":0.5435,"OSR":0.1655,"Density_V":0.108,"FSI_Norm":0.0546,"GSI_Norm":0.1613,"Area_build":4705.9821,"Floor_Area":23890.481,"Hex_area":8659.4096},"geometry":{"type":"MultiPolygon","coordinates":[[[[79.864242,6.830474],[79.864502,6.830926],[79.865024,6.830927],[79.865286,6.830476],[79.865026,6.830023],[79.864504,6.830022],[79.864242,6.830474]]]]}},{"type":"Feature","properties":{"id":151,"FSI":2.367,"GSI":0.439,"OSR":0.237,"Density_V":0.0886,"FSI_Norm":0.0468,"GSI_Norm":0.1303,"Area_build":3801.7377,"Floor_Area":20496.951,"Hex_area":8659.4096},"geometry":{"type":"MultiPolygon","coordinates":[[[[79.864244,6.829569],[79.864504,6.830022],[79.865026,6.830023],[79.865288,6.829571],[79.865028,6.829119],[79.864506,6.829118],[79.864244,6.829569]]]]}},{"type":"Feature","properties":{"id":152,"FSI":1.8526,"GSI":0.3552,"OSR":0.3481,"Density_V":0.071,"FSI_Norm":0.0366,"GSI_Norm":0.1054,"Area_build":3075.7572,"Floor_Area":16042.36,"Hex_area":8659.4097},"geometry":{"type":"MultiPolygon","coordinates":[[[[79.864245,6.828665],[79.864506,6.829118],[79.865028,6.829119],[79.86529,6.828667],[79.86503,6.828215],[79.864507,6.828214],[79.864245,6.828665]]]]}},{"type":"Feature","properties":{"id":153,"FSI":2.3063,"GSI":0.5279,"OSR":0.2047,"Density_V":0.1011,"FSI_Norm":0.0456,"GSI_Norm":0.1566,"Area_build":4525.9643,"Floor_Area":19773.653,"Hex_area":8573.645},"geometry":{"type":"MultiPolygon","coordinates":[[[[79.864513,6.827379],[79.864417,6.827484],[79.864388,6.827518],[79.864247,6.827761],[79.864507,6.828214],[79.86503,6.828215],[79.865292,6.827763],[79.865031,6.82731],[79.864581,6.82731],[79.864513,6.827379]]]]}},{"type":"Feature","properties":{"id":154,"FSI":2.1045,"GSI":0.4267,"OSR":0.2724,"Density_V":0.0841,"FSI_Norm":0.0416,"GSI_Norm":0.1266,"Area_build":844.4159,"Floor_Area":4165.129,"Hex_area":1979.1609},"geometry":{"type":"MultiPolygon","coordinates":[[[[79.865152,6.826818],[79.865039,6.826903],[79.864928,6.826991],[79.864819,6.827083],[79.864714,6.827179],[79.864612,6.827277],[79.864581,6.82731],[79.865031,6.82731],[79.865293,6.826859],[79.865236,6.826759],[79.865152,6.826818]]]]}},{"type":"Feature","properties":{"id":166,"FSI":4.5556,"GSI":0.8574,"OSR":0.0313,"Density_V":0.1723,"FSI_Norm":0.0901,"GSI_Norm":0.2544,"Area_build":2393.0264,"Floor_Area":12714.176,"Hex_area":2790.9039},"geometry":{"type":"MultiPolygon","coordinates":[[[[79.865255,6.834215],[79.865373,6.834293],[79.865494,6.834367],[79.865618,6.834438],[79.865743,6.834505],[79.865871,6.834567],[79.866,6.834626],[79.866013,6.834631],[79.866062,6.834546],[79.865802,6.834093],[79.86528,6.834092],[79.865222,6.834192],[79.865255,6.834215]]]]}},{"type":"Feature","properties":{"id":167,"FSI":3.1407,"GSI":0.701,"OSR":0.0952,"Density_V":0.1351,"FSI_Norm":0.0621,"GSI_Norm":0.208,"Area_build":6069.9237,"Floor_Area":27196.615,"Hex_area":8659.4133},"geometry":{"type":"MultiPolygon","coordinates":[[[[79.865019,6.83364],[79.86528,6.834092],[79.865802,6.834093],[79.866064,6.833642],[79.865804,6.833189],[79.865281,6.833188],[79.865019,6.83364]]]]}},{"type":"Feature","properties":{"id":168,"FSI":2.6191,"GSI":0.5407,"OSR":0.1754,"Density_V":0.1061,"FSI_Norm":0.0518,"GSI_Norm":0.1604,"Area_build":4682.163,"Floor_Area":22680.236,"Hex_area":8659.4134},"geometry":{"type":"MultiPolygon","coordinates":[[[[79.865021,6.832736],[79.865281,6.833188],[79.865804,6.833189],[79.866066,6.832738],[79.865805,6.832285],[79.865283,6.832284],[79.865021,6.832736]]]]}},{"type":"Feature","properties":{"id":169,"FSI":2.1664,"GSI":0.5416,"OSR":0.2116,"Density_V":0.1018,"FSI_Norm":0.0429,"GSI_Norm":0.1607,"Area_build":4690.0866,"Floor_Area":18759.851,"Hex_area":8659.4134},"geometry":{"type":"MultiPolygon","coordinates":[[[[79.865023,6.831831],[79.865283,6.832284],[79.865805,6.832285],[79.866067,6.831833],[79.865807,6.831381],[79.865285,6.83138],[79.865023,6.831831]]]]}},{"type":"Feature","properties":{"id":170,"FSI":4.0933,"GSI":0.7282,"OSR":0.0664,"Density_V":0.1485,"FSI_Norm":0.081,"GSI_Norm":0.2161,"Area_build":6305.8106,"Floor_Area":35445.144,"Hex_area":8659.4133},"geometry":{"type":"MultiPolygon","coordinates":[[[[79.865024,6.830927],[79.865285,6.83138],[79.865807,6.831381],[79.866069,6.830929],[79.865809,6.830477],[79.865286,6.830476],[79.865024,6.830927]]]]}},{"type":"Feature","properties":{"id":171,"FSI":2.4655,"GSI":0.5241,"OSR":0.193,"Density_V":0.1022,"FSI_Norm":0.0488,"GSI_Norm":0.1555,"Area_build":4538.5184,"Floor_Area":21349.526,"Hex_area":8659.4134},"geometry":{"type":"MultiPolygon","coordinates":[[[[79.865026,6.830023],[79.865286,6.830476],[79.865809,6.830477],[79.866071,6.830025],[79.865811,6.829572],[79.865288,6.829571],[79.865026,6.830023]]]]}},{"type":"Feature","properties":{"id":172,"FSI":2.7197,"GSI":0.5448,"OSR":0.1674,"Density_V":0.1078,"FSI_Norm":0.0538,"GSI_Norm":0.1617,"Area_build":4717.3493,"Floor_Area":23550.93,"Hex_area":8659.4134},"geometry":{"type":"MultiPolygon","coordinates":[[[[79.865028,6.829119],[79.865288,6.829571],[79.865811,6.829572],[79.866073,6.829121],[79.865812,6.828668],[79.86529,6.828667],[79.865028,6.829119]]]]}},{"type":"Feature","properties":{"id":173,"FSI":2.891,"GSI":0.597,"OSR":0.1394,"Density_V":0.1172,"FSI_Norm":0.0572,"GSI_Norm":0.1771,"Area_build":5169.8518,"Floor_Area":25034.055,"Hex_area":8659.4134},"geometry":{"type":"MultiPolygon","coordinates":[[[[79.86503,6.828215],[79.86529,6.828667],[79.865812,6.828668],[79.866074,6.828217],[79.865814,6.827764],[79.865292,6.827763],[79.86503,6.828215]]]]}},{"type":"Feature","properties":{"id":174,"FSI":3.0308,"GSI":0.6178,"OSR":0.1261,"Density_V":0.1217,"FSI_Norm":0.06,"GSI_Norm":0.1833,"Area_build":5349.6906,"Floor_Area":26245.327,"Hex_area":8659.4134},"geometry":{"type":"MultiPolygon","coordinates":[[[[79.865031,6.82731],[79.865292,6.827763],[79.865814,6.827764],[79.866076,6.827312],[79.865816,6.82686],[79.865293,6.826859],[79.865031,6.82731]]]]}},{"type":"Feature","properties":{"id":175,"FSI":2.45,"GSI":0.4763,"OSR":0.2138,"Density_V":0.0949,"FSI_Norm":0.0485,"GSI_Norm":0.1413,"Area_build":1329.1741,"Floor_Area":6837.748,"Hex_area":2790.9097},"geometry":{"type":"MultiPolygon","coordinates":[[[[79.866016,6.826328],[79.865886,6.826386],[79.865758,6.826448],[79.865633,6.826514],[79.865509,6.826585],[79.865388,6.826659],[79.865269,6.826736],[79.865236,6.826759],[79.865293,6.826859],[79.865816,6.82686],[79.866078,6.826408],[79.866028,6.826323],[79.866016,6.826328]]]]}},{"type":"Feature","properties":{"id":185,"FSI":2.1359,"GSI":0.5674,"OSR":0.2026,"Density_V":0.1054,"FSI_Norm":0.0423,"GSI_Norm":0.1684,"Area_build":944.3019,"Floor_Area":3555.003,"Hex_area":1664.4009},"geometry":{"type":"MultiPolygon","coordinates":[[[[79.866131,6.834681],[79.866264,6.834731],[79.866398,6.834777],[79.866534,6.834819],[79.866671,6.834857],[79.866778,6.834883],[79.866585,6.834547],[79.866062,6.834546],[79.866013,6.834631],[79.866131,6.834681]]]]}},{"type":"Feature","properties":{"id":186,"FSI":2.7896,"GSI":0.731,"OSR":0.0964,"Density_V":0.1361,"FSI_Norm":0.0552,"GSI_Norm":0.2169,"Area_build":6330.3687,"Floor_Area":24156.195,"Hex_area":8659.4171},"geometry":{"type":"MultiPolygon","coordinates":[[[[79.865802,6.834093],[79.866062,6.834546],[79.866585,6.834547],[79.866847,6.834095],[79.866586,6.833643],[79.866064,6.833642],[79.865802,6.834093]]]]}},{"type":"Feature","properties":{"id":187,"FSI":8.2855,"GSI":0.9173,"OSR":0.01,"Density_V":0.2181,"FSI_Norm":0.1639,"GSI_Norm":0.2722,"Area_build":7943.2594,"Floor_Area":71747.538,"Hex_area":8659.4171},"geometry":{"type":"MultiPolygon","coordinates":[[[[79.865804,6.833189],[79.866064,6.833642],[79.866586,6.833643],[79.866848,6.833191],[79.866588,6.832739],[79.866066,6.832738],[79.865804,6.833189]]]]}},{"type":"Feature","properties":{"id":188,"FSI":6.7485,"GSI":0.8556,"OSR":0.0214,"Density_V":0.1937,"FSI_Norm":0.1335,"GSI_Norm":0.2539,"Area_build":7408.7876,"Floor_Area":58437.735,"Hex_area":8659.4171},"geometry":{"type":"MultiPolygon","coordinates":[[[[79.865805,6.832285],[79.866066,6.832738],[79.866588,6.832739],[79.86685,6.832287],[79.86659,6.831834],[79.866067,6.831833],[79.865805,6.832285]]]]}},{"type":"Feature","properties":{"id":189,"FSI":4.1733,"GSI":0.7399,"OSR":0.0623,"Density_V":0.1511,"FSI_Norm":0.0826,"GSI_Norm":0.2195,"Area_build":6407.2563,"Floor_Area":36138.255,"Hex_area":8659.4171},"geometry":{"type":"MultiPolygon","coordinates":[[[[79.865807,6.831381],[79.866067,6.831833],[79.86659,6.831834],[79.866852,6.831383],[79.866591,6.83093],[79.866069,6.830929],[79.865807,6.831381]]]]}},{"type":"Feature","properties":{"id":190,"FSI":3.1475,"GSI":0.69,"OSR":0.0985,"Density_V":0.1335,"FSI_Norm":0.0623,"GSI_Norm":0.2047,"Area_build":5975.0534,"Floor_Area":27255.344,"Hex_area":8659.4171},"geometry":{"type":"MultiPolygon","coordinates":[[[[79.865809,6.830477],[79.866069,6.830929],[79.866591,6.83093],[79.866853,6.830479],[79.866593,6.830026],[79.866071,6.830025],[79.865809,6.830477]]]]}},{"type":"Feature","properties":{"id":191,"FSI":4.0456,"GSI":0.6735,"OSR":0.0807,"Density_V":0.1399,"FSI_Norm":0.08,"GSI_Norm":0.1998,"Area_build":5832.5111,"Floor_Area":35032.331,"Hex_area":8659.4171},"geometry":{"type":"MultiPolygon","coordinates":[[[[79.865811,6.829572],[79.866071,6.830025],[79.866593,6.830026],[79.866855,6.829574],[79.866595,6.829122],[79.866073,6.829121],[79.865811,6.829572]]]]}},{"type":"Feature","properties":{"id":192,"FSI":2.9712,"GSI":0.5056,"OSR":0.1664,"Density_V":0.1044,"FSI_Norm":0.0588,"GSI_Norm":0.15,"Area_build":4378.1813,"Floor_Area":25729.1,"Hex_area":8659.4171},"geometry":{"type":"MultiPolygon","coordinates":[[[[79.865812,6.828668],[79.866073,6.829121],[79.866595,6.829122],[79.866857,6.82867],[79.866597,6.828218],[79.866074,6.828217],[79.865812,6.828668]]]]}},{"type":"Feature","properties":{"id":193,"FSI":4.0341,"GSI":0.7741,"OSR":0.056,"Density_V":0.1548,"FSI_Norm":0.0798,"GSI_Norm":0.2297,"Area_build":6702.8422,"Floor_Area":34933.134,"Hex_area":8659.4171},"geometry":{"type":"MultiPolygon","coordinates":[[[[79.865814,6.827764],[79.866074,6.828217],[79.866597,6.828218],[79.866859,6.827766],[79.866598,6.827313],[79.866076,6.827312],[79.865814,6.827764]]]]}},{"type":"Feature","properties":{"id":194,"FSI":2.6522,"GSI":0.5432,"OSR":0.1722,"Density_V":0.1069,"FSI_Norm":0.0525,"GSI_Norm":0.1612,"Area_build":4703.6278,"Floor_Area":22966.243,"Hex_area":8659.4171},"geometry":{"type":"MultiPolygon","coordinates":[[[[79.865816,6.82686],[79.866076,6.827312],[79.866598,6.827313],[79.86686,6.826862],[79.8666,6.826409],[79.866078,6.826408],[79.865816,6.82686]]]]}},{"type":"Feature","properties":{"id":195,"FSI":2.7144,"GSI":0.6456,"OSR":0.1306,"Density_V":0.1227,"FSI_Norm":0.0537,"GSI_Norm":0.1916,"Area_build":1074.5228,"Floor_Area":4517.893,"Hex_area":1664.4064},"geometry":{"type":"MultiPolygon","coordinates":[[[[79.866688,6.826099],[79.866551,6.826136],[79.866415,6.826178],[79.86628,6.826224],[79.866147,6.826274],[79.866028,6.826323],[79.866078,6.826408],[79.8666,6.826409],[79.866794,6.826074],[79.866688,6.826099]]]]}},{"type":"Feature","properties":{"id":206,"FSI":5.4482,"GSI":0.8274,"OSR":0.0317,"Density_V":0.1767,"FSI_Norm":0.1078,"GSI_Norm":0.2455,"Area_build":6834.3092,"Floor_Area":45001.571,"Hex_area":8259.9341},"geometry":{"type":"MultiPolygon","coordinates":[[[[79.866809,6.834891],[79.866948,6.83492],[79.867088,6.834944],[79.867229,6.834965],[79.86737,6.834981],[79.867378,6.834981],[79.867629,6.834549],[79.867369,6.834096],[79.866847,6.834095],[79.866585,6.834547],[79.866778,6.834883],[79.866809,6.834891]]]]}},{"type":"Feature","properties":{"id":207,"FSI":5.7334,"GSI":0.6834,"OSR":0.0552,"Density_V":0.1581,"FSI_Norm":0.1134,"GSI_Norm":0.2028,"Area_build":5917.6095,"Floor_Area":49647.533,"Hex_area":8659.4208},"geometry":{"type":"MultiPolygon","coordinates":[[[[79.866586,6.833643],[79.866847,6.834095],[79.867369,6.834096],[79.867631,6.833645],[79.867371,6.833192],[79.866848,6.833191],[79.866586,6.833643]]]]}},{"type":"Feature","properties":{"id":208,"FSI":8.6674,"GSI":0.6513,"OSR":0.0402,"Density_V":0.1824,"FSI_Norm":0.1715,"GSI_Norm":0.1933,"Area_build":5640.0173,"Floor_Area":75054.567,"Hex_area":8659.4208},"geometry":{"type":"MultiPolygon","coordinates":[[[[79.866588,6.832739],[79.866848,6.833191],[79.867371,6.833192],[79.867633,6.832741],[79.867372,6.832288],[79.86685,6.832287],[79.866588,6.832739]]]]}},{"type":"Feature","properties":{"id":209,"FSI":3.3942,"GSI":0.5566,"OSR":0.1306,"Density_V":0.1162,"FSI_Norm":0.0671,"GSI_Norm":0.1652,"Area_build":4819.647,"Floor_Area":29391.393,"Hex_area":8659.4208},"geometry":{"type":"MultiPolygon","coordinates":[[[[79.86659,6.831834],[79.86685,6.832287],[79.867372,6.832288],[79.867634,6.831836],[79.867374,6.831384],[79.866852,6.831383],[79.86659,6.831834]]]]}},{"type":"Feature","properties":{"id":210,"FSI":5.0639,"GSI":0.8783,"OSR":0.024,"Density_V":0.1804,"FSI_Norm":0.1002,"GSI_Norm":0.2606,"Area_build":7605.7838,"Floor_Area":43850.663,"Hex_area":8659.4208},"geometry":{"type":"MultiPolygon","coordinates":[[[[79.866591,6.83093],[79.866852,6.831383],[79.867374,6.831384],[79.867636,6.830932],[79.867376,6.83048],[79.866853,6.830479],[79.866591,6.83093]]]]}},{"type":"Feature","properties":{"id":211,"FSI":5.2617,"GSI":0.6673,"OSR":0.0632,"Density_V":0.1511,"FSI_Norm":0.1041,"GSI_Norm":0.198,"Area_build":5778.3628,"Floor_Area":45563.055,"Hex_area":8659.4208},"geometry":{"type":"MultiPolygon","coordinates":[[[[79.866593,6.830026],[79.866853,6.830479],[79.867376,6.83048],[79.867638,6.830028],[79.867377,6.829575],[79.866855,6.829574],[79.866593,6.830026]]]]}},{"type":"Feature","properties":{"id":212,"FSI":1.2867,"GSI":0.2608,"OSR":0.5745,"Density_V":0.0515,"FSI_Norm":0.0255,"GSI_Norm":0.0774,"Area_build":2258.0113,"Floor_Area":11142.255,"Hex_area":8659.4208},"geometry":{"type":"MultiPolygon","coordinates":[[[[79.866595,6.829122],[79.866855,6.829574],[79.867377,6.829575],[79.867639,6.829124],[79.867379,6.828671],[79.866857,6.82867],[79.866595,6.829122]]]]}},{"type":"Feature","properties":{"id":213,"FSI":4.207,"GSI":0.7315,"OSR":0.0638,"Density_V":0.1501,"FSI_Norm":0.0832,"GSI_Norm":0.217,"Area_build":6334.1506,"Floor_Area":36430.408,"Hex_area":8659.4209},"geometry":{"type":"MultiPolygon","coordinates":[[[[79.866597,6.828218],[79.866857,6.82867],[79.867379,6.828671],[79.867641,6.82822],[79.867381,6.827767],[79.866859,6.827766],[79.866597,6.828218]]]]}},{"type":"Feature","properties":{"id":214,"FSI":2.5064,"GSI":0.5386,"OSR":0.1841,"Density_V":0.1047,"FSI_Norm":0.0496,"GSI_Norm":0.1598,"Area_build":4663.9431,"Floor_Area":21704.284,"Hex_area":8659.4208},"geometry":{"type":"MultiPolygon","coordinates":[[[[79.866598,6.827313],[79.866859,6.827766],[79.867381,6.827767],[79.867643,6.827315],[79.867383,6.826863],[79.86686,6.826862],[79.866598,6.827313]]]]}},{"type":"Feature","properties":{"id":215,"FSI":2.2178,"GSI":0.4766,"OSR":0.236,"Density_V":0.0927,"FSI_Norm":0.0439,"GSI_Norm":0.1414,"Area_build":3937.0361,"Floor_Area":18318.686,"Hex_area":8259.9384},"geometry":{"type":"MultiPolygon","coordinates":[[[[79.867387,6.825979],[79.867246,6.825994],[79.867105,6.826014],[79.866965,6.826038],[79.866826,6.826066],[79.866794,6.826074],[79.8666,6.826409],[79.86686,6.826862],[79.867383,6.826863],[79.867645,6.826411],[79.867395,6.825978],[79.867387,6.825979]]]]}},{"type":"Feature","properties":{"id":225,"FSI":5.1134,"GSI":0.7587,"OSR":0.0472,"Density_V":0.1631,"FSI_Norm":0.1011,"GSI_Norm":0.2251,"Area_build":3179.9858,"Floor_Area":21431.667,"Hex_area":4191.2993},"geometry":{"type":"MultiPolygon","coordinates":[[[[79.867512,6.834992],[79.867654,6.834999],[79.867796,6.835001],[79.867938,6.834999],[79.86808,6.834993],[79.868221,6.834982],[79.868363,6.834967],[79.868389,6.834963],[79.868151,6.83455],[79.867629,6.834549],[79.867378,6.834981],[79.867512,6.834992]]]]}},{"type":"Feature","properties":{"id":226,"FSI":6.4892,"GSI":0.8845,"OSR":0.0178,"Density_V":0.1954,"FSI_Norm":0.1284,"GSI_Norm":0.2624,"Area_build":7659.1184,"Floor_Area":56192.546,"Hex_area":8659.4245},"geometry":{"type":"MultiPolygon","coordinates":[[[[79.867369,6.834096],[79.867629,6.834549],[79.868151,6.83455],[79.868414,6.834098],[79.868153,6.833646],[79.867631,6.833645],[79.867369,6.834096]]]]}},{"type":"Feature","properties":{"id":227,"FSI":2.7878,"GSI":0.5319,"OSR":0.1679,"Density_V":0.1065,"FSI_Norm":0.0551,"GSI_Norm":0.1578,"Area_build":4606.0721,"Floor_Area":24140.486,"Hex_area":8659.4245},"geometry":{"type":"MultiPolygon","coordinates":[[[[79.867371,6.833192],[79.867631,6.833645],[79.868153,6.833646],[79.868415,6.833194],[79.868155,6.832742],[79.867633,6.832741],[79.867371,6.833192]]]]}},{"type":"Feature","properties":{"id":228,"FSI":1.9334,"GSI":0.4518,"OSR":0.2835,"Density_V":0.0862,"FSI_Norm":0.0382,"GSI_Norm":0.1341,"Area_build":3912.6067,"Floor_Area":16741.86,"Hex_area":8659.4245},"geometry":{"type":"MultiPolygon","coordinates":[[[[79.867372,6.832288],[79.867633,6.832741],[79.868155,6.832742],[79.868417,6.83229],[79.868157,6.831837],[79.867634,6.831836],[79.867372,6.832288]]]]}},{"type":"Feature","properties":{"id":229,"FSI":2.3694,"GSI":0.5576,"OSR":0.1867,"Density_V":0.1062,"FSI_Norm":0.0469,"GSI_Norm":0.1655,"Area_build":4828.0675,"Floor_Area":20517.741,"Hex_area":8659.4245},"geometry":{"type":"MultiPolygon","coordinates":[[[[79.867374,6.831384],[79.867634,6.831836],[79.868157,6.831837],[79.868419,6.831386],[79.868158,6.830933],[79.867636,6.830932],[79.867374,6.831384]]]]}},{"type":"Feature","properties":{"id":230,"FSI":4.2703,"GSI":0.6151,"OSR":0.0901,"Density_V":0.1335,"FSI_Norm":0.0845,"GSI_Norm":0.1825,"Area_build":5326.071,"Floor_Area":36978.203,"Hex_area":8659.4246},"geometry":{"type":"MultiPolygon","coordinates":[[[[79.867376,6.83048],[79.867636,6.830932],[79.868158,6.830933],[79.86842,6.830482],[79.86816,6.830029],[79.867638,6.830028],[79.867376,6.83048]]]]}},{"type":"Feature","properties":{"id":231,"FSI":2.2438,"GSI":0.4426,"OSR":0.2484,"Density_V":0.0879,"FSI_Norm":0.0444,"GSI_Norm":0.1313,"Area_build":3832.4055,"Floor_Area":19430.301,"Hex_area":8659.4245},"geometry":{"type":"MultiPolygon","coordinates":[[[[79.867377,6.829575],[79.867638,6.830028],[79.86816,6.830029],[79.868422,6.829577],[79.868162,6.829125],[79.867639,6.829124],[79.867377,6.829575]]]]}},{"type":"Feature","properties":{"id":232,"FSI":2.2082,"GSI":0.5082,"OSR":0.2227,"Density_V":0.0973,"FSI_Norm":0.0437,"GSI_Norm":0.1508,"Area_build":4400.8641,"Floor_Area":19121.434,"Hex_area":8659.4245},"geometry":{"type":"MultiPolygon","coordinates":[[[[79.867379,6.828671],[79.867639,6.829124],[79.868162,6.829125],[79.868424,6.828673],[79.868163,6.82822],[79.867641,6.82822],[79.867379,6.828671]]]]}},{"type":"Feature","properties":{"id":233,"FSI":2.67,"GSI":0.5962,"OSR":0.1513,"Density_V":0.1149,"FSI_Norm":0.0528,"GSI_Norm":0.1769,"Area_build":5162.3412,"Floor_Area":23120.934,"Hex_area":8659.4246},"geometry":{"type":"MultiPolygon","coordinates":[[[[79.867381,6.827767],[79.867641,6.82822],[79.868163,6.82822],[79.868425,6.827769],[79.868165,6.827316],[79.867643,6.827315],[79.867381,6.827767]]]]}},{"type":"Feature","properties":{"id":234,"FSI":2.613,"GSI":0.493,"OSR":0.1941,"Density_V":0.099,"FSI_Norm":0.0517,"GSI_Norm":0.1463,"Area_build":4268.7018,"Floor_Area":22626.646,"Hex_area":8659.4246},"geometry":{"type":"MultiPolygon","coordinates":[[[[79.867383,6.826863],[79.867643,6.827315],[79.868165,6.827316],[79.868427,6.826865],[79.868167,6.826412],[79.867645,6.826411],[79.867383,6.826863]]]]}},{"type":"Feature","properties":{"id":235,"FSI":3.5841,"GSI":0.6804,"OSR":0.0892,"Density_V":0.1364,"FSI_Norm":0.0709,"GSI_Norm":0.2019,"Area_build":2851.7584,"Floor_Area":15022.017,"Hex_area":4191.3067},"geometry":{"type":"MultiPolygon","coordinates":[[[[79.86838,6.825996],[79.868238,6.82598],[79.868097,6.825969],[79.867955,6.825962],[79.867813,6.825959],[79.867671,6.825961],[79.867529,6.825968],[79.867395,6.825978],[79.867645,6.826411],[79.868167,6.826412],[79.868406,6.826],[79.86838,6.825996]]]]}},{"type":"Feature","properties":{"id":246,"FSI":2.2213,"GSI":0.6068,"OSR":0.177,"Density_V":0.112,"FSI_Norm":0.0439,"GSI_Norm":0.18,"Area_build":4852.46,"Floor_Area":17763.548,"Hex_area":7997.0613},"geometry":{"type":"MultiPolygon","coordinates":[[[[79.868503,6.834947],[79.868643,6.834923],[79.868783,6.834894],[79.868921,6.834861],[79.869034,6.834831],[79.869196,6.834552],[79.868936,6.834099],[79.868414,6.834098],[79.868151,6.83455],[79.868389,6.834963],[79.868503,6.834947]]]]}},{"type":"Feature","properties":{"id":247,"FSI":3.9182,"GSI":0.7995,"OSR":0.0512,"Density_V":0.1574,"FSI_Norm":0.0775,"GSI_Norm":0.2372,"Area_build":6922.8923,"Floor_Area":33929.031,"Hex_area":8659.4283},"geometry":{"type":"MultiPolygon","coordinates":[[[[79.868153,6.833646],[79.868414,6.834098],[79.868936,6.834099],[79.869198,6.833648],[79.868938,6.833195],[79.868415,6.833194],[79.868153,6.833646]]]]}},{"type":"Feature","properties":{"id":248,"FSI":1.6838,"GSI":0.4374,"OSR":0.3341,"Density_V":0.0816,"FSI_Norm":0.0333,"GSI_Norm":0.1298,"Area_build":3787.2486,"Floor_Area":14580.876,"Hex_area":8659.4283},"geometry":{"type":"MultiPolygon","coordinates":[[[[79.868155,6.832742],[79.868415,6.833194],[79.868938,6.833195],[79.8692,6.832744],[79.868939,6.832291],[79.868417,6.83229],[79.868155,6.832742]]]]}},{"type":"Feature","properties":{"id":249,"FSI":2.2176,"GSI":0.5345,"OSR":0.2099,"Density_V":0.1012,"FSI_Norm":0.0439,"GSI_Norm":0.1586,"Area_build":4628.1201,"Floor_Area":19203.449,"Hex_area":8659.4282},"geometry":{"type":"MultiPolygon","coordinates":[[[[79.868157,6.831837],[79.868417,6.83229],[79.868939,6.832291],[79.869201,6.831839],[79.868941,6.831387],[79.868419,6.831386],[79.868157,6.831837]]]]}},{"type":"Feature","properties":{"id":250,"FSI":2.174,"GSI":0.4779,"OSR":0.2402,"Density_V":0.0924,"FSI_Norm":0.043,"GSI_Norm":0.1418,"Area_build":4138.2221,"Floor_Area":18825.479,"Hex_area":8659.4282},"geometry":{"type":"MultiPolygon","coordinates":[[[[79.868158,6.830933],[79.868419,6.831386],[79.868941,6.831387],[79.869203,6.830935],[79.868943,6.830482],[79.86842,6.830482],[79.868158,6.830933]]]]}},{"type":"Feature","properties":{"id":251,"FSI":2.8314,"GSI":0.6446,"OSR":0.1255,"Density_V":0.1237,"FSI_Norm":0.056,"GSI_Norm":0.1913,"Area_build":5582.2133,"Floor_Area":24518.508,"Hex_area":8659.4283},"geometry":{"type":"MultiPolygon","coordinates":[[[[79.86816,6.830029],[79.86842,6.830482],[79.868943,6.830482],[79.869205,6.830031],[79.868944,6.829578],[79.868422,6.829577],[79.86816,6.830029]]]]}},{"type":"Feature","properties":{"id":252,"FSI":2.0919,"GSI":0.4662,"OSR":0.2552,"Density_V":0.0899,"FSI_Norm":0.0414,"GSI_Norm":0.1383,"Area_build":4036.8466,"Floor_Area":18114.921,"Hex_area":8659.4282},"geometry":{"type":"MultiPolygon","coordinates":[[[[79.868162,6.829125],[79.868422,6.829577],[79.868944,6.829578],[79.869206,6.829127],[79.868946,6.828674],[79.868424,6.828673],[79.868162,6.829125]]]]}},{"type":"Feature","properties":{"id":253,"FSI":2.0062,"GSI":0.4798,"OSR":0.2593,"Density_V":0.091,"FSI_Norm":0.0397,"GSI_Norm":0.1424,"Area_build":4154.7232,"Floor_Area":17372.867,"Hex_area":8659.4282},"geometry":{"type":"MultiPolygon","coordinates":[[[[79.868163,6.82822],[79.868424,6.828673],[79.868946,6.828674],[79.869208,6.828222],[79.868948,6.82777],[79.868425,6.827769],[79.868163,6.82822]]]]}},{"type":"Feature","properties":{"id":254,"FSI":3.4203,"GSI":0.5963,"OSR":0.118,"Density_V":0.1223,"FSI_Norm":0.0677,"GSI_Norm":0.1769,"Area_build":5163.5505,"Floor_Area":29617.432,"Hex_area":8659.4283},"geometry":{"type":"MultiPolygon","coordinates":[[[[79.868165,6.827316],[79.868425,6.827769],[79.868948,6.82777],[79.86921,6.827318],[79.868949,6.826866],[79.868427,6.826865],[79.868165,6.827316]]]]}},{"type":"Feature","properties":{"id":255,"FSI":3.4246,"GSI":0.4254,"OSR":0.1678,"Density_V":0.097,"FSI_Norm":0.0677,"GSI_Norm":0.1262,"Area_build":3401.6643,"Floor_Area":27386.873,"Hex_area":7997.066},"geometry":{"type":"MultiPolygon","coordinates":[[[[79.868937,6.826103],[79.868799,6.82607],[79.86866,6.826041],[79.86852,6.826016],[79.868406,6.826],[79.868167,6.826412],[79.868427,6.826865],[79.868949,6.826866],[79.869211,6.826414],[79.869051,6.826135],[79.868937,6.826103]]]]}},{"type":"Feature","properties":{"id":265,"FSI":4.3493,"GSI":1.0265,"OSR":-0.0061,"Density_V":0.1953,"FSI_Norm":0.086,"GSI_Norm":0.3046,"Area_build":1105.8722,"Floor_Area":4685.763,"Hex_area":1077.3605},"geometry":{"type":"MultiPolygon","coordinates":[[[[79.869058,6.834824],[79.869194,6.834783],[79.869328,6.834737],[79.869461,6.834687],[79.869593,6.834633],[79.869723,6.834575],[79.869729,6.834572],[79.869718,6.834553],[79.869196,6.834552],[79.869034,6.834831],[79.869058,6.834824]]]]}},{"type":"Feature","properties":{"id":266,"FSI":2.4145,"GSI":0.5668,"OSR":0.1794,"Density_V":0.108,"FSI_Norm":0.0478,"GSI_Norm":0.1682,"Area_build":4907.894,"Floor_Area":20908.497,"Hex_area":8659.4319},"geometry":{"type":"MultiPolygon","coordinates":[[[[79.868936,6.834099],[79.869196,6.834552],[79.869718,6.834553],[79.86998,6.834101],[79.86972,6.833649],[79.869198,6.833648],[79.868936,6.834099]]]]}},{"type":"Feature","properties":{"id":267,"FSI":1.8368,"GSI":0.4678,"OSR":0.2897,"Density_V":0.0876,"FSI_Norm":0.0363,"GSI_Norm":0.1388,"Area_build":4050.831,"Floor_Area":15905.689,"Hex_area":8659.432},"geometry":{"type":"MultiPolygon","coordinates":[[[[79.868938,6.833195],[79.869198,6.833648],[79.86972,6.833649],[79.869982,6.833197],[79.869722,6.832744],[79.8692,6.832744],[79.868938,6.833195]]]]}},{"type":"Feature","properties":{"id":268,"FSI":1.8486,"GSI":0.5455,"OSR":0.2459,"Density_V":0.0992,"FSI_Norm":0.0366,"GSI_Norm":0.1619,"Area_build":4723.8452,"Floor_Area":16007.799,"Hex_area":8659.432},"geometry":{"type":"MultiPolygon","coordinates":[[[[79.868939,6.832291],[79.8692,6.832744],[79.869722,6.832744],[79.869984,6.832293],[79.869724,6.83184],[79.869201,6.831839],[79.868939,6.832291]]]]}},{"type":"Feature","properties":{"id":269,"FSI":5.1525,"GSI":0.7391,"OSR":0.0506,"Density_V":0.1606,"FSI_Norm":0.1019,"GSI_Norm":0.2193,"Area_build":6400.4366,"Floor_Area":44617.933,"Hex_area":8659.432},"geometry":{"type":"MultiPolygon","coordinates":[[[[79.868941,6.831387],[79.869201,6.831839],[79.869724,6.83184],[79.869986,6.831389],[79.869725,6.830936],[79.869203,6.830935],[79.868941,6.831387]]]]}},{"type":"Feature","properties":{"id":270,"FSI":1.8084,"GSI":0.4733,"OSR":0.2913,"Density_V":0.0881,"FSI_Norm":0.0358,"GSI_Norm":0.1404,"Area_build":4098.413,"Floor_Area":15659.365,"Hex_area":8659.432},"geometry":{"type":"MultiPolygon","coordinates":[[[[79.868943,6.830482],[79.869203,6.830935],[79.869725,6.830936],[79.869987,6.830484],[79.869727,6.830032],[79.869205,6.830031],[79.868943,6.830482]]]]}},{"type":"Feature","properties":{"id":271,"FSI":2.3242,"GSI":0.5562,"OSR":0.1909,"Density_V":0.1055,"FSI_Norm":0.046,"GSI_Norm":0.165,"Area_build":4816.593,"Floor_Area":20126.146,"Hex_area":8659.4319},"geometry":{"type":"MultiPolygon","coordinates":[[[[79.868944,6.829578],[79.869205,6.830031],[79.869727,6.830032],[79.869989,6.82958],[79.869729,6.829128],[79.869206,6.829127],[79.868944,6.829578]]]]}},{"type":"Feature","properties":{"id":272,"FSI":2.4286,"GSI":0.5582,"OSR":0.1819,"Density_V":0.1068,"FSI_Norm":0.048,"GSI_Norm":0.1656,"Area_build":4833.9924,"Floor_Area":21030.002,"Hex_area":8659.432},"geometry":{"type":"MultiPolygon","coordinates":[[[[79.868946,6.828674],[79.869206,6.829127],[79.869729,6.829128],[79.869991,6.828676],[79.86973,6.828223],[79.869208,6.828222],[79.868946,6.828674]]]]}},{"type":"Feature","properties":{"id":273,"FSI":2.4646,"GSI":0.5391,"OSR":0.187,"Density_V":0.1044,"FSI_Norm":0.0488,"GSI_Norm":0.16,"Area_build":4668.1659,"Floor_Area":21341.778,"Hex_area":8659.4319},"geometry":{"type":"MultiPolygon","coordinates":[[[[79.868948,6.82777],[79.869208,6.828222],[79.86973,6.828223],[79.869992,6.827772],[79.869732,6.827319],[79.86921,6.827318],[79.868948,6.82777]]]]}},{"type":"Feature","properties":{"id":274,"FSI":3.34,"GSI":0.6327,"OSR":0.11,"Density_V":0.1269,"FSI_Norm":0.0661,"GSI_Norm":0.1877,"Area_build":5479.1761,"Floor_Area":28922.384,"Hex_area":8659.432},"geometry":{"type":"MultiPolygon","coordinates":[[[[79.868949,6.826866],[79.86921,6.827318],[79.869732,6.827319],[79.869994,6.826868],[79.869734,6.826415],[79.869211,6.826414],[79.868949,6.826866]]]]}},{"type":"Feature","properties":{"id":275,"FSI":1.9606,"GSI":0.3548,"OSR":0.3291,"Density_V":0.0721,"FSI_Norm":0.0388,"GSI_Norm":0.1053,"Area_build":382.2998,"Floor_Area":2112.282,"Hex_area":1077.3656},"geometry":{"type":"MultiPolygon","coordinates":[[[[79.869738,6.826393],[79.869609,6.826335],[79.869477,6.82628],[79.869345,6.826229],[79.86921,6.826183],[79.869074,6.826141],[79.869051,6.826135],[79.869211,6.826414],[79.869734,6.826415],[79.869745,6.826396],[79.869738,6.826393]]]]}},{"type":"Feature","properties":{"id":286,"FSI":1.5561,"GSI":0.4325,"OSR":0.3647,"Density_V":0.0796,"FSI_Norm":0.0308,"GSI_Norm":0.1283,"Area_build":758.813,"Floor_Area":2730.376,"Hex_area":1754.6071},"geometry":{"type":"MultiPolygon","coordinates":[[[[79.86985,6.834513],[79.869976,6.834446],[79.8701,6.834376],[79.870221,6.834302],[79.87034,6.834224],[79.870456,6.834143],[79.870505,6.834106],[79.870503,6.834102],[79.86998,6.834101],[79.869718,6.834553],[79.869729,6.834572],[79.86985,6.834513]]]]}},{"type":"Feature","properties":{"id":287,"FSI":2.2639,"GSI":0.5144,"OSR":0.2145,"Density_V":0.0987,"FSI_Norm":0.0448,"GSI_Norm":0.1526,"Area_build":4454.4329,"Floor_Area":19604.005,"Hex_area":8659.4357},"geometry":{"type":"MultiPolygon","coordinates":[[[[79.86972,6.833649],[79.86998,6.834101],[79.870503,6.834102],[79.870765,6.833651],[79.870504,6.833198],[79.869982,6.833197],[79.86972,6.833649]]]]}},{"type":"Feature","properties":{"id":288,"FSI":2.6879,"GSI":0.5775,"OSR":0.1572,"Density_V":0.1123,"FSI_Norm":0.0532,"GSI_Norm":0.1714,"Area_build":5001.2435,"Floor_Area":23275.428,"Hex_area":8659.4357},"geometry":{"type":"MultiPolygon","coordinates":[[[[79.869722,6.832744],[79.869982,6.833197],[79.870504,6.833198],[79.870766,6.832746],[79.870506,6.832294],[79.869984,6.832293],[79.869722,6.832744]]]]}},{"type":"Feature","properties":{"id":289,"FSI":5.0481,"GSI":0.7261,"OSR":0.0542,"Density_V":0.1577,"FSI_Norm":0.0999,"GSI_Norm":0.2154,"Area_build":6287.9951,"Floor_Area":43713.496,"Hex_area":8659.4357},"geometry":{"type":"MultiPolygon","coordinates":[[[[79.869724,6.83184],[79.869984,6.832293],[79.870506,6.832294],[79.870768,6.831842],[79.870508,6.83139],[79.869986,6.831389],[79.869724,6.83184]]]]}},{"type":"Feature","properties":{"id":290,"FSI":4.9794,"GSI":0.6554,"OSR":0.0692,"Density_V":0.1465,"FSI_Norm":0.0985,"GSI_Norm":0.1945,"Area_build":5675.2437,"Floor_Area":43118.743,"Hex_area":8659.4357},"geometry":{"type":"MultiPolygon","coordinates":[[[[79.869725,6.830936],[79.869986,6.831389],[79.870508,6.83139],[79.87077,6.830938],[79.87051,6.830485],[79.869987,6.830484],[79.869725,6.830936]]]]}},{"type":"Feature","properties":{"id":291,"FSI":2.0903,"GSI":0.5609,"OSR":0.2101,"Density_V":0.1039,"FSI_Norm":0.0413,"GSI_Norm":0.1664,"Area_build":4856.8365,"Floor_Area":18100.901,"Hex_area":8659.4357},"geometry":{"type":"MultiPolygon","coordinates":[[[[79.869727,6.830032],[79.869987,6.830484],[79.87051,6.830485],[79.870772,6.830034],[79.870511,6.829581],[79.869989,6.82958],[79.869727,6.830032]]]]}},{"type":"Feature","properties":{"id":292,"FSI":2.0045,"GSI":0.474,"OSR":0.2624,"Density_V":0.0902,"FSI_Norm":0.0397,"GSI_Norm":0.1406,"Area_build":4104.9661,"Floor_Area":17357.418,"Hex_area":8659.4357},"geometry":{"type":"MultiPolygon","coordinates":[[[[79.869729,6.829128],[79.869989,6.82958],[79.870511,6.829581],[79.870773,6.82913],[79.870513,6.828677],[79.869991,6.828676],[79.869729,6.829128]]]]}},{"type":"Feature","properties":{"id":293,"FSI":1.9651,"GSI":0.4626,"OSR":0.2735,"Density_V":0.0881,"FSI_Norm":0.0389,"GSI_Norm":0.1373,"Area_build":4006.0269,"Floor_Area":17017.088,"Hex_area":8659.4357},"geometry":{"type":"MultiPolygon","coordinates":[[[[79.86973,6.828223],[79.869991,6.828676],[79.870513,6.828677],[79.870775,6.828225],[79.870515,6.827773],[79.869992,6.827772],[79.86973,6.828223]]]]}},{"type":"Feature","properties":{"id":294,"FSI":2.4012,"GSI":0.5492,"OSR":0.1877,"Density_V":0.1053,"FSI_Norm":0.0475,"GSI_Norm":0.163,"Area_build":4755.7963,"Floor_Area":20793.232,"Hex_area":8659.4357},"geometry":{"type":"MultiPolygon","coordinates":[[[[79.869732,6.827319],[79.869992,6.827772],[79.870515,6.827773],[79.870777,6.827321],[79.870516,6.826869],[79.869994,6.826868],[79.869732,6.827319]]]]}},{"type":"Feature","properties":{"id":295,"FSI":2.073,"GSI":0.5046,"OSR":0.239,"Density_V":0.0954,"FSI_Norm":0.041,"GSI_Norm":0.1497,"Area_build":885.3485,"Floor_Area":3637.246,"Hex_area":1754.6127},"geometry":{"type":"MultiPolygon","coordinates":[[[[79.87047,6.826828],[79.870354,6.826746],[79.870235,6.826668],[79.870114,6.826593],[79.869991,6.826523],[79.869865,6.826456],[79.869745,6.826396],[79.869734,6.826415],[79.869994,6.826868],[79.870516,6.826869],[79.870519,6.826865],[79.87047,6.826828]]]]}},{"type":"Feature","properties":{"id":306,"FSI":1.8742,"GSI":0.3802,"OSR":0.3307,"Density_V":0.075,"FSI_Norm":0.0371,"GSI_Norm":0.1128,"Area_build":313,"Floor_Area":1542.769,"Hex_area":823.1607},"geometry":{"type":"MultiPolygon","coordinates":[[[[79.87057,6.834058],[79.870681,6.833969],[79.870789,6.833877],[79.870894,6.833782],[79.870997,6.833683],[79.871028,6.833651],[79.870765,6.833651],[79.870503,6.834102],[79.870505,6.834106],[79.87057,6.834058]]]]}},{"type":"Feature","properties":{"id":307,"FSI":2.3211,"GSI":0.5591,"OSR":0.19,"Density_V":0.1059,"FSI_Norm":0.0459,"GSI_Norm":0.1659,"Area_build":4219.4774,"Floor_Area":17517.46,"Hex_area":7546.9291},"geometry":{"type":"MultiPolygon","coordinates":[[[[79.871096,6.833581],[79.871192,6.833477],[79.871284,6.833369],[79.871373,6.833258],[79.871459,6.833145],[79.871491,6.833099],[79.871289,6.832747],[79.870766,6.832746],[79.870504,6.833198],[79.870765,6.833651],[79.871028,6.833651],[79.871096,6.833581]]]]}},{"type":"Feature","properties":{"id":308,"FSI":3.1754,"GSI":0.7862,"OSR":0.0673,"Density_V":0.1481,"FSI_Norm":0.0628,"GSI_Norm":0.2333,"Area_build":6808.0637,"Floor_Area":27497.276,"Hex_area":8659.4394},"geometry":{"type":"MultiPolygon","coordinates":[[[[79.870506,6.832294],[79.870766,6.832746],[79.871289,6.832747],[79.871551,6.832296],[79.87129,6.831843],[79.870768,6.831842],[79.870506,6.832294]]]]}},{"type":"Feature","properties":{"id":309,"FSI":3.0016,"GSI":0.5643,"OSR":0.1451,"Density_V":0.1134,"FSI_Norm":0.0594,"GSI_Norm":0.1674,"Area_build":4886.7151,"Floor_Area":25992.391,"Hex_area":8659.4394},"geometry":{"type":"MultiPolygon","coordinates":[[[[79.870508,6.83139],[79.870768,6.831842],[79.87129,6.831843],[79.871552,6.831392],[79.871292,6.830939],[79.87077,6.830938],[79.870508,6.83139]]]]}},{"type":"Feature","properties":{"id":310,"FSI":3.3152,"GSI":0.6447,"OSR":0.1072,"Density_V":0.1285,"FSI_Norm":0.0656,"GSI_Norm":0.1913,"Area_build":5582.3621,"Floor_Area":28707.975,"Hex_area":8659.4394},"geometry":{"type":"MultiPolygon","coordinates":[[[[79.87051,6.830485],[79.87077,6.830938],[79.871292,6.830939],[79.871554,6.830487],[79.871294,6.830035],[79.870772,6.830034],[79.87051,6.830485]]]]}},{"type":"Feature","properties":{"id":311,"FSI":2.0926,"GSI":0.5131,"OSR":0.2327,"Density_V":0.0968,"FSI_Norm":0.0414,"GSI_Norm":0.1522,"Area_build":4443.5906,"Floor_Area":18120.624,"Hex_area":8659.4394},"geometry":{"type":"MultiPolygon","coordinates":[[[[79.870511,6.829581],[79.870772,6.830034],[79.871294,6.830035],[79.871556,6.829583],[79.871296,6.829131],[79.870773,6.82913],[79.870511,6.829581]]]]}},{"type":"Feature","properties":{"id":312,"FSI":1.6245,"GSI":0.4366,"OSR":0.3468,"Density_V":0.0808,"FSI_Norm":0.0321,"GSI_Norm":0.1295,"Area_build":3780.5786,"Floor_Area":14067.496,"Hex_area":8659.4394},"geometry":{"type":"MultiPolygon","coordinates":[[[[79.870513,6.828677],[79.870773,6.82913],[79.871296,6.829131],[79.871558,6.828679],[79.871297,6.828226],[79.870775,6.828225],[79.870513,6.828677]]]]}},{"type":"Feature","properties":{"id":313,"FSI":1.6311,"GSI":0.3831,"OSR":0.3782,"Density_V":0.073,"FSI_Norm":0.0323,"GSI_Norm":0.1137,"Area_build":2891.1089,"Floor_Area":12309.705,"Hex_area":7546.9324},"geometry":{"type":"MultiPolygon","coordinates":[[[[79.871469,6.82783],[79.871384,6.827716],[79.871295,6.827605],[79.871203,6.827497],[79.871107,6.827392],[79.87104,6.827322],[79.870777,6.827321],[79.870515,6.827773],[79.870775,6.828225],[79.871297,6.828226],[79.871501,6.827876],[79.871469,6.82783]]]]}},{"type":"Feature","properties":{"id":314,"FSI":4.5898,"GSI":1.093,"OSR":-0.0203,"Density_V":0.2076,"FSI_Norm":0.0908,"GSI_Norm":0.3243,"Area_build":899.6971,"Floor_Area":3778.179,"Hex_area":823.1645},"geometry":{"type":"MultiPolygon","coordinates":[[[[79.871009,6.827289],[79.870907,6.82719],[79.870802,6.827095],[79.870694,6.827002],[79.870583,6.826913],[79.870519,6.826865],[79.870516,6.826869],[79.870777,6.827321],[79.87104,6.827322],[79.871009,6.827289]]]]}},{"type":"Feature","properties":{"id":328,"FSI":2.8877,"GSI":0.6454,"OSR":0.1228,"Density_V":0.1243,"FSI_Norm":0.0571,"GSI_Norm":0.1915,"Area_build":2091.2557,"Floor_Area":9357.245,"Hex_area":3240.3969},"geometry":{"type":"MultiPolygon","coordinates":[[[[79.871541,6.833029],[79.871619,6.83291],[79.871693,6.832789],[79.871764,6.832666],[79.871831,6.83254],[79.871893,6.832413],[79.871946,6.832297],[79.871551,6.832296],[79.871289,6.832747],[79.871491,6.833099],[79.871541,6.833029]]]]}},{"type":"Feature","properties":{"id":329,"FSI":2.2781,"GSI":0.4868,"OSR":0.2253,"Density_V":0.0948,"FSI_Norm":0.0451,"GSI_Norm":0.1444,"Area_build":3599.2784,"Floor_Area":16844.084,"Hex_area":7393.8141},"geometry":{"type":"MultiPolygon","coordinates":[[[[79.871952,6.832284],[79.872007,6.832153],[79.872057,6.83202],[79.872104,6.831886],[79.872146,6.83175],[79.872183,6.831613],[79.872189,6.831591],[79.872075,6.831393],[79.871552,6.831392],[79.87129,6.831843],[79.871551,6.832296],[79.871946,6.832297],[79.871952,6.832284]]]]}},{"type":"Feature","properties":{"id":330,"FSI":2.3006,"GSI":0.396,"OSR":0.2625,"Density_V":0.0815,"FSI_Norm":0.0455,"GSI_Norm":0.1175,"Area_build":3419.7575,"Floor_Area":19866.261,"Hex_area":8635.3367},"geometry":{"type":"MultiPolygon","coordinates":[[[[79.872307,6.830914],[79.872309,6.830892],[79.872076,6.830488],[79.871554,6.830487],[79.871292,6.830939],[79.871552,6.831392],[79.872075,6.831393],[79.872296,6.831012],[79.872307,6.830914]]]]}},{"type":"Feature","properties":{"id":331,"FSI":2.2522,"GSI":0.6137,"OSR":0.1715,"Density_V":0.1134,"FSI_Norm":0.0446,"GSI_Norm":0.1821,"Area_build":5299.4564,"Floor_Area":19448.207,"Hex_area":8635.3368},"geometry":{"type":"MultiPolygon","coordinates":[[[[79.872308,6.830063],[79.872298,6.829966],[79.872078,6.829584],[79.871556,6.829583],[79.871294,6.830035],[79.871554,6.830487],[79.872076,6.830488],[79.87231,6.830086],[79.872308,6.830063]]]]}},{"type":"Feature","properties":{"id":332,"FSI":1.5874,"GSI":0.3738,"OSR":0.3945,"Density_V":0.0711,"FSI_Norm":0.0314,"GSI_Norm":0.1109,"Area_build":2763.5411,"Floor_Area":11736.648,"Hex_area":7393.8159},"geometry":{"type":"MultiPolygon","coordinates":[[[[79.872188,6.829364],[79.87215,6.829227],[79.872109,6.829091],[79.872063,6.828957],[79.872013,6.828824],[79.871959,6.828693],[79.871953,6.82868],[79.871558,6.828679],[79.871296,6.829131],[79.871556,6.829583],[79.872078,6.829584],[79.872193,6.829386],[79.872188,6.829364]]]]}},{"type":"Feature","properties":{"id":333,"FSI":2.0248,"GSI":0.5215,"OSR":0.2363,"Density_V":0.0974,"FSI_Norm":0.0401,"GSI_Norm":0.1547,"Area_build":1689.9969,"Floor_Area":6561.156,"Hex_area":3240.4003},"geometry":{"type":"MultiPolygon","coordinates":[[[[79.871901,6.828563],[79.871838,6.828435],[79.871772,6.82831],[79.871702,6.828186],[79.871628,6.828065],[79.87155,6.827946],[79.871501,6.827876],[79.871297,6.828226],[79.871558,6.828679],[79.871953,6.82868],[79.871901,6.828563]]]]}},{"type":"Feature","properties":{"id":349,"FSI":2.2951,"GSI":0.5464,"OSR":0.1977,"Density_V":0.1038,"FSI_Norm":0.0454,"GSI_Norm":0.1621,"Area_build":316.4248,"Floor_Area":1329.154,"Hex_area":579.1361},"geometry":{"type":"MultiPolygon","coordinates":[[[[79.872217,6.831475],[79.872246,6.831336],[79.872271,6.831196],[79.872291,6.831055],[79.872296,6.831012],[79.872075,6.831393],[79.872189,6.831591],[79.872217,6.831475]]]]}},{"type":"Feature","properties":{"id":350,"FSI":2.1463,"GSI":0.5588,"OSR":0.2056,"Density_V":0.1042,"FSI_Norm":0.0425,"GSI_Norm":0.1658,"Area_build":706.5192,"Floor_Area":2713.702,"Hex_area":1264.3467},"geometry":{"type":"MultiPolygon","coordinates":[[[[79.872326,6.830347],[79.872319,6.830205],[79.87231,6.830086],[79.872076,6.830488],[79.872309,6.830892],[79.872318,6.830773],[79.872325,6.830631],[79.872328,6.830489],[79.872326,6.830347]]]]}},{"type":"Feature","properties":{"id":351,"FSI":10.0135,"GSI":1.8735,"OSR":-0.0872,"Density_V":0.377,"FSI_Norm":0.1981,"GSI_Norm":0.5559,"Area_build":1085.0347,"Floor_Area":5799.18,"Hex_area":579.1368},"geometry":{"type":"MultiPolygon","coordinates":[[[[79.872293,6.829922],[79.872273,6.829782],[79.872249,6.829642],[79.872221,6.829502],[79.872193,6.829386],[79.872078,6.829584],[79.872298,6.829966],[79.872293,6.829922]]]]}}]}