{"type":"FeatureCollection","features":[{"type":"Feature","properties":{"id":108},"geometry":{"type":"MultiPolygon","coordinates":[[[[79.863545,6.832004],[79.863595,6.832137],[79.86365,6.832268],[79.863682,6.83234],[79.863716,6.832281],[79.863529,6.831956],[79.863545,6.832004]]]]}},{"type":"Feature","properties":{"id":109},"geometry":{"type":"MultiPolygon","coordinates":[[[[79.863316,6.831039],[79.863335,6.831179],[79.863359,6.831319],[79.863388,6.831458],[79.863421,6.831596],[79.863458,6.831733],[79.863476,6.831793],[79.863718,6.831377],[79.863458,6.830924],[79.863303,6.830924],[79.863316,6.831039]]]]}},{"type":"Feature","properties":{"id":110},"geometry":{"type":"MultiPolygon","coordinates":[[[[79.863302,6.830046],[79.86329,6.830188],[79.863283,6.83033],[79.863281,6.830472],[79.863283,6.830614],[79.863289,6.830756],[79.8633,6.830897],[79.863303,6.830924],[79.863458,6.830924],[79.86372,6.830473],[79.863459,6.83002],[79.863305,6.83002],[79.863302,6.830046]]]]}},{"type":"Feature","properties":{"id":111},"geometry":{"type":"MultiPolygon","coordinates":[[[[79.863463,6.829211],[79.863425,6.829348],[79.863392,6.829486],[79.863363,6.829625],[79.863338,6.829765],[79.863318,6.829905],[79.863305,6.83002],[79.863459,6.83002],[79.863721,6.829568],[79.863481,6.829151],[79.863463,6.829211]]]]}},{"type":"Feature","properties":{"id":112},"geometry":{"type":"MultiPolygon","coordinates":[[[[79.863656,6.828677],[79.863602,6.828808],[79.863551,6.828941],[79.863535,6.828988],[79.863723,6.828664],[79.863689,6.828605],[79.863656,6.828677]]]]}},{"type":"Feature","properties":{"id":127},"geometry":{"type":"MultiPolygon","coordinates":[[[[79.864225,6.833245],[79.864314,6.833356],[79.864377,6.83343],[79.864237,6.833186],[79.864181,6.833186],[79.864225,6.833245]]]]}},{"type":"Feature","properties":{"id":128},"geometry":{"type":"MultiPolygon","coordinates":[[[[79.863708,6.832398],[79.86377,6.832525],[79.863836,6.832651],[79.863907,6.832774],[79.863981,6.832896],[79.864058,6.833014],[79.86414,6.833131],[79.864181,6.833186],[79.864237,6.833186],[79.864499,6.832735],[79.864238,6.832282],[79.863716,6.832281],[79.863682,6.83234],[79.863708,6.832398]]]]}},{"type":"Feature","properties":{"id":129},"geometry":{"type":"MultiPolygon","coordinates":[[[[79.8635,6.831869],[79.863529,6.831956],[79.863716,6.832281],[79.864238,6.832282],[79.8645,6.83183],[79.86424,6.831378],[79.863718,6.831377],[79.863476,6.831793],[79.8635,6.831869]]]]}},{"type":"Feature","properties":{"id":130},"geometry":{"type":"MultiPolygon","coordinates":[[[[79.863458,6.830924],[79.863718,6.831377],[79.86424,6.831378],[79.864502,6.830926],[79.864242,6.830474],[79.86372,6.830473],[79.863458,6.830924]]]]}},{"type":"Feature","properties":{"id":131},"geometry":{"type":"MultiPolygon","coordinates":[[[[79.863459,6.83002],[79.86372,6.830473],[79.864242,6.830474],[79.864504,6.830022],[79.864244,6.829569],[79.863721,6.829568],[79.863459,6.83002]]]]}},{"type":"Feature","properties":{"id":132},"geometry":{"type":"MultiPolygon","coordinates":[[[[79.863505,6.829075],[79.863481,6.829151],[79.863721,6.829568],[79.864244,6.829569],[79.864506,6.829118],[79.864245,6.828665],[79.863723,6.828664],[79.863535,6.828988],[79.863505,6.829075]]]]}},{"type":"Feature","properties":{"id":133},"geometry":{"type":"MultiPolygon","coordinates":[[[[79.86415,6.827816],[79.864068,6.827932],[79.86399,6.828051],[79.863915,6.828172],[79.863845,6.828295],[79.863778,6.82842],[79.863715,6.828548],[79.863689,6.828605],[79.863723,6.828664],[79.864245,6.828665],[79.864507,6.828214],[79.864247,6.827761],[79.864191,6.827761],[79.86415,6.827816]]]]}},{"type":"Feature","properties":{"id":134},"geometry":{"type":"MultiPolygon","coordinates":[[[[79.864324,6.827592],[79.864235,6.827703],[79.864191,6.827761],[79.864247,6.827761],[79.864388,6.827518],[79.864324,6.827592]]]]}},{"type":"Feature","properties":{"id":146},"geometry":{"type":"MultiPolygon","coordinates":[[[[79.8646,6.833671],[79.864702,6.83377],[79.864807,6.833866],[79.864914,6.833958],[79.865025,6.834047],[79.865139,6.834133],[79.865222,6.834192],[79.86528,6.834092],[79.865019,6.83364],[79.864569,6.833639],[79.8646,6.833671]]]]}},{"type":"Feature","properties":{"id":147},"geometry":{"type":"MultiPolygon","coordinates":[[[[79.864406,6.833464],[79.864501,6.833569],[79.864569,6.833639],[79.865019,6.83364],[79.865281,6.833188],[79.865021,6.832736],[79.864499,6.832735],[79.864237,6.833186],[79.864377,6.83343],[79.864406,6.833464]]]]}},{"type":"Feature","properties":{"id":148},"geometry":{"type":"MultiPolygon","coordinates":[[[[79.864238,6.832282],[79.864499,6.832735],[79.865021,6.832736],[79.865283,6.832284],[79.865023,6.831831],[79.8645,6.83183],[79.864238,6.832282]]]]}},{"type":"Feature","properties":{"id":149},"geometry":{"type":"MultiPolygon","coordinates":[[[[79.86424,6.831378],[79.8645,6.83183],[79.865023,6.831831],[79.865285,6.83138],[79.865024,6.830927],[79.864502,6.830926],[79.86424,6.831378]]]]}},{"type":"Feature","properties":{"id":150},"geometry":{"type":"MultiPolygon","coordinates":[[[[79.864242,6.830474],[79.864502,6.830926],[79.865024,6.830927],[79.865286,6.830476],[79.865026,6.830023],[79.864504,6.830022],[79.864242,6.830474]]]]}},{"type":"Feature","properties":{"id":151},"geometry":{"type":"MultiPolygon","coordinates":[[[[79.864244,6.829569],[79.864504,6.830022],[79.865026,6.830023],[79.865288,6.829571],[79.865028,6.829119],[79.864506,6.829118],[79.864244,6.829569]]]]}},{"type":"Feature","properties":{"id":152},"geometry":{"type":"MultiPolygon","coordinates":[[[[79.864245,6.828665],[79.864506,6.829118],[79.865028,6.829119],[79.86529,6.828667],[79.86503,6.828215],[79.864507,6.828214],[79.864245,6.828665]]]]}},{"type":"Feature","properties":{"id":153},"geometry":{"type":"MultiPolygon","coordinates":[[[[79.864513,6.827379],[79.864417,6.827484],[79.864388,6.827518],[79.864247,6.827761],[79.864507,6.828214],[79.86503,6.828215],[79.865292,6.827763],[79.865031,6.82731],[79.864581,6.82731],[79.864513,6.827379]]]]}},{"type":"Feature","properties":{"id":154},"geometry":{"type":"MultiPolygon","coordinates":[[[[79.865152,6.826818],[79.865039,6.826903],[79.864928,6.826991],[79.864819,6.827083],[79.864714,6.827179],[79.864612,6.827277],[79.864581,6.82731],[79.865031,6.82731],[79.865293,6.826859],[79.865236,6.826759],[79.865152,6.826818]]]]}},{"type":"Feature","properties":{"id":166},"geometry":{"type":"MultiPolygon","coordinates":[[[[79.865255,6.834215],[79.865373,6.834293],[79.865494,6.834367],[79.865618,6.834438],[79.865743,6.834505],[79.865871,6.834567],[79.866,6.834626],[79.866013,6.834631],[79.866062,6.834546],[79.865802,6.834093],[79.86528,6.834092],[79.865222,6.834192],[79.865255,6.834215]]]]}},{"type":"Feature","properties":{"id":167},"geometry":{"type":"MultiPolygon","coordinates":[[[[79.865019,6.83364],[79.86528,6.834092],[79.865802,6.834093],[79.866064,6.833642],[79.865804,6.833189],[79.865281,6.833188],[79.865019,6.83364]]]]}},{"type":"Feature","properties":{"id":168},"geometry":{"type":"MultiPolygon","coordinates":[[[[79.865021,6.832736],[79.865281,6.833188],[79.865804,6.833189],[79.866066,6.832738],[79.865805,6.832285],[79.865283,6.832284],[79.865021,6.832736]]]]}},{"type":"Feature","properties":{"id":169},"geometry":{"type":"MultiPolygon","coordinates":[[[[79.865023,6.831831],[79.865283,6.832284],[79.865805,6.832285],[79.866067,6.831833],[79.865807,6.831381],[79.865285,6.83138],[79.865023,6.831831]]]]}},{"type":"Feature","properties":{"id":170},"geometry":{"type":"MultiPolygon","coordinates":[[[[79.865024,6.830927],[79.865285,6.83138],[79.865807,6.831381],[79.866069,6.830929],[79.865809,6.830477],[79.865286,6.830476],[79.865024,6.830927]]]]}},{"type":"Feature","properties":{"id":171},"geometry":{"type":"MultiPolygon","coordinates":[[[[79.865026,6.830023],[79.865286,6.830476],[79.865809,6.830477],[79.866071,6.830025],[79.865811,6.829572],[79.865288,6.829571],[79.865026,6.830023]]]]}},{"type":"Feature","properties":{"id":172},"geometry":{"type":"MultiPolygon","coordinates":[[[[79.865028,6.829119],[79.865288,6.829571],[79.865811,6.829572],[79.866073,6.829121],[79.865812,6.828668],[79.86529,6.828667],[79.865028,6.829119]]]]}},{"type":"Feature","properties":{"id":173},"geometry":{"type":"MultiPolygon","coordinates":[[[[79.86503,6.828215],[79.86529,6.828667],[79.865812,6.828668],[79.866074,6.828217],[79.865814,6.827764],[79.865292,6.827763],[79.86503,6.828215]]]]}},{"type":"Feature","properties":{"id":174},"geometry":{"type":"MultiPolygon","coordinates":[[[[79.865031,6.82731],[79.865292,6.827763],[79.865814,6.827764],[79.866076,6.827312],[79.865816,6.82686],[79.865293,6.826859],[79.865031,6.82731]]]]}},{"type":"Feature","properties":{"id":175},"geometry":{"type":"MultiPolygon","coordinates":[[[[79.866016,6.826328],[79.865886,6.826386],[79.865758,6.826448],[79.865633,6.826514],[79.865509,6.826585],[79.865388,6.826659],[79.865269,6.826736],[79.865236,6.826759],[79.865293,6.826859],[79.865816,6.82686],[79.866078,6.826408],[79.866028,6.826323],[79.866016,6.826328]]]]}},{"type":"Feature","properties":{"id":185},"geometry":{"type":"MultiPolygon","coordinates":[[[[79.866131,6.834681],[79.866264,6.834731],[79.866398,6.834777],[79.866534,6.834819],[79.866671,6.834857],[79.866778,6.834883],[79.866585,6.834547],[79.866062,6.834546],[79.866013,6.834631],[79.866131,6.834681]]]]}},{"type":"Feature","properties":{"id":186},"geometry":{"type":"MultiPolygon","coordinates":[[[[79.865802,6.834093],[79.866062,6.834546],[79.866585,6.834547],[79.866847,6.834095],[79.866586,6.833643],[79.866064,6.833642],[79.865802,6.834093]]]]}},{"type":"Feature","properties":{"id":187},"geometry":{"type":"MultiPolygon","coordinates":[[[[79.865804,6.833189],[79.866064,6.833642],[79.866586,6.833643],[79.866848,6.833191],[79.866588,6.832739],[79.866066,6.832738],[79.865804,6.833189]]]]}},{"type":"Feature","properties":{"id":188},"geometry":{"type":"MultiPolygon","coordinates":[[[[79.865805,6.832285],[79.866066,6.832738],[79.866588,6.832739],[79.86685,6.832287],[79.86659,6.831834],[79.866067,6.831833],[79.865805,6.832285]]]]}},{"type":"Feature","properties":{"id":189},"geometry":{"type":"MultiPolygon","coordinates":[[[[79.865807,6.831381],[79.866067,6.831833],[79.86659,6.831834],[79.866852,6.831383],[79.866591,6.83093],[79.866069,6.830929],[79.865807,6.831381]]]]}},{"type":"Feature","properties":{"id":190},"geometry":{"type":"MultiPolygon","coordinates":[[[[79.865809,6.830477],[79.866069,6.830929],[79.866591,6.83093],[79.866853,6.830479],[79.866593,6.830026],[79.866071,6.830025],[79.865809,6.830477]]]]}},{"type":"Feature","properties":{"id":191},"geometry":{"type":"MultiPolygon","coordinates":[[[[79.865811,6.829572],[79.866071,6.830025],[79.866593,6.830026],[79.866855,6.829574],[79.866595,6.829122],[79.866073,6.829121],[79.865811,6.829572]]]]}},{"type":"Feature","properties":{"id":192},"geometry":{"type":"MultiPolygon","coordinates":[[[[79.865812,6.828668],[79.866073,6.829121],[79.866595,6.829122],[79.866857,6.82867],[79.866597,6.828218],[79.866074,6.828217],[79.865812,6.828668]]]]}},{"type":"Feature","properties":{"id":193},"geometry":{"type":"MultiPolygon","coordinates":[[[[79.865814,6.827764],[79.866074,6.828217],[79.866597,6.828218],[79.866859,6.827766],[79.866598,6.827313],[79.866076,6.827312],[79.865814,6.827764]]]]}},{"type":"Feature","properties":{"id":194},"geometry":{"type":"MultiPolygon","coordinates":[[[[79.865816,6.82686],[79.866076,6.827312],[79.866598,6.827313],[79.86686,6.826862],[79.8666,6.826409],[79.866078,6.826408],[79.865816,6.82686]]]]}},{"type":"Feature","properties":{"id":195},"geometry":{"type":"MultiPolygon","coordinates":[[[[79.866688,6.826099],[79.866551,6.826136],[79.866415,6.826178],[79.86628,6.826224],[79.866147,6.826274],[79.866028,6.826323],[79.866078,6.826408],[79.8666,6.826409],[79.866794,6.826074],[79.866688,6.826099]]]]}},{"type":"Feature","properties":{"id":206},"geometry":{"type":"MultiPolygon","coordinates":[[[[79.866809,6.834891],[79.866948,6.83492],[79.867088,6.834944],[79.867229,6.834965],[79.86737,6.834981],[79.867378,6.834981],[79.867629,6.834549],[79.867369,6.834096],[79.866847,6.834095],[79.866585,6.834547],[79.866778,6.834883],[79.866809,6.834891]]]]}},{"type":"Feature","properties":{"id":207},"geometry":{"type":"MultiPolygon","coordinates":[[[[79.866586,6.833643],[79.866847,6.834095],[79.867369,6.834096],[79.867631,6.833645],[79.867371,6.833192],[79.866848,6.833191],[79.866586,6.833643]]]]}},{"type":"Feature","properties":{"id":208},"geometry":{"type":"MultiPolygon","coordinates":[[[[79.866588,6.832739],[79.866848,6.833191],[79.867371,6.833192],[79.867633,6.832741],[79.867372,6.832288],[79.86685,6.832287],[79.866588,6.832739]]]]}},{"type":"Feature","properties":{"id":209},"geometry":{"type":"MultiPolygon","coordinates":[[[[79.86659,6.831834],[79.86685,6.832287],[79.867372,6.832288],[79.867634,6.831836],[79.867374,6.831384],[79.866852,6.831383],[79.86659,6.831834]]]]}},{"type":"Feature","properties":{"id":210},"geometry":{"type":"MultiPolygon","coordinates":[[[[79.866591,6.83093],[79.866852,6.831383],[79.867374,6.831384],[79.867636,6.830932],[79.867376,6.83048],[79.866853,6.830479],[79.866591,6.83093]]]]}},{"type":"Feature","properties":{"id":211},"geometry":{"type":"MultiPolygon","coordinates":[[[[79.866593,6.830026],[79.866853,6.830479],[79.867376,6.83048],[79.867638,6.830028],[79.867377,6.829575],[79.866855,6.829574],[79.866593,6.830026]]]]}},{"type":"Feature","properties":{"id":212},"geometry":{"type":"MultiPolygon","coordinates":[[[[79.866595,6.829122],[79.866855,6.829574],[79.867377,6.829575],[79.867639,6.829124],[79.867379,6.828671],[79.866857,6.82867],[79.866595,6.829122]]]]}},{"type":"Feature","properties":{"id":213},"geometry":{"type":"MultiPolygon","coordinates":[[[[79.866597,6.828218],[79.866857,6.82867],[79.867379,6.828671],[79.867641,6.82822],[79.867381,6.827767],[79.866859,6.827766],[79.866597,6.828218]]]]}},{"type":"Feature","properties":{"id":214},"geometry":{"type":"MultiPolygon","coordinates":[[[[79.866598,6.827313],[79.866859,6.827766],[79.867381,6.827767],[79.867643,6.827315],[79.867383,6.826863],[79.86686,6.826862],[79.866598,6.827313]]]]}},{"type":"Feature","properties":{"id":215},"geometry":{"type":"MultiPolygon","coordinates":[[[[79.867387,6.825979],[79.867246,6.825994],[79.867105,6.826014],[79.866965,6.826038],[79.866826,6.826066],[79.866794,6.826074],[79.8666,6.826409],[79.86686,6.826862],[79.867383,6.826863],[79.867645,6.826411],[79.867395,6.825978],[79.867387,6.825979]]]]}},{"type":"Feature","properties":{"id":225},"geometry":{"type":"MultiPolygon","coordinates":[[[[79.867512,6.834992],[79.867654,6.834999],[79.867796,6.835001],[79.867938,6.834999],[79.86808,6.834993],[79.868221,6.834982],[79.868363,6.834967],[79.868389,6.834963],[79.868151,6.83455],[79.867629,6.834549],[79.867378,6.834981],[79.867512,6.834992]]]]}},{"type":"Feature","properties":{"id":226},"geometry":{"type":"MultiPolygon","coordinates":[[[[79.867369,6.834096],[79.867629,6.834549],[79.868151,6.83455],[79.868414,6.834098],[79.868153,6.833646],[79.867631,6.833645],[79.867369,6.834096]]]]}},{"type":"Feature","properties":{"id":227},"geometry":{"type":"MultiPolygon","coordinates":[[[[79.867371,6.833192],[79.867631,6.833645],[79.868153,6.833646],[79.868415,6.833194],[79.868155,6.832742],[79.867633,6.832741],[79.867371,6.833192]]]]}},{"type":"Feature","properties":{"id":228},"geometry":{"type":"MultiPolygon","coordinates":[[[[79.867372,6.832288],[79.867633,6.832741],[79.868155,6.832742],[79.868417,6.83229],[79.868157,6.831837],[79.867634,6.831836],[79.867372,6.832288]]]]}},{"type":"Feature","properties":{"id":229},"geometry":{"type":"MultiPolygon","coordinates":[[[[79.867374,6.831384],[79.867634,6.831836],[79.868157,6.831837],[79.868419,6.831386],[79.868158,6.830933],[79.867636,6.830932],[79.867374,6.831384]]]]}},{"type":"Feature","properties":{"id":230},"geometry":{"type":"MultiPolygon","coordinates":[[[[79.867376,6.83048],[79.867636,6.830932],[79.868158,6.830933],[79.86842,6.830482],[79.86816,6.830029],[79.867638,6.830028],[79.867376,6.83048]]]]}},{"type":"Feature","properties":{"id":231},"geometry":{"type":"MultiPolygon","coordinates":[[[[79.867377,6.829575],[79.867638,6.830028],[79.86816,6.830029],[79.868422,6.829577],[79.868162,6.829125],[79.867639,6.829124],[79.867377,6.829575]]]]}},{"type":"Feature","properties":{"id":232},"geometry":{"type":"MultiPolygon","coordinates":[[[[79.867379,6.828671],[79.867639,6.829124],[79.868162,6.829125],[79.868424,6.828673],[79.868163,6.82822],[79.867641,6.82822],[79.867379,6.828671]]]]}},{"type":"Feature","properties":{"id":233},"geometry":{"type":"MultiPolygon","coordinates":[[[[79.867381,6.827767],[79.867641,6.82822],[79.868163,6.82822],[79.868425,6.827769],[79.868165,6.827316],[79.867643,6.827315],[79.867381,6.827767]]]]}},{"type":"Feature","properties":{"id":234},"geometry":{"type":"MultiPolygon","coordinates":[[[[79.867383,6.826863],[79.867643,6.827315],[79.868165,6.827316],[79.868427,6.826865],[79.868167,6.826412],[79.867645,6.826411],[79.867383,6.826863]]]]}},{"type":"Feature","properties":{"id":235},"geometry":{"type":"MultiPolygon","coordinates":[[[[79.86838,6.825996],[79.868238,6.82598],[79.868097,6.825969],[79.867955,6.825962],[79.867813,6.825959],[79.867671,6.825961],[79.867529,6.825968],[79.867395,6.825978],[79.867645,6.826411],[79.868167,6.826412],[79.868406,6.826],[79.86838,6.825996]]]]}},{"type":"Feature","properties":{"id":246},"geometry":{"type":"MultiPolygon","coordinates":[[[[79.868503,6.834947],[79.868643,6.834923],[79.868783,6.834894],[79.868921,6.834861],[79.869034,6.834831],[79.869196,6.834552],[79.868936,6.834099],[79.868414,6.834098],[79.868151,6.83455],[79.868389,6.834963],[79.868503,6.834947]]]]}},{"type":"Feature","properties":{"id":247},"geometry":{"type":"MultiPolygon","coordinates":[[[[79.868153,6.833646],[79.868414,6.834098],[79.868936,6.834099],[79.869198,6.833648],[79.868938,6.833195],[79.868415,6.833194],[79.868153,6.833646]]]]}},{"type":"Feature","properties":{"id":248},"geometry":{"type":"MultiPolygon","coordinates":[[[[79.868155,6.832742],[79.868415,6.833194],[79.868938,6.833195],[79.8692,6.832744],[79.868939,6.832291],[79.868417,6.83229],[79.868155,6.832742]]]]}},{"type":"Feature","properties":{"id":249},"geometry":{"type":"MultiPolygon","coordinates":[[[[79.868157,6.831837],[79.868417,6.83229],[79.868939,6.832291],[79.869201,6.831839],[79.868941,6.831387],[79.868419,6.831386],[79.868157,6.831837]]]]}},{"type":"Feature","properties":{"id":250},"geometry":{"type":"MultiPolygon","coordinates":[[[[79.868158,6.830933],[79.868419,6.831386],[79.868941,6.831387],[79.869203,6.830935],[79.868943,6.830482],[79.86842,6.830482],[79.868158,6.830933]]]]}},{"type":"Feature","properties":{"id":251},"geometry":{"type":"MultiPolygon","coordinates":[[[[79.86816,6.830029],[79.86842,6.830482],[79.868943,6.830482],[79.869205,6.830031],[79.868944,6.829578],[79.868422,6.829577],[79.86816,6.830029]]]]}},{"type":"Feature","properties":{"id":252},"geometry":{"type":"MultiPolygon","coordinates":[[[[79.868162,6.829125],[79.868422,6.829577],[79.868944,6.829578],[79.869206,6.829127],[79.868946,6.828674],[79.868424,6.828673],[79.868162,6.829125]]]]}},{"type":"Feature","properties":{"id":253},"geometry":{"type":"MultiPolygon","coordinates":[[[[79.868163,6.82822],[79.868424,6.828673],[79.868946,6.828674],[79.869208,6.828222],[79.868948,6.82777],[79.868425,6.827769],[79.868163,6.82822]]]]}},{"type":"Feature","properties":{"id":254},"geometry":{"type":"MultiPolygon","coordinates":[[[[79.868165,6.827316],[79.868425,6.827769],[79.868948,6.82777],[79.86921,6.827318],[79.868949,6.826866],[79.868427,6.826865],[79.868165,6.827316]]]]}},{"type":"Feature","properties":{"id":255},"geometry":{"type":"MultiPolygon","coordinates":[[[[79.868937,6.826103],[79.868799,6.82607],[79.86866,6.826041],[79.86852,6.826016],[79.868406,6.826],[79.868167,6.826412],[79.868427,6.826865],[79.868949,6.826866],[79.869211,6.826414],[79.869051,6.826135],[79.868937,6.826103]]]]}},{"type":"Feature","properties":{"id":265},"geometry":{"type":"MultiPolygon","coordinates":[[[[79.869058,6.834824],[79.869194,6.834783],[79.869328,6.834737],[79.869461,6.834687],[79.869593,6.834633],[79.869723,6.834575],[79.869729,6.834572],[79.869718,6.834553],[79.869196,6.834552],[79.869034,6.834831],[79.869058,6.834824]]]]}},{"type":"Feature","properties":{"id":266},"geometry":{"type":"MultiPolygon","coordinates":[[[[79.868936,6.834099],[79.869196,6.834552],[79.869718,6.834553],[79.86998,6.834101],[79.86972,6.833649],[79.869198,6.833648],[79.868936,6.834099]]]]}},{"type":"Feature","properties":{"id":267},"geometry":{"type":"MultiPolygon","coordinates":[[[[79.868938,6.833195],[79.869198,6.833648],[79.86972,6.833649],[79.869982,6.833197],[79.869722,6.832744],[79.8692,6.832744],[79.868938,6.833195]]]]}},{"type":"Feature","properties":{"id":268},"geometry":{"type":"MultiPolygon","coordinates":[[[[79.868939,6.832291],[79.8692,6.832744],[79.869722,6.832744],[79.869984,6.832293],[79.869724,6.83184],[79.869201,6.831839],[79.868939,6.832291]]]]}},{"type":"Feature","properties":{"id":269},"geometry":{"type":"MultiPolygon","coordinates":[[[[79.868941,6.831387],[79.869201,6.831839],[79.869724,6.83184],[79.869986,6.831389],[79.869725,6.830936],[79.869203,6.830935],[79.868941,6.831387]]]]}},{"type":"Feature","properties":{"id":270},"geometry":{"type":"MultiPolygon","coordinates":[[[[79.868943,6.830482],[79.869203,6.830935],[79.869725,6.830936],[79.869987,6.830484],[79.869727,6.830032],[79.869205,6.830031],[79.868943,6.830482]]]]}},{"type":"Feature","properties":{"id":271},"geometry":{"type":"MultiPolygon","coordinates":[[[[79.868944,6.829578],[79.869205,6.830031],[79.869727,6.830032],[79.869989,6.82958],[79.869729,6.829128],[79.869206,6.829127],[79.868944,6.829578]]]]}},{"type":"Feature","properties":{"id":272},"geometry":{"type":"MultiPolygon","coordinates":[[[[79.868946,6.828674],[79.869206,6.829127],[79.869729,6.829128],[79.869991,6.828676],[79.86973,6.828223],[79.869208,6.828222],[79.868946,6.828674]]]]}},{"type":"Feature","properties":{"id":273},"geometry":{"type":"MultiPolygon","coordinates":[[[[79.868948,6.82777],[79.869208,6.828222],[79.86973,6.828223],[79.869992,6.827772],[79.869732,6.827319],[79.86921,6.827318],[79.868948,6.82777]]]]}},{"type":"Feature","properties":{"id":274},"geometry":{"type":"MultiPolygon","coordinates":[[[[79.868949,6.826866],[79.86921,6.827318],[79.869732,6.827319],[79.869994,6.826868],[79.869734,6.826415],[79.869211,6.826414],[79.868949,6.826866]]]]}},{"type":"Feature","properties":{"id":275},"geometry":{"type":"MultiPolygon","coordinates":[[[[79.869738,6.826393],[79.869609,6.826335],[79.869477,6.82628],[79.869345,6.826229],[79.86921,6.826183],[79.869074,6.826141],[79.869051,6.826135],[79.869211,6.826414],[79.869734,6.826415],[79.869745,6.826396],[79.869738,6.826393]]]]}},{"type":"Feature","properties":{"id":286},"geometry":{"type":"MultiPolygon","coordinates":[[[[79.86985,6.834513],[79.869976,6.834446],[79.8701,6.834376],[79.870221,6.834302],[79.87034,6.834224],[79.870456,6.834143],[79.870505,6.834106],[79.870503,6.834102],[79.86998,6.834101],[79.869718,6.834553],[79.869729,6.834572],[79.86985,6.834513]]]]}},{"type":"Feature","properties":{"id":287},"geometry":{"type":"MultiPolygon","coordinates":[[[[79.86972,6.833649],[79.86998,6.834101],[79.870503,6.834102],[79.870765,6.833651],[79.870504,6.833198],[79.869982,6.833197],[79.86972,6.833649]]]]}},{"type":"Feature","properties":{"id":288},"geometry":{"type":"MultiPolygon","coordinates":[[[[79.869722,6.832744],[79.869982,6.833197],[79.870504,6.833198],[79.870766,6.832746],[79.870506,6.832294],[79.869984,6.832293],[79.869722,6.832744]]]]}},{"type":"Feature","properties":{"id":289},"geometry":{"type":"MultiPolygon","coordinates":[[[[79.869724,6.83184],[79.869984,6.832293],[79.870506,6.832294],[79.870768,6.831842],[79.870508,6.83139],[79.869986,6.831389],[79.869724,6.83184]]]]}},{"type":"Feature","properties":{"id":290},"geometry":{"type":"MultiPolygon","coordinates":[[[[79.869725,6.830936],[79.869986,6.831389],[79.870508,6.83139],[79.87077,6.830938],[79.87051,6.830485],[79.869987,6.830484],[79.869725,6.830936]]]]}},{"type":"Feature","properties":{"id":291},"geometry":{"type":"MultiPolygon","coordinates":[[[[79.869727,6.830032],[79.869987,6.830484],[79.87051,6.830485],[79.870772,6.830034],[79.870511,6.829581],[79.869989,6.82958],[79.869727,6.830032]]]]}},{"type":"Feature","properties":{"id":292},"geometry":{"type":"MultiPolygon","coordinates":[[[[79.869729,6.829128],[79.869989,6.82958],[79.870511,6.829581],[79.870773,6.82913],[79.870513,6.828677],[79.869991,6.828676],[79.869729,6.829128]]]]}},{"type":"Feature","properties":{"id":293},"geometry":{"type":"MultiPolygon","coordinates":[[[[79.86973,6.828223],[79.869991,6.828676],[79.870513,6.828677],[79.870775,6.828225],[79.870515,6.827773],[79.869992,6.827772],[79.86973,6.828223]]]]}},{"type":"Feature","properties":{"id":294},"geometry":{"type":"MultiPolygon","coordinates":[[[[79.869732,6.827319],[79.869992,6.827772],[79.870515,6.827773],[79.870777,6.827321],[79.870516,6.826869],[79.869994,6.826868],[79.869732,6.827319]]]]}},{"type":"Feature","properties":{"id":295},"geometry":{"type":"MultiPolygon","coordinates":[[[[79.87047,6.826828],[79.870354,6.826746],[79.870235,6.826668],[79.870114,6.826593],[79.869991,6.826523],[79.869865,6.826456],[79.869745,6.826396],[79.869734,6.826415],[79.869994,6.826868],[79.870516,6.826869],[79.870519,6.826865],[79.87047,6.826828]]]]}},{"type":"Feature","properties":{"id":306},"geometry":{"type":"MultiPolygon","coordinates":[[[[79.87057,6.834058],[79.870681,6.833969],[79.870789,6.833877],[79.870894,6.833782],[79.870997,6.833683],[79.871028,6.833651],[79.870765,6.833651],[79.870503,6.834102],[79.870505,6.834106],[79.87057,6.834058]]]]}},{"type":"Feature","properties":{"id":307},"geometry":{"type":"MultiPolygon","coordinates":[[[[79.871096,6.833581],[79.871192,6.833477],[79.871284,6.833369],[79.871373,6.833258],[79.871459,6.833145],[79.871491,6.833099],[79.871289,6.832747],[79.870766,6.832746],[79.870504,6.833198],[79.870765,6.833651],[79.871028,6.833651],[79.871096,6.833581]]]]}},{"type":"Feature","properties":{"id":308},"geometry":{"type":"MultiPolygon","coordinates":[[[[79.870506,6.832294],[79.870766,6.832746],[79.871289,6.832747],[79.871551,6.832296],[79.87129,6.831843],[79.870768,6.831842],[79.870506,6.832294]]]]}},{"type":"Feature","properties":{"id":309},"geometry":{"type":"MultiPolygon","coordinates":[[[[79.870508,6.83139],[79.870768,6.831842],[79.87129,6.831843],[79.871552,6.831392],[79.871292,6.830939],[79.87077,6.830938],[79.870508,6.83139]]]]}},{"type":"Feature","properties":{"id":310},"geometry":{"type":"MultiPolygon","coordinates":[[[[79.87051,6.830485],[79.87077,6.830938],[79.871292,6.830939],[79.871554,6.830487],[79.871294,6.830035],[79.870772,6.830034],[79.87051,6.830485]]]]}},{"type":"Feature","properties":{"id":311},"geometry":{"type":"MultiPolygon","coordinates":[[[[79.870511,6.829581],[79.870772,6.830034],[79.871294,6.830035],[79.871556,6.829583],[79.871296,6.829131],[79.870773,6.82913],[79.870511,6.829581]]]]}},{"type":"Feature","properties":{"id":312},"geometry":{"type":"MultiPolygon","coordinates":[[[[79.870513,6.828677],[79.870773,6.82913],[79.871296,6.829131],[79.871558,6.828679],[79.871297,6.828226],[79.870775,6.828225],[79.870513,6.828677]]]]}},{"type":"Feature","properties":{"id":313},"geometry":{"type":"MultiPolygon","coordinates":[[[[79.871469,6.82783],[79.871384,6.827716],[79.871295,6.827605],[79.871203,6.827497],[79.871107,6.827392],[79.87104,6.827322],[79.870777,6.827321],[79.870515,6.827773],[79.870775,6.828225],[79.871297,6.828226],[79.871501,6.827876],[79.871469,6.82783]]]]}},{"type":"Feature","properties":{"id":314},"geometry":{"type":"MultiPolygon","coordinates":[[[[79.871009,6.827289],[79.870907,6.82719],[79.870802,6.827095],[79.870694,6.827002],[79.870583,6.826913],[79.870519,6.826865],[79.870516,6.826869],[79.870777,6.827321],[79.87104,6.827322],[79.871009,6.827289]]]]}},{"type":"Feature","properties":{"id":328},"geometry":{"type":"MultiPolygon","coordinates":[[[[79.871541,6.833029],[79.871619,6.83291],[79.871693,6.832789],[79.871764,6.832666],[79.871831,6.83254],[79.871893,6.832413],[79.871946,6.832297],[79.871551,6.832296],[79.871289,6.832747],[79.871491,6.833099],[79.871541,6.833029]]]]}},{"type":"Feature","properties":{"id":329},"geometry":{"type":"MultiPolygon","coordinates":[[[[79.871952,6.832284],[79.872007,6.832153],[79.872057,6.83202],[79.872104,6.831886],[79.872146,6.83175],[79.872183,6.831613],[79.872189,6.831591],[79.872075,6.831393],[79.871552,6.831392],[79.87129,6.831843],[79.871551,6.832296],[79.871946,6.832297],[79.871952,6.832284]]]]}},{"type":"Feature","properties":{"id":330},"geometry":{"type":"MultiPolygon","coordinates":[[[[79.872307,6.830914],[79.872309,6.830892],[79.872076,6.830488],[79.871554,6.830487],[79.871292,6.830939],[79.871552,6.831392],[79.872075,6.831393],[79.872296,6.831012],[79.872307,6.830914]]]]}},{"type":"Feature","properties":{"id":331},"geometry":{"type":"MultiPolygon","coordinates":[[[[79.872308,6.830063],[79.872298,6.829966],[79.872078,6.829584],[79.871556,6.829583],[79.871294,6.830035],[79.871554,6.830487],[79.872076,6.830488],[79.87231,6.830086],[79.872308,6.830063]]]]}},{"type":"Feature","properties":{"id":332},"geometry":{"type":"MultiPolygon","coordinates":[[[[79.872188,6.829364],[79.87215,6.829227],[79.872109,6.829091],[79.872063,6.828957],[79.872013,6.828824],[79.871959,6.828693],[79.871953,6.82868],[79.871558,6.828679],[79.871296,6.829131],[79.871556,6.829583],[79.872078,6.829584],[79.872193,6.829386],[79.872188,6.829364]]]]}},{"type":"Feature","properties":{"id":333},"geometry":{"type":"MultiPolygon","coordinates":[[[[79.871901,6.828563],[79.871838,6.828435],[79.871772,6.82831],[79.871702,6.828186],[79.871628,6.828065],[79.87155,6.827946],[79.871501,6.827876],[79.871297,6.828226],[79.871558,6.828679],[79.871953,6.82868],[79.871901,6.828563]]]]}},{"type":"Feature","properties":{"id":349},"geometry":{"type":"MultiPolygon","coordinates":[[[[79.872217,6.831475],[79.872246,6.831336],[79.872271,6.831196],[79.872291,6.831055],[79.872296,6.831012],[79.872075,6.831393],[79.872189,6.831591],[79.872217,6.831475]]]]}},{"type":"Feature","properties":{"id":350},"geometry":{"type":"MultiPolygon","coordinates":[[[[79.872326,6.830347],[79.872319,6.830205],[79.87231,6.830086],[79.872076,6.830488],[79.872309,6.830892],[79.872318,6.830773],[79.872325,6.830631],[79.872328,6.830489],[79.872326,6.830347]]]]}},{"type":"Feature","properties":{"id":351},"geometry":{"type":"MultiPolygon","coordinates":[[[[79.872293,6.829922],[79.872273,6.829782],[79.872249,6.829642],[79.872221,6.829502],[79.872193,6.829386],[79.872078,6.829584],[79.872298,6.829966],[79.872293,6.829922]]]]}}]}