{"type":"FeatureCollection","features":[{"type":"Feature","properties":{"name":"Galle Road","highway":"trunk"},"geometry":{"type":"MultiLineString","coordinates":[[[79.869446,6.826268],[79.86944,6.826284],[79.869248,6.826697]]]}},{"type":"Feature","properties":{"name":"Galle Road","highway":"trunk"},"geometry":{"type":"MultiLineString","coordinates":[[[79.869111,6.827224],[79.869285,6.82682],[79.869496,6.82633],[79.869511,6.826294]]]}},{"type":"Feature","properties":{"name":"Templers Road","highway":"primary"},"geometry":{"type":"MultiLineString","coordinates":[[[79.872173,6.831649],[79.872161,6.831646],[79.871843,6.831515],[79.871477,6.831364],[79.870988,6.831244],[79.87074,6.831214],[79.869781,6.831036],[79.869529,6.830963],[79.869259,6.830905],[79.86909,6.830879],[79.869051,6.830879],[79.869008,6.830871],[79.86863,6.830786],[79.868256,6.830662],[79.867931,6.830551],[79.867837,6.830512]]]}},{"type":"Feature","properties":{"name":"Hena Road","highway":"residential"},"geometry":{"type":"MultiLineString","coordinates":[[[79.871901,6.828563],[79.871538,6.828495]]]}},{"type":"Feature","properties":{"name":null,"highway":"residential"},"geometry":{"type":"MultiLineString","coordinates":[[[79.872185,6.829353],[79.871534,6.829209],[79.871372,6.829132]]]}},{"type":"Feature","properties":{"name":null,"highway":"residential"},"geometry":{"type":"MultiLineString","coordinates":[[[79.871372,6.829132],[79.871538,6.828495]]]}},{"type":"Feature","properties":{"name":null,"highway":"living_street"},"geometry":{"type":"MultiLineString","coordinates":[[[79.871538,6.828495],[79.8716,6.82812],[79.871616,6.828047]]]}},{"type":"Feature","properties":{"name":null,"highway":"residential"},"geometry":{"type":"MultiLineString","coordinates":[[[79.86999,6.82724],[79.869974,6.827002],[79.869953,6.826947],[79.869901,6.826913],[79.869285,6.82682],[79.869203,6.826807]]]}},{"type":"Feature","properties":{"name":null,"highway":"residential"},"geometry":{"type":"MultiLineString","coordinates":[[[79.86982,6.826434],[79.869693,6.826405],[79.869496,6.82633]]]}},{"type":"Feature","properties":{"name":null,"highway":"residential"},"geometry":{"type":"MultiLineString","coordinates":[[[79.870344,6.826739],[79.870343,6.826778],[79.870418,6.827235],[79.870433,6.82729],[79.870473,6.827318],[79.87071,6.827323]]]}},{"type":"Feature","properties":{"name":"Hena Road","highway":"residential"},"geometry":{"type":"MultiLineString","coordinates":[[[79.871538,6.828495],[79.871307,6.828452],[79.871093,6.828384],[79.870824,6.82819],[79.870634,6.828115],[79.870442,6.828094],[79.870275,6.828083],[79.870147,6.828077],[79.869852,6.828043],[79.869709,6.828052],[79.869624,6.828086],[79.869226,6.828248]]]}},{"type":"Feature","properties":{"name":null,"highway":"residential"},"geometry":{"type":"MultiLineString","coordinates":[[[79.87061,6.828453],[79.870183,6.828437],[79.870147,6.828077]]]}},{"type":"Feature","properties":{"name":null,"highway":"service"},"geometry":{"type":"MultiLineString","coordinates":[[[79.870634,6.828115],[79.870766,6.828062],[79.870898,6.828032],[79.87093,6.82799],[79.870946,6.827931],[79.870992,6.827702],[79.871021,6.827667],[79.871075,6.82766],[79.871198,6.827678]]]}},{"type":"Feature","properties":{"name":null,"highway":"residential"},"geometry":{"type":"MultiLineString","coordinates":[[[79.870824,6.82819],[79.870682,6.828789]]]}},{"type":"Feature","properties":{"name":null,"highway":"residential"},"geometry":{"type":"MultiLineString","coordinates":[[[79.870183,6.828437],[79.870219,6.828682]]]}},{"type":"Feature","properties":{"name":null,"highway":"residential"},"geometry":{"type":"MultiLineString","coordinates":[[[79.869513,6.829223],[79.869751,6.829266],[79.869792,6.829297],[79.869806,6.829345],[79.869784,6.829637],[79.869791,6.829677]]]}},{"type":"Feature","properties":{"name":null,"highway":"residential"},"geometry":{"type":"MultiLineString","coordinates":[[[79.869656,6.828648],[79.869636,6.828259],[79.869624,6.828086]]]}},{"type":"Feature","properties":{"name":null,"highway":"residential"},"geometry":{"type":"MultiLineString","coordinates":[[[79.869226,6.828248],[79.869419,6.828403],[79.869457,6.828457],[79.869493,6.829187],[79.869513,6.829223]]]}},{"type":"Feature","properties":{"name":null,"highway":"residential"},"geometry":{"type":"MultiLineString","coordinates":[[[79.869791,6.829677],[79.869814,6.82971],[79.870005,6.829769],[79.870044,6.829793],[79.870064,6.829831]]]}},{"type":"Feature","properties":{"name":null,"highway":"residential"},"geometry":{"type":"MultiLineString","coordinates":[[[79.869993,6.830103],[79.870027,6.829974],[79.870064,6.829831]]]}},{"type":"Feature","properties":{"name":null,"highway":"residential"},"geometry":{"type":"MultiLineString","coordinates":[[[79.869134,6.830216],[79.869207,6.830265],[79.869212,6.830357],[79.86909,6.830879]]]}},{"type":"Feature","properties":{"name":null,"highway":"residential"},"geometry":{"type":"MultiLineString","coordinates":[[[79.870376,6.832646],[79.869717,6.832484]]]}},{"type":"Feature","properties":{"name":null,"highway":"residential"},"geometry":{"type":"MultiLineString","coordinates":[[[79.870941,6.832714],[79.8708,6.832496],[79.870636,6.832297],[79.870511,6.832182],[79.870394,6.832069],[79.869986,6.831994],[79.869733,6.831987],[79.868955,6.831964]]]}},{"type":"Feature","properties":{"name":null,"highway":"residential"},"geometry":{"type":"MultiLineString","coordinates":[[[79.869717,6.832484],[79.869705,6.832461],[79.869733,6.831987]]]}},{"type":"Feature","properties":{"name":null,"highway":"residential"},"geometry":{"type":"MultiLineString","coordinates":[[[79.87074,6.831214],[79.870718,6.831319],[79.870649,6.831716],[79.870511,6.832182]]]}},{"type":"Feature","properties":{"name":null,"highway":"residential"},"geometry":{"type":"MultiLineString","coordinates":[[[79.871131,6.833242],[79.871088,6.833246],[79.870608,6.833057]]]}},{"type":"Feature","properties":{"name":"D.J. Wijesiriwardane Mawatha","highway":"residential"},"geometry":{"type":"MultiLineString","coordinates":[[[79.871629,6.832432],[79.871238,6.832564],[79.870941,6.832714],[79.870839,6.832793],[79.87074,6.83289],[79.870608,6.833057],[79.870281,6.83341]]]}},{"type":"Feature","properties":{"name":"Vidyala Road","highway":"residential"},"geometry":{"type":"MultiLineString","coordinates":[[[79.869781,6.831036],[79.869852,6.830594],[79.869993,6.830103],[79.870205,6.830158],[79.870637,6.830332],[79.870978,6.830456],[79.871038,6.830507],[79.871068,6.830586],[79.871042,6.830877],[79.871003,6.831109],[79.870988,6.831244]]]}},{"type":"Feature","properties":{"name":null,"highway":"residential"},"geometry":{"type":"MultiLineString","coordinates":[[[79.871372,6.829132],[79.87133,6.829162],[79.871185,6.829132],[79.871164,6.829138],[79.871151,6.829149],[79.871128,6.829242],[79.87107,6.829365],[79.871054,6.829485],[79.870997,6.829535],[79.870865,6.829518],[79.870621,6.829449],[79.870433,6.829398],[79.870413,6.829405],[79.870402,6.829424],[79.870346,6.829607],[79.870286,6.829838],[79.870205,6.830158]]]}},{"type":"Feature","properties":{"name":null,"highway":"living_street"},"geometry":{"type":"MultiLineString","coordinates":[[[79.871038,6.830507],[79.871051,6.830488],[79.871081,6.830451],[79.871148,6.830453],[79.871201,6.830424],[79.871246,6.83019],[79.871273,6.830134],[79.871346,6.83012]]]}},{"type":"Feature","properties":{"name":null,"highway":"residential"},"geometry":{"type":"MultiLineString","coordinates":[[[79.872161,6.831646],[79.872146,6.831429],[79.872035,6.830384],[79.872114,6.82993],[79.872128,6.829915],[79.872196,6.829921],[79.872225,6.829878],[79.872244,6.829619]]]}},{"type":"Feature","properties":{"name":null,"highway":"residential"},"geometry":{"type":"MultiLineString","coordinates":[[[79.871671,6.832714],[79.871721,6.832742]]]}},{"type":"Feature","properties":{"name":null,"highway":"residential"},"geometry":{"type":"MultiLineString","coordinates":[[[79.871816,6.83214],[79.871989,6.832195]]]}},{"type":"Feature","properties":{"name":null,"highway":"residential"},"geometry":{"type":"MultiLineString","coordinates":[[[79.8708,6.832496],[79.871019,6.832389],[79.871156,6.832024],[79.871286,6.83176],[79.871477,6.831364],[79.871641,6.831042],[79.871803,6.830608]]]}},{"type":"Feature","properties":{"name":null,"highway":"residential"},"geometry":{"type":"MultiLineString","coordinates":[[[79.871286,6.83176],[79.871524,6.831912],[79.871601,6.832038],[79.87164,6.832166],[79.871629,6.832432]]]}},{"type":"Feature","properties":{"name":"D.J. Wijesiriwardane Mawatha","highway":"residential"},"geometry":{"type":"MultiLineString","coordinates":[[[79.871131,6.833242],[79.871166,6.833226],[79.871495,6.832918],[79.871671,6.832714],[79.871705,6.832648],[79.871719,6.83256],[79.871722,6.832468],[79.871678,6.832431],[79.871629,6.832432]]]}},{"type":"Feature","properties":{"name":null,"highway":"residential"},"geometry":{"type":"MultiLineString","coordinates":[[[79.870802,6.833866],[79.870519,6.83377]]]}},{"type":"Feature","properties":{"name":null,"highway":"residential"},"geometry":{"type":"MultiLineString","coordinates":[[[79.870628,6.834012],[79.870502,6.83397],[79.870465,6.833915],[79.870466,6.83388],[79.870519,6.83377],[79.870576,6.833663],[79.870567,6.83359],[79.870528,6.833532],[79.870281,6.83341]]]}},{"type":"Feature","properties":{"name":null,"highway":"residential"},"geometry":{"type":"MultiLineString","coordinates":[[[79.870065,6.834396],[79.870069,6.834244],[79.870071,6.834175]]]}},{"type":"Feature","properties":{"name":null,"highway":"residential"},"geometry":{"type":"MultiLineString","coordinates":[[[79.870071,6.834175],[79.870045,6.834159],[79.869458,6.834175],[79.869371,6.834154],[79.868989,6.834187]]]}},{"type":"Feature","properties":{"name":null,"highway":"residential"},"geometry":{"type":"MultiLineString","coordinates":[[[79.869938,6.833719],[79.86913,6.833604]]]}},{"type":"Feature","properties":{"name":null,"highway":"residential"},"geometry":{"type":"MultiLineString","coordinates":[[[79.868877,6.834872],[79.868879,6.834707],[79.868989,6.834187],[79.86913,6.833604],[79.8692,6.833417],[79.869314,6.833028]]]}},{"type":"Feature","properties":{"name":null,"highway":"residential"},"geometry":{"type":"MultiLineString","coordinates":[[[79.868314,6.833381],[79.8692,6.833417]]]}},{"type":"Feature","properties":{"name":"D.J. Wijesiriwardane Mawatha","highway":"residential"},"geometry":{"type":"MultiLineString","coordinates":[[[79.870281,6.83341],[79.869902,6.833196],[79.869765,6.833133],[79.869616,6.833087],[79.869314,6.833028],[79.869297,6.83299],[79.869258,6.832938],[79.869197,6.832907],[79.869137,6.8329],[79.868978,6.832898],[79.86738,6.832901]]]}},{"type":"Feature","properties":{"name":"Templer Place","highway":"residential"},"geometry":{"type":"MultiLineString","coordinates":[[[79.869008,6.830871],[79.868956,6.831311],[79.868941,6.831843],[79.868955,6.831964],[79.868995,6.832411],[79.868978,6.832898]]]}},{"type":"Feature","properties":{"name":"Wijeratne Mawatha","highway":"residential"},"geometry":{"type":"MultiLineString","coordinates":[[[79.868233,6.829443],[79.868347,6.829484],[79.869302,6.829858]]]}},{"type":"Feature","properties":{"name":null,"highway":"living_street"},"geometry":{"type":"MultiLineString","coordinates":[[[79.868179,6.829573],[79.868442,6.829665],[79.86868,6.829787]]]}},{"type":"Feature","properties":{"name":"Templers Road","highway":"primary_link"},"geometry":{"type":"MultiLineString","coordinates":[[[79.867837,6.830512],[79.867766,6.830482]]]}},{"type":"Feature","properties":{"name":null,"highway":"footway"},"geometry":{"type":"MultiLineString","coordinates":[[[79.867803,6.830374],[79.867879,6.830402]]]}},{"type":"Feature","properties":{"name":null,"highway":"residential"},"geometry":{"type":"MultiLineString","coordinates":[[[79.868009,6.829816],[79.867282,6.829614]]]}},{"type":"Feature","properties":{"name":null,"highway":"residential"},"geometry":{"type":"MultiLineString","coordinates":[[[79.867902,6.830104],[79.86708,6.82994],[79.86646,6.829839]]]}},{"type":"Feature","properties":{"name":null,"highway":"residential"},"geometry":{"type":"MultiLineString","coordinates":[[[79.86708,6.82994],[79.86707,6.830172],[79.86705,6.83036],[79.866964,6.830713]]]}},{"type":"Feature","properties":{"name":null,"highway":"residential"},"geometry":{"type":"MultiLineString","coordinates":[[[79.867189,6.83159],[79.867175,6.831598],[79.867,6.831741],[79.86692,6.831803],[79.866863,6.831907],[79.866821,6.832059],[79.866748,6.832531]]]}},{"type":"Feature","properties":{"name":null,"highway":"living_street"},"geometry":{"type":"MultiLineString","coordinates":[[[79.867546,6.831603],[79.868107,6.831565],[79.86814,6.831581]]]}},{"type":"Feature","properties":{"name":null,"highway":"footway"},"geometry":{"type":"MultiLineString","coordinates":[[[79.867324,6.832792],[79.867388,6.832792]]]}},{"type":"Feature","properties":{"name":null,"highway":"residential"},"geometry":{"type":"MultiLineString","coordinates":[[[79.866083,6.832468],[79.866104,6.832229],[79.86611,6.832156]]]}},{"type":"Feature","properties":{"name":"Old Quarry Road","highway":"residential"},"geometry":{"type":"MultiLineString","coordinates":[[[79.864359,6.831661],[79.864416,6.831621],[79.864541,6.831567],[79.86474,6.831464],[79.864833,6.831423],[79.864921,6.831405],[79.86516,6.83143],[79.86533,6.8315],[79.865582,6.83165],[79.865651,6.831649],[79.86597,6.831561],[79.866123,6.83155],[79.866764,6.831581],[79.867189,6.83159],[79.867474,6.8316]]]}},{"type":"Feature","properties":{"name":null,"highway":"residential"},"geometry":{"type":"MultiLineString","coordinates":[[[79.866764,6.831581],[79.866762,6.831522],[79.866743,6.831385],[79.866693,6.831088],[79.866678,6.831003],[79.866668,6.830925]]]}},{"type":"Feature","properties":{"name":"Kongahawatte Road","highway":"residential"},"geometry":{"type":"MultiLineString","coordinates":[[[79.865614,6.830703],[79.865913,6.830751],[79.865934,6.830751],[79.865956,6.830742],[79.866231,6.830371]]]}},{"type":"Feature","properties":{"name":null,"highway":"living_street"},"geometry":{"type":"MultiLineString","coordinates":[[[79.866112,6.831165],[79.866123,6.83155]]]}},{"type":"Feature","properties":{"name":"Samudrasanna Road","highway":"residential"},"geometry":{"type":"MultiLineString","coordinates":[[[79.86766,6.83083],[79.867436,6.830801],[79.866964,6.830713],[79.866401,6.830475],[79.866231,6.830371],[79.866089,6.830285],[79.865678,6.830221],[79.865049,6.830104],[79.864782,6.830079],[79.864748,6.830088],[79.864706,6.830123],[79.864536,6.830306],[79.864455,6.830344],[79.863651,6.830508]]]}},{"type":"Feature","properties":{"name":null,"highway":"living_street"},"geometry":{"type":"MultiLineString","coordinates":[[[79.865612,6.829912],[79.865636,6.829954],[79.865678,6.830221]]]}},{"type":"Feature","properties":{"name":null,"highway":"living_street"},"geometry":{"type":"MultiLineString","coordinates":[[[79.865062,6.829589],[79.865068,6.829805],[79.865083,6.829844],[79.865105,6.829856],[79.865575,6.829893],[79.865612,6.829912]]]}},{"type":"Feature","properties":{"name":null,"highway":"residential"},"geometry":{"type":"MultiLineString","coordinates":[[[79.866075,6.829174],[79.865995,6.829137],[79.865042,6.828932],[79.864567,6.828941],[79.864382,6.82893],[79.864328,6.82888],[79.8643,6.82876],[79.86421,6.828599],[79.864139,6.82857],[79.864013,6.82858],[79.863947,6.82867],[79.863811,6.829018],[79.863713,6.829399],[79.86361,6.829889],[79.863651,6.830508],[79.863689,6.831259],[79.863739,6.831579]]]}},{"type":"Feature","properties":{"name":null,"highway":"residential"},"geometry":{"type":"MultiLineString","coordinates":[[[79.865049,6.830104],[79.865081,6.830451],[79.86516,6.83143]]]}},{"type":"Feature","properties":{"name":"Station Road","highway":"residential"},"geometry":{"type":"MultiLineString","coordinates":[[[79.867405,6.832565],[79.867335,6.832561],[79.866748,6.832531],[79.866561,6.832526],[79.866149,6.832471],[79.866083,6.832468],[79.865615,6.832442],[79.86468,6.83239],[79.86442,6.832409],[79.86397,6.832387]]]}},{"type":"Feature","properties":{"name":null,"highway":"residential"},"geometry":{"type":"MultiLineString","coordinates":[[[79.865615,6.832442],[79.865572,6.832974],[79.865578,6.832999],[79.865591,6.83301],[79.865611,6.833019],[79.865916,6.833032]]]}},{"type":"Feature","properties":{"name":"Simon Abeywickrema Avenue","highway":"residential"},"geometry":{"type":"MultiLineString","coordinates":[[[79.864798,6.833858],[79.864859,6.83384],[79.865,6.833813],[79.86522,6.83381],[79.865667,6.833813]]]}},{"type":"Feature","properties":{"name":"Simon Abeywickrema Avenue","highway":"residential"},"geometry":{"type":"MultiLineString","coordinates":[[[79.865667,6.833813],[79.8657,6.833833],[79.865746,6.834256],[79.865775,6.83452]]]}},{"type":"Feature","properties":{"name":null,"highway":"residential"},"geometry":{"type":"MultiLineString","coordinates":[[[79.867282,6.834019],[79.866746,6.834082],[79.866376,6.834133],[79.865746,6.834256]]]}},{"type":"Feature","properties":{"name":"Circular Road","highway":"residential"},"geometry":{"type":"MultiLineString","coordinates":[[[79.866525,6.834817],[79.866519,6.834758],[79.866498,6.834642],[79.866456,6.834529],[79.86643,6.834466],[79.866385,6.834365],[79.866369,6.834275],[79.866374,6.834184],[79.866376,6.834133],[79.866387,6.834078],[79.866406,6.833991],[79.86647,6.833778],[79.866505,6.833502],[79.866536,6.833044],[79.866561,6.832526]]]}},{"type":"Feature","properties":{"name":"Station Road","highway":"residential"},"geometry":{"type":"MultiLineString","coordinates":[[[79.86468,6.83239],[79.864625,6.832241],[79.864445,6.831811],[79.864359,6.831661],[79.864254,6.831556],[79.864181,6.831531],[79.863739,6.831579],[79.86367,6.831611],[79.86359,6.831626],[79.8635,6.83161],[79.86345,6.83155],[79.863438,6.831284],[79.863396,6.831208],[79.863337,6.83119]]]}},{"type":"Feature","properties":{"name":"Lilian Avenue","highway":"residential"},"geometry":{"type":"MultiLineString","coordinates":[[[79.86442,6.832409],[79.864295,6.833114],[79.864263,6.833293]]]}},{"type":"Feature","properties":{"name":null,"highway":"residential"},"geometry":{"type":"MultiLineString","coordinates":[[[79.864295,6.833114],[79.864734,6.833143]]]}},{"type":"Feature","properties":{"name":null,"highway":"residential"},"geometry":{"type":"MultiLineString","coordinates":[[[79.8646,6.830963],[79.864621,6.830978],[79.864627,6.831008],[79.86474,6.831464]]]}},{"type":"Feature","properties":{"name":null,"highway":"residential"},"geometry":{"type":"MultiLineString","coordinates":[[[79.864395,6.830974],[79.8646,6.830963]]]}},{"type":"Feature","properties":{"name":null,"highway":"residential"},"geometry":{"type":"MultiLineString","coordinates":[[[79.864567,6.828941],[79.864531,6.82878],[79.864493,6.828672]]]}},{"type":"Feature","properties":{"name":null,"highway":"residential"},"geometry":{"type":"MultiLineString","coordinates":[[[79.863474,6.829177],[79.863492,6.829184],[79.863539,6.829215],[79.863713,6.829399],[79.86414,6.829495],[79.864206,6.829526],[79.864244,6.82963]]]}},{"type":"Feature","properties":{"name":null,"highway":"living_street"},"geometry":{"type":"MultiLineString","coordinates":[[[79.864703,6.827217],[79.864676,6.827216]]]}},{"type":"Feature","properties":{"name":"St. Rita's Road","highway":"residential"},"geometry":{"type":"MultiLineString","coordinates":[[[79.865357,6.826679],[79.86554,6.826714],[79.8656,6.826741],[79.865652,6.82678],[79.865744,6.826928],[79.865819,6.827004],[79.866035,6.827145],[79.866301,6.827144],[79.866532,6.827074],[79.866589,6.827056],[79.866989,6.826906],[79.867099,6.826868]]]}},{"type":"Feature","properties":{"name":null,"highway":"service"},"geometry":{"type":"MultiLineString","coordinates":[[[79.865548,6.827581],[79.865724,6.827581],[79.865754,6.827569],[79.865775,6.827535],[79.865819,6.827004]]]}},{"type":"Feature","properties":{"name":"St. Mary's Road","highway":"residential"},"geometry":{"type":"MultiLineString","coordinates":[[[79.868661,6.828184],[79.86845,6.82812],[79.86828,6.82806],[79.868178,6.828043],[79.867971,6.828036],[79.867197,6.828138],[79.866954,6.828152],[79.86633,6.828188],[79.865797,6.828149],[79.865463,6.828124],[79.865136,6.828086],[79.86473,6.828044],[79.864043,6.82797]]]}},{"type":"Feature","properties":{"name":null,"highway":"residential"},"geometry":{"type":"MultiLineString","coordinates":[[[79.866089,6.830285],[79.866098,6.830113],[79.866111,6.829849],[79.866139,6.8296],[79.866127,6.829554],[79.86607,6.829507],[79.866031,6.829457],[79.86601,6.829386],[79.866035,6.829235],[79.866075,6.829174],[79.866104,6.829147],[79.866242,6.828798],[79.866322,6.828567],[79.866341,6.8284],[79.86633,6.828188]]]}},{"type":"Feature","properties":{"name":null,"highway":"residential"},"geometry":{"type":"MultiLineString","coordinates":[[[79.866242,6.828798],[79.86641,6.82886],[79.86658,6.828909],[79.86707,6.82898]]]}},{"type":"Feature","properties":{"name":null,"highway":"residential"},"geometry":{"type":"MultiLineString","coordinates":[[[79.866322,6.828567],[79.866538,6.828623],[79.86712,6.828649]]]}},{"type":"Feature","properties":{"name":null,"highway":"service"},"geometry":{"type":"MultiLineString","coordinates":[[[79.866541,6.827413],[79.866532,6.827074]]]}},{"type":"Feature","properties":{"name":null,"highway":"service"},"geometry":{"type":"MultiLineString","coordinates":[[[79.866026,6.827664],[79.866035,6.827145]]]}},{"type":"Feature","properties":{"name":null,"highway":"residential"},"geometry":{"type":"MultiLineString","coordinates":[[[79.866589,6.827056],[79.866593,6.826599],[79.866578,6.826254],[79.866555,6.826135]]]}},{"type":"Feature","properties":{"name":null,"highway":"residential"},"geometry":{"type":"MultiLineString","coordinates":[[[79.866578,6.826254],[79.86627,6.826227]]]}},{"type":"Feature","properties":{"name":null,"highway":"service"},"geometry":{"type":"MultiLineString","coordinates":[[[79.86735,6.827382],[79.867435,6.826877]]]}},{"type":"Feature","properties":{"name":"St. Rita's Road","highway":"residential"},"geometry":{"type":"MultiLineString","coordinates":[[[79.867099,6.826868],[79.867187,6.826854],[79.867435,6.826877],[79.867473,6.82688]]]}},{"type":"Feature","properties":{"name":null,"highway":"service"},"geometry":{"type":"MultiLineString","coordinates":[[[79.86694,6.827437],[79.866986,6.827101],[79.866989,6.826906]]]}},{"type":"Feature","properties":{"name":null,"highway":"residential"},"geometry":{"type":"MultiLineString","coordinates":[[[79.868178,6.828043],[79.868009,6.827962],[79.867933,6.827935],[79.867692,6.827843],[79.867642,6.827809],[79.867531,6.827719],[79.867447,6.827689],[79.867157,6.827689],[79.867097,6.827731],[79.867022,6.827813],[79.866961,6.827819],[79.866638,6.827827]]]}},{"type":"Feature","properties":{"name":null,"highway":"residential"},"geometry":{"type":"MultiLineString","coordinates":[[[79.867504,6.82888],[79.867493,6.828777],[79.86749,6.828749],[79.867501,6.828718],[79.867518,6.828709],[79.867582,6.828693],[79.867597,6.828681],[79.867606,6.828666],[79.867632,6.828528],[79.867652,6.828479],[79.867673,6.828459],[79.867749,6.828453],[79.867858,6.828449]]]}},{"type":"Feature","properties":{"name":null,"highway":"residential"},"geometry":{"type":"MultiLineString","coordinates":[[[79.867705,6.829304],[79.867747,6.829336],[79.867763,6.829382],[79.867788,6.829411],[79.86784,6.829435],[79.868116,6.829539]]]}},{"type":"Feature","properties":{"name":null,"highway":"residential"},"geometry":{"type":"MultiLineString","coordinates":[[[79.868487,6.828623],[79.867858,6.828449],[79.86776,6.828398],[79.867661,6.82839],[79.867269,6.828403]]]}},{"type":"Feature","properties":{"name":null,"highway":"residential"},"geometry":{"type":"MultiLineString","coordinates":[[[79.867858,6.828449],[79.867911,6.828264],[79.867971,6.828036]]]}},{"type":"Feature","properties":{"name":null,"highway":"service"},"geometry":{"type":"MultiLineString","coordinates":[[[79.867848,6.828536],[79.868451,6.828708]]]}},{"type":"Feature","properties":{"name":"Galle Road","highway":"trunk"},"geometry":{"type":"MultiLineString","coordinates":[[[79.867837,6.830512],[79.867879,6.830402],[79.86813,6.829691],[79.868179,6.829573],[79.868233,6.829443],[79.868325,6.82922],[79.868345,6.82917],[79.868495,6.828794],[79.868555,6.828652],[79.868601,6.828525],[79.868711,6.828262],[79.868789,6.828059],[79.868859,6.827875],[79.868978,6.82754],[79.869111,6.827224]]]}},{"type":"Feature","properties":{"name":null,"highway":"residential"},"geometry":{"type":"MultiLineString","coordinates":[[[79.869068,6.828821],[79.868555,6.828652]]]}},{"type":"Feature","properties":{"name":null,"highway":"residential"},"geometry":{"type":"MultiLineString","coordinates":[[[79.868345,6.82917],[79.869006,6.829408]]]}},{"type":"Feature","properties":{"name":null,"highway":"residential"},"geometry":{"type":"MultiLineString","coordinates":[[[79.868495,6.828794],[79.868653,6.828845],[79.868694,6.828842],[79.868755,6.828811],[79.868807,6.828791],[79.868847,6.828797],[79.869239,6.828934]]]}},{"type":"Feature","properties":{"name":"Hena Road","highway":"residential"},"geometry":{"type":"MultiLineString","coordinates":[[[79.869226,6.828248],[79.868789,6.828059],[79.868723,6.828031]]]}},{"type":"Feature","properties":{"name":null,"highway":"footway"},"geometry":{"type":"MultiLineString","coordinates":[[[79.868915,6.827518],[79.868978,6.82754]]]}},{"type":"Feature","properties":{"name":null,"highway":"service"},"geometry":{"type":"MultiLineString","coordinates":[[[79.869001,6.827303],[79.868597,6.827177],[79.868575,6.827171],[79.868553,6.827176],[79.868502,6.827318]]]}},{"type":"Feature","properties":{"name":null,"highway":"service"},"geometry":{"type":"MultiLineString","coordinates":[[[79.868933,6.827469],[79.868763,6.827453],[79.868543,6.827403],[79.868518,6.827383],[79.868509,6.827365],[79.868502,6.827318]]]}},{"type":"Feature","properties":{"name":null,"highway":"service"},"geometry":{"type":"MultiLineString","coordinates":[[[79.868394,6.827609],[79.868166,6.827525],[79.868148,6.827505],[79.868139,6.827479],[79.868265,6.827009]]]}},{"type":"Feature","properties":{"name":"St. Rita's Road","highway":"residential"},"geometry":{"type":"MultiLineString","coordinates":[[[79.867473,6.82688],[79.867836,6.826903],[79.867928,6.826926],[79.868024,6.826949],[79.86814,6.826976],[79.868265,6.827009],[79.868737,6.827104],[79.868915,6.82715],[79.869042,6.827195],[79.869111,6.827224]]]}},{"type":"Feature","properties":{"name":null,"highway":"service"},"geometry":{"type":"MultiLineString","coordinates":[[[79.869203,6.826807],[79.868913,6.82676],[79.86828,6.826662],[79.868242,6.826634],[79.868229,6.826592],[79.868277,6.826227]]]}},{"type":"Feature","properties":{"name":null,"highway":"service"},"geometry":{"type":"MultiLineString","coordinates":[[[79.868913,6.82676],[79.869038,6.82632],[79.869032,6.826275],[79.869022,6.826221],[79.868961,6.82611]]]}},{"type":"Feature","properties":{"name":"Sri Indrajhothi Road","highway":"residential"},"geometry":{"type":"MultiLineString","coordinates":[[[79.867836,6.826903],[79.867837,6.826868],[79.867841,6.826509],[79.868003,6.825983],[79.868006,6.825964]]]}},{"type":"Feature","properties":{"name":"Galle Road","highway":"trunk"},"geometry":{"type":"MultiLineString","coordinates":[[[79.869248,6.826697],[79.869203,6.826807],[79.869042,6.827195],[79.869001,6.827303],[79.868933,6.827469],[79.868915,6.827518],[79.868854,6.827684],[79.868723,6.828031],[79.868661,6.828184],[79.868487,6.828623],[79.868451,6.828708],[79.868116,6.829539],[79.868051,6.829702],[79.868009,6.829816],[79.867902,6.830104],[79.867803,6.830374],[79.867766,6.830482],[79.867697,6.830691],[79.867668,6.830801],[79.86766,6.83083],[79.867625,6.830961],[79.86755,6.831239],[79.867499,6.831473],[79.867474,6.8316],[79.867439,6.831778],[79.867392,6.832106],[79.867351,6.832403],[79.867335,6.832561],[79.867327,6.832646],[79.867324,6.832792],[79.867322,6.832885],[79.867307,6.833144],[79.867308,6.833178],[79.867313,6.833433],[79.867309,6.833712],[79.867311,6.833963],[79.867313,6.834214],[79.867309,6.834534],[79.867317,6.834975]]]}},{"type":"Feature","properties":{"name":"Galle Road","highway":"trunk"},"geometry":{"type":"MultiLineString","coordinates":[[[79.867382,6.834981],[79.867365,6.834491],[79.867368,6.833998],[79.867368,6.833692],[79.867369,6.83347],[79.867369,6.833177],[79.867373,6.833047],[79.86738,6.832901],[79.867381,6.832893],[79.867388,6.832792],[79.867401,6.832615],[79.867405,6.832565],[79.867421,6.832403],[79.86751,6.831806],[79.867546,6.831603],[79.867554,6.83156],[79.867585,6.831371],[79.867708,6.830908],[79.867795,6.830647],[79.867837,6.830512]]]}}]}