{
"type": "FeatureCollection",
"name": "SVF_point_values_WGS84",
"crs": { "type": "name", "properties": { "name": "urn:ogc:def:crs:OGC:1.3:CRS84" } },
"features": [
{ "type": "Feature", "properties": { "id": 1, "SVF_value1": 0.549, "SVF_Class": "Mixed", "Y": 481541.91203900002 }, "geometry": { "type": "Point", "coordinates": [ 79.867175969600439, 6.833024635837185 ] } },
{ "type": "Feature", "properties": { "id": 2, "SVF_value1": 0.631, "SVF_Class": "Mixed", "Y": 481532.79620600003 }, "geometry": { "type": "Point", "coordinates": [ 79.867192618938631, 6.83294224071138 ] } },
{ "type": "Feature", "properties": { "id": 3, "SVF_value1": 0.907, "SVF_Class": "Very Open", "Y": 481519.93275199999 }, "geometry": { "type": "Point", "coordinates": [ 79.867189173463231, 6.832825921182726 ] } },
{ "type": "Feature", "properties": { "id": 4, "SVF_value1": 0.638, "SVF_Class": "Mixed", "Y": 481505.246132 }, "geometry": { "type": "Point", "coordinates": [ 79.867196754856195, 6.832693137156059 ] } },
{ "type": "Feature", "properties": { "id": 5, "SVF_value1": 0.715, "SVF_Class": "Open", "Y": 481515.88127100002 }, "geometry": { "type": "Point", "coordinates": [ 79.867251551790375, 6.832789404895214 ] } },
{ "type": "Feature", "properties": { "id": 6, "SVF_value1": 0.687, "SVF_Class": "Mixed", "Y": 481524.18680800003 }, "geometry": { "type": "Point", "coordinates": [ 79.867262405631266, 6.83286452513068 ] } },
{ "type": "Feature", "properties": { "id": 7, "SVF_value1": 0.625, "SVF_Class": "Mixed", "Y": 481523.98423399997 }, "geometry": { "type": "Point", "coordinates": [ 79.867179024829284, 6.832862536050397 ] } },
{ "type": "Feature", "properties": { "id": 8, "SVF_value1": 0.756, "SVF_Class": "Open", "Y": 481532.89749300003 }, "geometry": { "type": "Point", "coordinates": [ 79.867260424202428, 6.832943284543271 ] } },
{ "type": "Feature", "properties": { "id": 9, "SVF_value1": 0.75, "SVF_Class": "Open", "Y": 481543.93777900003 }, "geometry": { "type": "Point", "coordinates": [ 79.867256570351103, 6.833043104985295 ] } },
{ "type": "Feature", "properties": { "id": 10, "SVF_value1": 0.513, "SVF_Class": "Mixed", "Y": 481500.84014599997 }, "geometry": { "type": "Point", "coordinates": [ 79.867259597375366, 6.832653416263982 ] } },
{ "type": "Feature", "properties": { "id": 11, "SVF_value1": 0.809, "SVF_Class": "Open", "Y": 481509.04439599998 }, "geometry": { "type": "Point", "coordinates": [ 79.867278699740552, 6.832727636216477 ] } },
{ "type": "Feature", "properties": { "id": 12, "SVF_value1": 0.634, "SVF_Class": "Mixed", "Y": 481502.663313 }, "geometry": { "type": "Point", "coordinates": [ 79.867109291357551, 6.832669617872954 ] } },
{ "type": "Feature", "properties": { "id": 13, "SVF_value1": 0.649, "SVF_Class": "Mixed", "Y": 481501.54915600002 }, "geometry": { "type": "Point", "coordinates": [ 79.866976445422409, 6.832659292731616 ] } },
{ "type": "Feature", "properties": { "id": 14, "SVF_value1": 0.221, "SVF_Class": "Very Enclo", "Y": 481500.94143300003 }, "geometry": { "type": "Point", "coordinates": [ 79.866787695927812, 6.832653441246604 ] } },
{ "type": "Feature", "properties": { "id": 15, "SVF_value1": 0.613, "SVF_Class": "Mixed", "Y": 481497.49767399998 }, "geometry": { "type": "Point", "coordinates": [ 79.866618237439155, 6.83262198231 ] } },
{ "type": "Feature", "properties": { "id": 16, "SVF_value1": 0.43, "SVF_Class": "Moderately", "Y": 481492.02817399998 }, "geometry": { "type": "Point", "coordinates": [ 79.866706296687155, 6.832572692689802 ] } },
{ "type": "Feature", "properties": { "id": 17, "SVF_value1": 0.747, "SVF_Class": "Open", "Y": 481492.63589699997 }, "geometry": { "type": "Point", "coordinates": [ 79.866868473156416, 6.832578494029953 ] } },
{ "type": "Feature", "properties": { "id": 18, "SVF_value1": 0.748, "SVF_Class": "Open", "Y": 481493.14233200002 }, "geometry": { "type": "Point", "coordinates": [ 79.867038898157475, 6.832583395036881 ] } },
{ "type": "Feature", "properties": { "id": 19, "SVF_value1": 0.668, "SVF_Class": "Mixed", "Y": 481469.54245299997 }, "geometry": { "type": "Point", "coordinates": [ 79.866835880671147, 6.832369618571639 ] } },
{ "type": "Feature", "properties": { "id": 20, "SVF_value1": 0.549, "SVF_Class": "Mixed", "Y": 481486.86253599997 }, "geometry": { "type": "Point", "coordinates": [ 79.867060996895532, 6.832526654018364 ] } },
{ "type": "Feature", "properties": { "id": 21, "SVF_value1": 0.778, "SVF_Class": "Open", "Y": 481478.25313799997 }, "geometry": { "type": "Point", "coordinates": [ 79.867054729827871, 6.832448794889188 ] } },
{ "type": "Feature", "properties": { "id": 22, "SVF_value1": 0.733, "SVF_Class": "Open", "Y": 481488.179267 }, "geometry": { "type": "Point", "coordinates": [ 79.867212165537751, 6.832538845415829 ] } },
{ "type": "Feature", "properties": { "id": 23, "SVF_value1": 0.894, "SVF_Class": "Very Open", "Y": 481486.25481399999 }, "geometry": { "type": "Point", "coordinates": [ 79.867302913097689, 6.832521615522571 ] } },
{ "type": "Feature", "properties": { "id": 24, "SVF_value1": 0.773, "SVF_Class": "Open", "Y": 481479.468582 }, "geometry": { "type": "Point", "coordinates": [ 79.86684212520062, 6.832459383713409 ] } },
{ "type": "Feature", "properties": { "id": 25, "SVF_value1": 0.769, "SVF_Class": "Open", "Y": 481479.569869 }, "geometry": { "type": "Point", "coordinates": [ 79.866920926106062, 6.832460448345491 ] } },
{ "type": "Feature", "properties": { "id": 26, "SVF_value1": 0.785, "SVF_Class": "Open", "Y": 481480.88660099998 }, "geometry": { "type": "Point", "coordinates": [ 79.866987794217977, 6.832472480644248 ] } },
{ "type": "Feature", "properties": { "id": 27, "SVF_value1": 0.675, "SVF_Class": "Mixed", "Y": 481481.59561000002 }, "geometry": { "type": "Point", "coordinates": [ 79.866707391318656, 6.832478362156946 ] } },
{ "type": "Feature", "properties": { "id": 28, "SVF_value1": 0.809, "SVF_Class": "Open", "Y": 481487.36897100002 }, "geometry": { "type": "Point", "coordinates": [ 79.866925374378894, 6.832530977235385 ] } },
{ "type": "Feature", "properties": { "id": 29, "SVF_value1": 0.673, "SVF_Class": "Mixed", "Y": 481486.05223899998 }, "geometry": { "type": "Point", "coordinates": [ 79.86678336885636, 6.832518803051877 ] } },
{ "type": "Feature", "properties": { "id": 30, "SVF_value1": 0.872, "SVF_Class": "Very Open", "Y": 481493.851341 }, "geometry": { "type": "Point", "coordinates": [ 79.867307364886656, 6.832590312721481 ] } },
{ "type": "Feature", "properties": { "id": 31, "SVF_value1": 0.752, "SVF_Class": "Open", "Y": 481542.16525600001 }, "geometry": { "type": "Point", "coordinates": [ 79.867364267164874, 6.833027280859366 ] } },
{ "type": "Feature", "properties": { "id": 32, "SVF_value1": 0.828, "SVF_Class": "Open", "Y": 481517.147359 }, "geometry": { "type": "Point", "coordinates": [ 79.867377522853133, 6.832801090768267 ] } },
{ "type": "Feature", "properties": { "id": 33, "SVF_value1": 0.888, "SVF_Class": "Very Open", "Y": 481487.47025800002 }, "geometry": { "type": "Point", "coordinates": [ 79.867401853814187, 6.832532792442309 ] } },
{ "type": "Feature", "properties": { "id": 34, "SVF_value1": 0.908, "SVF_Class": "Very Open", "Y": 481459.920185 }, "geometry": { "type": "Point", "coordinates": [ 79.86742614840179, 6.832283726904183 ] } },
{ "type": "Feature", "properties": { "id": 35, "SVF_value1": 0.879, "SVF_Class": "Very Open", "Y": 481422.443982 }, "geometry": { "type": "Point", "coordinates": [ 79.867468938638552, 6.831944942887804 ] } },
{ "type": "Feature", "properties": { "id": 36, "SVF_value1": 0.847, "SVF_Class": "Open", "Y": 481363.29235399998 }, "geometry": { "type": "Point", "coordinates": [ 79.867587236142214, 6.831410309237482 ] } },
{ "type": "Feature", "properties": { "id": 37, "SVF_value1": 0.915, "SVF_Class": "Very Open", "Y": 481326.82902200002 }, "geometry": { "type": "Point", "coordinates": [ 79.867653832806866, 6.831080728579443 ] } },
{ "type": "Feature", "properties": { "id": 38, "SVF_value1": 0.878, "SVF_Class": "Very Open", "Y": 481298.67122600001 }, "geometry": { "type": "Point", "coordinates": [ 79.867738613717933, 6.830826281954697 ] } },
{ "type": "Feature", "properties": { "id": 39, "SVF_value1": 0.876, "SVF_Class": "Very Open", "Y": 481259.97957899998 }, "geometry": { "type": "Point", "coordinates": [ 79.867801582954215, 6.830476545685729 ] } },
{ "type": "Feature", "properties": { "id": 40, "SVF_value1": 0.054, "SVF_Class": "Very Enclo", "Y": 481493.14233200002 }, "geometry": { "type": "Point", "coordinates": [ 79.866527597214102, 6.832582429544125 ] } },
{ "type": "Feature", "properties": { "id": 41, "SVF_value1": 0.317, "SVF_Class": "Moderately", "Y": 481491.31916499999 }, "geometry": { "type": "Point", "coordinates": [ 79.866419503824346, 6.832565740053802 ] } },
{ "type": "Feature", "properties": { "id": 42, "SVF_value1": 0.604, "SVF_Class": "Mixed", "Y": 481480.38016599999 }, "geometry": { "type": "Point", "coordinates": [ 79.866342720853908, 6.832466683157554 ] } },
{ "type": "Feature", "properties": { "id": 43, "SVF_value1": 0.877, "SVF_Class": "Very Open", "Y": 481479.77244299999 }, "geometry": { "type": "Point", "coordinates": [ 79.866527825787756, 6.832461537717596 ] } },
{ "type": "Feature", "properties": { "id": 44, "SVF_value1": 0.661, "SVF_Class": "Mixed", "Y": 481485.241943 }, "geometry": { "type": "Point", "coordinates": [ 79.866571715148282, 6.832511076538476 ] } },
{ "type": "Feature", "properties": { "id": 45, "SVF_value1": 0.458, "SVF_Class": "Moderately", "Y": 481485.64709099999 }, "geometry": { "type": "Point", "coordinates": [ 79.866404939851435, 6.832514424918433 ] } },
{ "type": "Feature", "properties": { "id": 46, "SVF_value1": 0.038, "SVF_Class": "Very Enclo", "Y": 481485.241943 }, "geometry": { "type": "Point", "coordinates": [ 79.866278496042383, 6.832510522638736 ] } },
{ "type": "Feature", "properties": { "id": 47, "SVF_value1": 0.223, "SVF_Class": "Very Enclo", "Y": 481487.87540600001 }, "geometry": { "type": "Point", "coordinates": [ 79.86616299598596, 6.83253411651579 ] } },
{ "type": "Feature", "properties": { "id": 48, "SVF_value1": 0.443, "SVF_Class": "Moderately", "Y": 481478.75957300002 }, "geometry": { "type": "Point", "coordinates": [ 79.866172314988702, 6.832451707592796 ] } },
{ "type": "Feature", "properties": { "id": 49, "SVF_value1": 0.416, "SVF_Class": "Moderately", "Y": 481513.29845200002 }, "geometry": { "type": "Point", "coordinates": [ 79.866591394329845, 6.83276480428209 ] } },
{ "type": "Feature", "properties": { "id": 50, "SVF_value1": 0.34, "SVF_Class": "Moderately", "Y": 481533.55585800001 }, "geometry": { "type": "Point", "coordinates": [ 79.866576387043949, 6.832947946024998 ] } },
{ "type": "Feature", "properties": { "id": 51, "SVF_value1": 0.447, "SVF_Class": "Moderately", "Y": 481505.600637 }, "geometry": { "type": "Point", "coordinates": [ 79.866530133151528, 6.832695083937921 ] } },
{ "type": "Feature", "properties": { "id": 52, "SVF_value1": 0.063, "SVF_Class": "Very Enclo", "Y": 481517.85636799998 }, "geometry": { "type": "Point", "coordinates": [ 79.866535421480933, 6.832805911829433 ] } },
{ "type": "Feature", "properties": { "id": 53, "SVF_value1": 0.019, "SVF_Class": "Very Enclo", "Y": 481533.45457100001 }, "geometry": { "type": "Point", "coordinates": [ 79.866525075383777, 6.832946933252626 ] } },
{ "type": "Feature", "properties": { "id": 54, "SVF_value1": 0.885, "SVF_Class": "Very Open", "Y": 481534.56872899999 }, "geometry": { "type": "Point", "coordinates": [ 79.866619436325777, 6.832957185840518 ] } },
{ "type": "Feature", "properties": { "id": 55, "SVF_value1": 0.828, "SVF_Class": "Open", "Y": 481536.29060800001 }, "geometry": { "type": "Point", "coordinates": [ 79.866773347079288, 6.832973045972708 ] } },
{ "type": "Feature", "properties": { "id": 56, "SVF_value1": 0.77, "SVF_Class": "Open", "Y": 481537.50605299999 }, "geometry": { "type": "Point", "coordinates": [ 79.866946509029731, 6.832984363152512 ] } },
{ "type": "Feature", "properties": { "id": 57, "SVF_value1": 0.723, "SVF_Class": "Open", "Y": 481540.139516 }, "geometry": { "type": "Point", "coordinates": [ 79.867125144632865, 6.83300851251179 ] } },
{ "type": "Feature", "properties": { "id": 58, "SVF_value1": 0.706, "SVF_Class": "Open", "Y": 481503.06846099999 }, "geometry": { "type": "Point", "coordinates": [ 79.866637384719198, 6.832672390247823 ] } },
{ "type": "Feature", "properties": { "id": 59, "SVF_value1": 0.357, "SVF_Class": "Moderately", "Y": 481504.68905400002 }, "geometry": { "type": "Point", "coordinates": [ 79.866770221982321, 6.832687294718304 ] } },
{ "type": "Feature", "properties": { "id": 60, "SVF_value1": 0.791, "SVF_Class": "Open", "Y": 481505.398063 }, "geometry": { "type": "Point", "coordinates": [ 79.86693514569329, 6.832694017079407 ] } },
{ "type": "Feature", "properties": { "id": 61, "SVF_value1": 0.801, "SVF_Class": "Open", "Y": 481506.41093299998 }, "geometry": { "type": "Point", "coordinates": [ 79.867124804601289, 6.832703533627892 ] } },
{ "type": "Feature", "properties": { "id": 62, "SVF_value1": 0.867, "SVF_Class": "Very Open", "Y": 481521.80656300002 }, "geometry": { "type": "Point", "coordinates": [ 79.867146533010597, 6.832842783931525 ] } },
{ "type": "Feature", "properties": { "id": 63, "SVF_value1": 0.596, "SVF_Class": "Mixed", "Y": 481519.47696100001 }, "geometry": { "type": "Point", "coordinates": [ 79.866935821408106, 6.832821321579335 ] } },
{ "type": "Feature", "properties": { "id": 64, "SVF_value1": 0.491, "SVF_Class": "Moderately", "Y": 481521.40141400002 }, "geometry": { "type": "Point", "coordinates": [ 79.867027419567805, 6.832838895673405 ] } },
{ "type": "Feature", "properties": { "id": 65, "SVF_value1": 0.41, "SVF_Class": "Moderately", "Y": 481526.26319199998 }, "geometry": { "type": "Point", "coordinates": [ 79.867017257075361, 6.832882837314245 ] } },
{ "type": "Feature", "properties": { "id": 66, "SVF_value1": 0.557, "SVF_Class": "Mixed", "Y": 481525.95933099999 }, "geometry": { "type": "Point", "coordinates": [ 79.866818422881835, 6.832879714342368 ] } },
{ "type": "Feature", "properties": { "id": 67, "SVF_value1": 0.856, "SVF_Class": "Very Open", "Y": 481513.906174 }, "geometry": { "type": "Point", "coordinates": [ 79.866814963646618, 6.832770721600594 ] } },
{ "type": "Feature", "properties": { "id": 68, "SVF_value1": 0.932, "SVF_Class": "Very Open", "Y": 481514.91904399998 }, "geometry": { "type": "Point", "coordinates": [ 79.867033028197483, 6.832780291826166 ] } },
{ "type": "Feature", "properties": { "id": 69, "SVF_value1": 0.842, "SVF_Class": "Open", "Y": 481514.41260899999 }, "geometry": { "type": "Point", "coordinates": [ 79.866919414367644, 6.83277549807528 ] } },
{ "type": "Feature", "properties": { "id": 70, "SVF_value1": 0.498, "SVF_Class": "Moderately", "Y": 481526.26319199998 }, "geometry": { "type": "Point", "coordinates": [ 79.866921960777887, 6.832882657394807 ] } },
{ "type": "Feature", "properties": { "id": 71, "SVF_value1": 0.607, "SVF_Class": "Mixed", "Y": 481520.99626599997 }, "geometry": { "type": "Point", "coordinates": [ 79.866873486334029, 6.832834941641063 ] } },
{ "type": "Feature", "properties": { "id": 72, "SVF_value1": 0.487, "SVF_Class": "Moderately", "Y": 481523.22458099999 }, "geometry": { "type": "Point", "coordinates": [ 79.866976991336315, 6.832855285778628 ] } },
{ "type": "Feature", "properties": { "id": 73, "SVF_value1": 0.477, "SVF_Class": "Moderately", "Y": 481517.85636799998 }, "geometry": { "type": "Point", "coordinates": [ 79.866983497243851, 6.832806757982835 ] } },
{ "type": "Feature", "properties": { "id": 74, "SVF_value1": 0.51, "SVF_Class": "Mixed", "Y": 481517.55250699999 }, "geometry": { "type": "Point", "coordinates": [ 79.866846055878042, 6.832803750929143 ] } },
{ "type": "Feature", "properties": { "id": 75, "SVF_value1": 0.947, "SVF_Class": "Very Open", "Y": 481517.65379399998 }, "geometry": { "type": "Point", "coordinates": [ 79.866732431662584, 6.832804452216955 ] } },
{ "type": "Feature", "properties": { "id": 76, "SVF_value1": 0.854, "SVF_Class": "Very Open", "Y": 481531.83397899999 }, "geometry": { "type": "Point", "coordinates": [ 79.867084968871694, 6.832933336923748 ] } },
{ "type": "Feature", "properties": { "id": 77, "SVF_value1": 0.888, "SVF_Class": "Very Open", "Y": 481528.491507 }, "geometry": { "type": "Point", "coordinates": [ 79.866721250685657, 6.832902427102908 ] } },
{ "type": "Feature", "properties": { "id": 78, "SVF_value1": 0.743, "SVF_Class": "Open", "Y": 481511.98171999998 }, "geometry": { "type": "Point", "coordinates": [ 79.867186560370769, 6.832754021978777 ] } },
{ "type": "Feature", "properties": { "id": 79, "SVF_value1": 0.743, "SVF_Class": "Open", "Y": 481510.15855400002 }, "geometry": { "type": "Point", "coordinates": [ 79.867236530431782, 6.832737630984486 ] } },
{ "type": "Feature", "properties": { "id": 80, "SVF_value1": 0.69, "SVF_Class": "Mixed", "Y": 481527.83314100001 }, "geometry": { "type": "Point", "coordinates": [ 79.867229814311941, 6.832897434238785 ] } },
{ "type": "Feature", "properties": { "id": 81, "SVF_value1": 0.669, "SVF_Class": "Mixed", "Y": 481541.40560400003 }, "geometry": { "type": "Point", "coordinates": [ 79.867218586708532, 6.83302013702682 ] } },
{ "type": "Feature", "properties": { "id": 82, "SVF_value1": 0.468, "SVF_Class": "Moderately", "Y": 481543.12748299999 }, "geometry": { "type": "Point", "coordinates": [ 79.866684348072553, 6.833034697802115 ] } },
{ "type": "Feature", "properties": { "id": 83, "SVF_value1": 0.368, "SVF_Class": "Moderately", "Y": 481544.34292800003 }, "geometry": { "type": "Point", "coordinates": [ 79.866808029253946, 6.833045921580558 ] } },
{ "type": "Feature", "properties": { "id": 84, "SVF_value1": 0.352, "SVF_Class": "Moderately", "Y": 481545.25451100001 }, "geometry": { "type": "Point", "coordinates": [ 79.866983029047276, 6.833054494669654 ] } },
{ "type": "Feature", "properties": { "id": 85, "SVF_value1": 0.369, "SVF_Class": "Moderately", "Y": 481545.558372 }, "geometry": { "type": "Point", "coordinates": [ 79.867127800977883, 6.833057515531737 ] } },
{ "type": "Feature", "properties": { "id": 86, "SVF_value1": 0.623, "SVF_Class": "Mixed", "Y": 481565.613205 }, "geometry": { "type": "Point", "coordinates": [ 79.867125625689269, 6.833238849837466 ] } },
{ "type": "Feature", "properties": { "id": 87, "SVF_value1": 0.033, "SVF_Class": "Very Enclo", "Y": 481569.86726000003 }, "geometry": { "type": "Point", "coordinates": [ 79.866989022613652, 6.833277057664755 ] } },
{ "type": "Feature", "properties": { "id": 88, "SVF_value1": 0.365, "SVF_Class": "Moderately", "Y": 481566.92993599997 }, "geometry": { "type": "Point", "coordinates": [ 79.866875450216497, 6.833250283554649 ] } },
{ "type": "Feature", "properties": { "id": 89, "SVF_value1": 0.385, "SVF_Class": "Moderately", "Y": 481555.07935299998 }, "geometry": { "type": "Point", "coordinates": [ 79.86688206693573, 6.833143141539956 ] } },
{ "type": "Feature", "properties": { "id": 90, "SVF_value1": 0.048, "SVF_Class": "Very Enclo", "Y": 481556.59865900001 }, "geometry": { "type": "Point", "coordinates": [ 79.866991081986058, 6.83315708513353 ] } },
{ "type": "Feature", "properties": { "id": 91, "SVF_value1": 0.541, "SVF_Class": "Mixed", "Y": 481568.753103 }, "geometry": { "type": "Point", "coordinates": [ 79.867221784728912, 6.833267422722424 ] } },
{ "type": "Feature", "properties": { "id": 92, "SVF_value1": 0.51, "SVF_Class": "Mixed", "Y": 481555.07935299998 }, "geometry": { "type": "Point", "coordinates": [ 79.867235763009376, 6.833143809277553 ] } },
{ "type": "Feature", "properties": { "id": 93, "SVF_value1": 0.692, "SVF_Class": "Mixed", "Y": 481559.738557 }, "geometry": { "type": "Point", "coordinates": [ 79.867294327326462, 6.833186048943137 ] } },
{ "type": "Feature", "properties": { "id": 94, "SVF_value1": 0.017, "SVF_Class": "Very Enclo", "Y": 481565.10677000001 }, "geometry": { "type": "Point", "coordinates": [ 79.866819586394456, 6.833233692755278 ] } },
{ "type": "Feature", "properties": { "id": 95, "SVF_value1": 0.52, "SVF_Class": "Mixed", "Y": 481556.09222400002 }, "geometry": { "type": "Point", "coordinates": [ 79.866777590167288, 6.833152102754928 ] } },
{ "type": "Feature", "properties": { "id": 96, "SVF_value1": 0.03, "SVF_Class": "Very Enclo", "Y": 481562.57459400001 }, "geometry": { "type": "Point", "coordinates": [ 79.866943331681398, 6.833211030157826 ] } },
{ "type": "Feature", "properties": { "id": 97, "SVF_value1": 0.031, "SVF_Class": "Very Enclo", "Y": 481568.753103 }, "geometry": { "type": "Point", "coordinates": [ 79.867088003274489, 6.833267170180574 ] } },
{ "type": "Feature", "properties": { "id": 98, "SVF_value1": 0.016, "SVF_Class": "Very Enclo", "Y": 481558.01667699998 }, "geometry": { "type": "Point", "coordinates": [ 79.866849945846127, 6.833169640550593 ] } },
{ "type": "Feature", "properties": { "id": 99, "SVF_value1": 0.016, "SVF_Class": "Very Enclo", "Y": 481573.31101900002 }, "geometry": { "type": "Point", "coordinates": [ 79.866855182304661, 6.833307943863571 ] } },
{ "type": "Feature", "properties": { "id": 100, "SVF_value1": 0.453, "SVF_Class": "Moderately", "Y": 481574.222603 }, "geometry": { "type": "Point", "coordinates": [ 79.867244599068357, 6.83331692171765 ] } },
{ "type": "Feature", "properties": { "id": 101, "SVF_value1": 0.126, "SVF_Class": "Very Enclo", "Y": 481552.74975100002 }, "geometry": { "type": "Point", "coordinates": [ 79.867141422769507, 6.833122566636274 ] } },
{ "type": "Feature", "properties": { "id": 102, "SVF_value1": 0.783, "SVF_Class": "Open", "Y": 481548.293122 }, "geometry": { "type": "Point", "coordinates": [ 79.866617369076224, 6.833081279671314 ] } },
{ "type": "Feature", "properties": { "id": 103, "SVF_value1": 0.559, "SVF_Class": "Mixed", "Y": 481471.112402 }, "geometry": { "type": "Point", "coordinates": [ 79.866932066346735, 6.832383995857485 ] } },
{ "type": "Feature", "properties": { "id": 104, "SVF_value1": 0.198, "SVF_Class": "Very Enclo", "Y": 481473.03685600002 }, "geometry": { "type": "Point", "coordinates": [ 79.867032827521598, 6.832401587239222 ] } },
{ "type": "Feature", "properties": { "id": 105, "SVF_value1": 0.022, "SVF_Class": "Very Enclo", "Y": 481495.21871599997 }, "geometry": { "type": "Point", "coordinates": [ 79.867172643946645, 6.832602422437635 ] } },
{ "type": "Feature", "properties": { "id": 106, "SVF_value1": 0.534, "SVF_Class": "Mixed", "Y": 481529.85888199997 }, "geometry": { "type": "Point", "coordinates": [ 79.866962216995375, 6.832915246094846 ] } },
{ "type": "Feature", "properties": { "id": 107, "SVF_value1": 0.761, "SVF_Class": "Open", "Y": 481530.26403000002 }, "geometry": { "type": "Point", "coordinates": [ 79.866871495321632, 6.832918738203615 ] } },
{ "type": "Feature", "properties": { "id": 108, "SVF_value1": 0.573, "SVF_Class": "Mixed", "Y": 481519.628891 }, "geometry": { "type": "Point", "coordinates": [ 79.866809367974696, 6.832822456587599 ] } },
{ "type": "Feature", "properties": { "id": 109, "SVF_value1": 0.723, "SVF_Class": "Open", "Y": 481529.85888199997 }, "geometry": { "type": "Point", "coordinates": [ 79.866797281088949, 6.8329149346636 ] } },
{ "type": "Feature", "properties": { "id": 110, "SVF_value1": 0.419, "SVF_Class": "Moderately", "Y": 481529.65630799998 }, "geometry": { "type": "Point", "coordinates": [ 79.867021780647249, 6.832913526847696 ] } },
{ "type": "Feature", "properties": { "id": 111, "SVF_value1": 0.925, "SVF_Class": "Very Open", "Y": 481511.222067 }, "geometry": { "type": "Point", "coordinates": [ 79.867098149401315, 6.832746986214311 ] } },
{ "type": "Feature", "properties": { "id": 112, "SVF_value1": 0.94, "SVF_Class": "Very Open", "Y": 481510.816919 }, "geometry": { "type": "Point", "coordinates": [ 79.866693147185387, 6.832742558120817 ] } },
{ "type": "Feature", "properties": { "id": 113, "SVF_value1": 0.845, "SVF_Class": "Open", "Y": 481522.667502 }, "geometry": { "type": "Point", "coordinates": [ 79.86665904112931, 6.832849648213335 ] } },
{ "type": "Feature", "properties": { "id": 114, "SVF_value1": 0.725, "SVF_Class": "Open", "Y": 481538.36699299997 }, "geometry": { "type": "Point", "coordinates": [ 79.867037209082625, 6.832992319122214 ] } },
{ "type": "Feature", "properties": { "id": 115, "SVF_value1": 0.783, "SVF_Class": "Open", "Y": 481538.36699299997 }, "geometry": { "type": "Point", "coordinates": [ 79.866864942660484, 6.832991993871445 ] } },
{ "type": "Feature", "properties": { "id": 116, "SVF_value1": 0.768, "SVF_Class": "Open", "Y": 481537.35412199999 }, "geometry": { "type": "Point", "coordinates": [ 79.86668353045421, 6.832982492781604 ] } },
{ "type": "Feature", "properties": { "id": 117, "SVF_value1": 0.936, "SVF_Class": "Very Open", "Y": 481517.09671499999 }, "geometry": { "type": "Point", "coordinates": [ 79.867112709993535, 6.832800133033526 ] } },
{ "type": "Feature", "properties": { "id": 118, "SVF_value1": 0.65, "SVF_Class": "Mixed", "Y": 481504.84098400001 }, "geometry": { "type": "Point", "coordinates": [ 79.866840775266411, 6.832688801719009 ] } },
{ "type": "Feature", "properties": { "id": 119, "SVF_value1": 0.789, "SVF_Class": "Open", "Y": 481521.75591900002 }, "geometry": { "type": "Point", "coordinates": [ 79.866605910709865, 6.83284130521234 ] } },
{ "type": "Feature", "properties": { "id": 120, "SVF_value1": 0.131, "SVF_Class": "Very Enclo", "Y": 481525.402252 }, "geometry": { "type": "Point", "coordinates": [ 79.866537125091241, 6.832874145904526 ] } },
{ "type": "Feature", "properties": { "id": 121, "SVF_value1": 0.674, "SVF_Class": "Mixed", "Y": 481284.845546 }, "geometry": { "type": "Point", "coordinates": [ 79.86763347445131, 6.830701070034943 ] } },
{ "type": "Feature", "properties": { "id": 122, "SVF_value1": 0.668, "SVF_Class": "Mixed", "Y": 481316.04195300001 }, "geometry": { "type": "Point", "coordinates": [ 79.867763057503623, 6.830983396464722 ] } },
{ "type": "Feature", "properties": { "id": 123, "SVF_value1": 0.744, "SVF_Class": "Open", "Y": 481333.26074900001 }, "geometry": { "type": "Point", "coordinates": [ 79.867498867059453, 6.831138592796154 ] } },
{ "type": "Feature", "properties": { "id": 124, "SVF_value1": 0.86, "SVF_Class": "Very Open", "Y": 481369.52150700003 }, "geometry": { "type": "Point", "coordinates": [ 79.867393788802829, 6.831466269112635 ] } },
{ "type": "Feature", "properties": { "id": 125, "SVF_value1": 0.638, "SVF_Class": "Mixed", "Y": 481389.17119099997 }, "geometry": { "type": "Point", "coordinates": [ 79.867607869385367, 6.831644348023379 ] } },
{ "type": "Feature", "properties": { "id": 126, "SVF_value1": 0.857, "SVF_Class": "Very Open", "Y": 481388.96861699998 }, "geometry": { "type": "Point", "coordinates": [ 79.867318319415901, 6.831641970044949 ] } },
{ "type": "Feature", "properties": { "id": 127, "SVF_value1": 0.9, "SVF_Class": "Very Open", "Y": 481420.36759799998 }, "geometry": { "type": "Point", "coordinates": [ 79.867288461256365, 6.83192582740703 ] } },
{ "type": "Feature", "properties": { "id": 128, "SVF_value1": 0.689, "SVF_Class": "Mixed", "Y": 481455.21033799998 }, "geometry": { "type": "Point", "coordinates": [ 79.867319020635762, 6.832240937698788 ] } },
{ "type": "Feature", "properties": { "id": 129, "SVF_value1": 0.618, "SVF_Class": "Mixed", "Y": 481457.33736499998 }, "geometry": { "type": "Point", "coordinates": [ 79.866755454033893, 6.832259106722328 ] } },
{ "type": "Feature", "properties": { "id": 130, "SVF_value1": 0.605, "SVF_Class": "Mixed", "Y": 481468.68151299999 }, "geometry": { "type": "Point", "coordinates": [ 79.866732352409542, 6.832361638355503 ] } },
{ "type": "Feature", "properties": { "id": 131, "SVF_value1": 0.625, "SVF_Class": "Mixed", "Y": 481452.57687500003 }, "geometry": { "type": "Point", "coordinates": [ 79.866833421681505, 6.832216208965709 ] } },
{ "type": "Feature", "properties": { "id": 132, "SVF_value1": 0.366, "SVF_Class": "Moderately", "Y": 481576.55220400001 }, "geometry": { "type": "Point", "coordinates": [ 79.866966916897454, 6.833337462061576 ] } },
{ "type": "Feature", "properties": { "id": 133, "SVF_value1": 0.601, "SVF_Class": "Mixed", "Y": 481577.159927 }, "geometry": { "type": "Point", "coordinates": [ 79.867131842572348, 6.833343268537586 ] } },
{ "type": "Feature", "properties": { "id": 134, "SVF_value1": 0.033, "SVF_Class": "Very Enclo", "Y": 481557.91538999998 }, "geometry": { "type": "Point", "coordinates": [ 79.866637363416245, 6.833168323228302 ] } },
{ "type": "Feature", "properties": { "id": 135, "SVF_value1": 0.778, "SVF_Class": "Open", "Y": 481567.84152000002 }, "geometry": { "type": "Point", "coordinates": [ 79.866565721449277, 6.833257941249653 ] } },
{ "type": "Feature", "properties": { "id": 136, "SVF_value1": 0.332, "SVF_Class": "Moderately", "Y": 481580.60368599999 }, "geometry": { "type": "Point", "coordinates": [ 79.866536181284786, 6.833373282601326 ] } },
{ "type": "Feature", "properties": { "id": 137, "SVF_value1": 0.854, "SVF_Class": "Very Open", "Y": 481586.27576 }, "geometry": { "type": "Point", "coordinates": [ 79.866646041681051, 6.833424777743191 ] } },
{ "type": "Feature", "properties": { "id": 138, "SVF_value1": 0.663, "SVF_Class": "Mixed", "Y": 481576.14705600002 }, "geometry": { "type": "Point", "coordinates": [ 79.866712189258436, 6.833333317633875 ] } },
{ "type": "Feature", "properties": { "id": 139, "SVF_value1": 0.733, "SVF_Class": "Open", "Y": 481588.706649 }, "geometry": { "type": "Point", "coordinates": [ 79.866798107841561, 6.833447045355919 ] } },
{ "type": "Feature", "properties": { "id": 140, "SVF_value1": 0.676, "SVF_Class": "Mixed", "Y": 481590.93496300001 }, "geometry": { "type": "Point", "coordinates": [ 79.867074795872483, 6.833467716516122 ] } },
{ "type": "Feature", "properties": { "id": 141, "SVF_value1": 0.812, "SVF_Class": "Open", "Y": 481591.340111 }, "geometry": { "type": "Point", "coordinates": [ 79.867221398824228, 6.833471656673667 ] } },
{ "type": "Feature", "properties": { "id": 142, "SVF_value1": 0.378, "SVF_Class": "Moderately", "Y": 481546.57124199998 }, "geometry": { "type": "Point", "coordinates": [ 79.866555089378608, 6.83306559257706 ] } },
{ "type": "Feature", "properties": { "id": 143, "SVF_value1": 0.647, "SVF_Class": "Mixed", "Y": 481556.69994600001 }, "geometry": { "type": "Point", "coordinates": [ 79.866521929012166, 6.833157114980779 ] } },
{ "type": "Feature", "properties": { "id": 144, "SVF_value1": 0.805, "SVF_Class": "Open", "Y": 481495.92772500002 }, "geometry": { "type": "Point", "coordinates": [ 79.866958215280846, 6.83260842860895 ] } },
{ "type": "Feature", "properties": { "id": 145, "SVF_value1": 0.225, "SVF_Class": "Very Enclo", "Y": 481500.38435499999 }, "geometry": { "type": "Point", "coordinates": [ 79.866719898505366, 6.832648276041218 ] } },
{ "type": "Feature", "properties": { "id": 146, "SVF_value1": 0.581, "SVF_Class": "Mixed", "Y": 481492.28139199998 }, "geometry": { "type": "Point", "coordinates": [ 79.866585339454218, 6.832574753877481 ] } },
{ "type": "Feature", "properties": { "id": 147, "SVF_value1": 0.716, "SVF_Class": "Open", "Y": 481487.82476300001 }, "geometry": { "type": "Point", "coordinates": [ 79.866654138876029, 6.832534586394314 ] } },
{ "type": "Feature", "properties": { "id": 148, "SVF_value1": 0.61, "SVF_Class": "Mixed", "Y": 481506.20835899998 }, "geometry": { "type": "Point", "coordinates": [ 79.867479878300969, 6.832702372043424 ] } },
{ "type": "Feature", "properties": { "id": 149, "SVF_value1": 0.78, "SVF_Class": "Open", "Y": 481477.84798999998 }, "geometry": { "type": "Point", "coordinates": [ 79.867507851946201, 6.832445986634985 ] } },
{ "type": "Feature", "properties": { "id": 150, "SVF_value1": 0.694, "SVF_Class": "Mixed", "Y": 481404.921325 }, "geometry": { "type": "Point", "coordinates": [ 79.867444955692207, 6.831786455468533 ] } }
]
}
