{"type":"FeatureCollection","features":[{"type":"Feature","properties":{"id":1},"geometry":{"type":"MultiPolygon","coordinates":[[[[79.885898,6.830514],[79.88589,6.829946],[79.885864,6.829379],[79.88582,6.828812],[79.885759,6.828247],[79.88568,6.827685],[79.885583,6.827125],[79.885469,6.826568],[79.885337,6.826016],[79.885188,6.825467],[79.885022,6.824924],[79.884839,6.824386],[79.884639,6.823855],[79.884423,6.823329],[79.88419,6.822811],[79.883941,6.8223],[79.883676,6.821798],[79.883395,6.821304],[79.883099,6.820819],[79.882788,6.820343],[79.882462,6.819878],[79.882121,6.819423],[79.881767,6.818979],[79.881398,6.818546],[79.881017,6.818126],[79.880622,6.817717],[79.880215,6.817321],[79.879795,6.816938],[79.879363,6.816568],[79.87892,6.816212],[79.878467,6.81587],[79.878002,6.815542],[79.877528,6.815229],[79.877044,6.814932],[79.87655,6.814649],[79.876049,6.814383],[79.875539,6.814132],[79.875021,6.813897],[79.874496,6.813679],[79.873965,6.813477],[79.873428,6.813292],[79.872885,6.813124],[79.872337,6.812973],[79.871784,6.812839],[79.871228,6.812723],[79.870668,6.812624],[79.870106,6.812543],[79.869541,6.81248],[79.868974,6.812434],[79.868407,6.812406],[79.867838,6.812396],[79.86727,6.812404],[79.866702,6.81243],[79.866136,6.812473],[79.86557,6.812534],[79.865008,6.812613],[79.864448,6.81271],[79.863891,6.812824],[79.863338,6.812956],[79.862789,6.813105],[79.862246,6.813271],[79.861708,6.813454],[79.861176,6.813654],[79.86065,6.81387],[79.860132,6.814103],[79.859621,6.814352],[79.859118,6.814617],[79.858624,6.814897],[79.858139,6.815193],[79.857663,6.815504],[79.857197,6.81583],[79.856742,6.81617],[79.856298,6.816524],[79.855865,6.816893],[79.855444,6.817274],[79.855035,6.817669],[79.854639,6.818076],[79.854255,6.818495],[79.853885,6.818927],[79.853529,6.819369],[79.853187,6.819823],[79.852859,6.820287],[79.852546,6.820761],[79.852248,6.821245],[79.851966,6.821738],[79.851699,6.82224],[79.851448,6.822749],[79.851213,6.823267],[79.850994,6.823791],[79.850792,6.824322],[79.850607,6.824859],[79.850439,6.825402],[79.850288,6.82595],[79.850154,6.826502],[79.850038,6.827058],[79.849939,6.827617],[79.849858,6.82818],[79.849795,6.828744],[79.849749,6.82931],[79.849721,6.829878],[79.849711,6.830446],[79.849719,6.831014],[79.849745,6.831581],[79.849788,6.832148],[79.849849,6.832713],[79.849928,6.833275],[79.850025,6.833835],[79.850139,6.834392],[79.850271,6.834944],[79.85042,6.835493],[79.850586,6.836036],[79.850769,6.836574],[79.850969,6.837106],[79.851185,6.837631],[79.851418,6.838149],[79.851667,6.83866],[79.851932,6.839162],[79.852213,6.839656],[79.852509,6.840141],[79.85282,6.840617],[79.853146,6.841082],[79.853487,6.841537],[79.853841,6.841981],[79.854209,6.842414],[79.854591,6.842835],[79.854986,6.843243],[79.855393,6.84364],[79.855813,6.844023],[79.856245,6.844393],[79.856687,6.844749],[79.857141,6.845091],[79.857606,6.845418],[79.85808,6.845731],[79.858564,6.846029],[79.859058,6.846311],[79.859559,6.846578],[79.860069,6.846829],[79.860587,6.847064],[79.861112,6.847282],[79.861643,6.847484],[79.86218,6.847669],[79.862723,6.847837],[79.863271,6.847988],[79.863824,6.848122],[79.86438,6.848238],[79.86494,6.848337],[79.865503,6.848418],[79.866067,6.848481],[79.866634,6.848527],[79.867202,6.848555],[79.86777,6.848565],[79.868338,6.848557],[79.868906,6.848531],[79.869473,6.848487],[79.870038,6.848426],[79.870601,6.848347],[79.871161,6.848251],[79.871718,6.848136],[79.872271,6.848005],[79.872819,6.847856],[79.873363,6.84769],[79.873901,6.847507],[79.874433,6.847307],[79.874959,6.847091],[79.875477,6.846858],[79.875988,6.846609],[79.876491,6.846344],[79.876985,6.846063],[79.877471,6.845768],[79.877946,6.845457],[79.878412,6.845131],[79.878867,6.84479],[79.879311,6.844436],[79.879744,6.844068],[79.880165,6.843686],[79.880574,6.843292],[79.880971,6.842885],[79.881354,6.842465],[79.881724,6.842034],[79.88208,6.841591],[79.882422,6.841137],[79.88275,6.840673],[79.883063,6.840199],[79.883361,6.839715],[79.883643,6.839222],[79.88391,6.838721],[79.884161,6.838211],[79.884396,6.837694],[79.884615,6.837169],[79.884817,6.836638],[79.885002,6.836101],[79.88517,6.835558],[79.885321,6.83501],[79.885455,6.834458],[79.885571,6.833902],[79.88567,6.833343],[79.885751,6.83278],[79.885814,6.832216],[79.88586,6.83165],[79.885888,6.831082],[79.885898,6.830514]]]]}}]}