{
"type": "FeatureCollection",
"name": "boundary_800m_buffered",
"crs": { "type": "name", "properties": { "name": "urn:ogc:def:crs:OGC:1.3:CRS84" } },
"features": [
{ "type": "Feature", "properties": { "id": 1 }, "geometry": { "type": "MultiPolygon", "coordinates": [ [ [ [ 79.875047153717517, 6.830482826833803 ], [ 79.875047036881, 6.830426013691602 ], [ 79.875046473619122, 6.830369203218702 ], [ 79.875045463966771, 6.830312398919451 ], [ 79.875044007986375, 6.830255604297824 ], [ 79.875042105767946, 6.830198822857203 ], [ 79.875039757428922, 6.830142058100146 ], [ 79.875036963114383, 6.830085313528188 ], [ 79.875033722996804, 6.830028592641612 ], [ 79.875030037276233, 6.829971898939243 ], [ 79.875025906180184, 6.829915235918222 ], [ 79.87502132996363, 6.829858607073806 ], [ 79.875016308909025, 6.829802015899132 ], [ 79.875010843326237, 6.829745465885019 ], [ 79.875004933552589, 6.829688960519745 ], [ 79.874998579952759, 6.82963250328883 ], [ 79.87499178291884, 6.829576097674828 ], [ 79.874984542870266, 6.829519747157097 ], [ 79.874976860253753, 6.829463455211605 ], [ 79.874968735543433, 6.829407225310709 ], [ 79.87496016924058, 6.829351060922931 ], [ 79.874951161873767, 6.829294965512747 ], [ 79.874941713998808, 6.82923894254038 ], [ 79.874931826198605, 6.829182995461596 ], [ 79.874921499083243, 6.829127127727457 ], [ 79.874910733289909, 6.829071342784148 ], [ 79.874899529482846, 6.829015644072723 ], [ 79.8748878883533, 6.828960035028947 ], [ 79.874875810619528, 6.828904519083023 ], [ 79.874863297026664, 6.828849099659432 ], [ 79.874850348346783, 6.828793780176684 ], [ 79.874836965378762, 6.828738564047131 ], [ 79.874823148948266, 6.828683454676749 ], [ 79.87480889990772, 6.828628455464925 ], [ 79.874794219136206, 6.828573569804247 ], [ 79.874779107539467, 6.828518801080302 ], [ 79.874763566049793, 6.828464152671462 ], [ 79.87474759562599, 6.828409627948673 ], [ 79.874731197253354, 6.828355230275253 ], [ 79.874714371943554, 6.828300963006684 ], [ 79.874697120734581, 6.828246829490394 ], [ 79.874679444690756, 6.828192833065575 ], [ 79.874661344902478, 6.828138977062943 ], [ 79.874642822486436, 6.828085264804564 ], [ 79.874623878585297, 6.828031699603631 ], [ 79.874604514367746, 6.827978284764261 ], [ 79.874584731028378, 6.827925023581305 ], [ 79.874564529787691, 6.827871919340128 ], [ 79.874543911891905, 6.82781897531641 ], [ 79.874522878612936, 6.827766194775954 ], [ 79.874501431248362, 6.827713580974477 ], [ 79.874479571121313, 6.827661137157399 ], [ 79.8744572995803, 6.827608866559665 ], [ 79.874434617999299, 6.827556772405535 ], [ 79.874411527777539, 6.827504857908371 ], [ 79.874388030339432, 6.827453126270468 ], [ 79.874364127134541, 6.827401580682826 ], [ 79.874339819637456, 6.82735022432498 ], [ 79.874315109347663, 6.827299060364777 ], [ 79.874289997789546, 6.827248091958213 ], [ 79.874264486512246, 6.827197322249204 ], [ 79.874238577089486, 6.827146754369417 ], [ 79.874212271119589, 6.827096391438064 ], [ 79.874185570225364, 6.827046236561723 ], [ 79.87415847605395, 6.826996292834125 ], [ 79.874130990276726, 6.826946563335978 ], [ 79.874103114589261, 6.826897051134786 ], [ 79.874074850711168, 6.826847759284632 ], [ 79.874046200385962, 6.826798690826015 ], [ 79.874017165381062, 6.826749848785655 ], [ 79.873987747487561, 6.826701236176296 ], [ 79.873957948520157, 6.82665285599654 ], [ 79.873927770317138, 6.826604711230639 ], [ 79.873897214740083, 6.826556804848328 ], [ 79.873866283673905, 6.82650913980464 ], [ 79.873834979026654, 6.826461719039719 ], [ 79.873803302729456, 6.826414545478634 ], [ 79.873771256736262, 6.826367622031209 ], [ 79.873738843023986, 6.826320951591838 ], [ 79.873706063592081, 6.826274537039315 ], [ 79.87367292046261, 6.826228381236635 ], [ 79.873639415680074, 6.82618248703084 ], [ 79.873605551311286, 6.826136857252838 ], [ 79.873571329445227, 6.826091494717214 ], [ 79.873536752192891, 6.826046402222081 ], [ 79.87350182168727, 6.826001582548881 ], [ 79.873466540083072, 6.825957038462238 ], [ 79.873430909556717, 6.825912772709769 ], [ 79.873394932306084, 6.825868788021919 ], [ 79.873358610550468, 6.825825087111807 ], [ 79.873321946530467, 6.82578167267503 ], [ 79.873284942507695, 6.825738547389525 ], [ 79.873247600764785, 6.825695713915392 ], [ 79.873209923605174, 6.825653174894725 ], [ 79.873171913353062, 6.825610932951461 ], [ 79.873133572353083, 6.825568990691204 ], [ 79.873094902970365, 6.825527350701073 ], [ 79.873055907590214, 6.825486015549549 ], [ 79.8730165886181, 6.825444987786299 ], [ 79.872976948479433, 6.825404269942032 ], [ 79.872936989619404, 6.825363864528341 ], [ 79.872896714502929, 6.825323774037546 ], [ 79.872856125614348, 6.825284000942538 ], [ 79.872815225457401, 6.825244547696633 ], [ 79.872774016555041, 6.825205416733412 ], [ 79.872732501449207, 6.825166610466582 ], [ 79.872690682700778, 6.825128131289817 ], [ 79.872648562889339, 6.825089981576615 ], [ 79.872606144613002, 6.825052163680154 ], [ 79.872563430488384, 6.825014679933133 ], [ 79.872520423150277, 6.824977532647652 ], [ 79.872477125251564, 6.824940724115053 ], [ 79.87243353946306, 6.824904256605778 ], [ 79.872389668473346, 6.824868132369233 ], [ 79.872345514988567, 6.824832353633653 ], [ 79.872301081732317, 6.82479692260596 ], [ 79.872256371445431, 6.824761841471623 ], [ 79.872211386885795, 6.824727112394535 ], [ 79.872166130828319, 6.824692737516872 ], [ 79.872120606064541, 6.824658718958951 ], [ 79.872074815402641, 6.824625058819121 ], [ 79.872028761667153, 6.82459175917362 ], [ 79.871982447698883, 6.824558822076443 ], [ 79.871935876354613, 6.824526249559224 ], [ 79.871889050507107, 6.824494043631116 ], [ 79.871841973044766, 6.824462206278652 ], [ 79.87179464687145, 6.824430739465624 ], [ 79.871747074906466, 6.82439964513298 ], [ 79.871699260084227, 6.824368925198684 ], [ 79.871651205354141, 6.824338581557605 ], [ 79.871602913680348, 6.824308616081407 ], [ 79.871554388041716, 6.824279030618418 ], [ 79.871505631431461, 6.824249826993536 ], [ 79.871456646857055, 6.8242210070081 ], [ 79.871407437340039, 6.82419257243978 ], [ 79.871358005915837, 6.824164525042484 ], [ 79.871308355633559, 6.82413686654622 ], [ 79.871258489555757, 6.824109598657027 ], [ 79.871208410758385, 6.824082723056837 ], [ 79.871158122330442, 6.824056241403391 ], [ 79.871107627373917, 6.824030155330122 ], [ 79.871056929003473, 6.824004466446068 ], [ 79.871006030346351, 6.823979176335766 ], [ 79.870954934542127, 6.823954286559156 ], [ 79.870903644742583, 6.823929798651482 ], [ 79.870852164111426, 6.823905714123207 ], [ 79.870800495824099, 6.823882034459893 ], [ 79.870748643067714, 6.823858761122145 ], [ 79.870696609040678, 6.823835895545513 ], [ 79.870644396952585, 6.823813439140365 ], [ 79.870592010024055, 6.823791393291859 ], [ 79.870539451486451, 6.823769759359808 ], [ 79.870486724581767, 6.823748538678634 ], [ 79.870433832562298, 6.823727732557257 ], [ 79.870380778690603, 6.823707342279029 ], [ 79.870327566239183, 6.823687369101649 ], [ 79.870274198490321, 6.823667814257095 ], [ 79.87022067873589, 6.823648678951532 ], [ 79.870167010277129, 6.823629964365248 ], [ 79.870113196424455, 6.82361167165259 ], [ 79.870059240497255, 6.823593801941873 ], [ 79.870005145823654, 6.823576356335319 ], [ 79.869950915740361, 6.823559335908991 ], [ 79.869896553592426, 6.823542741712735 ], [ 79.869842062733042, 6.823526574770097 ], [ 79.869787446523333, 6.823510836078266 ], [ 79.869732708332165, 6.823495526608027 ], [ 79.869677851535926, 6.823480647303676 ], [ 79.869622879518317, 6.823466199082985 ], [ 79.869567795670122, 6.823452182837127 ], [ 79.869512603389083, 6.823438599430646 ], [ 79.869457306079568, 6.823425449701365 ], [ 79.869401907152451, 6.823412734460371 ], [ 79.86934641002486, 6.823400454491948 ], [ 79.869290818119964, 6.823388610553537 ], [ 79.869235134866855, 6.823377203375669 ], [ 79.869179363700141, 6.823366233661947 ], [ 79.869123508059957, 6.823355702088984 ], [ 79.869067571391568, 6.82334560930637 ], [ 79.869011557145299, 6.823335955936631 ], [ 79.868955468776207, 6.823326742575182 ], [ 79.868899309743938, 6.823317969790309 ], [ 79.868843083512544, 6.823309638123112 ], [ 79.868786793550157, 6.823301748087482 ], [ 79.868730443328829, 6.823294300170077 ], [ 79.868674036324407, 6.823287294830278 ], [ 79.868617576016177, 6.823280732500169 ], [ 79.868561065886709, 6.823274613584507 ], [ 79.868504509421683, 6.823268938460694 ], [ 79.868447910109609, 6.82326370747877 ], [ 79.868391271441681, 6.823258920961368 ], [ 79.868334596911438, 6.82325457920371 ], [ 79.86827789001471, 6.823250682473587 ], [ 79.868221154249269, 6.823247231011329 ], [ 79.868164393114711, 6.823244225029814 ], [ 79.868107610112162, 6.823241664714438 ], [ 79.868050808744115, 6.8232395502231 ], [ 79.867993992514201, 6.823237881686209 ], [ 79.867937164926957, 6.823236659206665 ], [ 79.867880329487591, 6.823235882859843 ], [ 79.867823489701834, 6.823235552693617 ], [ 79.867766649075691, 6.823235668728333 ], [ 79.867709811115191, 6.823236230956804 ], [ 79.867652979326209, 6.823237239344338 ], [ 79.867596157214237, 6.823238693828714 ], [ 79.867539348284168, 6.823240594320193 ], [ 79.867482556040116, 6.823242940701524 ], [ 79.867425783985098, 6.823245732827966 ], [ 79.867369035620925, 6.823248970527268 ], [ 79.867312314447972, 6.823252653599706 ], [ 79.86725562396488, 6.823256781818078 ], [ 79.867198967668443, 6.823261354927723 ], [ 79.867142349053324, 6.82326637264655 ], [ 79.867085771611855, 6.823271834665027 ], [ 79.867029238833851, 6.823277740646231 ], [ 79.866972754206401, 6.823284090225844 ], [ 79.866916321213523, 6.823290883012197 ], [ 79.866859943336109, 6.823298118586272 ], [ 79.866803624051727, 6.823305796501746 ], [ 79.866747366834161, 6.823313916285009 ], [ 79.866691175153548, 6.823322477435199 ], [ 79.866635052475843, 6.823331479424226 ], [ 79.866579002262839, 6.823340921696802 ], [ 79.866523027971795, 6.823350803670503 ], [ 79.866467133055323, 6.823361124735756 ], [ 79.86641132096112, 6.823371884255924 ], [ 79.866355595131807, 6.823383081567318 ], [ 79.866299959004635, 6.823394715979242 ], [ 79.866244416011398, 6.823406786774047 ], [ 79.866188969578033, 6.823419293207161 ], [ 79.866133623124625, 6.823432234507143 ], [ 79.866078380065048, 6.823445609875725 ], [ 79.866023243806779, 6.823459418487873 ], [ 79.865968217750762, 6.823473659491819 ], [ 79.865913305291116, 6.82348833200914 ], [ 79.865858509814942, 6.823503435134778 ], [ 79.865803834702135, 6.823518967937122 ], [ 79.865749283325172, 6.823534929458065 ], [ 79.865694859048901, 6.82355131871304 ], [ 79.865640565230322, 6.823568134691119 ], [ 79.865586405218366, 6.823585376355031 ], [ 79.865532382353777, 6.823603042641253 ], [ 79.865478499968788, 6.823621132460082 ], [ 79.865424761386961, 6.823639644695681 ], [ 79.865371169923023, 6.823658578206154 ], [ 79.865317728882616, 6.823677931823633 ], [ 79.865264441562076, 6.823697704354327 ], [ 79.865211311248316, 6.823717894578603 ], [ 79.865158341218503, 6.823738501251074 ], [ 79.865105534739982, 6.823759523100652 ], [ 79.865052895069951, 6.823780958830659 ], [ 79.865000425455335, 6.823802807118875 ], [ 79.864948129132614, 6.823825066617629 ], [ 79.864896009327509, 6.823847735953897 ], [ 79.864844069254929, 6.823870813729366 ], [ 79.864792312118638, 6.823894298520535 ], [ 79.864740741111163, 6.823918188878799 ], [ 79.864689359413489, 6.823942483330526 ], [ 79.864638170194993, 6.823967180377178 ], [ 79.864587176613156, 6.82399227849536 ], [ 79.86453638181338, 6.824017776136958 ], [ 79.864485788928803, 6.8240436717292 ], [ 79.864435401080158, 6.824069963674782 ], [ 79.864385221375471, 6.824096650351946 ], [ 79.864335252909939, 6.824123730114573 ], [ 79.86428549876581, 6.82415120129232 ], [ 79.864235962012003, 6.824179062190683 ], [ 79.864186645704081, 6.824207311091131 ], [ 79.864137552884031, 6.82423594625119 ], [ 79.864088686580004, 6.824264965904566 ], [ 79.864040049806235, 6.824294368261257 ], [ 79.863991645562777, 6.824324151507634 ], [ 79.863943476835317, 6.824354313806589 ], [ 79.863895546595074, 6.824384853297633 ], [ 79.863847857798504, 6.824415768097004 ], [ 79.86380041338721, 6.824447056297796 ], [ 79.863753216287677, 6.824478715970067 ], [ 79.863706269411196, 6.824510745160962 ], [ 79.863659575653557, 6.824543141894837 ], [ 79.863613137895015, 6.824575904173372 ], [ 79.863566958999982, 6.8246090299757 ], [ 79.863521041816938, 6.824642517258533 ], [ 79.863475389178149, 6.824676363956287 ], [ 79.86343000389968, 6.824710567981201 ], [ 79.863384888781013, 6.824745127223489 ], [ 79.863340046605003, 6.824780039551429 ], [ 79.863295480137666, 6.824815302811542 ], [ 79.863251192128033, 6.824850914828695 ], [ 79.863207185307914, 6.82488687340624 ], [ 79.863163462391839, 6.824923176326155 ], [ 79.863120026076743, 6.824959821349176 ], [ 79.863076879041998, 6.824996806214936 ], [ 79.863034023949041, 6.825034128642112 ], [ 79.862991463441318, 6.825071786328554 ], [ 79.862949200144158, 6.825109776951431 ], [ 79.862907236664469, 6.825148098167375 ], [ 79.862865575590789, 6.825186747612635 ], [ 79.862824219492893, 6.825225722903199 ], [ 79.862783170921787, 6.825265021634968 ], [ 79.862742432409533, 6.825304641383886 ], [ 79.862702006469036, 6.825344579706099 ], [ 79.862661895593945, 6.825384834138092 ], [ 79.86262210225847, 6.825425402196871 ], [ 79.862582628917195, 6.825466281380076 ], [ 79.862543478005051, 6.825507469166171 ], [ 79.86250465193703, 6.825548963014573 ], [ 79.862466153108102, 6.825590760365825 ], [ 79.862427983893028, 6.825632858641751 ], [ 79.862390146646248, 6.825675255245606 ], [ 79.862352643701783, 6.825717947562252 ], [ 79.862315477372945, 6.8257609329583 ], [ 79.862278649952373, 6.825804208782293 ], [ 79.862242163711727, 6.825847772364848 ], [ 79.862206020901681, 6.825891621018845 ], [ 79.862170223751676, 6.825935752039565 ], [ 79.86213477446988, 6.825980162704884 ], [ 79.862099675242987, 6.826024850275419 ], [ 79.862064928236109, 6.826069811994715 ], [ 79.862030535592581, 6.826115045089398 ], [ 79.861996499433971, 6.826160546769358 ], [ 79.861962821859805, 6.826206314227921 ], [ 79.861929504947497, 6.826252344642005 ], [ 79.861896550752206, 6.826298635172328 ], [ 79.861863961306739, 6.826345182963548 ], [ 79.861831738621433, 6.826391985144457 ], [ 79.861799884683933, 6.826439038828158 ], [ 79.861768401459202, 6.826486341112232 ], [ 79.861737290889309, 6.826533889078937 ], [ 79.861706554893331, 6.826581679795367 ], [ 79.861676195367266, 6.826629710313645 ], [ 79.861646214183892, 6.826677977671104 ], [ 79.861616613192638, 6.826726478890458 ], [ 79.861587394219455, 6.826775210980005 ], [ 79.861558559066793, 6.826824170933801 ], [ 79.86153010951341, 6.82687335573184 ], [ 79.861502047314232, 6.82692276234025 ], [ 79.861474374200355, 6.826972387711472 ], [ 79.861447091878844, 6.827022228784468 ], [ 79.86142020203269, 6.827072282484873 ], [ 79.861393706320627, 6.827122545725214 ], [ 79.861367606377101, 6.827173015405098 ], [ 79.861341903812189, 6.827223688411388 ], [ 79.861316600211396, 6.827274561618415 ], [ 79.86129169713567, 6.827325631888151 ], [ 79.86126719612119, 6.827376896070411 ], [ 79.86124309867941, 6.827428351003056 ], [ 79.86121940629684, 6.82747999351218 ], [ 79.861196120435054, 6.827531820412298 ], [ 79.861173242530484, 6.827583828506552 ], [ 79.861150773994467, 6.827636014586916 ], [ 79.861128716213045, 6.827688375434369 ], [ 79.861107070546979, 6.827740907819121 ], [ 79.861085838331505, 6.827793608500801 ], [ 79.861065020876467, 6.827846474228644 ], [ 79.861044619466099, 6.827899501741717 ], [ 79.86102463535893, 6.827952687769094 ], [ 79.861005069787794, 6.828006029030083 ], [ 79.860985923959674, 6.828059522234405 ], [ 79.860967199055722, 6.828113164082418 ], [ 79.860948896231051, 6.828166951265301 ], [ 79.860931016614813, 6.82822088046527 ], [ 79.860913561309971, 6.828274948355785 ], [ 79.860896531393408, 6.828329151601745 ], [ 79.860879927915732, 6.828383486859696 ], [ 79.860863751901221, 6.828437950778046 ], [ 79.860848004347801, 6.828492539997266 ], [ 79.860832686227013, 6.828547251150096 ], [ 79.860817798483851, 6.828602080861745 ], [ 79.860803342036775, 6.828657025750121 ], [ 79.860789317777659, 6.828712082426019 ], [ 79.860775726571759, 6.828767247493341 ], [ 79.860762569257517, 6.828822517549298 ], [ 79.860749846646684, 6.82887788918463 ], [ 79.86073755952421, 6.828933358983807 ], [ 79.860725708648133, 6.828988923525233 ], [ 79.860714294749599, 6.829044579381486 ], [ 79.860703318532828, 6.829100323119496 ], [ 79.860692780675024, 6.829156151300772 ], [ 79.860682681826333, 6.829212060481621 ], [ 79.860673022609859, 6.829268047213357 ], [ 79.860663803621549, 6.829324108042481 ], [ 79.860655025430233, 6.829380239510956 ], [ 79.860646688577532, 6.829436438156367 ], [ 79.860638793577849, 6.829492700512157 ], [ 79.860631340918317, 6.829549023107848 ], [ 79.86062433105883, 6.829605402469229 ], [ 79.860617764431908, 6.829661835118602 ], [ 79.860611641442759, 6.829718317574968 ], [ 79.860605962469251, 6.829774846354261 ], [ 79.860600727861822, 6.82983141796956 ], [ 79.860595937943529, 6.829888028931292 ], [ 79.860591593009985, 6.829944675747459 ], [ 79.86058769332935, 6.830001354923855 ], [ 79.860584239142327, 6.830058062964271 ], [ 79.860581230662177, 6.830114796370714 ], [ 79.860578668074581, 6.830171551643636 ], [ 79.860576551537804, 6.830228325282133 ], [ 79.860574881182544, 6.830285113784158 ], [ 79.860573657111999, 6.83034191364676 ], [ 79.860572879401829, 6.830398721366278 ], [ 79.860572548100151, 6.830455533438571 ], [ 79.8605726632276, 6.830512346359223 ], [ 79.860573224777184, 6.830569156623759 ], [ 79.860574232714455, 6.830625960727887 ], [ 79.860575686977384, 6.830682755167667 ], [ 79.860577587476413, 6.83073953643978 ], [ 79.860579934094488, 6.830796301041694 ], [ 79.860582726687028, 6.830853045471923 ], [ 79.86058596508191, 6.830909766230217 ], [ 79.860589649079543, 6.830966459817778 ], [ 79.860593778452824, 6.831023122737497 ], [ 79.860598352947207, 6.83107975149414 ], [ 79.860603372280693, 6.831136342594592 ], [ 79.860608836143783, 6.83119289254805 ], [ 79.860614744199665, 6.831249397866259 ], [ 79.860621096083975, 6.831305855063706 ], [ 79.860627891405116, 6.831362260657849 ], [ 79.860635129744068, 6.831418611169324 ], [ 79.860642810654497, 6.831474903122168 ], [ 79.860650933662768, 6.831531133044029 ], [ 79.86065949826795, 6.831587297466381 ], [ 79.860668503941923, 6.831643392924731 ], [ 79.860677950129315, 6.831699415958844 ], [ 79.860687836247607, 6.831755363112948 ], [ 79.860698161687111, 6.831811230935957 ], [ 79.86070892581111, 6.831867015981666 ], [ 79.860720127955702, 6.831922714808984 ], [ 79.86073176743011, 6.83197832398214 ], [ 79.86074384351646, 6.832033840070876 ], [ 79.860756355470031, 6.832089259650693 ], [ 79.860769302519159, 6.832144579303032 ], [ 79.860782683865366, 6.832199795615504 ], [ 79.860796498683385, 6.832254905182085 ], [ 79.860810746121174, 6.832309904603342 ], [ 79.86082542530005, 6.832364790486636 ], [ 79.860840535314708, 6.832419559446324 ], [ 79.860856075233187, 6.832474208103974 ], [ 79.860872044097093, 6.832528733088578 ], [ 79.860888440921514, 6.832583131036758 ], [ 79.860905264695177, 6.83263739859296 ], [ 79.860922514380434, 6.832691532409685 ], [ 79.860940188913403, 6.832745529147675 ], [ 79.860958287203985, 6.832799385476125 ], [ 79.860976808135916, 6.832853098072897 ], [ 79.860995750566858, 6.832906663624711 ], [ 79.86101511332852, 6.83296007882736 ], [ 79.861034895226624, 6.833013340385908 ], [ 79.861055095041081, 6.833066445014898 ], [ 79.861075711525999, 6.833119389438554 ], [ 79.861096743409789, 6.833172170390969 ], [ 79.861118189395242, 6.833224784616336 ], [ 79.861140048159584, 6.833277228869115 ], [ 79.861162318354559, 6.833329499914265 ], [ 79.861184998606632, 6.833381594527415 ], [ 79.861208087516857, 6.833433509495078 ], [ 79.861231583661123, 6.833485241614859 ], [ 79.861255485590206, 6.833536787695628 ], [ 79.86127979182983, 6.833588144557738 ], [ 79.861304500880777, 6.833639309033207 ], [ 79.861329611219062, 6.83369027796592 ], [ 79.861355121295773, 6.833741048211824 ], [ 79.861381029537526, 6.833791616639124 ], [ 79.861407334346239, 6.833841980128471 ], [ 79.861434034099418, 6.833892135573153 ], [ 79.861461127150221, 6.833942079879296 ], [ 79.861488611827511, 6.833991809966045 ], [ 79.861516486436031, 6.834041322765762 ], [ 79.861544749256396, 6.834090615224206 ], [ 79.86157339854536, 6.834139684300728 ], [ 79.86160243253579, 6.834188526968469 ], [ 79.861631849436804, 6.834237140214511 ], [ 79.861661647433934, 6.834285521040109 ], [ 79.861691824689203, 6.834333666460847 ], [ 79.861722379341231, 6.834381573506824 ], [ 79.861753309505303, 6.83442923922285 ], [ 79.861784613273628, 6.834476660668614 ], [ 79.861816288715289, 6.834523834918875 ], [ 79.861848333876523, 6.834570759063643 ], [ 79.861880746780656, 6.83461743020835 ], [ 79.861913525428434, 6.83466384547403 ], [ 79.861946667797937, 6.834710001997508 ], [ 79.861980171844905, 6.834755896931568 ], [ 79.862014035502696, 6.834801527445122 ], [ 79.862048256682499, 6.834846890723401 ], [ 79.862082833273462, 6.834891983968108 ], [ 79.862117763142791, 6.834936804397623 ], [ 79.862153044135937, 6.834981349247125 ], [ 79.86218867407662, 6.835025615768822 ], [ 79.862224650767104, 6.835069601232068 ], [ 79.862260971988206, 6.835113302923561 ], [ 79.86229763549953, 6.835156718147499 ], [ 79.862334639039517, 6.83519984422576 ], [ 79.86237198032569, 6.835242678498048 ], [ 79.86240965705467, 6.83528521832207 ], [ 79.862447666902469, 6.835327461073692 ], [ 79.862486007524467, 6.835369404147111 ], [ 79.862524676555665, 6.835411044955007 ], [ 79.862563671610829, 6.835452380928696 ], [ 79.862602990284557, 6.835493409518306 ], [ 79.862642630151541, 6.835534128192932 ], [ 79.862682588766631, 6.835574534440767 ], [ 79.862722863665013, 6.835614625769289 ], [ 79.862763452362358, 6.835654399705405 ], [ 79.862804352354985, 6.835693853795585 ], [ 79.862845561120011, 6.83573298560604 ], [ 79.862887076115456, 6.835771792722856 ], [ 79.862928894780552, 6.835810272752151 ], [ 79.862971014535702, 6.835848423320214 ], [ 79.863013432782765, 6.835886242073658 ], [ 79.863056146905208, 6.835923726679571 ], [ 79.863099154268198, 6.835960874825636 ], [ 79.863142452218852, 6.835997684220311 ], [ 79.86318603808634, 6.836034152592933 ], [ 79.863229909182067, 6.836070277693882 ], [ 79.863274062799846, 6.836106057294713 ], [ 79.863318496216067, 6.836141489188291 ], [ 79.86336320668984, 6.836176571188928 ], [ 79.86340819146325, 6.836211301132524 ], [ 79.863453447761316, 6.836245676876686 ], [ 79.863498972792485, 6.836279696300883 ], [ 79.86354476374845, 6.836313357306552 ], [ 79.863590817804649, 6.836346657817245 ], [ 79.863637132120175, 6.836379595778749 ], [ 79.863683703838134, 6.836412169159217 ], [ 79.863730530085746, 6.836444375949285 ], [ 79.86377760797447, 6.836476214162209 ], [ 79.863824934600302, 6.836507681833983 ], [ 79.86387250704388, 6.836538777023442 ], [ 79.863920322370646, 6.836569497812421 ], [ 79.863968377631068, 6.836599842305831 ], [ 79.864016669860874, 6.836629808631802 ], [ 79.864065196081086, 6.83665939494179 ], [ 79.864113953298315, 6.836688599410699 ], [ 79.864162938504947, 6.836717420236977 ], [ 79.864212148679272, 6.836745855642743 ], [ 79.864261580785737, 6.836773903873889 ], [ 79.864311231775062, 6.836801563200192 ], [ 79.864361098584467, 6.836828831915416 ], [ 79.864411178137857, 6.83685570833742 ], [ 79.864461467346061, 6.836882190808268 ], [ 79.864511963106878, 6.836908277694316 ], [ 79.864562662305445, 6.83693396738633 ], [ 79.864613561814323, 6.836959258299576 ], [ 79.864664658493709, 6.836984148873908 ], [ 79.864715949191634, 6.837008637573893 ], [ 79.864767430744152, 6.837032722888873 ], [ 79.864819099975577, 6.837056403333087 ], [ 79.864870953698599, 6.837079677445733 ], [ 79.864922988714554, 6.837102543791088 ], [ 79.864975201813579, 6.837125000958574 ], [ 79.865027589774854, 6.837147047562856 ], [ 79.865080149366733, 6.837168682243929 ], [ 79.865132877346994, 6.837189903667189 ], [ 79.865185770463015, 6.837210710523532 ], [ 79.86523882545201, 6.83723110152943 ], [ 79.865292039041194, 6.837251075426996 ], [ 79.865345407947999, 6.837270630984084 ], [ 79.865398928880282, 6.837289766994341 ], [ 79.865452598536478, 6.83730848227731 ], [ 79.8655064136059, 6.837326775678475 ], [ 79.865560370768875, 6.837344646069358 ], [ 79.865614466696968, 6.837362092347553 ], [ 79.865668698053128, 6.837379113436835 ], [ 79.865723061492005, 6.837395708287207 ], [ 79.865777553660124, 6.83741187587495 ], [ 79.865832171195976, 6.83742761520272 ], [ 79.865886910730438, 6.837442925299575 ], [ 79.865941768886714, 6.837457805221062 ], [ 79.865996742280828, 6.837472254049257 ], [ 79.866051827521602, 6.83748627089284 ], [ 79.866107021211022, 6.83749985488712 ], [ 79.866162319944323, 6.837513005194122 ], [ 79.866217720310289, 6.837525721002626 ], [ 79.866273218891436, 6.837538001528197 ], [ 79.866328812264214, 6.837549846013271 ], [ 79.866384496999245, 6.837561253727168 ], [ 79.866440269661453, 6.837572223966162 ], [ 79.866496126810432, 6.837582756053508 ], [ 79.866552065000491, 6.837592849339483 ], [ 79.866608080780921, 6.837602503201444 ], [ 79.866664170696282, 6.837611717043851 ], [ 79.866720331286572, 6.837620490298306 ], [ 79.86677655908737, 6.837628822423585 ], [ 79.866832850630146, 6.837636712905685 ], [ 79.866889202442408, 6.837644161257838 ], [ 79.866945611047981, 6.837651167020562 ], [ 79.867002072967168, 6.837657729761667 ], [ 79.867058584716972, 6.837663849076289 ], [ 79.867115142811329, 6.837669524586928 ], [ 79.867171743761347, 6.837674755943453 ], [ 79.867228384075418, 6.837679542823136 ], [ 79.867285060259576, 6.837683884930665 ], [ 79.86734176881761, 6.837687781998167 ], [ 79.86739850625132, 6.837691233785223 ], [ 79.867455269060713, 6.837694240078875 ], [ 79.867512053744221, 6.837696800693656 ], [ 79.867568856798954, 6.837698915471591 ], [ 79.867625674720884, 6.837700584282197 ], [ 79.86768250400506, 6.837701807022508 ], [ 79.867739341145807, 6.837702583617083 ], [ 79.867796182637008, 6.837702914017989 ], [ 79.867853024972234, 6.837702798204826 ], [ 79.867909864645029, 6.837702236184716 ], [ 79.86796669814909, 6.837701227992308 ], [ 79.868023521978529, 6.837699773689777 ], [ 79.868080332627997, 6.837697873366809 ], [ 79.868137126592984, 6.83769552714061 ], [ 79.868193900370031, 6.837692735155903 ], [ 79.868250650456886, 6.837689497584885 ], [ 79.868307373352792, 6.837685814627253 ], [ 79.868364065558637, 6.837681686510186 ], [ 79.868420723577231, 6.837677113488308 ], [ 79.868477343913469, 6.837672095843705 ], [ 79.868533923074622, 6.837666633885878 ], [ 79.868590457570406, 6.837660727951743 ], [ 79.868646943913376, 6.8376543784056 ], [ 79.868703378619031, 6.837647585639107 ], [ 79.868759758206068, 6.83764035007129 ], [ 79.86881607919652, 6.837632672148461 ], [ 79.868872338116148, 6.837624552344229 ], [ 79.868928531494433, 6.837615991159471 ], [ 79.868984655864949, 6.837606989122277 ], [ 79.869040707765549, 6.837597546787947 ], [ 79.869096683738533, 6.837587664738932 ], [ 79.86915258033082, 6.837577343584807 ], [ 79.869208394094386, 6.837566583962248 ], [ 79.869264121586141, 6.837555386534953 ], [ 79.869319759368452, 6.837543751993656 ], [ 79.869375304009125, 6.837531681056033 ], [ 79.869430752081769, 6.837519174466697 ], [ 79.869486100165943, 6.837506232997125 ], [ 79.869541344847335, 6.837492857445622 ], [ 79.869596482718094, 6.837479048637276 ], [ 79.869651510376855, 6.837464807423891 ], [ 79.86970642442914, 6.837450134683958 ], [ 79.869761221487423, 6.83743503132258 ], [ 79.86981589817141, 6.837419498271424 ], [ 79.869870451108255, 6.837403536488666 ], [ 79.869924876932743, 6.837387146958928 ], [ 79.869979172287472, 6.837370330693219 ], [ 79.870033333823116, 6.837353088728872 ], [ 79.870087358198575, 6.837335422129478 ], [ 79.87014124208126, 6.837317331984829 ], [ 79.870194982147211, 6.83729881941084 ], [ 79.870248575081334, 6.837279885549484 ], [ 79.870302017577643, 6.837260531568726 ], [ 79.87035530633942, 6.837240758662441 ], [ 79.870408438079409, 6.837220568050351 ], [ 79.870461409520104, 6.837199960977947 ], [ 79.870514217393804, 6.8371789387164 ], [ 79.870566858442956, 6.837157502562506 ], [ 79.870619329420308, 6.837135653838592 ], [ 79.870671627089024, 6.837113393892419 ], [ 79.870723748223057, 6.837090724097136 ], [ 79.8707756896072, 6.83706764585116 ], [ 79.870827448037318, 6.837044160578116 ], [ 79.870879020320629, 6.837020269726723 ], [ 79.870930403275764, 6.836995974770734 ], [ 79.870981593733049, 6.83697127720882 ], [ 79.871032588534746, 6.83694617856449 ], [ 79.871083384535112, 6.836920680385998 ], [ 79.87113397860071, 6.836894784246238 ], [ 79.871184367610525, 6.836868491742663 ], [ 79.871234548456258, 6.83684180449716 ], [ 79.871284518042373, 6.836814724155986 ], [ 79.871334273286465, 6.836787252389634 ], [ 79.87138381111923, 6.836759390892747 ], [ 79.871433128484881, 6.836731141384011 ], [ 79.871482222341172, 6.836702505606041 ], [ 79.871531089659669, 6.836673485325289 ], [ 79.871579727425924, 6.836644082331913 ], [ 79.871628132639614, 6.836614298439695 ], [ 79.871676302314825, 6.836584135485906 ], [ 79.871724233480123, 6.836553595331194 ], [ 79.871771923178798, 6.836522679859486 ], [ 79.871819368469019, 6.836491390977852 ], [ 79.871866566424103, 6.836459730616405 ], [ 79.87191351413253, 6.836427700728166 ], [ 79.871960208698297, 6.836395303288953 ], [ 79.87200664724098, 6.836362540297265 ], [ 79.872052826895967, 6.836329413774135 ], [ 79.872098744814593, 6.83629592576304 ], [ 79.872144398164366, 6.836262078329734 ], [ 79.87218978412912, 6.836227873562163 ], [ 79.872234899909145, 6.836193313570301 ], [ 79.872279742721432, 6.836158400486043 ], [ 79.872324309799822, 6.83612313646307 ], [ 79.872368598395155, 6.836087523676693 ], [ 79.872412605775409, 6.836051564323752 ], [ 79.872456329225997, 6.836015260622463 ], [ 79.872499766049771, 6.835978614812277 ], [ 79.872542913567301, 6.835941629153758 ], [ 79.872585769117009, 6.835904305928427 ], [ 79.872628330055321, 6.835866647438627 ], [ 79.872670593756823, 6.835828656007391 ], [ 79.872712557614463, 6.835790333978286 ], [ 79.872754219039692, 6.835751683715266 ], [ 79.872795575462575, 6.835712707602535 ], [ 79.872836624332066, 6.835673408044406 ], [ 79.872877363116004, 6.83563378746513 ], [ 79.872917789301411, 6.835593848308775 ], [ 79.872957900394624, 6.83555359303905 ], [ 79.872997693921349, 6.835513024139169 ], [ 79.873037167426929, 6.835472144111686 ], [ 79.873076318476421, 6.835430955478357 ], [ 79.873115144654804, 6.835389460779966 ], [ 79.873153643567093, 6.835347662576182 ], [ 79.873191812838471, 6.835305563445398 ], [ 79.873229650114467, 6.835263165984562 ], [ 79.873267153061136, 6.835220472809024 ], [ 79.873304319365076, 6.835177486552387 ], [ 79.873341146733722, 6.835134209866323 ], [ 79.873377632895398, 6.835090645420419 ], [ 79.873413775599431, 6.83504679590202 ], [ 79.873449572616437, 6.835002664016047 ], [ 79.873485021738261, 6.834958252484847 ], [ 79.873520120778252, 6.834913564048007 ], [ 79.873554867571372, 6.834868601462205 ], [ 79.873589259974281, 6.834823367501023 ], [ 79.873623295865514, 6.834777864954787 ], [ 79.873656973145614, 6.834732096630387 ], [ 79.873690289737212, 6.83468606535111 ], [ 79.87372324358526, 6.834639773956457 ], [ 79.873755832656997, 6.834593225301989 ], [ 79.873788054942224, 6.834546422259116 ], [ 79.873819908453356, 6.834499367714965 ], [ 79.873851391225557, 6.834452064572138 ], [ 79.873882501316857, 6.834404515748619 ], [ 79.873913236808306, 6.834356724177509 ], [ 79.873943595804036, 6.8343086928069 ], [ 79.873973576431382, 6.834260424599671 ], [ 79.874003176841072, 6.834211922533312 ], [ 79.874032395207266, 6.834163189599741 ], [ 79.874061229727701, 6.834114228805104 ], [ 79.874089678623761, 6.834065043169618 ], [ 79.87411774014069, 6.83401563572736 ], [ 79.874145412547549, 6.83396600952609 ], [ 79.874172694137428, 6.833916167627072 ], [ 79.874199583227565, 6.83386611310485 ], [ 79.874226078159367, 6.833815849047109 ], [ 79.874252177298615, 6.833765378554448 ], [ 79.87427787903539, 6.833714704740193 ], [ 79.874303181784441, 6.833663830730225 ], [ 79.874328083985006, 6.833612759662766 ], [ 79.874352584101104, 6.833561494688191 ], [ 79.874376680621538, 6.833510038968842 ], [ 79.874400372059995, 6.833458395678822 ], [ 79.874423656955159, 6.8334065680038 ], [ 79.87444653387081, 6.833354559140829 ], [ 79.87446900139588, 6.833302372298129 ], [ 79.874491058144542, 6.833250010694901 ], [ 79.874512702756348, 6.833197477561123 ], [ 79.874533933896245, 6.833144776137356 ], [ 79.874554750254731, 6.833091909674544 ], [ 79.874575150547827, 6.833038881433805 ], [ 79.874595133517204, 6.832985694686241 ], [ 79.874614697930411, 6.832932352712723 ], [ 79.874633842580664, 6.832878858803702 ], [ 79.874652566287182, 6.832825216259002 ], [ 79.874670867895091, 6.832771428387608 ], [ 79.874688746275567, 6.83271749850748 ], [ 79.874706200325932, 6.832663429945321 ], [ 79.8747232289696, 6.832609226036407 ], [ 79.874739831156333, 6.832554890124342 ], [ 79.874756005862125, 6.832500425560886 ], [ 79.874771752089387, 6.832445835705726 ], [ 79.874787068866908, 6.832391123926283 ], [ 79.874801955250021, 6.8323362935975 ], [ 79.874816410320605, 6.832281348101616 ], [ 79.874830433187086, 6.832226290827993 ], [ 79.874844022984661, 6.832171125172874 ], [ 79.874857178875104, 6.832115854539193 ], [ 79.874869900047088, 6.832060482336353 ], [ 79.874882185716004, 6.832005011980026 ], [ 79.874894035124186, 6.83194944689194 ], [ 79.874905447540812, 6.831893790499656 ], [ 79.874916422262061, 6.831838046236378 ], [ 79.874926958611113, 6.83178221754072 ], [ 79.874937055938148, 6.831726307856504 ], [ 79.874946713620446, 6.831670320632554 ], [ 79.874955931062473, 6.831614259322462 ], [ 79.874964707695753, 6.831558127384413 ], [ 79.87497304297905, 6.831501928280922 ], [ 79.874980936398359, 6.831445665478655 ], [ 79.874988387466942, 6.831389342448214 ], [ 79.874995395725293, 6.831332962663908 ], [ 79.875001960741258, 6.831276529603543 ], [ 79.875008082110071, 6.831220046748218 ], [ 79.875013759454234, 6.831163517582094 ], [ 79.875018992423719, 6.831106945592196 ], [ 79.875023780695898, 6.831050334268182 ], [ 79.875028123975511, 6.830993687102142 ], [ 79.875032021994855, 6.830937007588373 ], [ 79.875035474513581, 6.830880299223157 ], [ 79.875038481318924, 6.830823565504572 ], [ 79.875041042225547, 6.830766809932247 ], [ 79.875043157075623, 6.83071003600716 ], [ 79.875044825738883, 6.83065324723142 ], [ 79.875046048112509, 6.830596447108051 ], [ 79.875046824121299, 6.830539639140778 ], [ 79.875047153717517, 6.830482826833803 ] ] ] ] } }
]
}
