{
"type": "FeatureCollection",
"name": "Pois_clipped_500m",
"crs": { "type": "name", "properties": { "name": "urn:ogc:def:crs:OGC:1.3:CRS84" } },
"features": [
{ "type": "Feature", "properties": { "id": "node/4711157589", "name": "Ceypetco", "name_en": null, "name_si": null, "name_ta": null, "amenity": "fuel", "man_made": null, "shop": null, "tourism": null, "opening_ho": null, "beds": null, "rooms": null, "addr_full": null, "addr_house": null, "addr_stree": null, "addr_city": null, "source": null, "adm0_pcode": "LKA", "adm0_name": "Sri Lanka", "adm1_pcode": "LK1", "adm1_name": "Western", "adm2_pcode": "LK11", "adm2_name": "Colombo", "adm3_pcode": "LK1131", "adm3_name": "Ratmalana", "adm4_pcode": "LK1131050", "adm4_name": "Vihara", "name_latin": "Ceypetco" }, "geometry": { "type": "Point", "coordinates": [ 79.8691956, 6.826255 ] } },
{ "type": "Feature", "properties": { "id": "node/9379008232", "name": "Domino's", "name_en": "Domino's pizza", "name_si": null, "name_ta": null, "amenity": "fast_food", "man_made": null, "shop": null, "tourism": null, "opening_ho": null, "beds": null, "rooms": null, "addr_full": null, "addr_house": null, "addr_stree": null, "addr_city": null, "source": null, "adm0_pcode": "LKA", "adm0_name": "Sri Lanka", "adm1_pcode": "LK1", "adm1_name": "Western", "adm2_pcode": "LK11", "adm2_name": "Colombo", "adm3_pcode": "LK1131", "adm3_name": "Ratmalana", "adm4_pcode": "LK1131050", "adm4_name": "Vihara", "name_latin": "Domino's pizza" }, "geometry": { "type": "Point", "coordinates": [ 79.8692647, 6.8270175 ] } },
{ "type": "Feature", "properties": { "id": "node/5713780521", "name": null, "name_en": "Salon sara ratmalana", "name_si": null, "name_ta": null, "amenity": null, "man_made": null, "shop": "cosmetics", "tourism": null, "opening_ho": null, "beds": null, "rooms": null, "addr_full": null, "addr_house": null, "addr_stree": null, "addr_city": null, "source": null, "adm0_pcode": "LKA", "adm0_name": "Sri Lanka", "adm1_pcode": "LK1", "adm1_name": "Western", "adm2_pcode": "LK11", "adm2_name": "Colombo", "adm3_pcode": "LK1131", "adm3_name": "Ratmalana", "adm4_pcode": "LK1131050", "adm4_name": "Vihara", "name_latin": "Salon sara ratmalana" }, "geometry": { "type": "Point", "coordinates": [ 79.8694189, 6.8274086 ] } },
{ "type": "Feature", "properties": { "id": "node/6466232466", "name": "British College of Applied Studies", "name_en": null, "name_si": null, "name_ta": null, "amenity": "college", "man_made": null, "shop": null, "tourism": null, "opening_ho": null, "beds": null, "rooms": null, "addr_full": null, "addr_house": "54", "addr_stree": "Galle Road", "addr_city": "Mount Lavinia", "source": null, "adm0_pcode": "LKA", "adm0_name": "Sri Lanka", "adm1_pcode": "LK1", "adm1_name": "Western", "adm2_pcode": "LK11", "adm2_name": "Colombo", "adm3_pcode": "LK1131", "adm3_name": "Ratmalana", "adm4_pcode": "LK1131050", "adm4_name": "Vihara", "name_latin": "British College of Applied Studies" }, "geometry": { "type": "Point", "coordinates": [ 79.8674429, 6.8305038 ] } },
{ "type": "Feature", "properties": { "id": "node/652398687", "name": null, "name_en": null, "name_si": null, "name_ta": null, "amenity": "bank", "man_made": null, "shop": null, "tourism": null, "opening_ho": null, "beds": null, "rooms": null, "addr_full": null, "addr_house": null, "addr_stree": null, "addr_city": null, "source": null, "adm0_pcode": "LKA", "adm0_name": "Sri Lanka", "adm1_pcode": "LK1", "adm1_name": "Western", "adm2_pcode": "LK11", "adm2_name": "Colombo", "adm3_pcode": "LK1131", "adm3_name": "Ratmalana", "adm4_pcode": "LK1131050", "adm4_name": "Vihara", "name_latin": null }, "geometry": { "type": "Point", "coordinates": [ 79.8681916, 6.8285195 ] } },
{ "type": "Feature", "properties": { "id": "node/9887018987", "name": "Pizza Hut", "name_en": null, "name_si": null, "name_ta": null, "amenity": "restaurant", "man_made": null, "shop": null, "tourism": null, "opening_ho": "Mo-Su 11:00-23:00", "beds": null, "rooms": null, "addr_full": null, "addr_house": "108", "addr_stree": "Galle Road", "addr_city": "Mount Lavinia", "source": null, "adm0_pcode": "LKA", "adm0_name": "Sri Lanka", "adm1_pcode": "LK1", "adm1_name": "Western", "adm2_pcode": "LK11", "adm2_name": "Colombo", "adm3_pcode": "LK1131", "adm3_name": "Ratmalana", "adm4_pcode": "LK1131050", "adm4_name": "Vihara", "name_latin": "Pizza Hut" }, "geometry": { "type": "Point", "coordinates": [ 79.8680707, 6.8294278 ] } },
{ "type": "Feature", "properties": { "id": "node/8792949875", "name": "McDonald's", "name_en": null, "name_si": null, "name_ta": null, "amenity": "fast_food", "man_made": null, "shop": null, "tourism": null, "opening_ho": null, "beds": null, "rooms": null, "addr_full": null, "addr_house": null, "addr_stree": null, "addr_city": null, "source": null, "adm0_pcode": "LKA", "adm0_name": "Sri Lanka", "adm1_pcode": "LK1", "adm1_name": "Western", "adm2_pcode": "LK11", "adm2_name": "Colombo", "adm3_pcode": "LK1131", "adm3_name": "Ratmalana", "adm4_pcode": "LK1131050", "adm4_name": "Vihara", "name_latin": "McDonald's" }, "geometry": { "type": "Point", "coordinates": [ 79.868797, 6.8273551 ] } },
{ "type": "Feature", "properties": { "id": "node/1643928268", "name": "Cargills Food City", "name_en": null, "name_si": null, "name_ta": null, "amenity": null, "man_made": null, "shop": "supermarket", "tourism": null, "opening_ho": null, "beds": null, "rooms": null, "addr_full": null, "addr_house": null, "addr_stree": null, "addr_city": null, "source": null, "adm0_pcode": "LKA", "adm0_name": "Sri Lanka", "adm1_pcode": "LK1", "adm1_name": "Western", "adm2_pcode": "LK11", "adm2_name": "Colombo", "adm3_pcode": "LK1131", "adm3_name": "Ratmalana", "adm4_pcode": "LK1131050", "adm4_name": "Vihara", "name_latin": "Cargills Food City" }, "geometry": { "type": "Point", "coordinates": [ 79.8690532, 6.8277078 ] } },
{ "type": "Feature", "properties": { "id": "node/4609648100", "name": null, "name_en": "Family bakers", "name_si": null, "name_ta": null, "amenity": "cafe", "man_made": null, "shop": null, "tourism": null, "opening_ho": "Mo-Su 06:00-20:30", "beds": null, "rooms": null, "addr_full": null, "addr_house": "107", "addr_stree": "Galle Road", "addr_city": "Mount Lavinia", "source": null, "adm0_pcode": "LKA", "adm0_name": "Sri Lanka", "adm1_pcode": "LK1", "adm1_name": "Western", "adm2_pcode": "LK11", "adm2_name": "Colombo", "adm3_pcode": "LK1131", "adm3_name": "Ratmalana", "adm4_pcode": "LK1131050", "adm4_name": "Vihara", "name_latin": "Family bakers" }, "geometry": { "type": "Point", "coordinates": [ 79.8685577, 6.8287196 ] } },
{ "type": "Feature", "properties": { "id": "node/4971852326", "name": null, "name_en": "Salon 7 mount lavinia", "name_si": null, "name_ta": null, "amenity": null, "man_made": null, "shop": "cosmetics", "tourism": null, "opening_ho": null, "beds": null, "rooms": null, "addr_full": null, "addr_house": null, "addr_stree": null, "addr_city": null, "source": null, "adm0_pcode": "LKA", "adm0_name": "Sri Lanka", "adm1_pcode": "LK1", "adm1_name": "Western", "adm2_pcode": "LK11", "adm2_name": "Colombo", "adm3_pcode": "LK1131", "adm3_name": "Ratmalana", "adm4_pcode": "LK1131050", "adm4_name": "Vihara", "name_latin": "Salon 7 mount lavinia" }, "geometry": { "type": "Point", "coordinates": [ 79.8687084, 6.8284507 ] } },
{ "type": "Feature", "properties": { "id": "node/9733862244", "name": "Taco Bell", "name_en": null, "name_si": null, "name_ta": null, "amenity": "fast_food", "man_made": null, "shop": null, "tourism": null, "opening_ho": "11:00-23:00", "beds": null, "rooms": null, "addr_full": null, "addr_house": "89", "addr_stree": "Galle Road", "addr_city": "Mount Lavinia", "source": null, "adm0_pcode": "LKA", "adm0_name": "Sri Lanka", "adm1_pcode": "LK1", "adm1_name": "Western", "adm2_pcode": "LK11", "adm2_name": "Colombo", "adm3_pcode": "LK1131", "adm3_name": "Ratmalana", "adm4_pcode": "LK1131050", "adm4_name": "Vihara", "name_latin": "Taco Bell" }, "geometry": { "type": "Point", "coordinates": [ 79.8683375, 6.8295734 ] } },
{ "type": "Feature", "properties": { "id": "node/5116500822", "name": null, "name_en": "Salon dinu mountlavina", "name_si": null, "name_ta": null, "amenity": null, "man_made": null, "shop": "cosmetics", "tourism": null, "opening_ho": null, "beds": null, "rooms": null, "addr_full": null, "addr_house": null, "addr_stree": null, "addr_city": null, "source": null, "adm0_pcode": "LKA", "adm0_name": "Sri Lanka", "adm1_pcode": "LK1", "adm1_name": "Western", "adm2_pcode": "LK11", "adm2_name": "Colombo", "adm3_pcode": "LK1131", "adm3_name": "Ratmalana", "adm4_pcode": "LK1131050", "adm4_name": "Vihara", "name_latin": "Salon dinu mountlavina" }, "geometry": { "type": "Point", "coordinates": [ 79.8683615, 6.8305748 ] } },
{ "type": "Feature", "properties": { "id": "node/1654309527", "name": "Lalith Athulathmudali College", "name_en": null, "name_si": null, "name_ta": null, "amenity": "school", "man_made": null, "shop": null, "tourism": null, "opening_ho": null, "beds": null, "rooms": null, "addr_full": null, "addr_house": null, "addr_stree": null, "addr_city": "Mount Lavinia", "source": null, "adm0_pcode": "LKA", "adm0_name": "Sri Lanka", "adm1_pcode": "LK1", "adm1_name": "Western", "adm2_pcode": "LK11", "adm2_name": "Colombo", "adm3_pcode": "LK1131", "adm3_name": "Ratmalana", "adm4_pcode": "LK1131050", "adm4_name": "Vihara", "name_latin": "Lalith Athulathmudali College" }, "geometry": { "type": "Point", "coordinates": [ 79.8717788, 6.8295595 ] } },
{ "type": "Feature", "properties": { "id": "node/5725214123", "name": null, "name_en": "Salon wendys mtlavinia", "name_si": null, "name_ta": null, "amenity": null, "man_made": null, "shop": "cosmetics", "tourism": null, "opening_ho": null, "beds": null, "rooms": null, "addr_full": null, "addr_house": null, "addr_stree": null, "addr_city": null, "source": null, "adm0_pcode": "LKA", "adm0_name": "Sri Lanka", "adm1_pcode": "LK1", "adm1_name": "Western", "adm2_pcode": "LK11", "adm2_name": "Colombo", "adm3_pcode": "LK1131", "adm3_name": "Ratmalana", "adm4_pcode": "LK1131050", "adm4_name": "Vihara", "name_latin": "Salon wendys mtlavinia" }, "geometry": { "type": "Point", "coordinates": [ 79.8702693, 6.8309532 ] } },
{ "type": "Feature", "properties": { "id": "node/1643928269", "name": "NOLIMIT", "name_en": null, "name_si": null, "name_ta": null, "amenity": null, "man_made": null, "shop": "clothes", "tourism": null, "opening_ho": null, "beds": null, "rooms": null, "addr_full": null, "addr_house": null, "addr_stree": null, "addr_city": null, "source": null, "adm0_pcode": "LKA", "adm0_name": "Sri Lanka", "adm1_pcode": "LK1", "adm1_name": "Western", "adm2_pcode": "LK11", "adm2_name": "Colombo", "adm3_pcode": "LK1131", "adm3_name": "Ratmalana", "adm4_pcode": "LK1131050", "adm4_name": "Vihara", "name_latin": "NOLIMIT" }, "geometry": { "type": "Point", "coordinates": [ 79.8691471, 6.8275241 ] } },
{ "type": "Feature", "properties": { "id": "node/5100278324", "name": null, "name_en": "Salon ovinca mountlavinia", "name_si": null, "name_ta": null, "amenity": null, "man_made": null, "shop": "cosmetics", "tourism": null, "opening_ho": null, "beds": null, "rooms": null, "addr_full": null, "addr_house": null, "addr_stree": null, "addr_city": null, "source": null, "adm0_pcode": "LKA", "adm0_name": "Sri Lanka", "adm1_pcode": "LK1", "adm1_name": "Western", "adm2_pcode": "LK11", "adm2_name": "Colombo", "adm3_pcode": "LK1131", "adm3_name": "Ratmalana", "adm4_pcode": "LK1131050", "adm4_name": "Vihara", "name_latin": "Salon ovinca mountlavinia" }, "geometry": { "type": "Point", "coordinates": [ 79.8697476, 6.8312421 ] } },
{ "type": "Feature", "properties": { "id": "node/678640547", "name": "Sri Sugatha Dharmayathanaya", "name_en": null, "name_si": null, "name_ta": null, "amenity": "place_of_worship", "man_made": null, "shop": null, "tourism": null, "opening_ho": null, "beds": null, "rooms": null, "addr_full": null, "addr_house": null, "addr_stree": null, "addr_city": null, "source": null, "adm0_pcode": "LKA", "adm0_name": "Sri Lanka", "adm1_pcode": "LK1", "adm1_name": "Western", "adm2_pcode": "LK11", "adm2_name": "Colombo", "adm3_pcode": "LK1131", "adm3_name": "Ratmalana", "adm4_pcode": "LK1131050", "adm4_name": "Vihara", "name_latin": "Sri Sugatha Dharmayathanaya" }, "geometry": { "type": "Point", "coordinates": [ 79.8708579, 6.831599 ] } },
{ "type": "Feature", "properties": { "id": "node/5317654427", "name": null, "name_en": "Okada Temple", "name_si": null, "name_ta": null, "amenity": null, "man_made": null, "shop": null, "tourism": "attraction", "opening_ho": null, "beds": null, "rooms": null, "addr_full": null, "addr_house": null, "addr_stree": null, "addr_city": null, "source": null, "adm0_pcode": "LKA", "adm0_name": "Sri Lanka", "adm1_pcode": "LK1", "adm1_name": "Western", "adm2_pcode": "LK11", "adm2_name": "Colombo", "adm3_pcode": "LK1131", "adm3_name": "Ratmalana", "adm4_pcode": "LK1131045", "adm4_name": "Wedikanda", "name_latin": "Okada Temple" }, "geometry": { "type": "Point", "coordinates": [ 79.8640115, 6.8285224 ] } },
{ "type": "Feature", "properties": { "id": "node/8594262509", "name": "Maharhishi Ayurveda Hospital", "name_en": null, "name_si": null, "name_ta": null, "amenity": "hospital", "man_made": null, "shop": null, "tourism": null, "opening_ho": null, "beds": null, "rooms": null, "addr_full": null, "addr_house": null, "addr_stree": "Samudrasanna Road", "addr_city": "Mount Lavinia", "source": null, "adm0_pcode": "LKA", "adm0_name": "Sri Lanka", "adm1_pcode": "LK1", "adm1_name": "Western", "adm2_pcode": "LK11", "adm2_name": "Colombo", "adm3_pcode": "LK1131", "adm3_name": "Ratmalana", "adm4_pcode": "LK1131005", "adm4_name": "Mount Lavinia", "name_latin": "Maharhishi Ayurveda Hospital" }, "geometry": { "type": "Point", "coordinates": [ 79.8656752, 6.8303971 ] } },
{ "type": "Feature", "properties": { "id": "node/3130764937", "name": "Lavinia House", "name_en": null, "name_si": null, "name_ta": null, "amenity": null, "man_made": null, "shop": null, "tourism": "hotel", "opening_ho": null, "beds": null, "rooms": null, "addr_full": null, "addr_house": null, "addr_stree": null, "addr_city": "Mount Lavinia", "source": null, "adm0_pcode": "LKA", "adm0_name": "Sri Lanka", "adm1_pcode": "LK1", "adm1_name": "Western", "adm2_pcode": "LK11", "adm2_name": "Colombo", "adm3_pcode": "LK1131", "adm3_name": "Ratmalana", "adm4_pcode": "LK1131005", "adm4_name": "Mount Lavinia", "name_latin": "Lavinia House" }, "geometry": { "type": "Point", "coordinates": [ 79.8645018, 6.8328468 ] } },
{ "type": "Feature", "properties": { "id": "node/3130764936", "name": "Mount Lodge", "name_en": null, "name_si": null, "name_ta": null, "amenity": null, "man_made": null, "shop": null, "tourism": "hotel", "opening_ho": null, "beds": null, "rooms": null, "addr_full": null, "addr_house": null, "addr_stree": null, "addr_city": "Mount Lavinia", "source": null, "adm0_pcode": "LKA", "adm0_name": "Sri Lanka", "adm1_pcode": "LK1", "adm1_name": "Western", "adm2_pcode": "LK11", "adm2_name": "Colombo", "adm3_pcode": "LK1131", "adm3_name": "Ratmalana", "adm4_pcode": "LK1131005", "adm4_name": "Mount Lavinia", "name_latin": "Mount Lodge" }, "geometry": { "type": "Point", "coordinates": [ 79.8644815, 6.833533 ] } },
{ "type": "Feature", "properties": { "id": "node/4954409226", "name": null, "name_en": "Salon mirror mountlavinia", "name_si": null, "name_ta": null, "amenity": null, "man_made": null, "shop": "cosmetics", "tourism": null, "opening_ho": null, "beds": null, "rooms": null, "addr_full": null, "addr_house": null, "addr_stree": null, "addr_city": null, "source": null, "adm0_pcode": "LKA", "adm0_name": "Sri Lanka", "adm1_pcode": "LK1", "adm1_name": "Western", "adm2_pcode": "LK11", "adm2_name": "Colombo", "adm3_pcode": "LK1131", "adm3_name": "Ratmalana", "adm4_pcode": "LK1131005", "adm4_name": "Mount Lavinia", "name_latin": "Salon mirror mountlavinia" }, "geometry": { "type": "Point", "coordinates": [ 79.8674986, 6.8310424 ] } },
{ "type": "Feature", "properties": { "id": "node/5581871227", "name": null, "name_en": "Salon finesse mountlavinia", "name_si": null, "name_ta": null, "amenity": null, "man_made": null, "shop": "cosmetics", "tourism": null, "opening_ho": null, "beds": null, "rooms": null, "addr_full": null, "addr_house": null, "addr_stree": null, "addr_city": null, "source": null, "adm0_pcode": "LKA", "adm0_name": "Sri Lanka", "adm1_pcode": "LK1", "adm1_name": "Western", "adm2_pcode": "LK11", "adm2_name": "Colombo", "adm3_pcode": "LK1131", "adm3_name": "Ratmalana", "adm4_pcode": "LK1131005", "adm4_name": "Mount Lavinia", "name_latin": "Salon finesse mountlavinia" }, "geometry": { "type": "Point", "coordinates": [ 79.8673386, 6.8320871 ] } },
{ "type": "Feature", "properties": { "id": "node/621917716", "name": "Keells Super, Mount Lavinia.", "name_en": null, "name_si": null, "name_ta": null, "amenity": null, "man_made": null, "shop": "supermarket", "tourism": null, "opening_ho": null, "beds": null, "rooms": null, "addr_full": null, "addr_house": null, "addr_stree": null, "addr_city": null, "source": null, "adm0_pcode": "LKA", "adm0_name": "Sri Lanka", "adm1_pcode": "LK1", "adm1_name": "Western", "adm2_pcode": "LK11", "adm2_name": "Colombo", "adm3_pcode": "LK1131", "adm3_name": "Ratmalana", "adm4_pcode": "LK1131005", "adm4_name": "Mount Lavinia", "name_latin": "Keells Super, Mount Lavinia." }, "geometry": { "type": "Point", "coordinates": [ 79.8673272, 6.8318632 ] } },
{ "type": "Feature", "properties": { "id": "node/1654305500", "name": "Thapodhanaramaya", "name_en": null, "name_si": null, "name_ta": null, "amenity": "place_of_worship", "man_made": null, "shop": null, "tourism": null, "opening_ho": null, "beds": null, "rooms": null, "addr_full": null, "addr_house": null, "addr_stree": null, "addr_city": null, "source": null, "adm0_pcode": "LKA", "adm0_name": "Sri Lanka", "adm1_pcode": "LK1", "adm1_name": "Western", "adm2_pcode": "LK11", "adm2_name": "Colombo", "adm3_pcode": "LK1131", "adm3_name": "Ratmalana", "adm4_pcode": "LK1131050", "adm4_name": "Vihara", "name_latin": "Thapodhanaramaya" }, "geometry": { "type": "Point", "coordinates": [ 79.8682352, 6.8317211 ] } },
{ "type": "Feature", "properties": { "id": "node/9936301580", "name": "Elite Indian Restaurant", "name_en": null, "name_si": null, "name_ta": null, "amenity": "restaurant", "man_made": null, "shop": null, "tourism": null, "opening_ho": "Mo-Su 10:30-23:00", "beds": null, "rooms": null, "addr_full": null, "addr_house": "25", "addr_stree": "Galle Road", "addr_city": "Mount Lavinia", "source": null, "adm0_pcode": "LKA", "adm0_name": "Sri Lanka", "adm1_pcode": "LK1", "adm1_name": "Western", "adm2_pcode": "LK11", "adm2_name": "Colombo", "adm3_pcode": "LK1131", "adm3_name": "Ratmalana", "adm4_pcode": "LK1131050", "adm4_name": "Vihara", "name_latin": "Elite Indian Restaurant" }, "geometry": { "type": "Point", "coordinates": [ 79.8678775, 6.8311823 ] } },
{ "type": "Feature", "properties": { "id": "node/4954409225", "name": null, "name_en": "New lovers mountlavinia", "name_si": null, "name_ta": null, "amenity": null, "man_made": null, "shop": "beauty", "tourism": null, "opening_ho": null, "beds": null, "rooms": null, "addr_full": null, "addr_house": null, "addr_stree": null, "addr_city": null, "source": null, "adm0_pcode": "LKA", "adm0_name": "Sri Lanka", "adm1_pcode": "LK1", "adm1_name": "Western", "adm2_pcode": "LK11", "adm2_name": "Colombo", "adm3_pcode": "LK1131", "adm3_name": "Ratmalana", "adm4_pcode": "LK1131050", "adm4_name": "Vihara", "name_latin": "New lovers mountlavinia" }, "geometry": { "type": "Point", "coordinates": [ 79.8677645, 6.8310673 ] } },
{ "type": "Feature", "properties": { "id": "node/9379015327", "name": null, "name_en": null, "name_si": null, "name_ta": null, "amenity": "atm", "man_made": null, "shop": null, "tourism": null, "opening_ho": null, "beds": null, "rooms": null, "addr_full": null, "addr_house": null, "addr_stree": null, "addr_city": null, "source": null, "adm0_pcode": "LKA", "adm0_name": "Sri Lanka", "adm1_pcode": "LK1", "adm1_name": "Western", "adm2_pcode": "LK11", "adm2_name": "Colombo", "adm3_pcode": "LK1131", "adm3_name": "Ratmalana", "adm4_pcode": "LK1131050", "adm4_name": "Vihara", "name_latin": null }, "geometry": { "type": "Point", "coordinates": [ 79.8678021, 6.8307287 ] } },
{ "type": "Feature", "properties": { "id": "node/5632202904", "name": null, "name_en": null, "name_si": null, "name_ta": null, "amenity": null, "man_made": null, "shop": "convenience", "tourism": null, "opening_ho": null, "beds": null, "rooms": null, "addr_full": null, "addr_house": null, "addr_stree": null, "addr_city": null, "source": null, "adm0_pcode": "LKA", "adm0_name": "Sri Lanka", "adm1_pcode": "LK1", "adm1_name": "Western", "adm2_pcode": "LK11", "adm2_name": "Colombo", "adm3_pcode": "LK1131", "adm3_name": "Ratmalana", "adm4_pcode": "LK1131020", "adm4_name": "Wathumulla", "name_latin": null }, "geometry": { "type": "Point", "coordinates": [ 79.8675919, 6.832308 ] } },
{ "type": "Feature", "properties": { "id": "node/5632202903", "name": null, "name_en": null, "name_si": null, "name_ta": null, "amenity": null, "man_made": null, "shop": "convenience", "tourism": null, "opening_ho": null, "beds": null, "rooms": null, "addr_full": null, "addr_house": null, "addr_stree": null, "addr_city": null, "source": null, "adm0_pcode": "LKA", "adm0_name": "Sri Lanka", "adm1_pcode": "LK1", "adm1_name": "Western", "adm2_pcode": "LK11", "adm2_name": "Colombo", "adm3_pcode": "LK1131", "adm3_name": "Ratmalana", "adm4_pcode": "LK1131020", "adm4_name": "Wathumulla", "name_latin": null }, "geometry": { "type": "Point", "coordinates": [ 79.8675087, 6.8323034 ] } },
{ "type": "Feature", "properties": { "id": "node/1249816149", "name": "HNB", "name_en": null, "name_si": null, "name_ta": null, "amenity": "bank", "man_made": null, "shop": null, "tourism": null, "opening_ho": null, "beds": null, "rooms": null, "addr_full": null, "addr_house": null, "addr_stree": null, "addr_city": null, "source": null, "adm0_pcode": "LKA", "adm0_name": "Sri Lanka", "adm1_pcode": "LK1", "adm1_name": "Western", "adm2_pcode": "LK11", "adm2_name": "Colombo", "adm3_pcode": "LK1131", "adm3_name": "Ratmalana", "adm4_pcode": "LK1131020", "adm4_name": "Wathumulla", "name_latin": "HNB" }, "geometry": { "type": "Point", "coordinates": [ 79.8675555, 6.8324776 ] } },
{ "type": "Feature", "properties": { "id": "node/1683616012", "name": "Mahinda Florists", "name_en": null, "name_si": null, "name_ta": null, "amenity": null, "man_made": null, "shop": "florist", "tourism": null, "opening_ho": null, "beds": null, "rooms": null, "addr_full": null, "addr_house": null, "addr_stree": null, "addr_city": null, "source": null, "adm0_pcode": "LKA", "adm0_name": "Sri Lanka", "adm1_pcode": "LK1", "adm1_name": "Western", "adm2_pcode": "LK11", "adm2_name": "Colombo", "adm3_pcode": "LK1131", "adm3_name": "Ratmalana", "adm4_pcode": "LK1131020", "adm4_name": "Wathumulla", "name_latin": "Mahinda Florists" }, "geometry": { "type": "Point", "coordinates": [ 79.8675276, 6.83265 ] } },
{ "type": "Feature", "properties": { "id": "node/3130764938", "name": "Prestige Court Residence Hotel", "name_en": null, "name_si": null, "name_ta": null, "amenity": null, "man_made": null, "shop": null, "tourism": "hotel", "opening_ho": null, "beds": null, "rooms": null, "addr_full": null, "addr_house": null, "addr_stree": null, "addr_city": "Mount Lavinia", "source": null, "adm0_pcode": "LKA", "adm0_name": "Sri Lanka", "adm1_pcode": "LK1", "adm1_name": "Western", "adm2_pcode": "LK11", "adm2_name": "Colombo", "adm3_pcode": "LK1131", "adm3_name": "Ratmalana", "adm4_pcode": "LK1131005", "adm4_name": "Mount Lavinia", "name_latin": "Prestige Court Residence Hotel" }, "geometry": { "type": "Point", "coordinates": [ 79.864946, 6.8322887 ] } },
{ "type": "Feature", "properties": { "id": "node/1990941099", "name": "mount lavinia post office", "name_en": null, "name_si": null, "name_ta": null, "amenity": "post_office", "man_made": null, "shop": null, "tourism": null, "opening_ho": null, "beds": null, "rooms": null, "addr_full": null, "addr_house": null, "addr_stree": "Station Road", "addr_city": "Mount Lavinia", "source": null, "adm0_pcode": "LKA", "adm0_name": "Sri Lanka", "adm1_pcode": "LK1", "adm1_name": "Western", "adm2_pcode": "LK11", "adm2_name": "Colombo", "adm3_pcode": "LK1131", "adm3_name": "Ratmalana", "adm4_pcode": "LK1131005", "adm4_name": "Mount Lavinia", "name_latin": "mount lavinia post office" }, "geometry": { "type": "Point", "coordinates": [ 79.8664425, 6.8326492 ] } },
{ "type": "Feature", "properties": { "id": "node/5632203289", "name": null, "name_en": null, "name_si": null, "name_ta": null, "amenity": null, "man_made": null, "shop": "convenience", "tourism": null, "opening_ho": null, "beds": null, "rooms": null, "addr_full": null, "addr_house": null, "addr_stree": null, "addr_city": null, "source": null, "adm0_pcode": "LKA", "adm0_name": "Sri Lanka", "adm1_pcode": "LK1", "adm1_name": "Western", "adm2_pcode": "LK11", "adm2_name": "Colombo", "adm3_pcode": "LK1131", "adm3_name": "Ratmalana", "adm4_pcode": "LK1131005", "adm4_name": "Mount Lavinia", "name_latin": null }, "geometry": { "type": "Point", "coordinates": [ 79.8672806, 6.8322425 ] } },
{ "type": "Feature", "properties": { "id": "node/5632203232", "name": null, "name_en": null, "name_si": null, "name_ta": null, "amenity": null, "man_made": null, "shop": "convenience", "tourism": null, "opening_ho": null, "beds": null, "rooms": null, "addr_full": null, "addr_house": null, "addr_stree": null, "addr_city": null, "source": null, "adm0_pcode": "LKA", "adm0_name": "Sri Lanka", "adm1_pcode": "LK1", "adm1_name": "Western", "adm2_pcode": "LK11", "adm2_name": "Colombo", "adm3_pcode": "LK1131", "adm3_name": "Ratmalana", "adm4_pcode": "LK1131005", "adm4_name": "Mount Lavinia", "name_latin": null }, "geometry": { "type": "Point", "coordinates": [ 79.8673176, 6.8323593 ] } },
{ "type": "Feature", "properties": { "id": "node/5632203229", "name": "Salon Elegance", "name_en": null, "name_si": null, "name_ta": null, "amenity": null, "man_made": null, "shop": "beauty", "tourism": null, "opening_ho": "Mo-Su 09:00-21:00", "beds": null, "rooms": null, "addr_full": null, "addr_house": null, "addr_stree": "Station Road", "addr_city": "mount lavinia", "source": null, "adm0_pcode": "LKA", "adm0_name": "Sri Lanka", "adm1_pcode": "LK1", "adm1_name": "Western", "adm2_pcode": "LK11", "adm2_name": "Colombo", "adm3_pcode": "LK1131", "adm3_name": "Ratmalana", "adm4_pcode": "LK1131005", "adm4_name": "Mount Lavinia", "name_latin": "Salon Elegance" }, "geometry": { "type": "Point", "coordinates": [ 79.8672447, 6.8324638 ] } },
{ "type": "Feature", "properties": { "id": "node/1990943761", "name": "Food city express", "name_en": null, "name_si": null, "name_ta": null, "amenity": null, "man_made": null, "shop": "supermarket", "tourism": null, "opening_ho": null, "beds": null, "rooms": null, "addr_full": null, "addr_house": null, "addr_stree": null, "addr_city": null, "source": null, "adm0_pcode": "LKA", "adm0_name": "Sri Lanka", "adm1_pcode": "LK1", "adm1_name": "Western", "adm2_pcode": "LK11", "adm2_name": "Colombo", "adm3_pcode": "LK1131", "adm3_name": "Ratmalana", "adm4_pcode": "LK1131005", "adm4_name": "Mount Lavinia", "name_latin": "Food city express" }, "geometry": { "type": "Point", "coordinates": [ 79.8671666, 6.8327725 ] } },
{ "type": "Feature", "properties": { "id": "node/5616352966", "name": "Bata", "name_en": null, "name_si": null, "name_ta": null, "amenity": null, "man_made": null, "shop": "shoes", "tourism": null, "opening_ho": null, "beds": null, "rooms": null, "addr_full": null, "addr_house": null, "addr_stree": "Galle Road", "addr_city": "Mount Lavinia", "source": null, "adm0_pcode": "LKA", "adm0_name": "Sri Lanka", "adm1_pcode": "LK1", "adm1_name": "Western", "adm2_pcode": "LK11", "adm2_name": "Colombo", "adm3_pcode": "LK1131", "adm3_name": "Ratmalana", "adm4_pcode": "LK1131005", "adm4_name": "Mount Lavinia", "name_latin": "Bata" }, "geometry": { "type": "Point", "coordinates": [ 79.867163, 6.8326908 ] } },
{ "type": "Feature", "properties": { "id": "node/269032442", "name": "Cargills Food City", "name_en": null, "name_si": null, "name_ta": null, "amenity": null, "man_made": null, "shop": "supermarket", "tourism": null, "opening_ho": null, "beds": null, "rooms": null, "addr_full": null, "addr_house": null, "addr_stree": null, "addr_city": null, "source": null, "adm0_pcode": "LKA", "adm0_name": "Sri Lanka", "adm1_pcode": "LK1", "adm1_name": "Western", "adm2_pcode": "LK11", "adm2_name": "Colombo", "adm3_pcode": "LK1131", "adm3_name": "Ratmalana", "adm4_pcode": "LK1131005", "adm4_name": "Mount Lavinia", "name_latin": "Cargills Food City" }, "geometry": { "type": "Point", "coordinates": [ 79.8671266, 6.8329646 ] } },
{ "type": "Feature", "properties": { "id": "node/4609680993", "name": null, "name_en": "Peoples bank", "name_si": null, "name_ta": null, "amenity": "bank", "man_made": null, "shop": null, "tourism": null, "opening_ho": null, "beds": null, "rooms": null, "addr_full": null, "addr_house": null, "addr_stree": null, "addr_city": null, "source": null, "adm0_pcode": "LKA", "adm0_name": "Sri Lanka", "adm1_pcode": "LK1", "adm1_name": "Western", "adm2_pcode": "LK11", "adm2_name": "Colombo", "adm3_pcode": "LK1131", "adm3_name": "Ratmalana", "adm4_pcode": "LK1131005", "adm4_name": "Mount Lavinia", "name_latin": "Peoples bank" }, "geometry": { "type": "Point", "coordinates": [ 79.8672245, 6.8337922 ] } },
{ "type": "Feature", "properties": { "id": "node/5185255622", "name": "BOC", "name_en": null, "name_si": null, "name_ta": null, "amenity": "atm", "man_made": null, "shop": null, "tourism": null, "opening_ho": null, "beds": null, "rooms": null, "addr_full": null, "addr_house": null, "addr_stree": null, "addr_city": null, "source": null, "adm0_pcode": "LKA", "adm0_name": "Sri Lanka", "adm1_pcode": "LK1", "adm1_name": "Western", "adm2_pcode": "LK11", "adm2_name": "Colombo", "adm3_pcode": "LK1131", "adm3_name": "Ratmalana", "adm4_pcode": "LK1131005", "adm4_name": "Mount Lavinia", "name_latin": "BOC" }, "geometry": { "type": "Point", "coordinates": [ 79.8672378, 6.8337799 ] } },
{ "type": "Feature", "properties": { "id": "node/4711114092", "name": null, "name_en": "Singer Mega", "name_si": null, "name_ta": null, "amenity": null, "man_made": null, "shop": "convenience", "tourism": null, "opening_ho": null, "beds": null, "rooms": null, "addr_full": null, "addr_house": null, "addr_stree": null, "addr_city": null, "source": null, "adm0_pcode": "LKA", "adm0_name": "Sri Lanka", "adm1_pcode": "LK1", "adm1_name": "Western", "adm2_pcode": "LK11", "adm2_name": "Colombo", "adm3_pcode": "LK1131", "adm3_name": "Ratmalana", "adm4_pcode": "LK1131005", "adm4_name": "Mount Lavinia", "name_latin": "Singer Mega" }, "geometry": { "type": "Point", "coordinates": [ 79.8673029, 6.834159 ] } },
{ "type": "Feature", "properties": { "id": "node/1664611736", "name": "Mount Lavinia Bus Stand", "name_en": null, "name_si": null, "name_ta": null, "amenity": "bus_station", "man_made": null, "shop": null, "tourism": null, "opening_ho": null, "beds": null, "rooms": null, "addr_full": null, "addr_house": null, "addr_stree": null, "addr_city": null, "source": null, "adm0_pcode": "LKA", "adm0_name": "Sri Lanka", "adm1_pcode": "LK1", "adm1_name": "Western", "adm2_pcode": "LK11", "adm2_name": "Colombo", "adm3_pcode": "LK1131", "adm3_name": "Ratmalana", "adm4_pcode": "LK1131005", "adm4_name": "Mount Lavinia", "name_latin": "Mount Lavinia Bus Stand" }, "geometry": { "type": "Point", "coordinates": [ 79.8672728, 6.8330085 ] } }
]
}
