{"type":"FeatureCollection","features":[{"type":"Feature","properties":{"Shape_Leng":0.05307524631,"Shape_Area":9.214917e-05,"ADM4_EN":"Mount Lavinia","ADM4_SI":"\u0d9c\u0dbd\u0dca\u0d9a\u0dd2\u0dc3\u0dca\u0dc3","ADM4_TA":null,"ADM4_PCODE":"LK1131005","ADM4_REF":null,"ADM3_EN":"Ratmalana","ADM3_SI":"\u0dbb\u0dad\u0dca\u0db8\u0dbd\u0dcf\u0db1","ADM3_TA":"\u0b87\u0bb0\u0ba4\u0bcd\u0bae\u0bb2\u0bbe\u0ba9\u0bc8","ADM3_PCODE":"LK1131","ADM2_EN":"Colombo","ADM2_SI":"\u0d9a\u0ddc\u0dc5\u0db9 \u0daf\u0dd2\u0dc3\u0dca\u0dad\u0dca\u200d\u0dbb\u0dd2\u0d9a\u0dca\u0d9a","ADM2_TA":"\u0b95\u0bca\u0bb4\u0bc1\u0bae\u0bcd\u0baa\u0bc1 \u0bae\u0bbe\u0bb5\u0b9f\u0bcd\u0b9f\u0bae\u0bcd","ADM2_PCODE":"LK11","ADM1_EN":"Western","ADM1_SI":"\u0db6\u0dc3\u0dca\u0db1\u0dcf\u0dc4\u0dd2\u0dbb \u0db4\u0dc5\u0dcf\u0dad","ADM1_TA":"\u0bae\u0bc7\u0bb2\u0bcd \u0bae\u0bbe\u0b95\u0bbe\u0ba3\u0bae\u0bcd\u00a0","ADM1_PCODE":"LK1","ADM0_EN":"Sri Lanka","ADM0_SI":"\u0dc1\u0dca\u200d\u0dbb\u0dd3 \u0dbd\u0d82\u0d9a\u0dcf","ADM0_TA":"\u0b87\u0bb2\u0b99\u0bcd\u0b95\u0bc8","ADM0_PCODE":"LK","date":"2022-08-02","validOn":"2022-08-16","validTo":null,"area":1.126},"geometry":{"type":"MultiPolygon","coordinates":[[[[79.86598778500007,6.848977905000026],[79.86598781900005,6.848974833000057],[79.86598266300007,6.848736845000077],[79.86598257800006,6.848732946000041],[79.86598396900007,6.848657283000024],[79.86599448100003,6.848085553000032],[79.86600562200005,6.847800119000056],[79.86601692200009,6.847510606000071],[79.86601818600009,6.84749249200007],[79.86604974900007,6.847040568000068],[79.86611125400003,6.846427810000023],[79.86613291600008,6.846215633000043],[79.86620149800007,6.845544114000061],[79.86622861300003,6.845311643000059],[79.86625606100006,6.845076303000043],[79.86625971100005,6.845045008000056],[79.86629020400005,6.844755989000021],[79.86630024400006,6.844661518000067],[79.86631821300006,6.84448911800007],[79.86634214000003,6.844274775000031],[79.86635354100008,6.844130845000052],[79.86636478600008,6.844021006000049],[79.86637493200004,6.843918306000035],[79.86640944700008,6.843655427000045],[79.86643288100004,6.843510796000032],[79.86646822600005,6.843334452000021],[79.86650697900006,6.84317384700006],[79.86651336300008,6.843147094000073],[79.86657711100008,6.842925230000048],[79.86663235100008,6.842753354000023],[79.86664627500005,6.842710158000045],[79.86671689400004,6.842491111000074],[79.86682008900004,6.842171848000019],[79.86685321600004,6.842068468000037],[79.86688197300003,6.841978915000026],[79.86688844200006,6.841958952000026],[79.86691828200009,6.841866862000074],[79.86698361900005,6.84166625000006],[79.86713151100008,6.841200860000071],[79.86721463400005,6.840922791000026],[79.8672942520001,6.840633140000022],[79.86730236900007,6.840598705000048],[79.86737975600005,6.840244492000068],[79.86743123700006,6.839955059000032],[79.86747593200005,6.839617873000066],[79.86750260400005,6.839340059000051],[79.86751593100007,6.838989972000036],[79.86752120300008,6.838880844000072],[79.86751319200005,6.838582347000055],[79.86750742800007,6.838367587000049],[79.86750158700005,6.838250480000056],[79.86748943100008,6.83798100100006],[79.86747213200005,6.837656537000043],[79.86745129400003,6.837337671000056],[79.86744794500004,6.837288848000071],[79.86744116900007,6.83719008500003],[79.86744029000005,6.837175979000052],[79.86742238100004,6.83688704800005],[79.86741550300007,6.836792093000042],[79.86739061000004,6.836417249000022],[79.86738025800008,6.836246695000057],[79.86736294200006,6.835978474000058],[79.86734836900007,6.835599761000025],[79.86734064900008,6.835280559000068],[79.86734083400006,6.835134529000072],[79.86733979100006,6.835064451000051],[79.86733901000008,6.834999345000029],[79.86733771300004,6.834440902000041],[79.86733580700007,6.834013206000066],[79.86733547100005,6.833956203000072],[79.86733327500008,6.833581891000049],[79.86733518300008,6.833385771000053],[79.86734587100005,6.832996256000058],[79.86735333300004,6.832876734000022],[79.86736490700008,6.832688497000047],[79.86737350900006,6.832588869000062],[79.86738513100005,6.832470891000071],[79.86741979500006,6.832223203000069],[79.86746549100008,6.831881495000061],[79.86751130300007,6.831624153000063],[79.86751394200007,6.831611499000076],[79.86759392300007,6.831228082000052],[79.86766987900006,6.830959404000055],[79.86770873700004,6.830838131000063],[79.86767807500007,6.830834709000045],[79.86765471900003,6.830832101000054],[79.86764245300004,6.830830732000036],[79.86758883100003,6.830824747000064],[79.86744589700004,6.830808791000039],[79.86744307900005,6.830808487000069],[79.86730769100006,6.830793852000055],[79.86722710300006,6.830785140000046],[79.86717365100003,6.830777264000062],[79.86704247400007,6.830729997000048],[79.86695713400007,6.830697737000035],[79.86690147300006,6.830680508000057],[79.86687865500005,6.830673445000061],[79.86670928200004,6.830609330000073],[79.86667027800007,6.830594565000069],[79.86659289800008,6.830563406000066],[79.86650423200007,6.830520017000027],[79.86640888900007,6.830467572000032],[79.86635295300006,6.830434011000023],[79.86624397000008,6.830371144000027],[79.86621468300007,6.830356179000035],[79.86615747700006,6.830326945000023],[79.86609358100003,6.830293278000057],[79.86604964700007,6.830275925000024],[79.86597512800006,6.830261588000039],[79.86588876800005,6.830243521000057],[79.86581470600004,6.830227558000047],[79.86569462100005,6.830199119000041],[79.86565243600006,6.830194386000073],[79.86562823200006,6.830191669000043],[79.86536223000007,6.830160242000034],[79.86528183000007,6.830147070000066],[79.86512997900007,6.830124720000072],[79.86505671900005,6.830115268000042],[79.86501431700003,6.830106865000061],[79.86491944200003,6.830088063000062],[79.86490171700007,6.830084864000072],[79.86488959700006,6.830083576000049],[79.86482429500006,6.830075857000053],[79.86480773900007,6.830075736000027],[79.86477316600008,6.830084079000073],[79.86473894300008,6.830098030000044],[79.86468929500006,6.830135822000046],[79.86465367500006,6.830171832000076],[79.86462945800008,6.830204791000028],[79.86460115500006,6.83024560800004],[79.86458343100009,6.830289066000033],[79.86457263300008,6.830306317000065],[79.86456247700005,6.830318867000073],[79.86454842800003,6.830333125000037],[79.86452696800006,6.830343212000059],[79.86449927600006,6.830347953000056],[79.86445023800007,6.830351115000039],[79.86441494100008,6.830358644000055],[79.86437127300007,6.830367434000039],[79.86408470300006,6.830425112000056],[79.86383447400006,6.83047238000006],[79.86366106900005,6.830510119000054],[79.86365157000006,6.830461996000052],[79.86365087700005,6.83045136900006],[79.86364779000007,6.830404030000068],[79.86364411000005,6.830340999000043],[79.86363886300006,6.830293246000052],[79.86362310400006,6.830159665000053],[79.86361715900006,6.830098167000072],[79.86361185400006,6.830033505000073],[79.86361054100007,6.829997236000051],[79.86360927500004,6.829962248000072],[79.86360988900003,6.829924816000071],[79.86361292700008,6.829896700000063],[79.86361841300004,6.829866330000073],[79.86362799300008,6.82982339800003],[79.86364117500005,6.829765567000037],[79.86364632900006,6.829742957000064],[79.86367595600007,6.829624560000069],[79.86369879400007,6.829441202000053],[79.86367228300008,6.829438155000048],[79.86357630900005,6.829318600000022],[79.86356710100006,6.829310530000043],[79.86347629600004,6.829230945000062],[79.86319020200006,6.829206582000038],[79.86315954600008,6.829198340000062],[79.86313012600004,6.829190431000028],[79.86312524100003,6.829189118000044],[79.86308048300003,6.829177086000072],[79.86276569100006,6.829092456000069],[79.86252522800004,6.829027706000034],[79.86252565600006,6.829111140000065],[79.86251420200006,6.829235266000069],[79.86248920200006,6.82934670800006],[79.86245758400008,6.829466456000035],[79.86242888100008,6.829574817000037],[79.86239389000008,6.829707399000028],[79.86236047800008,6.829818463000038],[79.86229983600003,6.829929566000033],[79.86225150400008,6.830036984000058],[79.86217579000004,6.830175909000046],[79.86212808900008,6.830285318000051],[79.86206533900008,6.830410071000074],[79.86202180400005,6.830516234000072],[79.86195931500004,6.830646321000073],[79.86192081400004,6.83076967300002],[79.86190962300003,6.830803651000052],[79.86190096900003,6.83083437700003],[79.86189222300004,6.830867183000065],[79.86188519400008,6.830900084000064],[79.86187662400005,6.830935061000047],[79.86186498300003,6.830966775000035],[79.86185287800004,6.83100536300003],[79.86184249600007,6.831041693000032],[79.86183020800007,6.831081183000038],[79.86181901000003,6.83111850600005],[79.86181270700008,6.831150321000052],[79.86180747600008,6.831189465000024],[79.86180432400006,6.831229606000022],[79.86179973000003,6.831266941000022],[79.86179377400003,6.831306987000062],[79.86178736600006,6.831346398000051],[79.86178439900004,6.831384188000071],[79.86177934600005,6.83142477800004],[79.86177239600005,6.831464278000055],[79.86176636300007,6.83149645700007],[79.86175823900004,6.831535142000065],[79.86175559000003,6.831548067000027],[79.86175326600005,6.83158142800005],[79.86173355100004,6.831673259000069],[79.86171971800007,6.831716092000021],[79.86171269000005,6.831748720000065],[79.86170573900006,6.831788403000075],[79.86169669600008,6.831833776000052],[79.86168874600008,6.831876259000068],[79.86167722500005,6.831939622000049],[79.86166826100003,6.831992050000053],[79.86165633300004,6.832032446000027],[79.86163799100007,6.832067494000057],[79.86161372900006,6.832124775000067],[79.86159744100007,6.832174205000058],[79.86157726300007,6.832223897000063],[79.86156622400006,6.832272342000066],[79.86155056200005,6.832325391000039],[79.86152666700008,6.832379508000029],[79.86150665900004,6.832435350000025],[79.86148819800007,6.832485859000029],[79.86147678500004,6.832540543000049],[79.86146129200006,6.832600643000034],[79.86144789100007,6.832654509000064],[79.86143315100009,6.832698517000039],[79.86141513800005,6.832751560000076],[79.86139342800004,6.832798175000049],[79.86137822700006,6.832846882000069],[79.86136782400007,6.832894335000048],[79.86135848800006,6.83295110100005],[79.86134256100007,6.833001165000042],[79.86129219300005,6.833132632000058],[79.86127164600003,6.833185488000027],[79.86124840100007,6.833230384000045],[79.86116859200007,6.833382049000022],[79.86111441900005,6.833468846000073],[79.86110858500007,6.833478192000029],[79.86107231400007,6.833536306000042],[79.86105722300005,6.833574978000057],[79.86103778300003,6.833616263000066],[79.86102675100005,6.833662086000062],[79.86103093800006,6.83369564000003],[79.86104596500007,6.833738618000042],[79.86105152500005,6.833764670000051],[79.86105331300007,6.833775523000042],[79.86104850300006,6.833783743000025],[79.86102882500006,6.833808210000028],[79.86102428200007,6.83381841800002],[79.86102363400005,6.833826104000024],[79.8610275760001,6.83384591300006],[79.86103914000006,6.833854706000067],[79.86106961400003,6.833861726000066],[79.86109865600008,6.833860606000031],[79.86112805200008,6.833863827000072],[79.86113609500006,6.833867731000054],[79.86115027800008,6.833878156000026],[79.86117885300007,6.833885354000074],[79.86122489800005,6.833886887000062],[79.86125231600005,6.833883503000037],[79.86125466700008,6.833884322000073],[79.86125665300007,6.833886405000044],[79.86126720300007,6.833904781000057],[79.86127424700004,6.833910762000073],[79.86128427900007,6.833916116000068],[79.86131032200007,6.833922495000024],[79.86132473700007,6.833953898000059],[79.86133390400005,6.833985654000059],[79.86133682700006,6.834018482000032],[79.86132251600003,6.834027768000056],[79.86130259600003,6.834036140000024],[79.86128799200003,6.834056819000066],[79.86129310100006,6.83408169300003],[79.86130319400007,6.834102691000055],[79.86131236700004,6.834131372000058],[79.86132951000008,6.834155095000028],[79.86134803300007,6.834167518000072],[79.86137057200006,6.834161050000033],[79.86138468100006,6.834162795000053],[79.86141361500006,6.834171167000021],[79.86142619200007,6.834169475000066],[79.86145064600004,6.834155597000064],[79.86145456700007,6.834138785000049],[79.86146600300003,6.834119457000041],[79.86147734300005,6.834102931000073],[79.86148678900008,6.834082876000024],[79.86150012400003,6.834063731000072],[79.86152049200007,6.834056898000028],[79.86153688300004,6.834047887000054],[79.86155085800004,6.834026213000072],[79.86156825500007,6.834011506000024],[79.86159270200005,6.834000522000053],[79.86161513800005,6.834000837000076],[79.86163358900006,6.834002498000075],[79.86165639200004,6.833999830000039],[79.86168131200003,6.833978356000046],[79.86170949600006,6.833952459000045],[79.86175106000007,6.833931651000057],[79.86177742600006,6.833910724000021],[79.86179571400004,6.83390370500007],[79.86182629900003,6.833900055000072],[79.86185823700004,6.833897765000073],[79.86189190400006,6.833891048000057],[79.86191361200008,6.833893079000061],[79.86193376900007,6.833902429000033],[79.86196295300005,6.833921473000032],[79.86199657800006,6.833936638000068],[79.86202604300007,6.833950800000025],[79.86205531600007,6.83397110900006],[79.86206966900005,6.833987775000025],[79.86208653900007,6.834012943000061],[79.86209761300006,6.834040724000033],[79.86210868400008,6.834070403000053],[79.86211297700004,6.83409645200004],[79.86211458000008,6.834109929000021],[79.86212720700007,6.834129934000033],[79.86214931100005,6.83416207700003],[79.86217368200005,6.83419132900002],[79.86219516300008,6.83421732100004],[79.86221817700005,6.834246119000055],[79.86221635400005,6.834253710000041],[79.86221354100007,6.834258135000026],[79.86219678000003,6.834270944000024],[79.86217314900006,6.834281116000056],[79.86215592600007,6.834298626000019],[79.86215155600007,6.834313265000048],[79.86215106200007,6.83433577900007],[79.86215208300007,6.834369508000064],[79.86215963700005,6.834393394000074],[79.86216744800004,6.834424332000024],[79.86216316500008,6.83444114300005],[79.86215513000008,6.834479557000065],[79.86214900100003,6.834515533000057],[79.86215150600003,6.834530457000027],[79.86215674100004,6.83453634400007],[79.86216369900006,6.834540517000049],[79.86217138600006,6.834542430000056],[79.86217916600003,6.83454208400002],[79.86219836900007,6.834530093000068],[79.86220554300007,6.834515549000059],[79.86221772400006,6.834484829000075],[79.86223233400007,6.834461167000027],[79.86225091800003,6.834440948000064],[79.86227729300005,6.834415137000065],[79.86229793000007,6.834409571000039],[79.86231556400008,6.83441367300003],[79.86233137000005,6.834426905000044],[79.86235703400007,6.834441873000061],[79.86236960400004,6.834444608000068],[79.86238951600006,6.834439854000039],[79.86240389500006,6.834442505000027],[79.86241653800005,6.83445428300007],[79.86243259700007,6.834477822000051],[79.86245234900008,6.834509599000057],[79.86246568200005,6.83453910000003],[79.86246284200007,6.834557088000053],[79.86245050300005,6.834576055000071],[79.86243145000003,6.834605315000033],[79.86242570500008,6.834629627000028],[79.86242102700005,6.834663436000027],[79.86242859400005,6.834679635000043],[79.86244034100008,6.834687252000037],[79.86244811900008,6.834688806000031],[79.86245635200004,6.834688188000029],[79.86246431800004,6.834685399000024],[79.86247700400008,6.834674935000066],[79.86248789700005,6.834654701000033],[79.86250485400006,6.834634388000041],[79.86252052000003,6.834626643000036],[79.86252603800006,6.83462674300006],[79.86254239600004,6.834635817000048],[79.86255439400009,6.834653381000066],[79.86256421300004,6.834675643000025],[79.86257591500004,6.834706318000029],[79.86258906600006,6.834736092000071],[79.86260447800004,6.834766322000063],[79.86261762600003,6.834799079000049],[79.86263031700008,6.834833192000075],[79.86264744300007,6.834866318000024],[79.86266167700006,6.834897089000036],[79.86267663600006,6.834927951000054],[79.86269204800004,6.834958904000076],[79.86270854000009,6.834992481000028],[79.86271744100003,6.83502134200006],[79.86272145900006,6.835049562000051],[79.86272555900007,6.835081669000032],[79.86272712500005,6.835114224000049],[79.86273057600005,6.835155191000071],[79.86273683300004,6.835194627000021],[79.86274182800008,6.835231979000071],[79.86274483100004,6.835270686000057],[79.86274594300005,6.835304958000051],[79.86274180800007,6.835338767000053],[79.86273586100003,6.835372754000047],[79.86272565400003,6.835412792000057],[79.86271392600008,6.835442969000041],[79.86269966800006,6.835472058000052],[79.86268197600003,6.835498427000061],[79.86266183700008,6.835527414000069],[79.86264160600007,6.835557758000049],[79.86262761900008,6.835586485000022],[79.86261255800008,6.835609514000055],[79.86259236200004,6.835620869000025],[79.86256846900007,6.83562615900007],[79.86254374500004,6.835639675000038],[79.86252380800005,6.835657812000023],[79.86250784200007,6.835680839000077],[79.86249177700006,6.835708297000053],[79.86247507300004,6.835738918000061],[79.86247050600008,6.835761786000035],[79.86247320500007,6.835769386000037],[79.86247816800005,6.835776537000071],[79.86249172200007,6.835784791000037],[79.86249931900005,6.835785531000054],[79.86251289700004,6.835781487000077],[79.86252676000004,6.835770572000058],[79.86254497800007,6.835752342000034],[79.86254968500005,6.835750904000066],[79.86257701000005,6.835749690000056],[79.86259880400007,6.835753529000043],[79.86263135800004,6.835761095000066],[79.86265612200003,6.835773801000074],[79.86267427800004,6.835788575000037],[79.86270045900005,6.835817198000028],[79.86272464500007,6.835848619000045],[79.86274249700006,6.835879668000076],[79.86275673300008,6.83591116100007],[79.86276545300007,6.83593984200007],[79.86276865100007,6.835970863000055],[79.86276291600007,6.835990202000064],[79.86274632200008,6.836010152000028],[79.86272111300008,6.836040757000032],[79.86271293700008,6.836059189000026],[79.86270147100004,6.83609406900007],[79.86269408100003,6.836126697000055],[79.86268976700006,6.83615969300007],[79.86269416600004,6.836177514000042],[79.86270625300006,6.83619634400003],[79.86272008400005,6.836201254000058],[79.86272841100003,6.836199642000055],[79.86273574600006,6.836195768000037],[79.86273928100007,6.836192339000036],[79.86275695900008,6.836172932000067],[79.86277378700004,6.836172420000025],[79.86279503100008,6.836180690000049],[79.86282711600006,6.836197026000037],[79.86285105500008,6.836214975000076],[79.86286983200006,6.836236621000068],[79.86288307800004,6.836264405000064],[79.86289306100008,6.83629553000003],[79.86290367700008,6.836326925000038],[79.86291437800008,6.836360944000034],[79.86292036800006,6.836398300000041],[79.86292345700008,6.836438995000037],[79.86292111800003,6.836479500000051],[79.86291462100007,6.836518367000054],[79.86290776200008,6.836557507000065],[79.86290044800006,6.836598002000073],[79.86289341200006,6.83663479100005],[79.86288267100008,6.836669040000062],[79.86287093600004,6.836703105000026],[79.86286417500008,6.836738629000023],[79.86285786300004,6.836774153000021],[79.86285245600004,6.836811396000031],[79.86285428200006,6.836850190000063],[79.86286235400007,6.836887731000046],[79.86286771500005,6.836922642000047],[79.86287071900006,6.836960263000037],[79.86287698200005,6.836997258000054],[79.86288315300004,6.837034523000057],[79.86288905100008,6.837072963000026],[79.86289250800007,6.837110404000043],[79.86289091300006,6.837140420000025],[79.86288887200004,6.837167363000048],[79.86288840800007,6.837173420000056],[79.86288687300004,6.837219713000025],[79.86288741900006,6.837265647000038],[79.86288995800005,6.837309959000038],[79.86289016900008,6.837342059000036],[79.86288857000005,6.837374065000062],[79.86288814800008,6.837405711000031],[79.86288781300004,6.837438715000076],[79.86288666300004,6.837472802000036],[79.86288614500006,6.837506799000039],[79.86288481500004,6.837540342000067],[79.86288321700005,6.837572349000026],[79.86288250000007,6.837616381000031],[79.86288123800006,6.837662223000052],[79.86287834800004,6.837706885000046],[79.86287512000007,6.837738799000021],[79.86287279800007,6.83777062100006],[79.86286655800006,6.837817267000048],[79.86286079400008,6.837851075000059],[79.86285503300007,6.837883796000028],[79.86284978500004,6.837913791000062],[79.86284954500007,6.837915162000058],[79.86284378400006,6.837948065000035],[79.86283691200003,6.837993443000073],[79.86283558300005,6.838026081000065],[79.86283506500007,6.838060984000035],[79.86283074400006,6.838096420000057],[79.86282452200004,6.838134024000056],[79.86281830100006,6.83817],[79.86281235300004,6.838206156000068],[79.86280567700004,6.838244211000074],[79.86279881700007,6.838283170000068],[79.86279141300008,6.838323032000063],[79.86278175300004,6.838360357000055],[79.86276874700009,6.838396772000067],[79.86275519500003,6.838434905000042],[79.86274182500006,6.838472585000032],[79.86272646400005,6.838509900000075],[79.86271020000004,6.838547032000064],[79.86269448100006,6.83858316900006],[79.86268210400004,6.838621303000023],[79.86267370500008,6.838661616000023],[79.86266657200008,6.838701840000055],[79.86265672800005,6.838740160000043],[79.86264498800006,6.83877657800002],[79.86263387800005,6.838815167000065],[79.86262439500007,6.83885439200003],[79.86261356100005,6.838890630000038],[79.86260236700008,6.838925239000048],[79.86259334400006,6.838959763000046],[79.86258314400004,6.838996093000048],[79.86257339600007,6.839031610000062],[79.86256410700008,6.839063602000067],[79.86255651000005,6.839109884000037],[79.86255343500005,6.839157439000074],[79.86255681000006,6.839190539000072],[79.862561,6.839223189000052],[79.86256554900007,6.839257558000042],[79.86256991700003,6.839291111000023],[79.86257392800007,6.839322677000041],[79.86258288700003,6.839368809000063],[79.86259042800003,6.839399838000077],[79.86260264900005,6.839443082000058],[79.86261127300008,6.839475560000039],[79.86262134300006,6.839508040000055],[79.86263014100007,6.839543683000044],[79.86263757500006,6.83958294000007],[79.86264229500006,6.839622824000058],[79.86264393900007,6.839662252000038],[79.86264503900009,6.83970203900003],[79.86264505700007,6.839740378000044],[79.86263982700007,6.839778706000059],[79.86263378500009,6.839816310000061],[79.86263018600005,6.839853465000033],[79.86262848900003,6.83988990100005],[79.86262951100008,6.839922726000054],[79.86262836400005,6.839955367000073],[79.86262413700007,6.839989810000076],[79.86261810000008,6.840024158000062],[79.86261142400008,6.840062303000024],[79.86260501800007,6.840100539000046],[79.86259843300007,6.840138323000076],[79.86259247400005,6.840179633000046],[79.86258804600004,6.840224384000066],[79.86258217100004,6.840269311000042],[79.86257783700006,6.840311891000055],[79.86257667900009,6.840350771000034],[79.86257488300004,6.840391005000073],[79.86256983000004,6.840431323000074],[79.86256251300006,6.840473175000056],[79.86255547000007,6.840514122000059],[79.86254788500008,6.840554072000031],[79.86253948100006,6.840596827000071],[79.86253026400004,6.840638494000075],[79.86252086800005,6.840679254000066],[79.86251183900004,6.84071721600003],[79.86250479700004,6.840757439000073],[79.86249965000007,6.840799837000078],[79.86249513900003,6.840841241000021],[79.86248836900006,6.840880924000032],[79.86248341000004,6.840919523000025],[79.86248170300007,6.840960662000044],[79.86248017800006,6.841001711000048],[79.86247558300005,6.841039227000068],[79.86246863600007,6.841076557000063],[79.86246205000003,6.84111406900007],[79.86245374400005,6.841153116000043],[79.86244064300007,6.841191972000048],[79.86242582400007,6.841230102000053],[79.86241154700008,6.841268865000075],[79.86240025300003,6.841308628000036],[79.86239365600005,6.841352470000059],[79.86239131300005,6.841395326000055],[79.86238970500006,6.84143176200007],[79.86238458000008,6.841462948000071],[79.86237520300006,6.841493945000024],[79.86236826300006,6.841527568000061],[79.86236232100003,6.841560109000056],[79.86235545300008,6.841603136000061],[79.86235174600006,6.841649606000033],[79.86234451800004,6.841692361000069],[79.86233720100006,6.841734302000021],[79.86232618200006,6.841771987000071],[79.86231325000006,6.841817263000053],[79.86229688100008,6.841862081000045],[79.86228334500004,6.841891262000047],[79.86226273300008,6.841930917000072],[79.86224528700006,6.841970759000048],[79.86222982500006,6.84201395100007],[79.86222289300008,6.842043687000056],[79.86221740600007,6.84207505300003],[79.86221761700006,6.842106430000058],[79.86222380300006,6.842135919000044],[79.86223368200007,6.842174546000022],[79.86223695900003,6.842211445000032],[79.86223102900004,6.842237566000051],[79.86222934800008,6.842265141000041],[79.86223381700006,6.842293812000036],[79.86224514100007,6.842332895000029],[79.86225493000006,6.842371072000047],[79.86225558200005,6.842408779000037],[79.86224413400004,6.842434709000029],[79.86222722300005,6.842478531000038],[79.86222155500008,6.842509444000028],[79.86221832800004,6.842541717000072],[79.86221670200007,6.842587288000062],[79.86221158300003,6.842615128000035],[79.86220426400007,6.842658062000054],[79.86219514000004,6.842698645000041],[79.86218004200003,6.842740391000063],[79.86216069300008,6.842782491000037],[79.86214297400005,6.842823057000033],[79.86213122800007,6.842862638000041],[79.86212193100005,6.842898608000041],[79.86211526200003,6.842933769000069],[79.86210606400005,6.84296494700004],[79.86208935900004,6.842996110000059],[79.86207166100007,6.843026007000049],[79.86205613700008,6.843054550000034],[79.86204314300005,6.843083911000065],[79.86203158900008,6.843118069000071],[79.86202347100004,6.843152595000048],[79.86201851600003,6.843189296000048],[79.86201990400008,6.843220946000029],[79.86202264200007,6.843255492000026],[79.86202719000005,6.843290132000051],[79.86203546000007,6.843318179000049],[79.86203532200005,6.843343224000024],[79.86203154000003,6.843381105000049],[79.86203170900006,6.843482377000043],[79.86201901600003,6.843591852000031],[79.86198902400008,6.843711874000065],[79.86197304900008,6.843786622000038],[79.86195770300003,6.843864174000031],[79.86194717200004,6.843978537000053],[79.86194318400004,6.844077451000032],[79.86194879700008,6.844170413000029],[79.86195933700003,6.844288795000068],[79.86196665600005,6.844388544000027],[79.86197424500006,6.844489016000067],[79.86197785000007,6.844591650000042],[79.86196150000006,6.844640229000048],[79.86194731200004,6.844682387000035],[79.86186866900005,6.844916055000056],[79.86186424500005,6.844958906000045],[79.86185764500004,6.845004284000026],[79.86184586300004,6.845062494000045],[79.86183836400005,6.845105249000027],[79.86182596100008,6.845157216000076],[79.86180812700007,6.845258003000026],[79.86178725600007,6.84533889000005],[79.86176682800004,6.845424209000044],[79.86174847900008,6.845511431000032],[79.86172976500006,6.845599012000036],[79.86172885300005,6.845603261000064],[79.86172255300005,6.84563354000005],[79.86171758600005,6.845654728000056],[79.86170739400006,6.845697141000072],[79.86170072700008,6.845729102000065],[79.86169604800006,6.845761304000063],[79.86169477500005,6.845777528000042],[79.86169398500004,6.845827567000072],[79.86169756500004,6.845927723000043],[79.86169894100004,6.845982910000031],[79.86170039400008,6.846010463000028],[79.86171530800004,6.846207249000033],[79.86171719000004,6.84621656500002],[79.86172758600003,6.846268305000023],[79.86173072200006,6.846283954000056],[79.86174879800006,6.846341045000031],[79.86176077900008,6.846414942000025],[79.86175913400007,6.846471813000051],[79.86175302000005,6.846546671000056],[79.86174805900004,6.846634007000032],[79.86174366900008,6.846706427000072],[79.86173901500007,6.846775228000069],[79.86173498600004,6.846847828000023],[79.86173250700006,6.846961936000071],[79.86172615200007,6.847021329000028],[79.86172062600008,6.84707295000004],[79.86169998700007,6.847173549000048],[79.86168909300005,6.847241164000024],[79.86168482100004,6.847299206000057],[79.86168223400006,6.847374613000056],[79.86167065100007,6.847423689000038],[79.86166179000008,6.847468612000057],[79.86163749200006,6.847495963000028],[79.86161845500004,6.847516090000057],[79.86160521300008,6.847533788000022],[79.86159982100008,6.847562079000055],[79.86160336000006,6.84760386100004],[79.86161395300007,6.847647283000072],[79.86162023200006,6.847675324000022],[79.86163427100007,6.847714323000047],[79.86165565900006,6.847742756000059],[79.86168423000004,6.847751762000029],[79.86172477400004,6.847744426000076],[79.86173482000004,6.847742636000022],[79.86177357900006,6.847722818000022],[79.86179759300008,6.847701614000071],[79.86181271000004,6.84769739300003],[79.86185151900008,6.847698460000059],[79.86188433200005,6.847712992000026],[79.86191675200007,6.847743796000031],[79.86194600500005,6.847774866000066],[79.86198034600005,6.847841933000041],[79.86198241000005,6.847898270000031],[79.86198106200004,6.847988779000047],[79.86197901400004,6.848066537000022],[79.86197062000008,6.848151336000057],[79.86196842900006,6.848209111000075],[79.86196777800008,6.848265352000056],[79.86196692600004,6.848333257000035],[79.86196560100007,6.848411106000071],[79.86195559300006,6.848488126000062],[79.86193784400007,6.848544695000043],[79.86190281300003,6.848649969000064],[79.86188360400007,6.848759975000064],[79.86187081500003,6.848872435000032],[79.86186322800006,6.848904886000071],[79.86192560500007,6.848914256000056],[79.86205514600005,6.848955394000028],[79.86215850500008,6.848980472000051],[79.86225232200007,6.84898830700007],[79.86240844100007,6.848995146000051],[79.86242504000006,6.848998381000059],[79.86249542900003,6.849012096000022],[79.86254161900007,6.849021096000056],[79.86253305300005,6.849063580000065],[79.86253303400008,6.849073436000025],[79.86253925700004,6.849083846000042],[79.86254919600003,6.849090194000043],[79.86255570800006,6.849091292000026],[79.86334132800005,6.849197854000066],[79.86416369200003,6.849297885000055],[79.86451066800004,6.849332723000033],[79.86508113200006,6.849401530000023],[79.86551735800003,6.849412846000062],[79.86598281000005,6.849421866000057],[79.86598778500007,6.848977905000026]]]]}},{"type":"Feature","properties":{"Shape_Leng":0.03099730766,"Shape_Area":4.206567e-05,"ADM4_EN":"Kawdana West","ADM4_SI":"\u0db6\u0da7\u0dc4\u0dd2\u0dbb \u0d9a\u0dc0\u0dca\u0da9\u0dcf\u0db1","ADM4_TA":null,"ADM4_PCODE":"LK1131010","ADM4_REF":null,"ADM3_EN":"Ratmalana","ADM3_SI":"\u0dbb\u0dad\u0dca\u0db8\u0dbd\u0dcf\u0db1","ADM3_TA":"\u0b87\u0bb0\u0ba4\u0bcd\u0bae\u0bb2\u0bbe\u0ba9\u0bc8","ADM3_PCODE":"LK1131","ADM2_EN":"Colombo","ADM2_SI":"\u0d9a\u0ddc\u0dc5\u0db9 \u0daf\u0dd2\u0dc3\u0dca\u0dad\u0dca\u200d\u0dbb\u0dd2\u0d9a\u0dca\u0d9a","ADM2_TA":"\u0b95\u0bca\u0bb4\u0bc1\u0bae\u0bcd\u0baa\u0bc1 \u0bae\u0bbe\u0bb5\u0b9f\u0bcd\u0b9f\u0bae\u0bcd","ADM2_PCODE":"LK11","ADM1_EN":"Western","ADM1_SI":"\u0db6\u0dc3\u0dca\u0db1\u0dcf\u0dc4\u0dd2\u0dbb \u0db4\u0dc5\u0dcf\u0dad","ADM1_TA":"\u0bae\u0bc7\u0bb2\u0bcd \u0bae\u0bbe\u0b95\u0bbe\u0ba3\u0bae\u0bcd\u00a0","ADM1_PCODE":"LK1","ADM0_EN":"Sri Lanka","ADM0_SI":"\u0dc1\u0dca\u200d\u0dbb\u0dd3 \u0dbd\u0d82\u0d9a\u0dcf","ADM0_TA":"\u0b87\u0bb2\u0b99\u0bcd\u0b95\u0bc8","ADM0_PCODE":"LK","date":"2022-08-02","validOn":"2022-08-16","validTo":null,"area":0.514},"geometry":{"type":"MultiPolygon","coordinates":[[[[79.87254999900006,6.845167096000067],[79.87269705500006,6.845114107000028],[79.87274970900006,6.845095135000064],[79.87294932500004,6.84502624600003],[79.87297797700006,6.84501679300007],[79.87322370800007,6.844935709000025],[79.87335531200006,6.844903041000064],[79.87361961000005,6.844835360000047],[79.87382924100007,6.844780417000037],[79.87399996200008,6.844729466000046],[79.87408678300005,6.844696988000067],[79.87436168000005,6.844621639000025],[79.87452940600008,6.84457566000003],[79.87493510400003,6.844461855000075],[79.87501388800007,6.844440465000047],[79.87531358200005,6.844359090000069],[79.87533925500009,6.844352119000063],[79.87548147100006,6.844305456000027],[79.87558281500003,6.844247325000025],[79.87559402000005,6.844158008000021],[79.87561073400008,6.844025482000062],[79.87562300900004,6.843895388000021],[79.87564240000007,6.84368628100003],[79.87566816200007,6.843457019000026],[79.87567116100007,6.843401415000073],[79.87568052000006,6.843331266000063],[79.87569961200006,6.843185181000025],[79.8757096290001,6.843130978000032],[79.87574613700008,6.842957398000066],[79.87576527900006,6.842889765000052],[79.87579982000005,6.842767712000067],[79.87582784000006,6.842665341000043],[79.87587615600006,6.842488815000025],[79.87587890400006,6.842474722000076],[79.87589022300007,6.842416683000067],[79.87590372800008,6.842393610000043],[79.87592643600004,6.842354814000029],[79.87598472800005,6.842290813000035],[79.87600930500008,6.842258489000072],[79.87601857400006,6.842253582000069],[79.87601722000005,6.842239864000022],[79.87600584700004,6.842124568000029],[79.87592170400006,6.84188669200006],[79.87585742200008,6.841719926000053],[79.87574503000008,6.841445738000061],[79.87565940800005,6.841225491000047],[79.87556786700003,6.841025217000037],[79.87553259300006,6.840931859000023],[79.87549818900004,6.840840808000052],[79.87548299000008,6.840792674000055],[79.87547771100003,6.840761470000075],[79.87538818800004,6.840643483000067],[79.87533629000006,6.840594214000022],[79.87528711100003,6.840547525000034],[79.87528054000006,6.840541286000075],[79.87527620300006,6.84053784200006],[79.87515507400008,6.84044225100007],[79.87505867800007,6.84036617600003],[79.87479134300008,6.840173168000036],[79.87454759800005,6.840001297000072],[79.87454306400008,6.83999809900007],[79.87431580800006,6.839832867000041],[79.87431015300008,6.83982875600003],[79.87430401500006,6.839824239000053],[79.87425980200004,6.83988927300004],[79.87416338800006,6.839989574000072],[79.87410725300003,6.840055499000072],[79.87388323700003,6.840295037000031],[79.87359154000006,6.840629427000067],[79.87344185300003,6.840801399000042],[79.87316554400007,6.841099453000028],[79.87287769400007,6.841424279000023],[79.87271075100006,6.841607702000033],[79.87240937800004,6.841946195000048],[79.87234856200007,6.842014529000039],[79.87218014800004,6.84220375700005],[79.87211720200008,6.84227448400003],[79.87187497100007,6.842561873000021],[79.87187049500005,6.842567183000027],[79.87167700800006,6.84276963600007],[79.87164408600006,6.84280408400002],[79.8714195460001,6.843065869000043],[79.87119773600006,6.84333119300004],[79.87119497300006,6.84332908400006],[79.87118273900006,6.843320435000066],[79.87117483900005,6.84331485000007],[79.87114329300005,6.843292548000021],[79.87103360800008,6.843216116000065],[79.87089987300004,6.843131681000044],[79.87081399500005,6.84307222900003],[79.87081250500006,6.843071197000028],[79.87077663400004,6.843046364000029],[79.87052453500007,6.842881864000049],[79.87045071200004,6.842834253000035],[79.87036034100004,6.842782],[79.87034886700008,6.842774112000027],[79.87033486600006,6.842762151000044],[79.87031356500006,6.842736070000058],[79.87028399400003,6.842681309000056],[79.87026893700005,6.842654245000063],[79.87025801500005,6.842641203000028],[79.87025624700004,6.842640087000064],[79.87025295300003,6.842638007000063],[79.87020244300004,6.842606105000073],[79.87010294600003,6.842548229000045],[79.86995139100003,6.842462495000063],[79.86991605200006,6.842444345000048],[79.86989724600005,6.842437889000052],[79.86986912500004,6.842430241000046],[79.86984226400007,6.842426120000026],[79.86979603800006,6.84242368300005],[79.86967942400008,6.842423373000031],[79.86956804100004,6.842432024000062],[79.86947414500008,6.842426421000026],[79.86926129100004,6.84241634500006],[79.86922233300004,6.842414573000042],[79.86909746500004,6.842408894000072],[79.86894829300007,6.842403820000073],[79.86883277400005,6.842398538000054],[79.86877996100003,6.842386954000061],[79.86872076800006,6.842353297000045],[79.86866772700006,6.842320172000028],[79.86866049600007,6.842315658000073],[79.86859022600004,6.842303318000063],[79.86850646300007,6.842297283000049],[79.86839781300006,6.842295270000021],[79.86836269400004,6.842293430000041],[79.86830644900004,6.842290485000034],[79.86823709000004,6.842274350000026],[79.86814867100009,6.842242535000024],[79.86791430300008,6.842175272000075],[79.86772897800006,6.842151322000064],[79.86752140200008,6.842124889000047],[79.86743883000008,6.842111259000034],[79.86727642000005,6.842072885000049],[79.86715867900006,6.842047345000027],[79.86702602100007,6.842015446000061],[79.86695087500004,6.841998034000028],[79.86688197300003,6.841978915000026],[79.86685321600004,6.842068468000037],[79.86682008900004,6.842171848000019],[79.86671689400004,6.842491111000074],[79.86664627500005,6.842710158000045],[79.86663235100008,6.842753354000023],[79.86657711100008,6.842925230000048],[79.86651336300008,6.843147094000073],[79.86650697900006,6.84317384700006],[79.86646822600005,6.843334452000021],[79.86643288100004,6.843510796000032],[79.86640944700008,6.843655427000045],[79.86637493200004,6.843918306000035],[79.86636478600008,6.844021006000049],[79.86635354100008,6.844130845000052],[79.86634214000003,6.844274775000031],[79.86631821300006,6.84448911800007],[79.86630024400006,6.844661518000067],[79.86629020400005,6.844755989000021],[79.86625971100005,6.845045008000056],[79.86625606100006,6.845076303000043],[79.86622861300003,6.845311643000059],[79.86620149800007,6.845544114000061],[79.86613291600008,6.846215633000043],[79.86611125400003,6.846427810000023],[79.86604974900007,6.847040568000068],[79.86601818600009,6.84749249200007],[79.86601692200009,6.847510606000071],[79.86610069000005,6.847514383000032],[79.86630057500008,6.847542610000061],[79.86644453400004,6.847578600000078],[79.86664297300007,6.847653662000026],[79.86681516200008,6.847688711000046],[79.86699022700003,6.84768497300007],[79.86720427700004,6.847659170000043],[79.86741191300008,6.847634140000026],[79.86746810600005,6.847628459000021],[79.86752717900004,6.847630379000065],[79.86787812500006,6.847670465000022],[79.86788454800006,6.847671202000073],[79.86790402800005,6.847674451000047],[79.86802400900007,6.847694468000043],[79.86802762600007,6.847695072000022],[79.86818309400007,6.847723406000058],[79.86828781800006,6.847742492000067],[79.86829722500005,6.847744048000038],[79.86847686000004,6.847773132000042],[79.86858550400007,6.84779072300006],[79.86861142400005,6.847794919000023],[79.86881396800004,6.847827714000061],[79.86885832800006,6.847834896000052],[79.86904026500008,6.847833431000026],[79.86926905900003,6.847832325000071],[79.86929026100006,6.847830340000029],[79.86933833500008,6.84782584000004],[79.86934298800008,6.847825405000037],[79.86966666100005,6.847795099000052],[79.86978357300006,6.84778166500007],[79.86989536200008,6.847750048000022],[79.86989752100004,6.84774644500004],[79.86992613100006,6.847698688000038],[79.86992939700008,6.847693236000056],[79.86994489300008,6.847672739000074],[79.86994672500003,6.847670318000041],[79.87006272100007,6.847516895000068],[79.87045232200006,6.847064891000059],[79.87046641300003,6.847046307000027],[79.87049149900008,6.84701933200006],[79.87059710100004,6.846871202000046],[79.87071230800007,6.846706343000052],[79.87082031200003,6.846553433000055],[79.87082536100007,6.846546634000049],[79.87106193000005,6.846285794000039],[79.87113003900004,6.84622845900003],[79.87113405800007,6.846225076000053],[79.87127296800008,6.846108061000051],[79.87140287800008,6.845966344000032],[79.87146461400005,6.845908005000068],[79.87149006500005,6.845883952000066],[79.87181681100003,6.845625132000065],[79.87183067300003,6.845615511000062],[79.87186860300005,6.845589189000066],[79.87234708800008,6.845257136000043],[79.87238521500007,6.845235598000044],[79.87242777100005,6.845216960000073],[79.87254661200006,6.845168478000062],[79.87254999900006,6.845167096000067]]]]}},{"type":"Feature","properties":{"Shape_Leng":0.02294114753,"Shape_Area":3.164505e-05,"ADM4_EN":"Watarappala","ADM4_SI":"\u0dc0\u0da7\u0dbb\u0db4\u0dca\u0db4\u0dbd","ADM4_TA":null,"ADM4_PCODE":"LK1131015","ADM4_REF":null,"ADM3_EN":"Ratmalana","ADM3_SI":"\u0dbb\u0dad\u0dca\u0db8\u0dbd\u0dcf\u0db1","ADM3_TA":"\u0b87\u0bb0\u0ba4\u0bcd\u0bae\u0bb2\u0bbe\u0ba9\u0bc8","ADM3_PCODE":"LK1131","ADM2_EN":"Colombo","ADM2_SI":"\u0d9a\u0ddc\u0dc5\u0db9 \u0daf\u0dd2\u0dc3\u0dca\u0dad\u0dca\u200d\u0dbb\u0dd2\u0d9a\u0dca\u0d9a","ADM2_TA":"\u0b95\u0bca\u0bb4\u0bc1\u0bae\u0bcd\u0baa\u0bc1 \u0bae\u0bbe\u0bb5\u0b9f\u0bcd\u0b9f\u0bae\u0bcd","ADM2_PCODE":"LK11","ADM1_EN":"Western","ADM1_SI":"\u0db6\u0dc3\u0dca\u0db1\u0dcf\u0dc4\u0dd2\u0dbb \u0db4\u0dc5\u0dcf\u0dad","ADM1_TA":"\u0bae\u0bc7\u0bb2\u0bcd \u0bae\u0bbe\u0b95\u0bbe\u0ba3\u0bae\u0bcd\u00a0","ADM1_PCODE":"LK1","ADM0_EN":"Sri Lanka","ADM0_SI":"\u0dc1\u0dca\u200d\u0dbb\u0dd3 \u0dbd\u0d82\u0d9a\u0dcf","ADM0_TA":"\u0b87\u0bb2\u0b99\u0bcd\u0b95\u0bc8","ADM0_PCODE":"LK","date":"2022-08-02","validOn":"2022-08-16","validTo":null,"area":0.387},"geometry":{"type":"MultiPolygon","coordinates":[[[[79.87430401500006,6.839824239000053],[79.87430022200004,6.839821448000066],[79.87429242700006,6.839815712000075],[79.87428657600003,6.839811406000024],[79.87422684300003,6.83976745700005],[79.87419126100008,6.83974127600004],[79.87402601000008,6.839626674000044],[79.87385597300005,6.839506546000052],[79.87380998300006,6.83947463100003],[79.87350913500006,6.839255970000067],[79.87342800800008,6.839195416000054],[79.87334696000005,6.839141102000042],[79.87330387200006,6.839106480000055],[79.87315922100005,6.839006293000067],[79.87307273100004,6.83894882200002],[79.87309156000003,6.838917174000073],[79.87310751000007,6.838890366000044],[79.87313186500006,6.838831819000063],[79.87319293400003,6.838685631000033],[79.87322350000005,6.838596443000027],[79.87325234300005,6.838460413000064],[79.87328472900003,6.838316703000032],[79.87331336800008,6.838192971000066],[79.87331704200005,6.838163681000026],[79.87331437300008,6.838139262000027],[79.87331311400004,6.838137807000066],[79.87329406200007,6.838115804000039],[79.87320870800005,6.838041951000035],[79.87309037300008,6.837947691000068],[79.87301169900007,6.837881625000021],[79.87298306100007,6.837859962000038],[79.87293346400008,6.837823066000055],[79.87286265400009,6.837760543000059],[79.87276303900006,6.83766848700003],[79.87268664800007,6.83759193800006],[79.87262947600004,6.837542099000076],[79.87260001600004,6.837524863000055],[79.87253259200008,6.837490286000047],[79.87241654000007,6.837432380000052],[79.87240081300007,6.837424484000053],[79.87238346100008,6.837415228000053],[79.87235726000006,6.837396643000032],[79.87234479400007,6.837386673000023],[79.87232075900005,6.83737071300004],[79.87220353100008,6.83731298500004],[79.87209470500005,6.837260788000036],[79.87196111100008,6.837198147000038],[79.87193001600008,6.83718443500004],[79.87184613700003,6.837144401000045],[79.87183823800007,6.837159939000061],[79.87162910100005,6.83709796900007],[79.87147991300003,6.837053924000031],[79.87139718200007,6.837028632000055],[79.87133136900007,6.837003008000067],[79.87126292900007,6.83697973300002],[79.87123318300009,6.836970092000057],[79.87121058500009,6.83696010400007],[79.87112852500007,6.836915100000055],[79.87099479200005,6.83683003300007],[79.87089945600007,6.83677288700005],[79.87085300700005,6.836745585000074],[79.87078911500004,6.836709294000057],[79.87076841700008,6.836699401000031],[79.87074681000007,6.836691492000057],[79.87072438000007,6.83668837600004],[79.87070122000006,6.836688604000074],[79.87068021600004,6.83669670300003],[79.87066481100004,6.83670978500004],[79.87065410700006,6.83672513600004],[79.87064666000003,6.83674049500007],[79.87061777600007,6.836801474000025],[79.87060260800007,6.836833274000071],[79.87057947500006,6.836867500000039],[79.87056950600004,6.836876886000026],[79.87055584100005,6.836884693000057],[79.87055493900004,6.836886111000068],[79.87055333300003,6.83688556200002],[79.87054170900008,6.836889130000031],[79.87052623500006,6.836890729000059],[79.87049557200004,6.836888501000033],[79.87041489500008,6.836877408000021],[79.87032952500005,6.83686024800005],[79.87027282200006,6.836849743000073],[79.87024107600007,6.836845253000035],[79.87019042400004,6.836839551000024],[79.87013198600005,6.836837814000035],[79.87007969000007,6.836840609000035],[79.87002738600006,6.836847834000026],[79.86998747000007,6.836858247000067],[79.86995351900003,6.836872199000027],[79.86993604300005,6.836879580000071],[79.86985799500007,6.836914969000076],[79.86975964900006,6.836966506000065],[79.86970385600006,6.837000218000071],[79.86965830500003,6.837025179000021],[79.86958606700006,6.837048642000071],[79.86954416200007,6.837058510000077],[79.86949737600008,6.837065656000048],[79.86944789200004,6.837064748000044],[79.86940926200003,6.837065128000064],[79.86931306100007,6.837082760000044],[79.86925476900007,6.83709901700007],[79.86918280100008,6.837123656000074],[79.86905289600008,6.837178780000043],[79.86905233200008,6.837179019000075],[79.86898297400006,6.83721071700006],[79.86896384800008,6.837218265000049],[79.86894648800006,6.83722511600007],[79.86889923800004,6.837238409000064],[79.86884177100006,6.837249242000041],[79.86874486100005,6.837259004000033],[79.86861087000005,6.837263544000052],[79.86857721700005,6.837263210000057],[79.86855930700006,6.837261278000026],[79.86853470700004,6.83725752400005],[79.86846779400008,6.837240127000028],[79.86840791400004,6.837235040000054],[79.86836430700004,6.837235320000047],[79.86821411100004,6.837246067000023],[79.86805313500008,6.837263758000061],[79.86788464200004,6.837286136000046],[79.86772339700008,6.837302651000073],[79.86754857700004,6.837321490000024],[79.86745129400003,6.837337671000056],[79.86747213200005,6.837656537000043],[79.86748943100008,6.83798100100006],[79.86750158700005,6.838250480000056],[79.86750742800007,6.838367587000049],[79.86751319200005,6.838582347000055],[79.86752120300008,6.838880844000072],[79.86751593100007,6.838989972000036],[79.86750260400005,6.839340059000051],[79.86747593200005,6.839617873000066],[79.86743123700006,6.839955059000032],[79.86737975600005,6.840244492000068],[79.86730236900007,6.840598705000048],[79.8672942520001,6.840633140000022],[79.86721463400005,6.840922791000026],[79.86713151100008,6.841200860000071],[79.86698361900005,6.84166625000006],[79.86691828200009,6.841866862000074],[79.86688844200006,6.841958952000026],[79.86688197300003,6.841978915000026],[79.86695087500004,6.841998034000028],[79.86702602100007,6.842015446000061],[79.86715867900006,6.842047345000027],[79.86727642000005,6.842072885000049],[79.86743883000008,6.842111259000034],[79.86752140200008,6.842124889000047],[79.86772897800006,6.842151322000064],[79.86791430300008,6.842175272000075],[79.86814867100009,6.842242535000024],[79.86823709000004,6.842274350000026],[79.86830644900004,6.842290485000034],[79.86836269400004,6.842293430000041],[79.86839781300006,6.842295270000021],[79.86850646300007,6.842297283000049],[79.86859022600004,6.842303318000063],[79.86866049600007,6.842315658000073],[79.86866772700006,6.842320172000028],[79.86872076800006,6.842353297000045],[79.86877996100003,6.842386954000061],[79.86883277400005,6.842398538000054],[79.86894829300007,6.842403820000073],[79.86909746500004,6.842408894000072],[79.86922233300004,6.842414573000042],[79.86926129100004,6.84241634500006],[79.86947414500008,6.842426421000026],[79.86956804100004,6.842432024000062],[79.86967942400008,6.842423373000031],[79.86979603800006,6.84242368300005],[79.86984226400007,6.842426120000026],[79.86986912500004,6.842430241000046],[79.86989724600005,6.842437889000052],[79.86991605200006,6.842444345000048],[79.86995139100003,6.842462495000063],[79.87010294600003,6.842548229000045],[79.87020244300004,6.842606105000073],[79.87025295300003,6.842638007000063],[79.87025624700004,6.842640087000064],[79.87025801500005,6.842641203000028],[79.87026893700005,6.842654245000063],[79.87028399400003,6.842681309000056],[79.87031356500006,6.842736070000058],[79.87033486600006,6.842762151000044],[79.87034886700008,6.842774112000027],[79.87036034100004,6.842782],[79.87045071200004,6.842834253000035],[79.87052453500007,6.842881864000049],[79.87077663400004,6.843046364000029],[79.87081250500006,6.843071197000028],[79.87081399500005,6.84307222900003],[79.87089987300004,6.843131681000044],[79.87103360800008,6.843216116000065],[79.87114329300005,6.843292548000021],[79.87117483900005,6.84331485000007],[79.87118273900006,6.843320435000066],[79.87119497300006,6.84332908400006],[79.87119773600006,6.84333119300004],[79.8714195460001,6.843065869000043],[79.87164408600006,6.84280408400002],[79.87167700800006,6.84276963600007],[79.87187049500005,6.842567183000027],[79.87187497100007,6.842561873000021],[79.87211720200008,6.84227448400003],[79.87218014800004,6.84220375700005],[79.87234856200007,6.842014529000039],[79.87240937800004,6.841946195000048],[79.87271075100006,6.841607702000033],[79.87287769400007,6.841424279000023],[79.87316554400007,6.841099453000028],[79.87344185300003,6.840801399000042],[79.87359154000006,6.840629427000067],[79.87388323700003,6.840295037000031],[79.87410725300003,6.840055499000072],[79.87416338800006,6.839989574000072],[79.87425980200004,6.83988927300004],[79.87430401500006,6.839824239000053]]]]}},{"type":"Feature","properties":{"Shape_Leng":0.02836099649,"Shape_Area":4.400347e-05,"ADM4_EN":"Wathumulla","ADM4_SI":"\u0dc0\u0dad\u0dd4\u0db8\u0dd4\u0dbd\u0dca\u0dbd","ADM4_TA":null,"ADM4_PCODE":"LK1131020","ADM4_REF":null,"ADM3_EN":"Ratmalana","ADM3_SI":"\u0dbb\u0dad\u0dca\u0db8\u0dbd\u0dcf\u0db1","ADM3_TA":"\u0b87\u0bb0\u0ba4\u0bcd\u0bae\u0bb2\u0bbe\u0ba9\u0bc8","ADM3_PCODE":"LK1131","ADM2_EN":"Colombo","ADM2_SI":"\u0d9a\u0ddc\u0dc5\u0db9 \u0daf\u0dd2\u0dc3\u0dca\u0dad\u0dca\u200d\u0dbb\u0dd2\u0d9a\u0dca\u0d9a","ADM2_TA":"\u0b95\u0bca\u0bb4\u0bc1\u0bae\u0bcd\u0baa\u0bc1 \u0bae\u0bbe\u0bb5\u0b9f\u0bcd\u0b9f\u0bae\u0bcd","ADM2_PCODE":"LK11","ADM1_EN":"Western","ADM1_SI":"\u0db6\u0dc3\u0dca\u0db1\u0dcf\u0dc4\u0dd2\u0dbb \u0db4\u0dc5\u0dcf\u0dad","ADM1_TA":"\u0bae\u0bc7\u0bb2\u0bcd \u0bae\u0bbe\u0b95\u0bbe\u0ba3\u0bae\u0bcd\u00a0","ADM1_PCODE":"LK1","ADM0_EN":"Sri Lanka","ADM0_SI":"\u0dc1\u0dca\u200d\u0dbb\u0dd3 \u0dbd\u0d82\u0d9a\u0dcf","ADM0_TA":"\u0b87\u0bb2\u0b99\u0bcd\u0b95\u0bc8","ADM0_PCODE":"LK","date":"2022-08-02","validOn":"2022-08-16","validTo":null,"area":0.538},"geometry":{"type":"MultiPolygon","coordinates":[[[[79.87184613700003,6.837144401000045],[79.87185648900005,6.837120386000038],[79.87186876300007,6.837091909000038],[79.87195259900007,6.836913935000042],[79.87203563100007,6.83673089800004],[79.87209631900004,6.836595018000025],[79.87217848300008,6.836392448000026],[79.87223138700006,6.836258633000056],[79.87223257000005,6.836250226000061],[79.87223753100005,6.836214971000061],[79.87226645500004,6.836084186000051],[79.87229969700007,6.835965027000043],[79.87231418200008,6.835913107000067],[79.87234934000008,6.835786040000072],[79.87236705400005,6.835721303000071],[79.87239078800008,6.835634573000049],[79.87241798900004,6.835506044000055],[79.87243534400005,6.835417917000029],[79.87246001100004,6.83528938400002],[79.87247244900004,6.835218154000073],[79.87248298100008,6.835149724000074],[79.87249104600005,6.835046659000057],[79.87249936200006,6.834953902000052],[79.87251350800005,6.834839727000031],[79.87251627500007,6.834763779000068],[79.87251642200005,6.834761576000064],[79.87252041700005,6.834701660000063],[79.87252344200004,6.834656282000026],[79.87252769500003,6.834608095000022],[79.87254425000003,6.834463812000022],[79.87255530400006,6.834358493000023],[79.87256481200006,6.834257420000028],[79.87258100700006,6.834112413000071],[79.87259254400004,6.833990276000065],[79.87260907700005,6.833857568000043],[79.87262897500005,6.83371618700005],[79.87264108600004,6.833625787000074],[79.87265285700005,6.833524176000025],[79.87268405700007,6.833385981000049],[79.87270073600007,6.833271539000065],[79.87273253800004,6.833101335000037],[79.87273286000004,6.833099208000022],[79.87275507300006,6.832952181000053],[79.87281142100005,6.832718276000037],[79.87283730400003,6.832617143000048],[79.87284049200008,6.832557019000033],[79.87283939100007,6.832469037000067],[79.87283102700007,6.832349777000046],[79.87282458900006,6.832257966000042],[79.87281273500008,6.83211480600005],[79.87279375900005,6.831958522000036],[79.87278391500007,6.831887779000057],[79.87277929900006,6.831854600000043],[79.87276953800006,6.831753310000066],[79.87270866900008,6.83174610700007],[79.87269500900004,6.83174449100005],[79.87265322800005,6.831737267000049],[79.87265582100008,6.831591111000022],[79.87265636400008,6.831560500000024],[79.87264009000006,6.83126587700002],[79.87264207200008,6.831077984000046],[79.87264515300006,6.83093060300007],[79.87263785900006,6.830719185000021],[79.87262267100004,6.830617884000048],[79.87260289700004,6.830500660000039],[79.87260103400008,6.830336903000044],[79.87260176400008,6.830237170000031],[79.87260735000007,6.830104985000047],[79.87262586700007,6.829975536000062],[79.87262608500004,6.829714490000072],[79.87263106800003,6.829662416000076],[79.87265444800005,6.82959346900003],[79.87269576000006,6.829561538000064],[79.8727377530001,6.829553025000052],[79.87279810000008,6.829549884000073],[79.87284758100003,6.829552147000071],[79.87298064100008,6.829560806000074],[79.87316480900006,6.829572634000044],[79.87319186100007,6.829571419000047],[79.87322037000007,6.829564781000044],[79.87324048200009,6.829549628000052],[79.87325672000003,6.82952614900006],[79.87329637100004,6.82941545700004],[79.87332278200006,6.829321377000042],[79.87336851300006,6.82914564300006],[79.87336915800006,6.829144265000023],[79.87336952500004,6.829141750000076],[79.87337144200006,6.829134387000066],[79.87340103800005,6.829030909000037],[79.87344090700003,6.828900506000025],[79.87346574400006,6.828825594000023],[79.87345216700004,6.828817401000037],[79.87330941400006,6.828731262000076],[79.87325500600008,6.82870394300005],[79.87320970800005,6.828690024000024],[79.87314649300004,6.828678421000062],[79.87308127600005,6.828673507000075],[79.87300519900003,6.828670743000033],[79.87285867200006,6.828666421000037],[79.87283255300008,6.828665651000052],[79.87262391200005,6.828655831000048],[79.87243034900007,6.82863711300007],[79.87232055100003,6.828621897000062],[79.87195672100006,6.828560089000063],[79.87173787400009,6.82851654800004],[79.87155582300005,6.828485915000043],[79.87145788900006,6.82846366900003],[79.87130712300007,6.828441955000073],[79.87122184100008,6.828427418000046],[79.87116388900006,6.828407417000051],[79.87110786700003,6.828371957000059],[79.87103324500005,6.828317112000037],[79.87094146400005,6.828246500000033],[79.87088445300003,6.828207784000029],[79.87083494300003,6.828172245000075],[79.87079526900004,6.82815092200002],[79.87077041200007,6.828140115000054],[79.87075477200005,6.82813330500005],[79.87067312500005,6.828110997000069],[79.87059824600004,6.828096208000033],[79.87057636700008,6.828094599000053],[79.87039879600007,6.828081548000058],[79.87017907900008,6.828070460000047],[79.87013637800004,6.828068304000056],[79.86997173400005,6.828044468000031],[79.86996933200004,6.828044118000037],[79.86984180500008,6.828028237000068],[79.86975613700008,6.82802626700004],[79.86972057600008,6.828030540000043],[79.86968717100007,6.828042684000025],[79.86965312700005,6.828058172000055],[79.86962948000009,6.828076122000026],[79.86961616200006,6.82808694600004],[79.86959604000003,6.828107435000049],[79.86955013700003,6.828127240000073],[79.86952605300007,6.828137776000061],[79.86944275400003,6.828174149000063],[79.86929591300003,6.828229934000036],[79.86922990600004,6.828260192000073],[79.86895973600008,6.828136710000023],[79.86895539800008,6.828134713000054],[79.86875789500004,6.828046361000077],[79.86872416300008,6.828136266000057],[79.86869897800005,6.828203402000041],[79.86858973600005,6.828469035000067],[79.86852282300003,6.828644145000055],[79.86831358000006,6.829168557000058],[79.86821223700008,6.829419647000066],[79.86810833600003,6.829683572000023],[79.86803642500007,6.829869795000034],[79.86794594300005,6.830117740000047],[79.86791747900008,6.830196444000022],[79.86786143900008,6.830361718000064],[79.86781584700003,6.83050395500004],[79.86772439300006,6.830789288000062],[79.86770873700004,6.830838131000063],[79.86766987900006,6.830959404000055],[79.86759392300007,6.831228082000052],[79.86751394200007,6.831611499000076],[79.86751130300007,6.831624153000063],[79.86746549100008,6.831881495000061],[79.86741979500006,6.832223203000069],[79.86738513100005,6.832470891000071],[79.86737350900006,6.832588869000062],[79.86736490700008,6.832688497000047],[79.86735333300004,6.832876734000022],[79.86734587100005,6.832996256000058],[79.86733518300008,6.833385771000053],[79.86733327500008,6.833581891000049],[79.86733547100005,6.833956203000072],[79.86733580700007,6.834013206000066],[79.86733771300004,6.834440902000041],[79.86733901000008,6.834999345000029],[79.86733979100006,6.835064451000051],[79.86734083400006,6.835134529000072],[79.86734064900008,6.835280559000068],[79.86734836900007,6.835599761000025],[79.86736294200006,6.835978474000058],[79.86738025800008,6.836246695000057],[79.86739061000004,6.836417249000022],[79.86741550300007,6.836792093000042],[79.86742238100004,6.83688704800005],[79.86744029000005,6.837175979000052],[79.86744116900007,6.83719008500003],[79.86744794500004,6.837288848000071],[79.86745129400003,6.837337671000056],[79.86754857700004,6.837321490000024],[79.86772339700008,6.837302651000073],[79.86788464200004,6.837286136000046],[79.86805313500008,6.837263758000061],[79.86821411100004,6.837246067000023],[79.86836430700004,6.837235320000047],[79.86840791400004,6.837235040000054],[79.86846779400008,6.837240127000028],[79.86853470700004,6.83725752400005],[79.86855930700006,6.837261278000026],[79.86857721700005,6.837263210000057],[79.86861087000005,6.837263544000052],[79.86874486100005,6.837259004000033],[79.86884177100006,6.837249242000041],[79.86889923800004,6.837238409000064],[79.86894648800006,6.83722511600007],[79.86896384800008,6.837218265000049],[79.86898297400006,6.83721071700006],[79.86905233200008,6.837179019000075],[79.86905289600008,6.837178780000043],[79.86918280100008,6.837123656000074],[79.86925476900007,6.83709901700007],[79.86931306100007,6.837082760000044],[79.86940926200003,6.837065128000064],[79.86944789200004,6.837064748000044],[79.86949737600008,6.837065656000048],[79.86954416200007,6.837058510000077],[79.86958606700006,6.837048642000071],[79.86965830500003,6.837025179000021],[79.86970385600006,6.837000218000071],[79.86975964900006,6.836966506000065],[79.86985799500007,6.836914969000076],[79.86993604300005,6.836879580000071],[79.86995351900003,6.836872199000027],[79.86998747000007,6.836858247000067],[79.87002738600006,6.836847834000026],[79.87007969000007,6.836840609000035],[79.87013198600005,6.836837814000035],[79.87019042400004,6.836839551000024],[79.87024107600007,6.836845253000035],[79.87027282200006,6.836849743000073],[79.87032952500005,6.83686024800005],[79.87041489500008,6.836877408000021],[79.87049557200004,6.836888501000033],[79.87052623500006,6.836890729000059],[79.87054170900008,6.836889130000031],[79.87055333300003,6.83688556200002],[79.87055493900004,6.836886111000068],[79.87055584100005,6.836884693000057],[79.87056950600004,6.836876886000026],[79.87057947500006,6.836867500000039],[79.87060260800007,6.836833274000071],[79.87061777600007,6.836801474000025],[79.87064666000003,6.83674049500007],[79.87065410700006,6.83672513600004],[79.87066481100004,6.83670978500004],[79.87068021600004,6.83669670300003],[79.87070122000006,6.836688604000074],[79.87072438000007,6.83668837600004],[79.87074681000007,6.836691492000057],[79.87076841700008,6.836699401000031],[79.87078911500004,6.836709294000057],[79.87085300700005,6.836745585000074],[79.87089945600007,6.83677288700005],[79.87099479200005,6.83683003300007],[79.87112852500007,6.836915100000055],[79.87121058500009,6.83696010400007],[79.87123318300009,6.836970092000057],[79.87126292900007,6.83697973300002],[79.87133136900007,6.837003008000067],[79.87139718200007,6.837028632000055],[79.87147991300003,6.837053924000031],[79.87162910100005,6.83709796900007],[79.87183823800007,6.837159939000061],[79.87184613700003,6.837144401000045]]]]}},{"type":"Feature","properties":{"Shape_Leng":0.03388886352,"Shape_Area":5.373016e-05,"ADM4_EN":"Wedikanda","ADM4_SI":"\u0dc0\u0dd9\u0da9\u0dd2\u0d9a\u0db1\u0dca\u0daf","ADM4_TA":null,"ADM4_PCODE":"LK1131045","ADM4_REF":null,"ADM3_EN":"Ratmalana","ADM3_SI":"\u0dbb\u0dad\u0dca\u0db8\u0dbd\u0dcf\u0db1","ADM3_TA":"\u0b87\u0bb0\u0ba4\u0bcd\u0bae\u0bb2\u0bbe\u0ba9\u0bc8","ADM3_PCODE":"LK1131","ADM2_EN":"Colombo","ADM2_SI":"\u0d9a\u0ddc\u0dc5\u0db9 \u0daf\u0dd2\u0dc3\u0dca\u0dad\u0dca\u200d\u0dbb\u0dd2\u0d9a\u0dca\u0d9a","ADM2_TA":"\u0b95\u0bca\u0bb4\u0bc1\u0bae\u0bcd\u0baa\u0bc1 \u0bae\u0bbe\u0bb5\u0b9f\u0bcd\u0b9f\u0bae\u0bcd","ADM2_PCODE":"LK11","ADM1_EN":"Western","ADM1_SI":"\u0db6\u0dc3\u0dca\u0db1\u0dcf\u0dc4\u0dd2\u0dbb \u0db4\u0dc5\u0dcf\u0dad","ADM1_TA":"\u0bae\u0bc7\u0bb2\u0bcd \u0bae\u0bbe\u0b95\u0bbe\u0ba3\u0bae\u0bcd\u00a0","ADM1_PCODE":"LK1","ADM0_EN":"Sri Lanka","ADM0_SI":"\u0dc1\u0dca\u200d\u0dbb\u0dd3 \u0dbd\u0d82\u0d9a\u0dcf","ADM0_TA":"\u0b87\u0bb2\u0b99\u0bcd\u0b95\u0bc8","ADM0_PCODE":"LK","date":"2022-08-02","validOn":"2022-08-16","validTo":null,"area":0.657},"geometry":{"type":"MultiPolygon","coordinates":[[[[79.86875789500004,6.828046361000077],[79.86876954800005,6.828017542000054],[79.86883297000008,6.827860686000066],[79.86896579100005,6.827516339000054],[79.86907532400005,6.827238952000072],[79.86909004600005,6.827203807000045],[79.86893923500008,6.827158311000063],[79.86868405600008,6.827096707000067],[79.86847942800006,6.827045504000068],[79.86825567900007,6.827011809000055],[79.86791351300008,6.826927975000046],[79.86784306700008,6.82691373700004],[79.86784389100006,6.826885125000046],[79.86784965000004,6.826685074000067],[79.86785371900004,6.826590501000053],[79.86785885900008,6.82650316400003],[79.86787092300005,6.82643871600004],[79.86793254400004,6.826239182000052],[79.86800113400005,6.826038303000074],[79.86802088300004,6.825927757000043],[79.86803257900004,6.825770355000031],[79.86804627100008,6.825561869000068],[79.86806276600004,6.825497520000056],[79.86808446000003,6.825370327000031],[79.86809030100005,6.825336079000066],[79.86809916300007,6.82529007200003],[79.86811742000003,6.825230427000063],[79.86813894000007,6.825160121000066],[79.86822060400004,6.824934672000041],[79.86826956300007,6.824829333000024],[79.86834700200006,6.824589411000034],[79.86839027500008,6.824475479000057],[79.86844573700006,6.824329455000053],[79.86848916000008,6.824234142000023],[79.86849926700006,6.824198987000045],[79.86849970500003,6.824190178000038],[79.86850199300005,6.824144197000066],[79.86849812800006,6.824035775000027],[79.86850751700007,6.823949982000046],[79.86851890600008,6.823906871000077],[79.86855661800008,6.823865440000077],[79.86858392200008,6.82382597700007],[79.86870596700004,6.823678186000051],[79.86886339300008,6.823477477000039],[79.86886779900004,6.823470386000053],[79.86890340900004,6.82341308100007],[79.86894368300005,6.823372449000033],[79.86894455900006,6.823371565000058],[79.86905663500005,6.823232436000068],[79.86910957500005,6.823175208000064],[79.86913280200008,6.823139084000047],[79.86921330300004,6.823049899000067],[79.86938783300008,6.822845695000068],[79.86951873900006,6.82270027100003],[79.86965169500007,6.822548013000072],[79.86971021300008,6.822480998000059],[79.86975292300008,6.822427548000064],[79.86981520600006,6.822356865000073],[79.86994927400008,6.822213437000071],[79.87003204200005,6.822121002000074],[79.87017982100008,6.821950384000047],[79.87020872700003,6.821897246000048],[79.87022855600003,6.821877129000029],[79.87021967300008,6.821877127000049],[79.87008761800007,6.821871560000034],[79.87006924200006,6.821870786000034],[79.86997047700004,6.821858122000036],[79.86982688800003,6.821821503000024],[79.86969126500009,6.821781733000022],[79.86953856500008,6.821730721000051],[79.86936391800003,6.82167602100003],[79.86929255600006,6.821653671000036],[79.86925007400004,6.821640693000062],[79.86905341200008,6.821580613000036],[79.86877937600008,6.82149401600003],[79.86876535700003,6.821489516000042],[79.86859828400003,6.821435896000025],[79.86854603400008,6.821415814000033],[79.86849668900004,6.821389771000042],[79.86846325900007,6.82136755500005],[79.86843273100004,6.821341365000023],[79.86835752600007,6.821260025000071],[79.86830066300007,6.821192011000051],[79.86825440400008,6.821160728000051],[79.86820137200004,6.821122742000056],[79.86819863300008,6.821120900000039],[79.86808373600007,6.821043584000052],[79.86800847000006,6.820994795000046],[79.86788991100008,6.820925581000039],[79.86787294200008,6.820905566000023],[79.86786939200005,6.820893117000025],[79.86786215700005,6.820867749000058],[79.86786328700003,6.820796138000047],[79.86786302200005,6.820793682000043],[79.86785875300006,6.820754083000054],[79.86784292000004,6.820706853000046],[79.86782415100004,6.820681590000048],[79.86777686000006,6.820622095000032],[79.86774055900008,6.820582993000073],[79.86773514900005,6.820577167000067],[79.86770878300007,6.820550895000052],[79.86764195400008,6.820490458000052],[79.86755525300003,6.820413528000073],[79.86745017800007,6.82034153500007],[79.86731381500005,6.820262158000048],[79.86726443600008,6.820235935000027],[79.86721693500004,6.820210708000046],[79.86710286100005,6.82016139500007],[79.86698571600004,6.82011017600007],[79.86694486700003,6.820088488000066],[79.86690222300007,6.820058840000057],[79.86668723100007,6.819988901000044],[79.86651772000005,6.819921876000024],[79.86651167900004,6.819919488000038],[79.86635809300003,6.819859611000027],[79.86627762400008,6.819836311000074],[79.86619960400003,6.819809399000063],[79.86601570300007,6.819753896000065],[79.86596344400004,6.819738063000045],[79.86596194200007,6.819737718000055],[79.86598697400007,6.819685482000067],[79.86598682400006,6.819669026000041],[79.86596569500006,6.819648551000057],[79.86571630300006,6.81954255900007],[79.86548005000003,6.819464532000039],[79.86540406100005,6.819431859000078],[79.86524856600005,6.81938611000004],[79.86504878400007,6.819374452000033],[79.86504300200005,6.819385039000053],[79.86502009600008,6.819454083000039],[79.86498568300004,6.819557816000042],[79.86493291400006,6.819716226000026],[79.86488975000003,6.819818320000025],[79.86484897000008,6.819903691000035],[79.86479819100003,6.820014362000051],[79.86475457200004,6.820117901000061],[79.86470320200004,6.820206416000075],[79.86462181200005,6.820383037000055],[79.86458373100004,6.820476370000051],[79.86454096200004,6.820608848000062],[79.86450913500005,6.820695140000054],[79.86447057900006,6.820800136000061],[79.86444615200008,6.820897203000073],[79.86442195500007,6.821015428000067],[79.86439762300006,6.821109510000042],[79.86437556300007,6.821198263000044],[79.86434487500003,6.821304178000047],[79.86431122300009,6.821399780000034],[79.86427710400005,6.821502615000044],[79.86424162300005,6.821607888000074],[79.86420399600007,6.821700319000056],[79.86416497300007,6.821813],[79.86412824900003,6.82190633600004],[79.86407398100005,6.822043673000053],[79.86403984800006,6.822154375000023],[79.86399896900008,6.822243905000051],[79.86395202300008,6.822336860000064],[79.86389777900007,6.822413525000059],[79.86384485200006,6.822511622000035],[79.86379307600004,6.822623014000044],[79.86375520800004,6.822699258000056],[79.86371497700003,6.822781464000057],[79.86368409300007,6.822847414000023],[79.86364242300004,6.822924917000022],[79.86359849200005,6.82300205300004],[79.86356481000007,6.823064561000025],[79.86352179000005,6.823138264000022],[79.86347371600004,6.823205808000068],[79.86341446100005,6.823301723000043],[79.86337276800003,6.823390437000057],[79.86334159200004,6.823468231000049],[79.86334459200003,6.82360350700003],[79.86332957000008,6.823722969000073],[79.86329898600007,6.823864329000058],[79.86327643800007,6.823955749000048],[79.86322613900006,6.824051320000024],[79.86318734200006,6.824139860000058],[79.86315098700004,6.824229308000042],[79.86310474800007,6.824330582000073],[79.86306364300003,6.82444425400007],[79.86298198200006,6.824667169000064],[79.86289988500005,6.824785917000042],[79.86282863000008,6.824911920000034],[79.86280509100004,6.82496956400007],[79.86278354300003,6.825073960000054],[79.86275534700007,6.825154200000041],[79.86274471500009,6.825226698000051],[79.86273231800004,6.825324149000038],[79.86272960100007,6.825420984000061],[79.8627378560001,6.825504368000053],[79.86276295000005,6.825581636000038],[79.86278580100003,6.825648772000021],[79.86280609100004,6.825730189000068],[79.86281927000005,6.825793328000031],[79.86284589700006,6.825872949000029],[79.86287272900006,6.825939911000034],[79.86290369700004,6.82602008300006],[79.86293801000005,6.82610125600007],[79.86296929600007,6.826204577000055],[79.86298317300003,6.826329023000028],[79.86299000600008,6.826446764000024],[79.86298731700003,6.826576694000041],[79.86297868700007,6.826691061000075],[79.86296829500003,6.826780467000048],[79.86295708300008,6.82687303800003],[79.86293952400007,6.826972378000051],[79.86292306100006,6.82706728900007],[79.86290268600004,6.827172953000058],[79.86287143800007,6.827288361000058],[79.86284548000003,6.827380994000066],[79.86282189000008,6.827463774000024],[79.86279876200007,6.82754348100002],[79.86278122600004,6.827631157000042],[79.86275970700007,6.827720634000059],[79.86272913900007,6.827810636000037],[79.86271525600006,6.827927976000069],[79.86270860600007,6.828047591000029],[79.86271262100007,6.828124908000064],[79.86271514900007,6.828174465000075],[79.86269773100008,6.828296138000042],[79.86266853400008,6.828426742000033],[79.86264351500006,6.828548401000035],[79.86260274500006,6.828675727000076],[79.86257119500004,6.82875894500006],[79.86253374100005,6.828854721000026],[79.86252486400008,6.828956337000021],[79.86252522800004,6.829027706000034],[79.86276569100006,6.829092456000069],[79.86308048300003,6.829177086000072],[79.86312524100003,6.829189118000044],[79.86313012600004,6.829190431000028],[79.86315954600008,6.829198340000062],[79.86319020200006,6.829206582000038],[79.86347629600004,6.829230945000062],[79.86356710100006,6.829310530000043],[79.86357630900005,6.829318600000022],[79.86367228300008,6.829438155000048],[79.86369879400007,6.829441202000053],[79.86367595600007,6.829624560000069],[79.86364632900006,6.829742957000064],[79.86364117500005,6.829765567000037],[79.86362799300008,6.82982339800003],[79.86361841300004,6.829866330000073],[79.86361292700008,6.829896700000063],[79.86360988900003,6.829924816000071],[79.86360927500004,6.829962248000072],[79.86361054100007,6.829997236000051],[79.86361185400006,6.830033505000073],[79.86361715900006,6.830098167000072],[79.86362310400006,6.830159665000053],[79.86363886300006,6.830293246000052],[79.86364411000005,6.830340999000043],[79.86364779000007,6.830404030000068],[79.86365087700005,6.83045136900006],[79.86365157000006,6.830461996000052],[79.86366106900005,6.830510119000054],[79.86383447400006,6.83047238000006],[79.86408470300006,6.830425112000056],[79.86437127300007,6.830367434000039],[79.86441494100008,6.830358644000055],[79.86445023800007,6.830351115000039],[79.86449927600006,6.830347953000056],[79.86452696800006,6.830343212000059],[79.86454842800003,6.830333125000037],[79.86456247700005,6.830318867000073],[79.86457263300008,6.830306317000065],[79.86458343100009,6.830289066000033],[79.86460115500006,6.83024560800004],[79.86462945800008,6.830204791000028],[79.86465367500006,6.830171832000076],[79.86468929500006,6.830135822000046],[79.86473894300008,6.830098030000044],[79.86477316600008,6.830084079000073],[79.86480773900007,6.830075736000027],[79.86482429500006,6.830075857000053],[79.86488959700006,6.830083576000049],[79.86490171700007,6.830084864000072],[79.86491944200003,6.830088063000062],[79.86501431700003,6.830106865000061],[79.86505671900005,6.830115268000042],[79.86512997900007,6.830124720000072],[79.86528183000007,6.830147070000066],[79.86536223000007,6.830160242000034],[79.86562823200006,6.830191669000043],[79.86565243600006,6.830194386000073],[79.86569462100005,6.830199119000041],[79.86581470600004,6.830227558000047],[79.86588876800005,6.830243521000057],[79.86597512800006,6.830261588000039],[79.86604964700007,6.830275925000024],[79.86609358100003,6.830293278000057],[79.86615747700006,6.830326945000023],[79.86621468300007,6.830356179000035],[79.86624397000008,6.830371144000027],[79.86635295300006,6.830434011000023],[79.86640888900007,6.830467572000032],[79.86650423200007,6.830520017000027],[79.86659289800008,6.830563406000066],[79.86667027800007,6.830594565000069],[79.86670928200004,6.830609330000073],[79.86687865500005,6.830673445000061],[79.86690147300006,6.830680508000057],[79.86695713400007,6.830697737000035],[79.86704247400007,6.830729997000048],[79.86717365100003,6.830777264000062],[79.86722710300006,6.830785140000046],[79.86730769100006,6.830793852000055],[79.86744307900005,6.830808487000069],[79.86744589700004,6.830808791000039],[79.86758883100003,6.830824747000064],[79.86764245300004,6.830830732000036],[79.86765471900003,6.830832101000054],[79.86767807500007,6.830834709000045],[79.86770873700004,6.830838131000063],[79.86772439300006,6.830789288000062],[79.86781584700003,6.83050395500004],[79.86786143900008,6.830361718000064],[79.86791747900008,6.830196444000022],[79.86794594300005,6.830117740000047],[79.86803642500007,6.829869795000034],[79.86810833600003,6.829683572000023],[79.86821223700008,6.829419647000066],[79.86831358000006,6.829168557000058],[79.86852282300003,6.828644145000055],[79.86858973600005,6.828469035000067],[79.86869897800005,6.828203402000041],[79.86872416300008,6.828136266000057],[79.86875789500004,6.828046361000077]]]]}}]}