{
"type": "FeatureCollection",
"crs": { "type": "name", "properties": { "name": "urn:ogc:def:crs:OGC:1.3:CRS84" } },
"features": [
{ "type": "Feature", "properties": { "Shape_Leng": 0.05307524631, "Shape_Area": 9.214917e-05, "ADM4_EN": "Mount Lavinia", "ADM4_SI": "ගල්කිස්ස", "ADM4_TA": null, "ADM4_PCODE": "LK1131005", "ADM4_REF": null, "ADM3_EN": "Ratmalana", "ADM3_SI": "රත්මලාන", "ADM3_TA": "இரத்மலானை", "ADM3_PCODE": "LK1131", "ADM2_EN": "Colombo", "ADM2_SI": "කොළඹ දිස්ත්‍රික්ක", "ADM2_TA": "கொழும்பு மாவட்டம்", "ADM2_PCODE": "LK11", "ADM1_EN": "Western", "ADM1_SI": "බස්නාහිර පළාත", "ADM1_TA": "மேல் மாகாணம் ", "ADM1_PCODE": "LK1", "ADM0_EN": "Sri Lanka", "ADM0_SI": "ශ්‍රී ලංකා", "ADM0_TA": "இலங்கை", "ADM0_PCODE": "LK", "date": "2022-08-02", "validOn": "2022-08-16", "validTo": null, "area": 1.126 }, "geometry": { "type": "MultiPolygon", "coordinates": [ [ [ [ 79.865987785000073, 6.848977905000026 ], [ 79.865987819000054, 6.848974833000057 ], [ 79.865982663000068, 6.848736845000077 ], [ 79.865982578000057, 6.848732946000041 ], [ 79.865983969000069, 6.848657283000024 ], [ 79.86599448100003, 6.848085553000032 ], [ 79.866005622000046, 6.847800119000056 ], [ 79.866016922000085, 6.847510606000071 ], [ 79.86601818600009, 6.84749249200007 ], [ 79.866049749000069, 6.847040568000068 ], [ 79.866111254000032, 6.846427810000023 ], [ 79.866132916000083, 6.846215633000043 ], [ 79.866201498000066, 6.845544114000061 ], [ 79.866228613000033, 6.845311643000059 ], [ 79.866256061000058, 6.845076303000043 ], [ 79.866259711000055, 6.845045008000056 ], [ 79.866290204000052, 6.844755989000021 ], [ 79.866300244000058, 6.844661518000067 ], [ 79.866318213000056, 6.84448911800007 ], [ 79.866342140000029, 6.844274775000031 ], [ 79.86635354100008, 6.844130845000052 ], [ 79.866364786000076, 6.844021006000049 ], [ 79.866374932000042, 6.843918306000035 ], [ 79.86640944700008, 6.843655427000045 ], [ 79.866432881000037, 6.843510796000032 ], [ 79.866468226000052, 6.843334452000021 ], [ 79.866506979000064, 6.84317384700006 ], [ 79.866513363000081, 6.843147094000073 ], [ 79.866577111000083, 6.842925230000048 ], [ 79.866632351000078, 6.842753354000023 ], [ 79.866646275000051, 6.842710158000045 ], [ 79.866716894000035, 6.842491111000074 ], [ 79.866820089000043, 6.842171848000019 ], [ 79.866853216000038, 6.842068468000037 ], [ 79.866881973000034, 6.841978915000026 ], [ 79.866888442000061, 6.841958952000026 ], [ 79.866918282000086, 6.841866862000074 ], [ 79.866983619000052, 6.84166625000006 ], [ 79.867131511000082, 6.841200860000071 ], [ 79.86721463400005, 6.840922791000026 ], [ 79.867294252000093, 6.840633140000022 ], [ 79.867302369000072, 6.840598705000048 ], [ 79.867379756000048, 6.840244492000068 ], [ 79.867431237000062, 6.839955059000032 ], [ 79.867475932000048, 6.839617873000066 ], [ 79.867502604000052, 6.839340059000051 ], [ 79.867515931000071, 6.838989972000036 ], [ 79.867521203000081, 6.838880844000072 ], [ 79.867513192000047, 6.838582347000055 ], [ 79.867507428000067, 6.838367587000049 ], [ 79.867501587000049, 6.838250480000056 ], [ 79.867489431000081, 6.83798100100006 ], [ 79.867472132000046, 6.837656537000043 ], [ 79.867451294000034, 6.837337671000056 ], [ 79.867447945000038, 6.837288848000071 ], [ 79.867441169000074, 6.83719008500003 ], [ 79.867440290000047, 6.837175979000052 ], [ 79.86742238100004, 6.83688704800005 ], [ 79.867415503000075, 6.836792093000042 ], [ 79.867390610000044, 6.836417249000022 ], [ 79.867380258000082, 6.836246695000057 ], [ 79.867362942000057, 6.835978474000058 ], [ 79.867348369000069, 6.835599761000025 ], [ 79.867340649000084, 6.835280559000068 ], [ 79.867340834000061, 6.835134529000072 ], [ 79.867339791000063, 6.835064451000051 ], [ 79.86733901000008, 6.834999345000029 ], [ 79.86733771300004, 6.834440902000041 ], [ 79.867335807000075, 6.834013206000066 ], [ 79.867335471000047, 6.833956203000072 ], [ 79.867333275000078, 6.833581891000049 ], [ 79.86733518300008, 6.833385771000053 ], [ 79.867345871000055, 6.832996256000058 ], [ 79.86735333300004, 6.832876734000022 ], [ 79.867364907000081, 6.832688497000047 ], [ 79.86737350900006, 6.832588869000062 ], [ 79.867385131000049, 6.832470891000071 ], [ 79.86741979500006, 6.832223203000069 ], [ 79.867465491000075, 6.831881495000061 ], [ 79.867511303000072, 6.831624153000063 ], [ 79.867513942000073, 6.831611499000076 ], [ 79.867593923000072, 6.831228082000052 ], [ 79.867669879000061, 6.830959404000055 ], [ 79.867708737000044, 6.830838131000063 ], [ 79.867678075000072, 6.830834709000045 ], [ 79.867654719000029, 6.830832101000054 ], [ 79.867642453000045, 6.830830732000036 ], [ 79.867588831000035, 6.830824747000064 ], [ 79.867445897000039, 6.830808791000039 ], [ 79.867443079000054, 6.830808487000069 ], [ 79.867307691000065, 6.830793852000055 ], [ 79.867227103000062, 6.830785140000046 ], [ 79.86717365100003, 6.830777264000062 ], [ 79.867042474000073, 6.830729997000048 ], [ 79.866957134000074, 6.830697737000035 ], [ 79.866901473000055, 6.830680508000057 ], [ 79.86687865500005, 6.830673445000061 ], [ 79.866709282000045, 6.830609330000073 ], [ 79.866670278000072, 6.830594565000069 ], [ 79.866592898000079, 6.830563406000066 ], [ 79.866504232000068, 6.830520017000027 ], [ 79.86640888900007, 6.830467572000032 ], [ 79.86635295300006, 6.830434011000023 ], [ 79.866243970000085, 6.830371144000027 ], [ 79.866214683000067, 6.830356179000035 ], [ 79.866157477000058, 6.830326945000023 ], [ 79.86609358100003, 6.830293278000057 ], [ 79.866049647000068, 6.830275925000024 ], [ 79.865975128000059, 6.830261588000039 ], [ 79.865888768000048, 6.830243521000057 ], [ 79.865814706000037, 6.830227558000047 ], [ 79.865694621000046, 6.830199119000041 ], [ 79.865652436000062, 6.830194386000073 ], [ 79.865628232000063, 6.830191669000043 ], [ 79.865362230000073, 6.830160242000034 ], [ 79.865281830000072, 6.830147070000066 ], [ 79.865129979000073, 6.830124720000072 ], [ 79.865056719000052, 6.830115268000042 ], [ 79.865014317000032, 6.830106865000061 ], [ 79.86491944200003, 6.830088063000062 ], [ 79.864901717000066, 6.830084864000072 ], [ 79.864889597000058, 6.830083576000049 ], [ 79.864824295000062, 6.830075857000053 ], [ 79.864807739000071, 6.830075736000027 ], [ 79.864773166000077, 6.830084079000073 ], [ 79.864738943000077, 6.830098030000044 ], [ 79.864689295000062, 6.830135822000046 ], [ 79.864653675000056, 6.830171832000076 ], [ 79.864629458000081, 6.830204791000028 ], [ 79.864601155000059, 6.83024560800004 ], [ 79.864583431000085, 6.830289066000033 ], [ 79.86457263300008, 6.830306317000065 ], [ 79.86456247700005, 6.830318867000073 ], [ 79.864548428000035, 6.830333125000037 ], [ 79.864526968000064, 6.830343212000059 ], [ 79.86449927600006, 6.830347953000056 ], [ 79.864450238000074, 6.830351115000039 ], [ 79.864414941000078, 6.830358644000055 ], [ 79.864371273000074, 6.830367434000039 ], [ 79.86408470300006, 6.830425112000056 ], [ 79.863834474000058, 6.83047238000006 ], [ 79.863661069000045, 6.830510119000054 ], [ 79.863651570000059, 6.830461996000052 ], [ 79.863650877000055, 6.83045136900006 ], [ 79.863647790000073, 6.830404030000068 ], [ 79.863644110000052, 6.830340999000043 ], [ 79.863638863000062, 6.830293246000052 ], [ 79.863623104000055, 6.830159665000053 ], [ 79.863617159000057, 6.830098167000072 ], [ 79.863611854000055, 6.830033505000073 ], [ 79.863610541000071, 6.829997236000051 ], [ 79.863609275000044, 6.829962248000072 ], [ 79.863609889000031, 6.829924816000071 ], [ 79.863612927000077, 6.829896700000063 ], [ 79.86361841300004, 6.829866330000073 ], [ 79.86362799300008, 6.82982339800003 ], [ 79.863641175000055, 6.829765567000037 ], [ 79.863646329000062, 6.829742957000064 ], [ 79.863675956000066, 6.829624560000069 ], [ 79.863698794000072, 6.829441202000053 ], [ 79.863672283000085, 6.829438155000048 ], [ 79.863576309000052, 6.829318600000022 ], [ 79.863567101000058, 6.829310530000043 ], [ 79.863476296000044, 6.829230945000062 ], [ 79.863190202000055, 6.829206582000038 ], [ 79.863159546000077, 6.829198340000062 ], [ 79.863130126000044, 6.829190431000028 ], [ 79.863125241000034, 6.829189118000044 ], [ 79.863080483000033, 6.829177086000072 ], [ 79.862765691000064, 6.829092456000069 ], [ 79.862525228000038, 6.829027706000034 ], [ 79.862525656000059, 6.829111140000065 ], [ 79.862514202000057, 6.829235266000069 ], [ 79.862489202000063, 6.82934670800006 ], [ 79.862457584000083, 6.829466456000035 ], [ 79.862428881000085, 6.829574817000037 ], [ 79.862393890000078, 6.829707399000028 ], [ 79.862360478000085, 6.829818463000038 ], [ 79.862299836000034, 6.829929566000033 ], [ 79.862251504000085, 6.830036984000058 ], [ 79.862175790000038, 6.830175909000046 ], [ 79.86212808900008, 6.830285318000051 ], [ 79.862065339000083, 6.830410071000074 ], [ 79.862021804000051, 6.830516234000072 ], [ 79.861959315000036, 6.830646321000073 ], [ 79.861920814000044, 6.83076967300002 ], [ 79.861909623000031, 6.830803651000052 ], [ 79.861900969000033, 6.83083437700003 ], [ 79.861892223000041, 6.830867183000065 ], [ 79.861885194000081, 6.830900084000064 ], [ 79.861876624000047, 6.830935061000047 ], [ 79.861864983000032, 6.830966775000035 ], [ 79.861852878000036, 6.83100536300003 ], [ 79.861842496000065, 6.831041693000032 ], [ 79.861830208000072, 6.831081183000038 ], [ 79.861819010000033, 6.83111850600005 ], [ 79.861812707000084, 6.831150321000052 ], [ 79.861807476000081, 6.831189465000024 ], [ 79.861804324000062, 6.831229606000022 ], [ 79.86179973000003, 6.831266941000022 ], [ 79.861793774000034, 6.831306987000062 ], [ 79.861787366000058, 6.831346398000051 ], [ 79.861784399000044, 6.831384188000071 ], [ 79.861779346000048, 6.83142477800004 ], [ 79.861772396000049, 6.831464278000055 ], [ 79.861766363000072, 6.83149645700007 ], [ 79.861758239000039, 6.831535142000065 ], [ 79.86175559000003, 6.831548067000027 ], [ 79.861753266000051, 6.83158142800005 ], [ 79.861733551000043, 6.831673259000069 ], [ 79.861719718000074, 6.831716092000021 ], [ 79.861712690000047, 6.831748720000065 ], [ 79.861705739000058, 6.831788403000075 ], [ 79.861696696000081, 6.831833776000052 ], [ 79.861688746000084, 6.831876259000068 ], [ 79.861677225000051, 6.831939622000049 ], [ 79.861668261000034, 6.831992050000053 ], [ 79.861656333000042, 6.832032446000027 ], [ 79.861637991000066, 6.832067494000057 ], [ 79.861613729000055, 6.832124775000067 ], [ 79.861597441000072, 6.832174205000058 ], [ 79.861577263000072, 6.832223897000063 ], [ 79.861566224000057, 6.832272342000066 ], [ 79.861550562000048, 6.832325391000039 ], [ 79.861526667000078, 6.832379508000029 ], [ 79.861506659000042, 6.832435350000025 ], [ 79.861488198000075, 6.832485859000029 ], [ 79.861476785000036, 6.832540543000049 ], [ 79.861461292000058, 6.832600643000034 ], [ 79.861447891000068, 6.832654509000064 ], [ 79.861433151000085, 6.832698517000039 ], [ 79.861415138000055, 6.832751560000076 ], [ 79.861393428000042, 6.832798175000049 ], [ 79.86137822700006, 6.832846882000069 ], [ 79.86136782400007, 6.832894335000048 ], [ 79.861358488000064, 6.83295110100005 ], [ 79.861342561000072, 6.833001165000042 ], [ 79.861292193000054, 6.833132632000058 ], [ 79.861271646000034, 6.833185488000027 ], [ 79.861248401000068, 6.833230384000045 ], [ 79.86116859200007, 6.833382049000022 ], [ 79.861114419000046, 6.833468846000073 ], [ 79.861108585000068, 6.833478192000029 ], [ 79.861072314000069, 6.833536306000042 ], [ 79.861057223000046, 6.833574978000057 ], [ 79.861037783000029, 6.833616263000066 ], [ 79.861026751000054, 6.833662086000062 ], [ 79.861030938000056, 6.83369564000003 ], [ 79.861045965000073, 6.833738618000042 ], [ 79.86105152500005, 6.833764670000051 ], [ 79.86105331300007, 6.833775523000042 ], [ 79.861048503000063, 6.833783743000025 ], [ 79.861028825000062, 6.833808210000028 ], [ 79.861024282000074, 6.83381841800002 ], [ 79.861023634000048, 6.833826104000024 ], [ 79.861027576000097, 6.83384591300006 ], [ 79.861039140000059, 6.833854706000067 ], [ 79.86106961400003, 6.833861726000066 ], [ 79.861098656000081, 6.833860606000031 ], [ 79.861128052000083, 6.833863827000072 ], [ 79.861136095000063, 6.833867731000054 ], [ 79.861150278000082, 6.833878156000026 ], [ 79.861178853000069, 6.833885354000074 ], [ 79.861224898000046, 6.833886887000062 ], [ 79.861252316000048, 6.833883503000037 ], [ 79.861254667000082, 6.833884322000073 ], [ 79.861256653000069, 6.833886405000044 ], [ 79.861267203000068, 6.833904781000057 ], [ 79.86127424700004, 6.833910762000073 ], [ 79.861284279000074, 6.833916116000068 ], [ 79.861310322000065, 6.833922495000024 ], [ 79.861324737000075, 6.833953898000059 ], [ 79.861333904000048, 6.833985654000059 ], [ 79.861336827000059, 6.834018482000032 ], [ 79.86132251600003, 6.834027768000056 ], [ 79.86130259600003, 6.834036140000024 ], [ 79.86128799200003, 6.834056819000066 ], [ 79.861293101000058, 6.83408169300003 ], [ 79.861303194000072, 6.834102691000055 ], [ 79.861312367000039, 6.834131372000058 ], [ 79.861329510000076, 6.834155095000028 ], [ 79.86134803300007, 6.834167518000072 ], [ 79.861370572000055, 6.834161050000033 ], [ 79.861384681000061, 6.834162795000053 ], [ 79.86141361500006, 6.834171167000021 ], [ 79.861426192000067, 6.834169475000066 ], [ 79.861450646000037, 6.834155597000064 ], [ 79.861454567000067, 6.834138785000049 ], [ 79.861466003000032, 6.834119457000041 ], [ 79.861477343000047, 6.834102931000073 ], [ 79.861486789000082, 6.834082876000024 ], [ 79.861500124000031, 6.834063731000072 ], [ 79.861520492000068, 6.834056898000028 ], [ 79.861536883000042, 6.834047887000054 ], [ 79.861550858000044, 6.834026213000072 ], [ 79.861568255000066, 6.834011506000024 ], [ 79.861592702000053, 6.834000522000053 ], [ 79.861615138000047, 6.834000837000076 ], [ 79.861633589000064, 6.834002498000075 ], [ 79.861656392000043, 6.833999830000039 ], [ 79.86168131200003, 6.833978356000046 ], [ 79.86170949600006, 6.833952459000045 ], [ 79.861751060000074, 6.833931651000057 ], [ 79.86177742600006, 6.833910724000021 ], [ 79.861795714000039, 6.83390370500007 ], [ 79.861826299000029, 6.833900055000072 ], [ 79.861858237000035, 6.833897765000073 ], [ 79.861891904000061, 6.833891048000057 ], [ 79.86191361200008, 6.833893079000061 ], [ 79.861933769000075, 6.833902429000033 ], [ 79.861962953000045, 6.833921473000032 ], [ 79.86199657800006, 6.833936638000068 ], [ 79.862026043000071, 6.833950800000025 ], [ 79.862055316000067, 6.83397110900006 ], [ 79.86206966900005, 6.833987775000025 ], [ 79.862086539000074, 6.834012943000061 ], [ 79.86209761300006, 6.834040724000033 ], [ 79.862108684000077, 6.834070403000053 ], [ 79.862112977000038, 6.83409645200004 ], [ 79.862114580000082, 6.834109929000021 ], [ 79.862127207000071, 6.834129934000033 ], [ 79.862149311000053, 6.83416207700003 ], [ 79.862173682000048, 6.83419132900002 ], [ 79.862195163000081, 6.83421732100004 ], [ 79.862218177000045, 6.834246119000055 ], [ 79.862216354000054, 6.834253710000041 ], [ 79.862213541000074, 6.834258135000026 ], [ 79.862196780000033, 6.834270944000024 ], [ 79.862173149000057, 6.834281116000056 ], [ 79.862155926000071, 6.834298626000019 ], [ 79.862151556000072, 6.834313265000048 ], [ 79.862151062000066, 6.83433577900007 ], [ 79.862152083000069, 6.834369508000064 ], [ 79.862159637000047, 6.834393394000074 ], [ 79.862167448000037, 6.834424332000024 ], [ 79.862163165000084, 6.83444114300005 ], [ 79.862155130000076, 6.834479557000065 ], [ 79.862149001000034, 6.834515533000057 ], [ 79.862151506000032, 6.834530457000027 ], [ 79.862156741000035, 6.83453634400007 ], [ 79.862163699000064, 6.834540517000049 ], [ 79.862171386000057, 6.834542430000056 ], [ 79.862179166000033, 6.83454208400002 ], [ 79.862198369000069, 6.834530093000068 ], [ 79.862205543000073, 6.834515549000059 ], [ 79.862217724000061, 6.834484829000075 ], [ 79.862232334000069, 6.834461167000027 ], [ 79.862250918000029, 6.834440948000064 ], [ 79.862277293000048, 6.834415137000065 ], [ 79.862297930000068, 6.834409571000039 ], [ 79.862315564000085, 6.83441367300003 ], [ 79.862331370000049, 6.834426905000044 ], [ 79.86235703400007, 6.834441873000061 ], [ 79.862369604000037, 6.834444608000068 ], [ 79.862389516000064, 6.834439854000039 ], [ 79.862403895000057, 6.834442505000027 ], [ 79.862416538000048, 6.83445428300007 ], [ 79.862432597000065, 6.834477822000051 ], [ 79.86245234900008, 6.834509599000057 ], [ 79.86246568200005, 6.83453910000003 ], [ 79.86246284200007, 6.834557088000053 ], [ 79.862450503000048, 6.834576055000071 ], [ 79.862431450000031, 6.834605315000033 ], [ 79.862425705000078, 6.834629627000028 ], [ 79.862421027000053, 6.834663436000027 ], [ 79.86242859400005, 6.834679635000043 ], [ 79.862440341000081, 6.834687252000037 ], [ 79.862448119000078, 6.834688806000031 ], [ 79.862456352000038, 6.834688188000029 ], [ 79.862464318000036, 6.834685399000024 ], [ 79.862477004000084, 6.834674935000066 ], [ 79.862487897000051, 6.834654701000033 ], [ 79.862504854000065, 6.834634388000041 ], [ 79.862520520000032, 6.834626643000036 ], [ 79.862526038000055, 6.83462674300006 ], [ 79.862542396000038, 6.834635817000048 ], [ 79.862554394000085, 6.834653381000066 ], [ 79.862564213000041, 6.834675643000025 ], [ 79.862575915000036, 6.834706318000029 ], [ 79.862589066000055, 6.834736092000071 ], [ 79.862604478000037, 6.834766322000063 ], [ 79.862617626000031, 6.834799079000049 ], [ 79.862630317000082, 6.834833192000075 ], [ 79.862647443000071, 6.834866318000024 ], [ 79.862661677000062, 6.834897089000036 ], [ 79.86267663600006, 6.834927951000054 ], [ 79.862692048000042, 6.834958904000076 ], [ 79.862708540000085, 6.834992481000028 ], [ 79.862717441000029, 6.83502134200006 ], [ 79.862721459000056, 6.835049562000051 ], [ 79.862725559000069, 6.835081669000032 ], [ 79.862727125000049, 6.835114224000049 ], [ 79.862730576000047, 6.835155191000071 ], [ 79.862736833000042, 6.835194627000021 ], [ 79.862741828000082, 6.835231979000071 ], [ 79.862744831000043, 6.835270686000057 ], [ 79.86274594300005, 6.835304958000051 ], [ 79.862741808000067, 6.835338767000053 ], [ 79.862735861000033, 6.835372754000047 ], [ 79.86272565400003, 6.835412792000057 ], [ 79.862713926000083, 6.835442969000041 ], [ 79.862699668000062, 6.835472058000052 ], [ 79.862681976000033, 6.835498427000061 ], [ 79.862661837000076, 6.835527414000069 ], [ 79.862641606000068, 6.835557758000049 ], [ 79.862627619000079, 6.835586485000022 ], [ 79.86261255800008, 6.835609514000055 ], [ 79.862592362000044, 6.835620869000025 ], [ 79.862568469000067, 6.83562615900007 ], [ 79.862543745000039, 6.835639675000038 ], [ 79.862523808000049, 6.835657812000023 ], [ 79.86250784200007, 6.835680839000077 ], [ 79.862491777000059, 6.835708297000053 ], [ 79.862475073000041, 6.835738918000061 ], [ 79.862470506000079, 6.835761786000035 ], [ 79.862473205000072, 6.835769386000037 ], [ 79.862478168000052, 6.835776537000071 ], [ 79.862491722000073, 6.835784791000037 ], [ 79.862499319000051, 6.835785531000054 ], [ 79.862512897000045, 6.835781487000077 ], [ 79.862526760000037, 6.835770572000058 ], [ 79.862544978000074, 6.835752342000034 ], [ 79.862549685000047, 6.835750904000066 ], [ 79.862577010000052, 6.835749690000056 ], [ 79.862598804000072, 6.835753529000043 ], [ 79.862631358000044, 6.835761095000066 ], [ 79.862656122000033, 6.835773801000074 ], [ 79.862674278000043, 6.835788575000037 ], [ 79.862700459000052, 6.835817198000028 ], [ 79.862724645000071, 6.835848619000045 ], [ 79.862742497000056, 6.835879668000076 ], [ 79.862756733000083, 6.83591116100007 ], [ 79.862765453000065, 6.83593984200007 ], [ 79.862768651000067, 6.835970863000055 ], [ 79.862762916000065, 6.835990202000064 ], [ 79.862746322000078, 6.836010152000028 ], [ 79.862721113000077, 6.836040757000032 ], [ 79.862712937000083, 6.836059189000026 ], [ 79.862701471000037, 6.83609406900007 ], [ 79.862694081000029, 6.836126697000055 ], [ 79.862689767000063, 6.83615969300007 ], [ 79.86269416600004, 6.836177514000042 ], [ 79.862706253000056, 6.83619634400003 ], [ 79.862720084000046, 6.836201254000058 ], [ 79.862728411000035, 6.836199642000055 ], [ 79.862735746000055, 6.836195768000037 ], [ 79.862739281000074, 6.836192339000036 ], [ 79.86275695900008, 6.836172932000067 ], [ 79.862773787000037, 6.836172420000025 ], [ 79.862795031000076, 6.836180690000049 ], [ 79.862827116000062, 6.836197026000037 ], [ 79.862851055000078, 6.836214975000076 ], [ 79.862869832000058, 6.836236621000068 ], [ 79.862883078000038, 6.836264405000064 ], [ 79.862893061000079, 6.83629553000003 ], [ 79.862903677000077, 6.836326925000038 ], [ 79.862914378000085, 6.836360944000034 ], [ 79.862920368000061, 6.836398300000041 ], [ 79.862923457000079, 6.836438995000037 ], [ 79.862921118000031, 6.836479500000051 ], [ 79.862914621000073, 6.836518367000054 ], [ 79.862907762000077, 6.836557507000065 ], [ 79.862900448000062, 6.836598002000073 ], [ 79.862893412000062, 6.83663479100005 ], [ 79.862882671000079, 6.836669040000062 ], [ 79.862870936000036, 6.836703105000026 ], [ 79.862864175000084, 6.836738629000023 ], [ 79.862857863000045, 6.836774153000021 ], [ 79.862852456000041, 6.836811396000031 ], [ 79.862854282000058, 6.836850190000063 ], [ 79.862862354000072, 6.836887731000046 ], [ 79.86286771500005, 6.836922642000047 ], [ 79.862870719000057, 6.836960263000037 ], [ 79.862876982000046, 6.836997258000054 ], [ 79.862883153000041, 6.837034523000057 ], [ 79.862889051000082, 6.837072963000026 ], [ 79.862892508000073, 6.837110404000043 ], [ 79.862890913000058, 6.837140420000025 ], [ 79.862888872000042, 6.837167363000048 ], [ 79.862888408000074, 6.837173420000056 ], [ 79.862886873000036, 6.837219713000025 ], [ 79.86288741900006, 6.837265647000038 ], [ 79.862889958000054, 6.837309959000038 ], [ 79.862890169000082, 6.837342059000036 ], [ 79.862888570000052, 6.837374065000062 ], [ 79.862888148000081, 6.837405711000031 ], [ 79.862887813000043, 6.837438715000076 ], [ 79.86288666300004, 6.837472802000036 ], [ 79.862886145000061, 6.837506799000039 ], [ 79.862884815000044, 6.837540342000067 ], [ 79.862883217000046, 6.837572349000026 ], [ 79.862882500000069, 6.837616381000031 ], [ 79.862881238000057, 6.837662223000052 ], [ 79.862878348000038, 6.837706885000046 ], [ 79.862875120000069, 6.837738799000021 ], [ 79.862872798000069, 6.83777062100006 ], [ 79.862866558000064, 6.837817267000048 ], [ 79.862860794000085, 6.837851075000059 ], [ 79.862855033000073, 6.837883796000028 ], [ 79.862849785000037, 6.837913791000062 ], [ 79.862849545000074, 6.837915162000058 ], [ 79.862843784000063, 6.837948065000035 ], [ 79.862836912000034, 6.837993443000073 ], [ 79.862835583000049, 6.838026081000065 ], [ 79.86283506500007, 6.838060984000035 ], [ 79.862830744000064, 6.838096420000057 ], [ 79.862824522000039, 6.838134024000056 ], [ 79.862818301000061, 6.83817 ], [ 79.862812353000038, 6.838206156000068 ], [ 79.86280567700004, 6.838244211000074 ], [ 79.862798817000069, 6.838283170000068 ], [ 79.862791413000082, 6.838323032000063 ], [ 79.862781753000036, 6.838360357000055 ], [ 79.862768747000089, 6.838396772000067 ], [ 79.862755195000034, 6.838434905000042 ], [ 79.862741825000057, 6.838472585000032 ], [ 79.862726464000048, 6.838509900000075 ], [ 79.862710200000038, 6.838547032000064 ], [ 79.862694481000062, 6.83858316900006 ], [ 79.862682104000044, 6.838621303000023 ], [ 79.862673705000077, 6.838661616000023 ], [ 79.86266657200008, 6.838701840000055 ], [ 79.862656728000047, 6.838740160000043 ], [ 79.862644988000056, 6.83877657800002 ], [ 79.862633878000054, 6.838815167000065 ], [ 79.862624395000068, 6.83885439200003 ], [ 79.862613561000046, 6.838890630000038 ], [ 79.862602367000079, 6.838925239000048 ], [ 79.862593344000061, 6.838959763000046 ], [ 79.862583144000041, 6.838996093000048 ], [ 79.862573396000073, 6.839031610000062 ], [ 79.862564107000082, 6.839063602000067 ], [ 79.862556510000047, 6.839109884000037 ], [ 79.862553435000052, 6.839157439000074 ], [ 79.862556810000058, 6.839190539000072 ], [ 79.862561, 6.839223189000052 ], [ 79.862565549000067, 6.839257558000042 ], [ 79.86256991700003, 6.839291111000023 ], [ 79.862573928000074, 6.839322677000041 ], [ 79.86258288700003, 6.839368809000063 ], [ 79.862590428000033, 6.839399838000077 ], [ 79.862602649000053, 6.839443082000058 ], [ 79.862611273000084, 6.839475560000039 ], [ 79.862621343000058, 6.839508040000055 ], [ 79.862630141000068, 6.839543683000044 ], [ 79.862637575000065, 6.83958294000007 ], [ 79.862642295000057, 6.839622824000058 ], [ 79.862643939000066, 6.839662252000038 ], [ 79.862645039000085, 6.83970203900003 ], [ 79.862645057000066, 6.839740378000044 ], [ 79.862639827000066, 6.839778706000059 ], [ 79.862633785000085, 6.839816310000061 ], [ 79.862630186000047, 6.839853465000033 ], [ 79.862628489000031, 6.83988990100005 ], [ 79.86262951100008, 6.839922726000054 ], [ 79.862628364000045, 6.839955367000073 ], [ 79.862624137000068, 6.839989810000076 ], [ 79.862618100000077, 6.840024158000062 ], [ 79.862611424000079, 6.840062303000024 ], [ 79.862605018000068, 6.840100539000046 ], [ 79.862598433000073, 6.840138323000076 ], [ 79.862592474000053, 6.840179633000046 ], [ 79.862588046000042, 6.840224384000066 ], [ 79.862582171000042, 6.840269311000042 ], [ 79.86257783700006, 6.840311891000055 ], [ 79.862576679000085, 6.840350771000034 ], [ 79.862574883000036, 6.840391005000073 ], [ 79.862569830000041, 6.840431323000074 ], [ 79.862562513000057, 6.840473175000056 ], [ 79.862555470000075, 6.840514122000059 ], [ 79.862547885000083, 6.840554072000031 ], [ 79.862539481000056, 6.840596827000071 ], [ 79.862530264000043, 6.840638494000075 ], [ 79.862520868000047, 6.840679254000066 ], [ 79.862511839000035, 6.84071721600003 ], [ 79.862504797000042, 6.840757439000073 ], [ 79.862499650000075, 6.840799837000078 ], [ 79.862495139000032, 6.840841241000021 ], [ 79.862488369000062, 6.840880924000032 ], [ 79.862483410000038, 6.840919523000025 ], [ 79.862481703000071, 6.840960662000044 ], [ 79.862480178000055, 6.841001711000048 ], [ 79.862475583000048, 6.841039227000068 ], [ 79.862468636000074, 6.841076557000063 ], [ 79.862462050000033, 6.84111406900007 ], [ 79.862453744000049, 6.841153116000043 ], [ 79.86244064300007, 6.841191972000048 ], [ 79.86242582400007, 6.841230102000053 ], [ 79.862411547000079, 6.841268865000075 ], [ 79.862400253000033, 6.841308628000036 ], [ 79.862393656000052, 6.841352470000059 ], [ 79.862391313000046, 6.841395326000055 ], [ 79.862389705000055, 6.84143176200007 ], [ 79.862384580000082, 6.841462948000071 ], [ 79.862375203000056, 6.841493945000024 ], [ 79.862368263000064, 6.841527568000061 ], [ 79.862362321000035, 6.841560109000056 ], [ 79.862355453000077, 6.841603136000061 ], [ 79.862351746000058, 6.841649606000033 ], [ 79.862344518000043, 6.841692361000069 ], [ 79.862337201000059, 6.841734302000021 ], [ 79.862326182000061, 6.841771987000071 ], [ 79.862313250000057, 6.841817263000053 ], [ 79.862296881000077, 6.841862081000045 ], [ 79.862283345000037, 6.841891262000047 ], [ 79.86226273300008, 6.841930917000072 ], [ 79.862245287000064, 6.841970759000048 ], [ 79.862229825000057, 6.84201395100007 ], [ 79.86222289300008, 6.842043687000056 ], [ 79.86221740600007, 6.84207505300003 ], [ 79.862217617000056, 6.842106430000058 ], [ 79.862223803000063, 6.842135919000044 ], [ 79.862233682000067, 6.842174546000022 ], [ 79.862236959000029, 6.842211445000032 ], [ 79.862231029000043, 6.842237566000051 ], [ 79.862229348000085, 6.842265141000041 ], [ 79.86223381700006, 6.842293812000036 ], [ 79.862245141000074, 6.842332895000029 ], [ 79.862254930000063, 6.842371072000047 ], [ 79.862255582000046, 6.842408779000037 ], [ 79.862244134000036, 6.842434709000029 ], [ 79.862227223000048, 6.842478531000038 ], [ 79.862221555000076, 6.842509444000028 ], [ 79.86221832800004, 6.842541717000072 ], [ 79.862216702000069, 6.842587288000062 ], [ 79.862211583000033, 6.842615128000035 ], [ 79.86220426400007, 6.842658062000054 ], [ 79.86219514000004, 6.842698645000041 ], [ 79.862180042000034, 6.842740391000063 ], [ 79.862160693000078, 6.842782491000037 ], [ 79.862142974000051, 6.842823057000033 ], [ 79.862131228000067, 6.842862638000041 ], [ 79.862121931000047, 6.842898608000041 ], [ 79.862115262000032, 6.842933769000069 ], [ 79.862106064000045, 6.84296494700004 ], [ 79.862089359000038, 6.842996110000059 ], [ 79.862071661000073, 6.843026007000049 ], [ 79.862056137000081, 6.843054550000034 ], [ 79.862043143000051, 6.843083911000065 ], [ 79.862031589000082, 6.843118069000071 ], [ 79.862023471000043, 6.843152595000048 ], [ 79.862018516000035, 6.843189296000048 ], [ 79.862019904000078, 6.843220946000029 ], [ 79.862022642000071, 6.843255492000026 ], [ 79.862027190000049, 6.843290132000051 ], [ 79.862035460000072, 6.843318179000049 ], [ 79.862035322000054, 6.843343224000024 ], [ 79.862031540000032, 6.843381105000049 ], [ 79.862031709000064, 6.843482377000043 ], [ 79.862019016000033, 6.843591852000031 ], [ 79.861989024000081, 6.843711874000065 ], [ 79.861973049000085, 6.843786622000038 ], [ 79.86195770300003, 6.843864174000031 ], [ 79.861947172000043, 6.843978537000053 ], [ 79.86194318400004, 6.844077451000032 ], [ 79.861948797000082, 6.844170413000029 ], [ 79.86195933700003, 6.844288795000068 ], [ 79.86196665600005, 6.844388544000027 ], [ 79.861974245000056, 6.844489016000067 ], [ 79.861977850000073, 6.844591650000042 ], [ 79.861961500000064, 6.844640229000048 ], [ 79.861947312000041, 6.844682387000035 ], [ 79.861868669000046, 6.844916055000056 ], [ 79.861864245000049, 6.844958906000045 ], [ 79.861857645000043, 6.845004284000026 ], [ 79.861845863000042, 6.845062494000045 ], [ 79.86183836400005, 6.845105249000027 ], [ 79.861825961000079, 6.845157216000076 ], [ 79.861808127000074, 6.845258003000026 ], [ 79.861787256000071, 6.84533889000005 ], [ 79.861766828000043, 6.845424209000044 ], [ 79.861748479000084, 6.845511431000032 ], [ 79.861729765000064, 6.845599012000036 ], [ 79.861728853000045, 6.845603261000064 ], [ 79.86172255300005, 6.84563354000005 ], [ 79.861717586000054, 6.845654728000056 ], [ 79.861707394000064, 6.845697141000072 ], [ 79.861700727000084, 6.845729102000065 ], [ 79.861696048000056, 6.845761304000063 ], [ 79.861694775000046, 6.845777528000042 ], [ 79.861693985000045, 6.845827567000072 ], [ 79.861697565000043, 6.845927723000043 ], [ 79.861698941000043, 6.845982910000031 ], [ 79.861700394000081, 6.846010463000028 ], [ 79.861715308000043, 6.846207249000033 ], [ 79.861717190000036, 6.84621656500002 ], [ 79.861727586000029, 6.846268305000023 ], [ 79.861730722000061, 6.846283954000056 ], [ 79.861748798000065, 6.846341045000031 ], [ 79.861760779000079, 6.846414942000025 ], [ 79.861759134000067, 6.846471813000051 ], [ 79.861753020000052, 6.846546671000056 ], [ 79.861748059000035, 6.846634007000032 ], [ 79.861743669000077, 6.846706427000072 ], [ 79.861739015000069, 6.846775228000069 ], [ 79.861734986000045, 6.846847828000023 ], [ 79.861732507000056, 6.846961936000071 ], [ 79.861726152000074, 6.847021329000028 ], [ 79.861720626000078, 6.84707295000004 ], [ 79.861699987000065, 6.847173549000048 ], [ 79.861689093000052, 6.847241164000024 ], [ 79.86168482100004, 6.847299206000057 ], [ 79.861682234000057, 6.847374613000056 ], [ 79.861670651000068, 6.847423689000038 ], [ 79.861661790000085, 6.847468612000057 ], [ 79.861637492000057, 6.847495963000028 ], [ 79.861618455000041, 6.847516090000057 ], [ 79.861605213000075, 6.847533788000022 ], [ 79.861599821000084, 6.847562079000055 ], [ 79.861603360000061, 6.84760386100004 ], [ 79.861613953000074, 6.847647283000072 ], [ 79.861620232000064, 6.847675324000022 ], [ 79.861634271000071, 6.847714323000047 ], [ 79.861655659000064, 6.847742756000059 ], [ 79.861684230000037, 6.847751762000029 ], [ 79.861724774000038, 6.847744426000076 ], [ 79.861734820000038, 6.847742636000022 ], [ 79.861773579000058, 6.847722818000022 ], [ 79.861797593000077, 6.847701614000071 ], [ 79.861812710000038, 6.84769739300003 ], [ 79.861851519000083, 6.847698460000059 ], [ 79.861884332000045, 6.847712992000026 ], [ 79.86191675200007, 6.847743796000031 ], [ 79.86194600500005, 6.847774866000066 ], [ 79.861980346000053, 6.847841933000041 ], [ 79.861982410000053, 6.847898270000031 ], [ 79.861981062000041, 6.847988779000047 ], [ 79.861979014000042, 6.848066537000022 ], [ 79.861970620000079, 6.848151336000057 ], [ 79.861968429000058, 6.848209111000075 ], [ 79.861967778000079, 6.848265352000056 ], [ 79.861966926000036, 6.848333257000035 ], [ 79.861965601000065, 6.848411106000071 ], [ 79.861955593000062, 6.848488126000062 ], [ 79.861937844000067, 6.848544695000043 ], [ 79.861902813000029, 6.848649969000064 ], [ 79.86188360400007, 6.848759975000064 ], [ 79.861870815000032, 6.848872435000032 ], [ 79.861863228000061, 6.848904886000071 ], [ 79.861925605000067, 6.848914256000056 ], [ 79.862055146000046, 6.848955394000028 ], [ 79.862158505000082, 6.848980472000051 ], [ 79.862252322000074, 6.84898830700007 ], [ 79.862408441000071, 6.848995146000051 ], [ 79.862425040000062, 6.848998381000059 ], [ 79.862495429000035, 6.849012096000022 ], [ 79.862541619000069, 6.849021096000056 ], [ 79.86253305300005, 6.849063580000065 ], [ 79.86253303400008, 6.849073436000025 ], [ 79.862539257000037, 6.849083846000042 ], [ 79.862549196000032, 6.849090194000043 ], [ 79.862555708000059, 6.849091292000026 ], [ 79.863341328000047, 6.849197854000066 ], [ 79.864163692000034, 6.849297885000055 ], [ 79.864510668000037, 6.849332723000033 ], [ 79.865081132000057, 6.849401530000023 ], [ 79.865517358000034, 6.849412846000062 ], [ 79.865982810000048, 6.849421866000057 ], [ 79.865987785000073, 6.848977905000026 ] ] ] ] } }
]
}
