{"type":"FeatureCollection","features":[{"type":"Feature","properties":{"osm_id":15242147,"highway":"tertiary","name":"Hotel Road","access":null,"foot":null,"oneway":null,"nf_road_id":"1-0"},"geometry":{"type":"LineString","coordinates":[[79.8657208,6.8352708],[79.8656099,6.8351798],[79.8654804,6.835109],[79.8653497,6.835044],[79.8652816,6.835005],[79.8652541,6.8349779],[79.8652318,6.8349403],[79.864746,6.8338725],[79.864571,6.8336824],[79.8644055,6.8335584],[79.8642335,6.8334604],[79.8637951,6.8333763],[79.8633846,6.8333598],[79.8625787,6.8332384]]}},{"type":"Feature","properties":{"osm_id":15242148,"highway":"residential","name":"Station Road","access":null,"foot":null,"oneway":null,"nf_road_id":"2-0"},"geometry":{"type":"LineString","coordinates":[[79.8674053,6.8325652],[79.8673352,6.8325615],[79.8667482,6.832531],[79.866561,6.8325255],[79.8661487,6.8324712],[79.8660832,6.8324676],[79.8656153,6.8324416],[79.86468,6.8323897],[79.8644201,6.8324094],[79.8639698,6.8323865]]}},{"type":"Feature","properties":{"osm_id":15242149,"highway":"residential","name":"Station Road","access":null,"foot":null,"oneway":null,"nf_road_id":"3-0"},"geometry":{"type":"LineString","coordinates":[[79.86468,6.8323897],[79.8646245,6.832241],[79.864445,6.8318107],[79.8643586,6.831661],[79.864254,6.8315557],[79.8641805,6.831531],[79.8637393,6.8315789],[79.8636703,6.8316111],[79.8635901,6.8316263],[79.8635,6.8316101],[79.8634499,6.8315505],[79.8634375,6.8312844],[79.8633957,6.8312082],[79.8633307,6.8311883],[79.8631434,6.8311643],[79.8630657,6.8312028],[79.8630269,6.8312598],[79.8629836,6.831604],[79.862901,6.831942],[79.86285,6.8320879],[79.86261,6.8325513],[79.8625506,6.8327816],[79.8625293,6.8330393],[79.8625398,6.8331796],[79.8625787,6.8332384]]}},{"type":"Feature","properties":{"osm_id":15242151,"highway":"service","name":"","access":null,"foot":null,"oneway":null,"nf_road_id":"4-0"},"geometry":{"type":"LineString","coordinates":[[79.862014,6.833176],[79.8623177,6.8331977]]}},{"type":"Feature","properties":{"osm_id":29010346,"highway":"primary","name":"Kawdana Road","access":null,"foot":null,"oneway":null,"nf_road_id":"8-0"},"geometry":{"type":"LineString","coordinates":[[79.86599,6.8475171],[79.866065,6.8475213],[79.8663506,6.8475309],[79.8665816,6.8475985],[79.8666447,6.8476283],[79.86668624722482,6.8476366889611855]]}},{"type":"Feature","properties":{"osm_id":46897989,"highway":"residential","name":"Off Hotel Road","access":null,"foot":null,"oneway":null,"nf_road_id":"9-0"},"geometry":{"type":"LineString","coordinates":[[79.8645299,6.8410697],[79.8652316,6.8411698],[79.8653274,6.8411666],[79.8654064,6.8410801],[79.8654335,6.8410718],[79.8657288,6.8411041],[79.8669483,6.8412825]]}},{"type":"Feature","properties":{"osm_id":46897991,"highway":"residential","name":"","access":null,"foot":null,"oneway":null,"nf_road_id":"10-0"},"geometry":{"type":"LineString","coordinates":[[79.8654276,6.8416892],[79.8667885,6.8418242],[79.8668886,6.8418436]]}},{"type":"Feature","properties":{"osm_id":46898066,"highway":"residential","name":"Beach Road","access":null,"foot":null,"oneway":null,"nf_road_id":"14-0"},"geometry":{"type":"LineString","coordinates":[[79.8629892,6.842324],[79.8635583,6.8423899],[79.8639262,6.8424313],[79.8641564,6.842459],[79.8647767,6.842526],[79.8656102,6.8426333],[79.8665992,6.8427545]]}},{"type":"Feature","properties":{"osm_id":46898081,"highway":"residential","name":"De Alwis Avenue","access":null,"foot":null,"oneway":null,"nf_road_id":"15-0"},"geometry":{"type":"LineString","coordinates":[[79.8630986,6.8410394],[79.8645065,6.8411718]]}},{"type":"Feature","properties":{"osm_id":46898097,"highway":"residential","name":"Samudra Mawatha","access":null,"foot":null,"oneway":null,"nf_road_id":"16-0"},"geometry":{"type":"LineString","coordinates":[[79.8630275,6.841551],[79.8644697,6.8417086]]}},{"type":"Feature","properties":{"osm_id":46898128,"highway":"residential","name":"Siripala Road","access":null,"foot":null,"oneway":null,"nf_road_id":"17-0"},"geometry":{"type":"LineString","coordinates":[[79.8630588,6.8429991],[79.866483,6.8431676]]}},{"type":"Feature","properties":{"osm_id":46898160,"highway":"residential","name":"De Seram Road","access":null,"foot":null,"oneway":null,"nf_road_id":"18-0"},"geometry":{"type":"LineString","coordinates":[[79.8645881,6.8407113],[79.8646044,6.8404494],[79.864636,6.840202],[79.864656,6.840045],[79.8646813,6.839876],[79.8646993,6.8397891],[79.8647678,6.8393068],[79.8647796,6.8390924],[79.8648402,6.8386396]]}},{"type":"Feature","properties":{"osm_id":46898174,"highway":"residential","name":"De Saram Road","access":null,"foot":null,"oneway":null,"nf_road_id":"19-0"},"geometry":{"type":"LineString","coordinates":[[79.8634665,6.8396436],[79.8646993,6.8397891]]}},{"type":"Feature","properties":{"osm_id":46898186,"highway":"residential","name":"","access":null,"foot":null,"oneway":null,"nf_road_id":"20-0"},"geometry":{"type":"LineString","coordinates":[[79.8632889,6.840277],[79.8646044,6.8404494]]}},{"type":"Feature","properties":{"osm_id":46898204,"highway":"residential","name":"De Seram Road","access":null,"foot":null,"oneway":null,"nf_road_id":"21-0"},"geometry":{"type":"LineString","coordinates":[[79.8641564,6.842459],[79.8642094,6.8420116],[79.8642488,6.8419596],[79.8643874,6.8419524],[79.864438,6.8419256],[79.8644697,6.8417086],[79.8644885,6.8413916],[79.8645065,6.8411718],[79.8645299,6.8410697],[79.8645881,6.8407113]]}},{"type":"Feature","properties":{"osm_id":46898206,"highway":"residential","name":"","access":null,"foot":null,"oneway":null,"nf_road_id":"22-0"},"geometry":{"type":"LineString","coordinates":[[79.8652746,6.8352143],[79.865243,6.8354107],[79.8651451,6.8360188],[79.8651377,6.836081],[79.8650316,6.8368139],[79.8650083,6.8370659],[79.8649194,6.8380277],[79.8649122,6.8381054],[79.8648402,6.8386396]]}},{"type":"Feature","properties":{"osm_id":46898224,"highway":"residential","name":"","access":null,"foot":null,"oneway":null,"nf_road_id":"23-0"},"geometry":{"type":"LineString","coordinates":[[79.8633483,6.8358118],[79.8651451,6.8360188]]}},{"type":"Feature","properties":{"osm_id":46898225,"highway":"residential","name":"Cross Road","access":null,"foot":null,"oneway":null,"nf_road_id":"24-0"},"geometry":{"type":"LineString","coordinates":[[79.8657208,6.8352708],[79.8658749,6.8352578],[79.8663071,6.835199],[79.8665306,6.8351686]]}},{"type":"Feature","properties":{"osm_id":46898227,"highway":"residential","name":"De Seram Road","access":null,"foot":null,"oneway":null,"nf_road_id":"25-0"},"geometry":{"type":"LineString","coordinates":[[79.8633806,6.8405384],[79.8645881,6.8407113],[79.8669325,6.841027]]}},{"type":"Feature","properties":{"osm_id":46898236,"highway":"residential","name":"","access":null,"foot":null,"oneway":null,"nf_road_id":"26-0"},"geometry":{"type":"LineString","coordinates":[[79.8628946,6.8349228],[79.8630538,6.8349452],[79.8632721,6.8349766],[79.8636695,6.8350301],[79.8639451,6.8350643],[79.8649547,6.8351897],[79.8652746,6.8352143]]}},{"type":"Feature","properties":{"osm_id":46898237,"highway":"residential","name":"Mount Avenue","access":null,"foot":null,"oneway":null,"nf_road_id":"27-0"},"geometry":{"type":"LineString","coordinates":[[79.8637951,6.8333763],[79.8637707,6.8338446],[79.8636695,6.8350301]]}},{"type":"Feature","properties":{"osm_id":46898239,"highway":"residential","name":"College Avenue","access":"yes","foot":"yes","oneway":null,"nf_road_id":"28-0"},"geometry":{"type":"LineString","coordinates":[[79.8634317,6.8384561],[79.8639229,6.8385186],[79.8648402,6.8386396],[79.8653577,6.8387062],[79.8656586,6.8387476],[79.8658533,6.8387676],[79.8663038,6.8388391],[79.8666888,6.8388997],[79.8671155,6.8389543],[79.8674851,6.8389763],[79.8675541,6.8389586]]}},{"type":"Feature","properties":{"osm_id":46940573,"highway":"tertiary","name":"Sri Dharmapala Mawatha","access":null,"foot":null,"oneway":null,"nf_road_id":"30-0"},"geometry":{"type":"LineString","coordinates":[[79.8628982,6.8443025],[79.8631488,6.8443203],[79.8634017,6.8443379],[79.8637884,6.8443658],[79.8639222,6.8443753],[79.8640583,6.844385],[79.864355,6.8444061],[79.8651657,6.8444576],[79.8656168,6.8444683],[79.8662967,6.8444843]]}},{"type":"Feature","properties":{"osm_id":46940578,"highway":"residential","name":"Auburn lane","access":null,"foot":null,"oneway":null,"nf_road_id":"35-0"},"geometry":{"type":"LineString","coordinates":[[79.8629202,6.8466342],[79.8629373,6.8466499],[79.8631428,6.8466819],[79.8635331,6.846744],[79.8640384,6.846799],[79.8646017,6.8468675],[79.8650388,6.8469104],[79.8653353,6.8469455],[79.8660277,6.8470011]]}},{"type":"Feature","properties":{"osm_id":48701240,"highway":"trunk","name":"Galle Road","access":null,"foot":null,"oneway":"yes","nf_road_id":"45-0"},"geometry":{"type":"LineString","coordinates":[[79.8678724176855,6.830185363777536],[79.8678026,6.8303742],[79.8677658,6.8304817],[79.867697,6.8306914],[79.8676676,6.8308008],[79.8676598,6.8308297],[79.8676245,6.830961],[79.8675501,6.8312386],[79.867499,6.8314726],[79.867474,6.8315998],[79.867439,6.831778],[79.8673919,6.8321057],[79.8673506,6.8324035],[79.8673352,6.8325615],[79.8673269,6.8326457],[79.8673239,6.8327924],[79.867322,6.8328855],[79.8673075,6.8331442],[79.8673081,6.8331777],[79.8673126,6.833433],[79.8673089,6.833712],[79.8673107,6.8339632],[79.8673133,6.8342144],[79.8673092,6.8345341],[79.8673192,6.8350896],[79.8673183,6.8351199],[79.8673105,6.8356431],[79.8673337,6.8360769],[79.8673383,6.8362241],[79.867359,6.8365714],[79.867395,6.8371292],[79.8674111,6.8373401],[79.867428,6.8375622],[79.867438,6.8376933],[79.8674589,6.8380749],[79.8674671,6.8382499],[79.8674751,6.8384191],[79.8674851,6.838669],[79.867489,6.8388765],[79.8674851,6.8389763],[79.8674808,6.8390832],[79.8674793,6.8391203],[79.867468,6.8393073],[79.8674427,6.8395742],[79.8674268,6.8397466],[79.8673899,6.8399792],[79.8673202,6.8403626],[79.8672678,6.8405826],[79.867214,6.8407604],[79.8672044,6.8407921],[79.8671631,6.8409406],[79.8671287,6.8410435],[79.86704,6.8413086],[79.8669503,6.8416541],[79.8668886,6.8418436],[79.8668469,6.8419713],[79.8668215,6.8420649],[79.8668096,6.8421019],[79.8665992,6.8427545],[79.866483,6.8431676],[79.8664274,6.8433303],[79.8663799,6.8436448],[79.8663407,6.843972],[79.8663108,6.8443201],[79.8662967,6.8444843],[79.8662176,6.8453306],[79.8661988,6.8455321],[79.8661875,6.8455768],[79.8660869,6.8464235],[79.8660731,6.846552],[79.8660419,6.8468441],[79.8660277,6.8470011],[79.86599,6.8475171],[79.8659689,6.8480744],[79.8659708,6.8484964],[79.8659672,6.8487417],[79.8659654,6.8488504],[79.8659584,6.8493938],[79.8659565,6.8494796]]}},{"type":"Feature","properties":{"osm_id":49000457,"highway":"residential","name":"Old Quarry Road","access":null,"foot":null,"oneway":null,"nf_road_id":"52-0"},"geometry":{"type":"LineString","coordinates":[[79.8643586,6.831661],[79.8644155,6.8316208],[79.8645405,6.8315665],[79.8647396,6.8314643],[79.8648327,6.8314225],[79.8649206,6.831405],[79.8651595,6.8314304],[79.86533,6.8314999],[79.8655817,6.8316501],[79.8656512,6.831649],[79.8659702,6.8315612],[79.8661233,6.8315498],[79.8667638,6.8315805],[79.8671891,6.8315904],[79.867474,6.8315998]]}},{"type":"Feature","properties":{"osm_id":50133642,"highway":"residential","name":"Samudrasanna Road","access":null,"foot":null,"oneway":null,"nf_road_id":"60-0"},"geometry":{"type":"LineString","coordinates":[[79.8676598,6.8308297],[79.8674364,6.8308014],[79.8669637,6.8307131],[79.8664012,6.8304747],[79.8662315,6.8303714],[79.8660885,6.8302851],[79.8656775,6.8302206],[79.8650494,6.8301038],[79.8647818,6.8300786],[79.8647483,6.8300879],[79.8647059,6.8301229],[79.864536,6.8303064],[79.8644549,6.8303442],[79.8636511,6.8305083]]}},{"type":"Feature","properties":{"osm_id":53755647,"highway":"residential","name":"Mihindu Road","access":null,"foot":null,"oneway":null,"nf_road_id":"96-0"},"geometry":{"type":"LineString","coordinates":[[79.86687268041429,6.8456051435595064],[79.8667984,6.8456024],[79.8667293,6.8456009],[79.866253,6.8455803],[79.8661875,6.8455768]]}},{"type":"Feature","properties":{"osm_id":53757724,"highway":"residential","name":"Dhakshinaramna Road","access":null,"foot":null,"oneway":null,"nf_road_id":"112-0"},"geometry":{"type":"LineString","coordinates":[[79.86801444981865,6.835227754021231],[79.8673863,6.8351032],[79.8673192,6.8350896]]}},{"type":"Feature","properties":{"osm_id":53757725,"highway":"residential","name":"Simon Abeywickrema Avenue","access":null,"foot":null,"oneway":null,"nf_road_id":"113-0"},"geometry":{"type":"LineString","coordinates":[[79.864746,6.8338725],[79.8648591,6.8338402],[79.8650005,6.8338129],[79.8652199,6.83381],[79.8656666,6.8338128]]}},{"type":"Feature","properties":{"osm_id":53757726,"highway":"residential","name":"Circular Road","access":null,"foot":null,"oneway":null,"nf_road_id":"114-0"},"geometry":{"type":"LineString","coordinates":[[79.8665306,6.8351686],[79.8665401,6.8350505],[79.8665325,6.8348966],[79.8665191,6.8347583],[79.8664977,6.8346423],[79.8664561,6.8345291],[79.8664299,6.8344664],[79.866385,6.8343653],[79.8663689,6.8342748],[79.8663736,6.8341836],[79.8663761,6.8341327],[79.866387,6.8340784],[79.8664064,6.8339909],[79.8664702,6.8337781],[79.866505,6.8335025],[79.8665357,6.8330444],[79.866561,6.8325255]]}},{"type":"Feature","properties":{"osm_id":53757728,"highway":"residential","name":"","access":null,"foot":null,"oneway":null,"nf_road_id":"115-0"},"geometry":{"type":"LineString","coordinates":[[79.8672821,6.8340186],[79.8667462,6.8340821],[79.8663761,6.8341327],[79.8657462,6.8342561]]}},{"type":"Feature","properties":{"osm_id":98371180,"highway":"service","name":"","access":null,"foot":null,"oneway":null,"nf_road_id":"124-0"},"geometry":{"type":"LineString","coordinates":[[79.8623177,6.8331977],[79.8625787,6.8332384]]}},{"type":"Feature","properties":{"osm_id":109077753,"highway":"residential","name":"","access":null,"foot":null,"oneway":null,"nf_road_id":"133-0"},"geometry":{"type":"LineString","coordinates":[[79.8636347,6.8450299],[79.8636933,6.8449779],[79.8638267,6.844929],[79.8640266,6.8449155]]}},{"type":"Feature","properties":{"osm_id":109077756,"highway":"residential","name":"Alponsu Avenue","access":null,"foot":null,"oneway":null,"nf_road_id":"136-0"},"geometry":{"type":"LineString","coordinates":[[79.8640892,6.8480008],[79.8647405,6.8480307],[79.8659689,6.8480744]]}},{"type":"Feature","properties":{"osm_id":109077758,"highway":"residential","name":"Alponsu Avenue","access":null,"foot":null,"oneway":null,"nf_road_id":"137-0"},"geometry":{"type":"LineString","coordinates":[[79.8640892,6.8480008],[79.8635743,6.8479556],[79.8631086,6.8479007]]}},{"type":"Feature","properties":{"osm_id":109077759,"highway":"residential","name":"","access":null,"foot":null,"oneway":null,"nf_road_id":"138-0"},"geometry":{"type":"LineString","coordinates":[[79.8640668,6.8452365],[79.8640559,6.8450893],[79.8640519,6.8450241],[79.8640266,6.8449155]]}},{"type":"Feature","properties":{"osm_id":109077762,"highway":"residential","name":"","access":null,"foot":null,"oneway":null,"nf_road_id":"139-0"},"geometry":{"type":"LineString","coordinates":[[79.8635331,6.846744],[79.8635605,6.846456],[79.8636057,6.8461587],[79.8636316,6.8456943],[79.8636351,6.8453403],[79.8636362,6.8452451],[79.8636347,6.8450299]]}},{"type":"Feature","properties":{"osm_id":109077763,"highway":"residential","name":"","access":null,"foot":null,"oneway":null,"nf_road_id":"140-0"},"geometry":{"type":"LineString","coordinates":[[79.8626821,6.8484719],[79.8640595,6.8486385],[79.8639991,6.8488902],[79.8629024,6.8487569]]}},{"type":"Feature","properties":{"osm_id":109077767,"highway":"residential","name":"","access":null,"foot":null,"oneway":null,"nf_road_id":"142-0"},"geometry":{"type":"LineString","coordinates":[[79.8649042,6.8449392],[79.8649133,6.8449589],[79.8649227,6.845245],[79.8649507,6.8457456]]}},{"type":"Feature","properties":{"osm_id":109077768,"highway":"residential","name":"Ediriweera Avenue","access":null,"foot":null,"oneway":null,"nf_road_id":"143-0"},"geometry":{"type":"LineString","coordinates":[[79.8625586,6.849103],[79.8641197,6.8493108],[79.8654071,6.8494333],[79.8659584,6.8493938]]}},{"type":"Feature","properties":{"osm_id":109077773,"highway":"residential","name":"Dudley Senanayake Mawatha","access":null,"foot":null,"oneway":null,"nf_road_id":"145-0"},"geometry":{"type":"LineString","coordinates":[[79.8636316,6.8456943],[79.8643263,6.845721],[79.8649507,6.8457456],[79.8652977,6.8457512],[79.8653505,6.8457721],[79.8653694,6.8458266],[79.865353,6.8462968],[79.8653685,6.8463314],[79.8654013,6.8463567],[79.8660869,6.8464235]]}},{"type":"Feature","properties":{"osm_id":109077774,"highway":"residential","name":"","access":null,"foot":null,"oneway":null,"nf_road_id":"146-0"},"geometry":{"type":"LineString","coordinates":[[79.8641918,6.8474976],[79.8647904,6.847581]]}},{"type":"Feature","properties":{"osm_id":109077775,"highway":"residential","name":"","access":null,"foot":null,"oneway":null,"nf_road_id":"147-0"},"geometry":{"type":"LineString","coordinates":[[79.8647405,6.8480307],[79.8647904,6.847581],[79.8648118,6.847418],[79.8650129,6.8474302],[79.8650388,6.8469104]]}},{"type":"Feature","properties":{"osm_id":109077777,"highway":"residential","name":"","access":null,"foot":null,"oneway":null,"nf_road_id":"148-0"},"geometry":{"type":"LineString","coordinates":[[79.8640595,6.8486385],[79.8640892,6.8480008]]}},{"type":"Feature","properties":{"osm_id":109078667,"highway":"residential","name":"","access":null,"foot":null,"oneway":null,"nf_road_id":"150-0"},"geometry":{"type":"LineString","coordinates":[[79.8671891,6.8315904],[79.8671749,6.8315979],[79.8669999,6.8317409],[79.8669201,6.8318034],[79.8668627,6.8319071],[79.8668206,6.8320592],[79.8667482,6.832531]]}},{"type":"Feature","properties":{"osm_id":109078668,"highway":"residential","name":"Sangamitta Avenue","access":null,"foot":null,"oneway":null,"nf_road_id":"151-0"},"geometry":{"type":"LineString","coordinates":[[79.865227,6.8437056],[79.8644122,6.8436603],[79.8632049,6.8435938],[79.8629183,6.8435877]]}},{"type":"Feature","properties":{"osm_id":109078669,"highway":"residential","name":"","access":null,"foot":null,"oneway":null,"nf_road_id":"152-0"},"geometry":{"type":"LineString","coordinates":[[79.864355,6.8444061],[79.8643773,6.8441604],[79.8644122,6.8436603]]}},{"type":"Feature","properties":{"osm_id":109078670,"highway":"residential","name":"","access":null,"foot":null,"oneway":null,"nf_road_id":"153-0"},"geometry":{"type":"LineString","coordinates":[[79.86392443207119,6.828727834699114],[79.8638109,6.829018],[79.863713,6.8293987],[79.8636097,6.8298889],[79.8636511,6.8305083],[79.8636891,6.8312593],[79.8637393,6.8315789]]}},{"type":"Feature","properties":{"osm_id":153609095,"highway":"residential","name":"Lilian Avenue","access":null,"foot":"yes","oneway":null,"nf_road_id":"217-0"},"geometry":{"type":"LineString","coordinates":[[79.8644201,6.8324094],[79.8642949,6.8331145],[79.8642335,6.8334604]]}},{"type":"Feature","properties":{"osm_id":164720832,"highway":"residential","name":"","access":null,"foot":null,"oneway":null,"nf_road_id":"222-0"},"geometry":{"type":"LineString","coordinates":[[79.86707586786407,6.830027709361788],[79.8670697,6.830172],[79.8670502,6.8303603],[79.8669637,6.8307131]]}},{"type":"Feature","properties":{"osm_id":164732215,"highway":"residential","name":"Cross Road","access":null,"foot":null,"oneway":"yes","nf_road_id":"224-0"},"geometry":{"type":"LineString","coordinates":[[79.8673192,6.8350896],[79.8672436,6.8350694],[79.8670476,6.8350566],[79.8667546,6.8351135],[79.8665306,6.8351686]]}},{"type":"Feature","properties":{"osm_id":164732217,"highway":"residential","name":"","access":null,"foot":null,"oneway":null,"nf_road_id":"226-0"},"geometry":{"type":"LineString","coordinates":[[79.8650494,6.8301038],[79.8650806,6.8304506],[79.8651595,6.8314304]]}},{"type":"Feature","properties":{"osm_id":164733360,"highway":"residential","name":"Barnes Avenue","access":null,"foot":null,"oneway":null,"nf_road_id":"227-0"},"geometry":{"type":"LineString","coordinates":[[79.864656,6.840045],[79.8649511,6.840085],[79.8655866,6.8401535],[79.8662932,6.8402208],[79.8665317,6.8402687],[79.8669098,6.8402868]]}},{"type":"Feature","properties":{"osm_id":164733361,"highway":"residential","name":"","access":null,"foot":null,"oneway":null,"nf_road_id":"228-0"},"geometry":{"type":"LineString","coordinates":[[79.8654959,6.8396277],[79.8656662,6.8396397],[79.8656997,6.8396556],[79.8656974,6.8397183],[79.8655866,6.8401535],[79.8655047,6.8405528]]}},{"type":"Feature","properties":{"osm_id":189316080,"highway":"residential","name":"","access":null,"foot":null,"oneway":null,"nf_road_id":"252-0"},"geometry":{"type":"LineString","coordinates":[[79.8640384,6.846799],[79.8640533,6.846651],[79.8640929,6.8462249]]}},{"type":"Feature","properties":{"osm_id":189316081,"highway":"residential","name":"Sri Gunalankara Mawatha","access":null,"foot":null,"oneway":null,"nf_road_id":"253-0"},"geometry":{"type":"LineString","coordinates":[[79.8646995,6.8488715],[79.8648696,6.8488953],[79.8650479,6.8489039],[79.8653978,6.8489105],[79.8654346,6.8488947],[79.8654325,6.8488417],[79.8654624,6.8488115],[79.8654876,6.8488031],[79.8654987,6.8487737],[79.8659672,6.8487417]]}},{"type":"Feature","properties":{"osm_id":189316082,"highway":"residential","name":"","access":null,"foot":null,"oneway":null,"nf_road_id":"254-0"},"geometry":{"type":"LineString","coordinates":[[79.8637884,6.8443658],[79.8637715,6.8445652],[79.8637569,6.8446922]]}},{"type":"Feature","properties":{"osm_id":189316083,"highway":"residential","name":"","access":null,"foot":null,"oneway":null,"nf_road_id":"255-0"},"geometry":{"type":"LineString","coordinates":[[79.8630338,6.8474986],[79.8630598,6.8473122],[79.8631428,6.8466819]]}},{"type":"Feature","properties":{"osm_id":189316084,"highway":"residential","name":"","access":null,"foot":null,"oneway":null,"nf_road_id":"256-0"},"geometry":{"type":"LineString","coordinates":[[79.8646366,6.8465535],[79.8646017,6.8468675]]}},{"type":"Feature","properties":{"osm_id":189316085,"highway":"residential","name":"","access":null,"foot":null,"oneway":null,"nf_road_id":"257-0"},"geometry":{"type":"LineString","coordinates":[[79.8655149,6.8439687],[79.8660659,6.843967],[79.8662807,6.8439742],[79.8663407,6.843972]]}},{"type":"Feature","properties":{"osm_id":189316086,"highway":"residential","name":"","access":null,"foot":null,"oneway":null,"nf_road_id":"258-0"},"geometry":{"type":"LineString","coordinates":[[79.8632049,6.8435938],[79.8631812,6.8438409],[79.8631488,6.8443203]]}},{"type":"Feature","properties":{"osm_id":189316087,"highway":"residential","name":"","access":null,"foot":null,"oneway":null,"nf_road_id":"259-0"},"geometry":{"type":"LineString","coordinates":[[79.8636362,6.8452451],[79.8640668,6.8452365],[79.864206,6.8452417],[79.8649227,6.845245]]}},{"type":"Feature","properties":{"osm_id":307836015,"highway":"residential","name":"","access":null,"foot":null,"oneway":null,"nf_road_id":"266-0"},"geometry":{"type":"LineString","coordinates":[[79.8648177,6.8421025],[79.8647767,6.842526]]}},{"type":"Feature","properties":{"osm_id":374052846,"highway":"residential","name":"","access":null,"foot":null,"oneway":null,"nf_road_id":"285-0"},"geometry":{"type":"LineString","coordinates":[[79.8642237,6.8486619],[79.8640595,6.8486385]]}},{"type":"Feature","properties":{"osm_id":375190503,"highway":"residential","name":"","access":null,"foot":null,"oneway":null,"nf_road_id":"338-0"},"geometry":{"type":"LineString","coordinates":[[79.8667638,6.8315805],[79.8667622,6.8315221],[79.8667428,6.831385],[79.8666927,6.8310878],[79.8666781,6.8310034],[79.8666676,6.8309245]]}},{"type":"Feature","properties":{"osm_id":376599211,"highway":"service","name":"","access":null,"foot":null,"oneway":null,"nf_road_id":"415-0"},"geometry":{"type":"LineString","coordinates":[[79.8640315,6.8381135],[79.8644079,6.83811],[79.8646941,6.8380725],[79.8649122,6.8381054]]}},{"type":"Feature","properties":{"osm_id":376599230,"highway":"residential","name":"Kongahawatte Road","access":null,"foot":null,"oneway":null,"nf_road_id":"423-0"},"geometry":{"type":"LineString","coordinates":[[79.8656144,6.8307026],[79.8659127,6.8307515],[79.8659344,6.8307508],[79.8659556,6.8307421],[79.8662315,6.8303714]]}},{"type":"Feature","properties":{"osm_id":376599231,"highway":"service","name":"","access":null,"foot":null,"oneway":null,"nf_road_id":"424-0"},"geometry":{"type":"LineString","coordinates":[[79.8628595,6.8338228],[79.8628812,6.8345754],[79.862929,6.8346822],[79.8630538,6.8349452]]}},{"type":"Feature","properties":{"osm_id":509577294,"highway":"residential","name":"Sri Gunarathna Mawatha","access":null,"foot":null,"oneway":null,"nf_road_id":"537-0"},"geometry":{"type":"LineString","coordinates":[[79.86812130477833,6.83726032131497],[79.8676679,6.8373179],[79.8674931,6.837333],[79.8674111,6.8373401]]}},{"type":"Feature","properties":{"osm_id":524651604,"highway":"living_street","name":"","access":null,"foot":null,"oneway":null,"nf_road_id":"563-0"},"geometry":{"type":"LineString","coordinates":[[79.8648646,6.8483825],[79.8648585,6.8484713],[79.8649108,6.8485172],[79.8654531,6.8486212],[79.86548,6.8486971],[79.8654987,6.8487737]]}},{"type":"Feature","properties":{"osm_id":524651605,"highway":"living_street","name":"","access":null,"foot":null,"oneway":null,"nf_road_id":"564-0"},"geometry":{"type":"LineString","coordinates":[[79.8629245,6.847658],[79.8635858,6.8477267],[79.8635743,6.8479556]]}},{"type":"Feature","properties":{"osm_id":524651606,"highway":"residential","name":"","access":null,"foot":null,"oneway":null,"nf_road_id":"565-0"},"geometry":{"type":"LineString","coordinates":[[79.8630527,6.8453395],[79.8636351,6.8453403]]}},{"type":"Feature","properties":{"osm_id":524651607,"highway":"residential","name":"","access":null,"foot":null,"oneway":null,"nf_road_id":"566-0"},"geometry":{"type":"LineString","coordinates":[[79.863094,6.8446885],[79.8632855,6.8447011],[79.8633504,6.8446768],[79.8633813,6.8445944],[79.8634017,6.8443379]]}},{"type":"Feature","properties":{"osm_id":524651609,"highway":"living_street","name":"","access":null,"foot":null,"oneway":null,"nf_road_id":"567-0"},"geometry":{"type":"LineString","coordinates":[[79.8637479,6.843984],[79.8639403,6.8439865],[79.8639629,6.8440026],[79.8639222,6.8443753]]}},{"type":"Feature","properties":{"osm_id":524651610,"highway":"living_street","name":"","access":null,"foot":null,"oneway":null,"nf_road_id":"568-0"},"geometry":{"type":"LineString","coordinates":[[79.8651405,6.8415453],[79.8649348,6.8415361],[79.8646971,6.8414165],[79.8644885,6.8413916]]}},{"type":"Feature","properties":{"osm_id":524651611,"highway":"living_street","name":"","access":null,"foot":null,"oneway":null,"nf_road_id":"569-0"},"geometry":{"type":"LineString","coordinates":[[79.864911,6.8418025],[79.8649348,6.8415361]]}},{"type":"Feature","properties":{"osm_id":524651612,"highway":"living_street","name":"","access":null,"foot":null,"oneway":null,"nf_road_id":"570-0"},"geometry":{"type":"LineString","coordinates":[[79.8638666,6.8393137],[79.8642175,6.8393627],[79.8643544,6.8393282],[79.8644772,6.8392895],[79.8647678,6.8393068]]}},{"type":"Feature","properties":{"osm_id":524651613,"highway":"living_street","name":"","access":null,"foot":null,"oneway":null,"nf_road_id":"571-0"},"geometry":{"type":"LineString","coordinates":[[79.8661125,6.8311647],[79.8661233,6.8315498]]}},{"type":"Feature","properties":{"osm_id":530462045,"highway":"living_street","name":"","access":null,"foot":null,"oneway":null,"nf_road_id":"573-0"},"geometry":{"type":"LineString","coordinates":[[79.8653353,6.8469455],[79.8653017,6.8471596],[79.8652834,6.8473251]]}},{"type":"Feature","properties":{"osm_id":532086472,"highway":"residential","name":"Simon Abeywickrema Avenue","access":null,"foot":null,"oneway":null,"nf_road_id":"574-0"},"geometry":{"type":"LineString","coordinates":[[79.8656666,6.8338128],[79.8656997,6.8338327],[79.8657462,6.8342561],[79.8658102,6.8348509],[79.865742,6.8350904],[79.8657208,6.8352708]]}},{"type":"Feature","properties":{"osm_id":532086604,"highway":"tertiary","name":"Hotel Road","access":null,"foot":null,"oneway":"yes","nf_road_id":"593-0"},"geometry":{"type":"LineString","coordinates":[[79.86704,6.8413086],[79.8669483,6.8412825]]}},{"type":"Feature","properties":{"osm_id":589745461,"highway":"residential","name":"","access":null,"foot":null,"oneway":null,"nf_road_id":"648-0"},"geometry":{"type":"LineString","coordinates":[[79.8660832,6.8324676],[79.8661038,6.8322292],[79.8661101,6.8321562]]}},{"type":"Feature","properties":{"osm_id":589745466,"highway":"residential","name":"","access":null,"foot":null,"oneway":null,"nf_road_id":"649-0"},"geometry":{"type":"LineString","coordinates":[[79.8656153,6.8324416],[79.8655723,6.8329738],[79.8655777,6.8329991],[79.8655911,6.8330104],[79.8656112,6.8330191],[79.8659156,6.8330324]]}},{"type":"Feature","properties":{"osm_id":609390205,"highway":"residential","name":"","access":null,"foot":null,"oneway":null,"nf_road_id":"656-0"},"geometry":{"type":"LineString","coordinates":[[79.8652746,6.8352143],[79.8652929,6.8351224],[79.8653497,6.835044]]}},{"type":"Feature","properties":{"osm_id":610241584,"highway":"service","name":"","access":null,"foot":null,"oneway":null,"nf_road_id":"659-0"},"geometry":{"type":"LineString","coordinates":[[79.8635583,6.8423899],[79.8636155,6.8419082]]}},{"type":"Feature","properties":{"osm_id":610541474,"highway":"residential","name":"","access":null,"foot":null,"oneway":null,"nf_road_id":"660-0"},"geometry":{"type":"LineString","coordinates":[[79.8629198,6.8461231],[79.8629022,6.846609],[79.8629202,6.8466342]]}},{"type":"Feature","properties":{"osm_id":610541475,"highway":"residential","name":"","access":null,"foot":null,"oneway":null,"nf_road_id":"661-0"},"geometry":{"type":"LineString","coordinates":[[79.8630493,6.8450364],[79.8630866,6.8450238],[79.8636347,6.8450299]]}},{"type":"Feature","properties":{"osm_id":610541476,"highway":"residential","name":"","access":null,"foot":null,"oneway":null,"nf_road_id":"662-0"},"geometry":{"type":"LineString","coordinates":[[79.8629198,6.8461231],[79.8630382,6.8456426],[79.8630527,6.8453395],[79.8630344,6.845066],[79.8630493,6.8450364]]}},{"type":"Feature","properties":{"osm_id":610541477,"highway":"residential","name":"","access":null,"foot":null,"oneway":null,"nf_road_id":"663-0"},"geometry":{"type":"LineString","coordinates":[[79.8648091,6.8462917],[79.8640929,6.8462249],[79.8636813,6.8461709],[79.8636057,6.8461587],[79.8629198,6.8461231]]}},{"type":"Feature","properties":{"osm_id":610541478,"highway":"residential","name":"","access":null,"foot":null,"oneway":null,"nf_road_id":"664-0"},"geometry":{"type":"LineString","coordinates":[[79.8640266,6.8449155],[79.8640278,6.8447527],[79.8640583,6.844385]]}},{"type":"Feature","properties":{"osm_id":610541479,"highway":"residential","name":"","access":null,"foot":null,"oneway":null,"nf_road_id":"665-0"},"geometry":{"type":"LineString","coordinates":[[79.8640278,6.8447527],[79.8642875,6.8447568],[79.8643146,6.8447852],[79.8643149,6.8448954],[79.8643202,6.8449176],[79.8643374,6.8449276],[79.8643572,6.8449309],[79.8648709,6.8449233],[79.8649042,6.8449392]]}},{"type":"Feature","properties":{"osm_id":610541480,"highway":"service","name":"","access":null,"foot":null,"oneway":null,"nf_road_id":"666-0"},"geometry":{"type":"LineString","coordinates":[[79.8657024,6.8455185],[79.8657196,6.8455259],[79.8661988,6.8455321]]}},{"type":"Feature","properties":{"osm_id":610541481,"highway":"service","name":"","access":null,"foot":null,"oneway":null,"nf_road_id":"667-0"},"geometry":{"type":"LineString","coordinates":[[79.8656236,6.8454278],[79.8656527,6.84547],[79.8657024,6.8455185]]}},{"type":"Feature","properties":{"osm_id":610541482,"highway":"service","name":"","access":null,"foot":null,"oneway":null,"nf_road_id":"668-0"},"geometry":{"type":"LineString","coordinates":[[79.8651327,6.8453601],[79.8651519,6.8453707],[79.8656051,6.8453438],[79.8659541,6.8453272],[79.8662176,6.8453306]]}},{"type":"Feature","properties":{"osm_id":610541483,"highway":"service","name":"","access":null,"foot":null,"oneway":null,"nf_road_id":"669-0"},"geometry":{"type":"LineString","coordinates":[[79.8651657,6.8444576],[79.8651549,6.8447662],[79.8651487,6.8449438],[79.8651259,6.8453332],[79.8651327,6.8453601]]}},{"type":"Feature","properties":{"osm_id":610544137,"highway":"residential","name":"","access":null,"foot":null,"oneway":null,"nf_road_id":"672-0"},"geometry":{"type":"LineString","coordinates":[[79.8663799,6.8436448],[79.865649,6.8435889]]}},{"type":"Feature","properties":{"osm_id":610544391,"highway":"residential","name":"","access":null,"foot":null,"oneway":null,"nf_road_id":"673-0"},"geometry":{"type":"LineString","coordinates":[[79.8668215,6.8420649],[79.8666962,6.8420476],[79.8664023,6.8420071],[79.8656965,6.8419543]]}},{"type":"Feature","properties":{"osm_id":674475978,"highway":"residential","name":"","access":null,"foot":null,"oneway":null,"nf_road_id":"676-0"},"geometry":{"type":"LineString","coordinates":[[79.8630598,6.8473122],[79.8638154,6.8474266]]}},{"type":"Feature","properties":{"osm_id":687500136,"highway":"tertiary","name":"Hotel Road","access":null,"foot":null,"oneway":"yes","nf_road_id":"682-0"},"geometry":{"type":"LineString","coordinates":[[79.8669483,6.8412825],[79.8669503,6.8416541]]}},{"type":"Feature","properties":{"osm_id":687500142,"highway":"tertiary","name":"Hotel Road","access":null,"foot":null,"oneway":null,"nf_road_id":"683-0"},"geometry":{"type":"LineString","coordinates":[[79.8669483,6.8412825],[79.8669321,6.8411375],[79.8669325,6.841027],[79.8669272,6.8406872],[79.8669098,6.8402868],[79.8668829,6.8398747],[79.8667817,6.8393333],[79.8666888,6.8388997],[79.8665118,6.8381607],[79.8663705,6.8375909],[79.8662449,6.8369426],[79.8662312,6.8368722],[79.8659628,6.8358861],[79.8659155,6.8357641],[79.8658824,6.835679],[79.8657928,6.8354582],[79.8657208,6.8352708]]}},{"type":"Feature","properties":{"osm_id":963694988,"highway":"residential","name":"","access":null,"foot":null,"oneway":null,"nf_road_id":"717-0"},"geometry":{"type":"LineString","coordinates":[[79.8645998,6.830963],[79.8646211,6.8309781],[79.8646272,6.8310077],[79.8647396,6.8314643]]}},{"type":"Feature","properties":{"osm_id":963694989,"highway":"residential","name":"","access":null,"foot":null,"oneway":null,"nf_road_id":"718-0"},"geometry":{"type":"LineString","coordinates":[[79.8643951,6.8309741],[79.8645998,6.830963]]}},{"type":"Feature","properties":{"osm_id":1075934333,"highway":"service","name":"","access":null,"foot":null,"oneway":null,"nf_road_id":"729-0"},"geometry":{"type":"LineString","coordinates":[[79.865424,6.8441604],[79.8655681,6.8441683],[79.8655919,6.8441774],[79.8656158,6.8441983],[79.865617,6.84431],[79.8656168,6.8444683]]}},{"type":"Feature","properties":{"osm_id":1075934337,"highway":"service","name":"","access":null,"foot":null,"oneway":null,"nf_road_id":"733-0"},"geometry":{"type":"LineString","coordinates":[[79.8666342,6.8422381],[79.8666962,6.8420476]]}},{"type":"Feature","properties":{"osm_id":1075934338,"highway":"service","name":"","access":null,"foot":null,"oneway":null,"nf_road_id":"734-0"},"geometry":{"type":"LineString","coordinates":[[79.8663725,6.8422158],[79.8664023,6.8420071]]}},{"type":"Feature","properties":{"osm_id":1095303373,"highway":"living_street","name":"","access":null,"foot":null,"oneway":null,"nf_road_id":"756-0"},"geometry":{"type":"LineString","coordinates":[[79.8656123,6.8299122],[79.8656362,6.8299538],[79.8656775,6.8302206]]}},{"type":"Feature","properties":{"osm_id":1104877250,"highway":"residential","name":"","access":null,"foot":null,"oneway":null,"nf_road_id":"770-0"},"geometry":{"type":"LineString","coordinates":[[79.8642949,6.8331145],[79.8647341,6.8331429]]}},{"type":"Feature","properties":{"osm_id":1105724008,"highway":"service","name":"","access":null,"foot":null,"oneway":null,"nf_road_id":"774-0"},"geometry":{"type":"LineString","coordinates":[[79.8639093,6.835344],[79.8639451,6.8350643]]}},{"type":"Feature","properties":{"osm_id":1105724009,"highway":"service","name":"","access":null,"foot":null,"oneway":null,"nf_road_id":"775-0"},"geometry":{"type":"LineString","coordinates":[[79.8649701,6.8353174],[79.865243,6.8354107]]}},{"type":"Feature","properties":{"osm_id":1123505273,"highway":"service","name":"","access":null,"foot":null,"oneway":null,"nf_road_id":"786-0"},"geometry":{"type":"LineString","coordinates":[[79.8657788,6.8448088],[79.8651549,6.8447662]]}},{"type":"Feature","properties":{"osm_id":1123505274,"highway":"service","name":"","access":null,"foot":null,"oneway":null,"nf_road_id":"787-0"},"geometry":{"type":"LineString","coordinates":[[79.8633796,6.8418407],[79.8635834,6.841862],[79.8636155,6.8419082]]}},{"type":"Feature","properties":{"osm_id":1184390888,"highway":"residential","name":"","access":null,"foot":null,"oneway":null,"nf_road_id":"811-0"},"geometry":{"type":"LineString","coordinates":[[79.8633662,6.8398541],[79.863904,6.8399326],[79.8639777,6.8399526],[79.8640005,6.8399746],[79.8640092,6.8400092],[79.8640019,6.8401044],[79.8640139,6.840125],[79.8640394,6.8401363],[79.864636,6.840202]]}},{"type":"Feature","properties":{"osm_id":1201003164,"highway":"tertiary","name":"","access":null,"foot":null,"oneway":null,"nf_road_id":"812-0"},"geometry":{"type":"LineString","coordinates":[[79.8671242,6.8413361],[79.86704,6.8413086]]}},{"type":"Feature","properties":{"osm_id":1245413693,"highway":"living_street","name":"","access":null,"foot":null,"oneway":null,"nf_road_id":"852-0"},"geometry":{"type":"LineString","coordinates":[[79.8639229,6.8385186],[79.8638181,6.8392256],[79.8638195,6.8392575],[79.8638315,6.8392848],[79.8638666,6.8393137]]}},{"type":"Feature","properties":{"osm_id":1344525778,"highway":"residential","name":"","access":null,"foot":null,"oneway":null,"nf_road_id":"901-0"},"geometry":{"type":"LineString","coordinates":[[79.8656102,6.8426333],[79.8656447,6.8422109]]}},{"type":"Feature","properties":{"osm_id":1498946138,"highway":"service","name":"","access":null,"foot":null,"oneway":null,"nf_road_id":"938-0"},"geometry":{"type":"LineString","coordinates":[[79.8673337,6.8360769],[79.8669831,6.8361377],[79.8669469,6.836159],[79.866951,6.8362082],[79.8669858,6.8362402],[79.8671629,6.8362402],[79.8673383,6.8362241]]}},{"type":"Feature","properties":{"osm_id":1498946140,"highway":"service","name":"","access":null,"foot":null,"oneway":null,"nf_road_id":"940-0"},"geometry":{"type":"LineString","coordinates":[[79.8649194,6.8380277],[79.8651794,6.8380631],[79.8656555,6.8381363],[79.8659357,6.838167],[79.8660363,6.8381883]]}},{"type":"Feature","properties":{"osm_id":1498946141,"highway":"residential","name":"","access":null,"foot":null,"oneway":null,"nf_road_id":"941-0"},"geometry":{"type":"LineString","coordinates":[[79.8667546,6.8351135],[79.8667672,6.8351496],[79.8667806,6.8352562],[79.8667753,6.8352908],[79.866727,6.8353241],[79.8667109,6.8353627],[79.8667149,6.8355664]]}},{"type":"Feature","properties":{"osm_id":1498946142,"highway":"residential","name":"","access":null,"foot":null,"oneway":null,"nf_road_id":"942-0"},"geometry":{"type":"LineString","coordinates":[[79.8663071,6.835199],[79.8663528,6.8355225],[79.8663662,6.8356064]]}},{"type":"Feature","properties":{"osm_id":1498946146,"highway":"residential","name":"","access":null,"foot":null,"oneway":null,"nf_road_id":"946-0"},"geometry":{"type":"LineString","coordinates":[[79.8667817,6.8393333],[79.8660216,6.8392202]]}},{"type":"Feature","properties":{"osm_id":1498946147,"highway":"residential","name":"","access":null,"foot":null,"oneway":null,"nf_road_id":"947-0"},"geometry":{"type":"LineString","coordinates":[[79.8647796,6.8390924],[79.8650533,6.8391177],[79.8651016,6.8391257],[79.8651163,6.8391403],[79.8651136,6.8392828],[79.8650935,6.839396],[79.8651002,6.8394413],[79.8651566,6.8394652]]}}]}