{"type": "FeatureCollection", "name": "topology_edges", "crs": {"type": "name", "properties": {"name": "urn:ogc:def:crs:OGC:1.3:CRS84"}}, "features": [{"type": "Feature", "properties": {"edge_id": 1, "u": 1, "v": 3, "length_m": 63.407, "both_inside_gn": true}, "geometry": {"type": "LineString", "coordinates": [[79.86201640564084, 6.833173274884289], [79.86258234426984, 6.833235710285416]]}}, {"type": "Feature", "properties": {"edge_id": 2, "u": 3, "v": 8, "length_m": 136.138, "both_inside_gn": true}, "geometry": {"type": "LineString", "coordinates": [[79.86258234426984, 6.833235710285416], [79.8637950699034, 6.83337841974309]]}}, {"type": "Feature", "properties": {"edge_id": 3, "u": 3, "v": 10, "length_m": 356.058, "both_inside_gn": true}, "geometry": {"type": "LineString", "coordinates": [[79.86258234426984, 6.833235710285416], [79.86374117098636, 6.831576709714479]]}}, {"type": "Feature", "properties": {"edge_id": 4, "u": 4, "v": 7, "length_m": 381.326, "both_inside_gn": false}, "geometry": {"type": "LineString", "coordinates": [[79.86255539481132, 6.849102956988517], [79.86596000973813, 6.849397285419036]]}}, {"type": "Feature", "properties": {"edge_id": 5, "u": 7, "v": 390, "length_m": 9.0, "both_inside_gn": false}, "geometry": {"type": "LineString", "coordinates": [[79.86596000973813, 6.849397285419036], [79.86596000973813, 6.849477556777658]]}}, {"type": "Feature", "properties": {"edge_id": 6, "u": 7, "v": 344, "length_m": 74.008, "both_inside_gn": true}, "geometry": {"type": "LineString", "coordinates": [[79.86596000973813, 6.849397285419036], [79.86596899289097, 6.848737275958227]]}}, {"type": "Feature", "properties": {"edge_id": 7, "u": 8, "v": 153, "length_m": 49.82, "both_inside_gn": true}, "geometry": {"type": "LineString", "coordinates": [[79.8637950699034, 6.83337841974309], [79.86423524439262, 6.833458693794314]]}}, {"type": "Feature", "properties": {"edge_id": 8, "u": 8, "v": 66, "length_m": 185.541, "both_inside_gn": true}, "geometry": {"type": "LineString", "coordinates": [[79.8637950699034, 6.83337841974309], [79.86366930576362, 6.835028494753662]]}}, {"type": "Feature", "properties": {"edge_id": 9, "u": 10, "v": 128, "length_m": 120.592, "both_inside_gn": true}, "geometry": {"type": "LineString", "coordinates": [[79.86374117098636, 6.831576709714479], [79.86365133945795, 6.8305063837113105]]}}, {"type": "Feature", "properties": {"edge_id": 10, "u": 10, "v": 144, "length_m": 74.077, "both_inside_gn": true}, "geometry": {"type": "LineString", "coordinates": [[79.86374117098636, 6.831576709714479], [79.8643610085324, 6.831656984068158]]}}, {"type": "Feature", "properties": {"edge_id": 11, "u": 28, "v": 29, "length_m": 154.175, "both_inside_gn": true}, "geometry": {"type": "LineString", "coordinates": [[79.86268115895109, 6.848469704295054], [79.8640555813358, 6.848639166365822]]}}, {"type": "Feature", "properties": {"edge_id": 12, "u": 29, "v": 189, "length_m": 19.235, "both_inside_gn": true}, "geometry": {"type": "LineString", "coordinates": [[79.8640555813358, 6.848639166365822], [79.86422626123978, 6.8486659235293885]]}}, {"type": "Feature", "properties": {"edge_id": 13, "u": 29, "v": 117, "length_m": 72.111, "both_inside_gn": true}, "geometry": {"type": "LineString", "coordinates": [[79.8640555813358, 6.848639166365822], [79.86409151394717, 6.847996993990023]]}}, {"type": "Feature", "properties": {"edge_id": 14, "u": 29, "v": 40, "length_m": 151.554, "both_inside_gn": true}, "geometry": {"type": "LineString", "coordinates": [[79.8640555813358, 6.848639166365822], [79.86290573777212, 6.84875511406377]]}}, {"type": "Feature", "properties": {"edge_id": 15, "u": 30, "v": 31, "length_m": 86.145, "both_inside_gn": false}, "geometry": {"type": "LineString", "coordinates": [[79.86347167640112, 6.84966485656191], [79.86270810840963, 6.849539990047248]]}}, {"type": "Feature", "properties": {"edge_id": 16, "u": 30, "v": 104, "length_m": 25.298, "both_inside_gn": false}, "geometry": {"type": "LineString", "coordinates": [[79.86347167640112, 6.84966485656191], [79.8633998111784, 6.849878913368137]]}}, {"type": "Feature", "properties": {"edge_id": 17, "u": 30, "v": 112, "length_m": 143.758, "both_inside_gn": false}, "geometry": {"type": "LineString", "coordinates": [[79.86347167640112, 6.84966485656191], [79.86474728410457, 6.849852156272614]]}}, {"type": "Feature", "properties": {"edge_id": 18, "u": 32, "v": 35, "length_m": 130.136, "both_inside_gn": true}, "geometry": {"type": "LineString", "coordinates": [[79.86286082200793, 6.83382438652378], [79.86304946821758, 6.8349482209660275]]}}, {"type": "Feature", "properties": {"edge_id": 19, "u": 35, "v": 36, "length_m": 17.263, "both_inside_gn": true}, "geometry": {"type": "LineString", "coordinates": [[79.86304946821758, 6.8349482209660275], [79.86289675461929, 6.8349214630338215]]}}, {"type": "Feature", "properties": {"edge_id": 20, "u": 35, "v": 66, "length_m": 69.587, "both_inside_gn": true}, "geometry": {"type": "LineString", "coordinates": [[79.86304946821758, 6.8349482209660275], [79.86366930576362, 6.835028494753662]]}}, {"type": "Feature", "properties": {"edge_id": 21, "u": 37, "v": 38, "length_m": 28.071, "both_inside_gn": true}, "geometry": {"type": "LineString", "coordinates": [[79.86289675461929, 6.844304486057538], [79.86314828289883, 6.8443223243287825]]}}, {"type": "Feature", "properties": {"edge_id": 22, "u": 38, "v": 74, "length_m": 28.071, "both_inside_gn": true}, "geometry": {"type": "LineString", "coordinates": [[79.86314828289883, 6.8443223243287825], [79.8633998111784, 6.84434016259936]]}}, {"type": "Feature", "properties": {"edge_id": 23, "u": 38, "v": 41, "length_m": 82.219, "both_inside_gn": true}, "geometry": {"type": "LineString", "coordinates": [[79.86314828289883, 6.8443223243287825], [79.86320218181588, 6.843590954661193]]}}, {"type": "Feature", "properties": {"edge_id": 24, "u": 41, "v": 42, "length_m": 32.0, "both_inside_gn": true}, "geometry": {"type": "LineString", "coordinates": [[79.86320218181588, 6.843590954661193], [79.86291472092498, 6.843590954661193]]}}, {"type": "Feature", "properties": {"edge_id": 25, "u": 41, "v": 80, "length_m": 135.237, "both_inside_gn": true}, "geometry": {"type": "LineString", "coordinates": [[79.86320218181588, 6.843590954661193], [79.86441490744946, 6.84366230784882]]}}, {"type": "Feature", "properties": {"edge_id": 26, "u": 43, "v": 44, "length_m": 76.105, "both_inside_gn": true}, "geometry": {"type": "LineString", "coordinates": [[79.86360642369374, 6.846159662696297], [79.86292370407782, 6.84612398629048]]}}, {"type": "Feature", "properties": {"edge_id": 27, "u": 43, "v": 120, "length_m": 52.086, "both_inside_gn": true}, "geometry": {"type": "LineString", "coordinates": [[79.86360642369374, 6.846159662696297], [79.86363337315227, 6.84569586921264]]}}, {"type": "Feature", "properties": {"edge_id": 28, "u": 43, "v": 78, "length_m": 66.513, "both_inside_gn": true}, "geometry": {"type": "LineString", "coordinates": [[79.86360642369374, 6.846159662696297], [79.86353455847102, 6.846748323007217]]}}, {"type": "Feature", "properties": {"edge_id": 29, "u": 43, "v": 118, "length_m": 54.452, "both_inside_gn": true}, "geometry": {"type": "LineString", "coordinates": [[79.86360642369374, 6.846159662696297], [79.86409151394717, 6.846222096400061]]}}, {"type": "Feature", "properties": {"edge_id": 30, "u": 44, "v": 48, "length_m": 82.832, "both_inside_gn": true}, "geometry": {"type": "LineString", "coordinates": [[79.86292370407782, 6.84612398629048], [79.863139299746, 6.846685889372301]]}}, {"type": "Feature", "properties": {"edge_id": 31, "u": 44, "v": 50, "length_m": 89.557, "both_inside_gn": true}, "geometry": {"type": "LineString", "coordinates": [[79.86292370407782, 6.84612398629048], [79.86304946821758, 6.845339104687746]]}}, {"type": "Feature", "properties": {"edge_id": 32, "u": 48, "v": 59, "length_m": 70.576, "both_inside_gn": true}, "geometry": {"type": "LineString", "coordinates": [[79.863139299746, 6.846685889372301], [79.86305845137042, 6.847310225353863]]}}, {"type": "Feature", "properties": {"edge_id": 33, "u": 48, "v": 78, "length_m": 44.553, "both_inside_gn": true}, "geometry": {"type": "LineString", "coordinates": [[79.863139299746, 6.846685889372301], [79.86353455847102, 6.846748323007217]]}}, {"type": "Feature", "properties": {"edge_id": 34, "u": 50, "v": 60, "length_m": 65.0, "both_inside_gn": true}, "geometry": {"type": "LineString", "coordinates": [[79.86304946821758, 6.845339104687746], [79.86363337315227, 6.845339104687746]]}}, {"type": "Feature", "properties": {"edge_id": 35, "u": 50, "v": 64, "length_m": 99.793, "both_inside_gn": true}, "geometry": {"type": "LineString", "coordinates": [[79.86304946821758, 6.845339104687746], [79.86363337315227, 6.845026935509703]]}}, {"type": "Feature", "properties": {"edge_id": 36, "u": 51, "v": 53, "length_m": 99.511, "both_inside_gn": true}, "geometry": {"type": "LineString", "coordinates": [[79.86292370407782, 6.847658069332086], [79.86357049108237, 6.84795239865405]]}}, {"type": "Feature", "properties": {"edge_id": 37, "u": 53, "v": 77, "length_m": 51.352, "both_inside_gn": true}, "geometry": {"type": "LineString", "coordinates": [[79.86357049108237, 6.84795239865405], [79.86311235028748, 6.847898884245379]]}}, {"type": "Feature", "properties": {"edge_id": 38, "u": 53, "v": 117, "length_m": 58.215, "both_inside_gn": true}, "geometry": {"type": "LineString", "coordinates": [[79.86357049108237, 6.84795239865405], [79.86409151394717, 6.847996993990023]]}}, {"type": "Feature", "properties": {"edge_id": 39, "u": 54, "v": 55, "length_m": 64.382, "both_inside_gn": true}, "geometry": {"type": "LineString", "coordinates": [[79.8629865861477, 6.8423244338063], [79.86356150792953, 6.842386868011674]]}}, {"type": "Feature", "properties": {"edge_id": 40, "u": 55, "v": 99, "length_m": 82.826, "both_inside_gn": true}, "geometry": {"type": "LineString", "coordinates": [[79.86356150792953, 6.842386868011674], [79.86338184487272, 6.841842798233315]]}}, {"type": "Feature", "properties": {"edge_id": 41, "u": 55, "v": 116, "length_m": 66.483, "both_inside_gn": true}, "geometry": {"type": "LineString", "coordinates": [[79.86356150792953, 6.842386868011674], [79.86415439601706, 6.842458221379249]]}}, {"type": "Feature", "properties": {"edge_id": 42, "u": 56, "v": 57, "length_m": 161.009, "both_inside_gn": true}, "geometry": {"type": "LineString", "coordinates": [[79.8630315019119, 6.841548465144014], [79.8644688063665, 6.84170901048794]]}}, {"type": "Feature", "properties": {"edge_id": 43, "u": 57, "v": 218, "length_m": 36.056, "both_inside_gn": true}, "geometry": {"type": "LineString", "coordinates": [[79.8644688063665, 6.84170901048794], [79.86448677267218, 6.841387919746116]]}}, {"type": "Feature", "properties": {"edge_id": 44, "u": 57, "v": 116, "length_m": 104.097, "both_inside_gn": true}, "geometry": {"type": "LineString", "coordinates": [[79.8644688063665, 6.84170901048794], [79.86415439601706, 6.842458221379249]]}}, {"type": "Feature", "properties": {"edge_id": 45, "u": 58, "v": 59, "length_m": 21.213, "both_inside_gn": true}, "geometry": {"type": "LineString", "coordinates": [[79.8630315019119, 6.847497525989033], [79.86305845137042, 6.847310225353863]]}}, {"type": "Feature", "properties": {"edge_id": 46, "u": 59, "v": 69, "length_m": 85.0, "both_inside_gn": true}, "geometry": {"type": "LineString", "coordinates": [[79.86305845137042, 6.847310225353863], [79.86381303620908, 6.847426173374781]]}}, {"type": "Feature", "properties": {"edge_id": 47, "u": 60, "v": 120, "length_m": 40.0, "both_inside_gn": true}, "geometry": {"type": "LineString", "coordinates": [[79.86363337315227, 6.845339104687746], [79.86363337315227, 6.84569586921264]]}}, {"type": "Feature", "properties": {"edge_id": 48, "u": 60, "v": 123, "length_m": 11.0, "both_inside_gn": true}, "geometry": {"type": "LineString", "coordinates": [[79.86363337315227, 6.845339104687746], [79.86363337315227, 6.845240994396647]]}}, {"type": "Feature", "properties": {"edge_id": 49, "u": 64, "v": 123, "length_m": 24.0, "both_inside_gn": true}, "geometry": {"type": "LineString", "coordinates": [[79.86363337315227, 6.845026935509703], [79.86363337315227, 6.845240994396647]]}}, {"type": "Feature", "properties": {"edge_id": 50, "u": 64, "v": 126, "length_m": 46.781, "both_inside_gn": true}, "geometry": {"type": "LineString", "coordinates": [[79.86363337315227, 6.845026935509703], [79.86402863187728, 6.844919906030232]]}}, {"type": "Feature", "properties": {"edge_id": 51, "u": 66, "v": 137, "length_m": 31.257, "both_inside_gn": true}, "geometry": {"type": "LineString", "coordinates": [[79.86366930576362, 6.835028494753662], [79.86394778350171, 6.835064171988283]]}}, {"type": "Feature", "properties": {"edge_id": 52, "u": 67, "v": 68, "length_m": 381.473, "both_inside_gn": true}, "geometry": {"type": "LineString", "coordinates": [[79.86305845137042, 6.843002290456372], [79.86648103260292, 6.843171754468521]]}}, {"type": "Feature", "properties": {"edge_id": 53, "u": 68, "v": 353, "length_m": 48.765, "both_inside_gn": true}, "geometry": {"type": "LineString", "coordinates": [[79.86648103260292, 6.843171754468521], [79.86659781358985, 6.842752553907781]]}}, {"type": "Feature", "properties": {"edge_id": 54, "u": 68, "v": 372, "length_m": 54.329, "both_inside_gn": true}, "geometry": {"type": "LineString", "coordinates": [[79.86648103260292, 6.843171754468521], [79.86638221792167, 6.843644469552912]]}}, {"type": "Feature", "properties": {"edge_id": 55, "u": 70, "v": 74, "length_m": 67.222, "both_inside_gn": true}, "geometry": {"type": "LineString", "coordinates": [[79.86309438398179, 6.844688008742378], [79.8633998111784, 6.84434016259936]]}}, {"type": "Feature", "properties": {"edge_id": 56, "u": 74, "v": 105, "length_m": 43.105, "both_inside_gn": true}, "geometry": {"type": "LineString", "coordinates": [[79.8633998111784, 6.84434016259936], [79.86378608675057, 6.844366920003975]]}}, {"type": "Feature", "properties": {"edge_id": 57, "u": 75, "v": 76, "length_m": 157.715, "both_inside_gn": true}, "geometry": {"type": "LineString", "coordinates": [[79.86309438398179, 6.841040071198851], [79.86450473897787, 6.8411738591316285]]}}, {"type": "Feature", "properties": {"edge_id": 58, "u": 76, "v": 218, "length_m": 24.083, "both_inside_gn": true}, "geometry": {"type": "LineString", "coordinates": [[79.86450473897787, 6.8411738591316285], [79.86448677267218, 6.841387919746116]]}}, {"type": "Feature", "properties": {"edge_id": 59, "u": 76, "v": 221, "length_m": 12.369, "both_inside_gn": true}, "geometry": {"type": "LineString", "coordinates": [[79.86450473897787, 6.8411738591316285], [79.86453168843639, 6.8410668287884056]]}}, {"type": "Feature", "properties": {"edge_id": 60, "u": 78, "v": 113, "length_m": 56.321, "both_inside_gn": true}, "geometry": {"type": "LineString", "coordinates": [[79.86353455847102, 6.846748323007217], [79.86403761503013, 6.8468018375449295]]}}, {"type": "Feature", "properties": {"edge_id": 61, "u": 80, "v": 217, "length_m": 90.139, "both_inside_gn": true}, "geometry": {"type": "LineString", "coordinates": [[79.86441490744946, 6.84366230784882], [79.86522339120516, 6.84370690358567]]}}, {"type": "Feature", "properties": {"edge_id": 62, "u": 80, "v": 188, "length_m": 83.309, "both_inside_gn": true}, "geometry": {"type": "LineString", "coordinates": [[79.86441490744946, 6.84366230784882], [79.86435202537956, 6.844402596541131]]}}, {"type": "Feature", "properties": {"edge_id": 63, "u": 81, "v": 85, "length_m": 62.617, "both_inside_gn": false}, "geometry": {"type": "LineString", "coordinates": [[79.86324709758009, 6.829141714583826], [79.86371422152783, 6.829400377658629]]}}, {"type": "Feature", "properties": {"edge_id": 64, "u": 85, "v": 128, "length_m": 125.475, "both_inside_gn": false}, "geometry": {"type": "LineString", "coordinates": [[79.86371422152783, 6.829400377658629], [79.86365133945795, 6.8305063837113105]]}}, {"type": "Feature", "properties": {"edge_id": 65, "u": 85, "v": 141, "length_m": 69.463, "both_inside_gn": false}, "geometry": {"type": "LineString", "coordinates": [[79.86371422152783, 6.829400377658629], [79.86424422754547, 6.8296322823654165]]}}, {"type": "Feature", "properties": {"edge_id": 66, "u": 85, "v": 142, "length_m": 78.561, "both_inside_gn": false}, "geometry": {"type": "LineString", "coordinates": [[79.86371422152783, 6.829400377658629], [79.86392083404318, 6.828731421143845]]}}, {"type": "Feature", "properties": {"edge_id": 67, "u": 86, "v": 87, "length_m": 147.363, "both_inside_gn": true}, "geometry": {"type": "LineString", "coordinates": [[79.8632920133443, 6.8402730196608665], [79.86460355365912, 6.840451403849396]]}}, {"type": "Feature", "properties": {"edge_id": 68, "u": 87, "v": 103, "length_m": 29.069, "both_inside_gn": true}, "geometry": {"type": "LineString", "coordinates": [[79.86460355365912, 6.840451403849396], [79.86458558735343, 6.840710060804428]]}}, {"type": "Feature", "properties": {"edge_id": 69, "u": 87, "v": 98, "length_m": 28.284, "both_inside_gn": true}, "geometry": {"type": "LineString", "coordinates": [[79.86460355365912, 6.840451403849396], [79.86463948627048, 6.840201665966799]]}}, {"type": "Feature", "properties": {"edge_id": 70, "u": 88, "v": 89, "length_m": 201.318, "both_inside_gn": true}, "geometry": {"type": "LineString", "coordinates": [[79.86334591226135, 6.835813393300189], [79.86514254282959, 6.836018537026024]]}}, {"type": "Feature", "properties": {"edge_id": 71, "u": 89, "v": 299, "length_m": 68.884, "both_inside_gn": true}, "geometry": {"type": "LineString", "coordinates": [[79.86514254282959, 6.836018537026024], [79.86524135751084, 6.835412024886288]]}}, {"type": "Feature", "properties": {"edge_id": 72, "u": 89, "v": 282, "length_m": 226.428, "both_inside_gn": true}, "geometry": {"type": "LineString", "coordinates": [[79.86514254282959, 6.836018537026024], [79.86491796400855, 6.8380253731778495]]}}, {"type": "Feature", "properties": {"edge_id": 73, "u": 90, "v": 98, "length_m": 160.574, "both_inside_gn": true}, "geometry": {"type": "LineString", "coordinates": [[79.86336387856703, 6.839853816555584], [79.86463948627048, 6.840201665966799]]}}, {"type": "Feature", "properties": {"edge_id": 74, "u": 98, "v": 231, "length_m": 18.111, "both_inside_gn": true}, "geometry": {"type": "LineString", "coordinates": [[79.86463948627048, 6.840201665966799], [79.86465745257617, 6.840041120116177]]}}, {"type": "Feature", "properties": {"edge_id": 75, "u": 102, "v": 103, "length_m": 135.34, "both_inside_gn": true}, "geometry": {"type": "LineString", "coordinates": [[79.86338184487272, 6.840540595918678], [79.86458558735343, 6.840710060804428]]}}, {"type": "Feature", "properties": {"edge_id": 76, "u": 103, "v": 221, "length_m": 40.447, "both_inside_gn": true}, "geometry": {"type": "LineString", "coordinates": [[79.86458558735343, 6.840710060804428], [79.86453168843639, 6.8410668287884056]]}}, {"type": "Feature", "properties": {"edge_id": 77, "u": 103, "v": 228, "length_m": 263.471, "both_inside_gn": true}, "geometry": {"type": "LineString", "coordinates": [[79.86458558735343, 6.840710060804428], [79.86693019024499, 6.8410311520019995]]}}, {"type": "Feature", "properties": {"edge_id": 78, "u": 105, "v": 150, "length_m": 15.033, "both_inside_gn": true}, "geometry": {"type": "LineString", "coordinates": [[79.86378608675057, 6.844366920003975], [79.86392083404318, 6.844375839138514]]}}, {"type": "Feature", "properties": {"edge_id": 79, "u": 105, "v": 152, "length_m": 36.126, "both_inside_gn": true}, "geometry": {"type": "LineString", "coordinates": [[79.86378608675057, 6.844366920003975], [79.86375913729204, 6.844688008742378]]}}, {"type": "Feature", "properties": {"edge_id": 80, "u": 106, "v": 107, "length_m": 54.452, "both_inside_gn": true}, "geometry": {"type": "LineString", "coordinates": [[79.86343574378976, 6.838453497132754], [79.86392083404318, 6.8385159318441255]]}}, {"type": "Feature", "properties": {"edge_id": 81, "u": 107, "v": 156, "length_m": 102.956, "both_inside_gn": true}, "geometry": {"type": "LineString", "coordinates": [[79.86392083404318, 6.8385159318441255], [79.86483711563298, 6.8386408012423905]]}}, {"type": "Feature", "properties": {"edge_id": 82, "u": 107, "v": 164, "length_m": 193.521, "both_inside_gn": true}, "geometry": {"type": "LineString", "coordinates": [[79.86392083404318, 6.8385159318441255], [79.86476525041026, 6.839309743891629]]}}, {"type": "Feature", "properties": {"edge_id": 83, "u": 108, "v": 109, "length_m": 139.043, "both_inside_gn": true}, "geometry": {"type": "LineString", "coordinates": [[79.86346269324828, 6.839639755253543], [79.86470236834036, 6.839791382019064]]}}, {"type": "Feature", "properties": {"edge_id": 84, "u": 109, "v": 164, "length_m": 54.452, "both_inside_gn": true}, "geometry": {"type": "LineString", "coordinates": [[79.86470236834036, 6.839791382019064], [79.86476525041026, 6.839309743891629]]}}, {"type": "Feature", "properties": {"edge_id": 85, "u": 109, "v": 231, "length_m": 28.455, "both_inside_gn": true}, "geometry": {"type": "LineString", "coordinates": [[79.86470236834036, 6.839791382019064], [79.86465745257617, 6.840041120116177]]}}, {"type": "Feature", "properties": {"edge_id": 86, "u": 113, "v": 186, "length_m": 63.388, "both_inside_gn": true}, "geometry": {"type": "LineString", "coordinates": [[79.86403761503013, 6.8468018375449295], [79.86460355365912, 6.846864271164674]]}}, {"type": "Feature", "properties": {"edge_id": 87, "u": 113, "v": 118, "length_m": 65.284, "both_inside_gn": true}, "geometry": {"type": "LineString", "coordinates": [[79.86403761503013, 6.8468018375449295], [79.86409151394717, 6.846222096400061]]}}, {"type": "Feature", "properties": {"edge_id": 88, "u": 116, "v": 193, "length_m": 69.462, "both_inside_gn": true}, "geometry": {"type": "LineString", "coordinates": [[79.86415439601706, 6.842458221379249], [79.8647742335631, 6.842529574736159]]}}, {"type": "Feature", "properties": {"edge_id": 89, "u": 117, "v": 191, "length_m": 72.111, "both_inside_gn": true}, "geometry": {"type": "LineString", "coordinates": [[79.86409151394717, 6.847996993990023], [79.86473830095173, 6.848032670255799]]}}, {"type": "Feature", "properties": {"edge_id": 90, "u": 118, "v": 192, "length_m": 80.399, "both_inside_gn": true}, "geometry": {"type": "LineString", "coordinates": [[79.86409151394717, 6.846222096400061], [79.86481016617446, 6.84629344919436]]}}, {"type": "Feature", "properties": {"edge_id": 91, "u": 120, "v": 122, "length_m": 147.123, "both_inside_gn": true}, "geometry": {"type": "LineString", "coordinates": [[79.86363337315227, 6.84569586921264], [79.86495389661992, 6.845749383868371]]}}, {"type": "Feature", "properties": {"edge_id": 92, "u": 122, "v": 181, "length_m": 57.079, "both_inside_gn": true}, "geometry": {"type": "LineString", "coordinates": [[79.86495389661992, 6.845749383868371], [79.8649269471614, 6.845240994396647]]}}, {"type": "Feature", "properties": {"edge_id": 93, "u": 122, "v": 297, "length_m": 188.963, "both_inside_gn": true}, "geometry": {"type": "LineString", "coordinates": [[79.86495389661992, 6.845749383868371], [79.8660857738779, 6.8464272356549145]]}}, {"type": "Feature", "properties": {"edge_id": 94, "u": 123, "v": 127, "length_m": 48.01, "both_inside_gn": true}, "geometry": {"type": "LineString", "coordinates": [[79.86363337315227, 6.845240994396647], [79.86406456448864, 6.8452320752782745]]}}, {"type": "Feature", "properties": {"edge_id": 95, "u": 126, "v": 171, "length_m": 19.0, "both_inside_gn": true}, "geometry": {"type": "LineString", "coordinates": [[79.86402863187728, 6.844919906030232], [79.86402863187728, 6.844750442638652]]}}, {"type": "Feature", "properties": {"edge_id": 96, "u": 126, "v": 127, "length_m": 35.401, "both_inside_gn": true}, "geometry": {"type": "LineString", "coordinates": [[79.86402863187728, 6.844919906030232], [79.86406456448864, 6.8452320752782745]]}}, {"type": "Feature", "properties": {"edge_id": 97, "u": 127, "v": 181, "length_m": 96.031, "both_inside_gn": true}, "geometry": {"type": "LineString", "coordinates": [[79.86406456448864, 6.8452320752782745], [79.8649269471614, 6.845240994396647]]}}, {"type": "Feature", "properties": {"edge_id": 98, "u": 128, "v": 131, "length_m": 169.646, "both_inside_gn": false}, "geometry": {"type": "LineString", "coordinates": [[79.86365133945795, 6.8305063837113105], [79.86505271130117, 6.830105010842642]]}}, {"type": "Feature", "properties": {"edge_id": 99, "u": 131, "v": 301, "length_m": 71.197, "both_inside_gn": false}, "geometry": {"type": "LineString", "coordinates": [[79.86505271130117, 6.830105010842642], [79.86568153200007, 6.830220963039294]]}}, {"type": "Feature", "properties": {"edge_id": 100, "u": 131, "v": 247, "length_m": 149.483, "both_inside_gn": false}, "geometry": {"type": "LineString", "coordinates": [[79.86505271130117, 6.830105010842642], [79.86516050913526, 6.831433999719114]]}}, {"type": "Feature", "properties": {"edge_id": 101, "u": 137, "v": 154, "length_m": 31.257, "both_inside_gn": true}, "geometry": {"type": "LineString", "coordinates": [[79.86394778350171, 6.835064171988283], [79.86391185089035, 6.8353406704663096]]}}, {"type": "Feature", "properties": {"edge_id": 102, "u": 137, "v": 166, "length_m": 148.996, "both_inside_gn": true}, "geometry": {"type": "LineString", "coordinates": [[79.86394778350171, 6.835064171988283], [79.86527729012221, 6.835215800205716]]}}, {"type": "Feature", "properties": {"edge_id": 103, "u": 144, "v": 207, "length_m": 89.62, "both_inside_gn": true}, "geometry": {"type": "LineString", "coordinates": [[79.8643610085324, 6.831656984068158], [79.86468440203468, 6.832388372003242]]}}, {"type": "Feature", "properties": {"edge_id": 104, "u": 144, "v": 212, "length_m": 47.503, "both_inside_gn": true}, "geometry": {"type": "LineString", "coordinates": [[79.8643610085324, 6.831656984068158], [79.86473830095173, 6.8314607578464885]]}}, {"type": "Feature", "properties": {"edge_id": 105, "u": 147, "v": 150, "length_m": 66.902, "both_inside_gn": true}, "geometry": {"type": "LineString", "coordinates": [[79.8637501541392, 6.843983397061162], [79.86392083404318, 6.844375839138514]]}}, {"type": "Feature", "properties": {"edge_id": 106, "u": 150, "v": 155, "length_m": 15.033, "both_inside_gn": true}, "geometry": {"type": "LineString", "coordinates": [[79.86392083404318, 6.844375839138514], [79.8640555813358, 6.844384758272885]]}}, {"type": "Feature", "properties": {"edge_id": 107, "u": 153, "v": 203, "length_m": 39.623, "both_inside_gn": true}, "geometry": {"type": "LineString", "coordinates": [[79.86423524439262, 6.833458693794314], [79.86429812646251, 6.83311083947501]]}}, {"type": "Feature", "properties": {"edge_id": 108, "u": 153, "v": 200, "length_m": 73.758, "both_inside_gn": true}, "geometry": {"type": "LineString", "coordinates": [[79.86423524439262, 6.833458693794314], [79.86474728410457, 6.833868983178969]]}}, {"type": "Feature", "properties": {"edge_id": 109, "u": 155, "v": 171, "length_m": 41.11, "both_inside_gn": true}, "geometry": {"type": "LineString", "coordinates": [[79.8640555813358, 6.844384758272885], [79.86402863187728, 6.844750442638652]]}}, {"type": "Feature", "properties": {"edge_id": 110, "u": 155, "v": 188, "length_m": 33.061, "both_inside_gn": true}, "geometry": {"type": "LineString", "coordinates": [[79.8640555813358, 6.844384758272885], [79.86435202537956, 6.844402596541131]]}}, {"type": "Feature", "properties": {"edge_id": 111, "u": 156, "v": 259, "length_m": 51.352, "both_inside_gn": true}, "geometry": {"type": "LineString", "coordinates": [[79.86483711563298, 6.8386408012423905], [79.86478321671594, 6.839095682345786]]}}, {"type": "Feature", "properties": {"edge_id": 112, "u": 156, "v": 185, "length_m": 60.531, "both_inside_gn": true}, "geometry": {"type": "LineString", "coordinates": [[79.86483711563298, 6.8386408012423905], [79.86490898085572, 6.838105646448616]]}}, {"type": "Feature", "properties": {"edge_id": 113, "u": 156, "v": 275, "length_m": 208.09, "both_inside_gn": true}, "geometry": {"type": "LineString", "coordinates": [[79.86483711563298, 6.8386408012423905], [79.86668764511828, 6.838899459177833]]}}, {"type": "Feature", "properties": {"edge_id": 114, "u": 164, "v": 259, "length_m": 24.083, "both_inside_gn": true}, "geometry": {"type": "LineString", "coordinates": [[79.86476525041026, 6.839309743891629], [79.86478321671594, 6.839095682345786]]}}, {"type": "Feature", "properties": {"edge_id": 115, "u": 166, "v": 299, "length_m": 22.361, "both_inside_gn": true}, "geometry": {"type": "LineString", "coordinates": [[79.86527729012221, 6.835215800205716], [79.86524135751084, 6.835412024886288]]}}, {"type": "Feature", "properties": {"edge_id": 116, "u": 166, "v": 249, "length_m": 21.015, "both_inside_gn": true}, "geometry": {"type": "LineString", "coordinates": [[79.86527729012221, 6.835215800205716], [79.86534915534493, 6.835046333371305]]}}, {"type": "Feature", "properties": {"edge_id": 117, "u": 167, "v": 168, "length_m": 51.039, "both_inside_gn": true}, "geometry": {"type": "LineString", "coordinates": [[79.8644238906023, 6.832406210719391], [79.86396574980739, 6.832388372003242]]}}, {"type": "Feature", "properties": {"edge_id": 118, "u": 167, "v": 203, "length_m": 80.231, "both_inside_gn": true}, "geometry": {"type": "LineString", "coordinates": [[79.8644238906023, 6.832406210719391], [79.86429812646251, 6.83311083947501]]}}, {"type": "Feature", "properties": {"edge_id": 119, "u": 167, "v": 207, "length_m": 29.069, "both_inside_gn": true}, "geometry": {"type": "LineString", "coordinates": [[79.8644238906023, 6.832406210719391], [79.86468440203468, 6.832388372003242]]}}, {"type": "Feature", "properties": {"edge_id": 120, "u": 171, "v": 181, "length_m": 148.409, "both_inside_gn": true}, "geometry": {"type": "LineString", "coordinates": [[79.86402863187728, 6.844750442638652], [79.8649269471614, 6.845240994396647]]}}, {"type": "Feature", "properties": {"edge_id": 121, "u": 182, "v": 185, "length_m": 98.592, "both_inside_gn": true}, "geometry": {"type": "LineString", "coordinates": [[79.86402863187728, 6.8381145657000895], [79.86490898085572, 6.838105646448616]]}}, {"type": "Feature", "properties": {"edge_id": 122, "u": 185, "v": 282, "length_m": 9.055, "both_inside_gn": true}, "geometry": {"type": "LineString", "coordinates": [[79.86490898085572, 6.838105646448616], [79.86491796400855, 6.8380253731778495]]}}, {"type": "Feature", "properties": {"edge_id": 123, "u": 186, "v": 229, "length_m": 48.26, "both_inside_gn": true}, "geometry": {"type": "LineString", "coordinates": [[79.86460355365912, 6.846864271164674], [79.8650347449955, 6.846908866602348]]}}, {"type": "Feature", "properties": {"edge_id": 124, "u": 186, "v": 230, "length_m": 35.228, "both_inside_gn": true}, "geometry": {"type": "LineString", "coordinates": [[79.86460355365912, 6.846864271164674], [79.86463948627048, 6.84655210298426]]}}, {"type": "Feature", "properties": {"edge_id": 125, "u": 188, "v": 205, "length_m": 91.198, "both_inside_gn": true}, "geometry": {"type": "LineString", "coordinates": [[79.86435202537956, 6.844402596541131], [79.86516949228812, 6.844456111341863]]}}, {"type": "Feature", "properties": {"edge_id": 126, "u": 191, "v": 248, "length_m": 137.091, "both_inside_gn": true}, "geometry": {"type": "LineString", "coordinates": [[79.86473830095173, 6.848032670255799], [79.86596899289097, 6.848077265584268]]}}, {"type": "Feature", "properties": {"edge_id": 127, "u": 191, "v": 199, "length_m": 51.352, "both_inside_gn": true}, "geometry": {"type": "LineString", "coordinates": [[79.86473830095173, 6.848032670255799], [79.86479219986877, 6.847577797667313]]}}, {"type": "Feature", "properties": {"edge_id": 128, "u": 193, "v": 260, "length_m": 93.771, "both_inside_gn": true}, "geometry": {"type": "LineString", "coordinates": [[79.8647742335631, 6.842529574736159], [79.86560966677733, 6.842636604751534]]}}, {"type": "Feature", "properties": {"edge_id": 129, "u": 193, "v": 261, "length_m": 48.26, "both_inside_gn": true}, "geometry": {"type": "LineString", "coordinates": [[79.8647742335631, 6.842529574736159], [79.8648191493273, 6.842101454434753]]}}, {"type": "Feature", "properties": {"edge_id": 130, "u": 198, "v": 199, "length_m": 67.602, "both_inside_gn": true}, "geometry": {"type": "LineString", "coordinates": [[79.86419032862842, 6.847497525989033], [79.86479219986877, 6.847577797667313]]}}, {"type": "Feature", "properties": {"edge_id": 131, "u": 199, "v": 229, "length_m": 99.167, "both_inside_gn": true}, "geometry": {"type": "LineString", "coordinates": [[79.86479219986877, 6.847577797667313], [79.8650347449955, 6.846908866602348]]}}, {"type": "Feature", "properties": {"edge_id": 132, "u": 200, "v": 249, "length_m": 149.739, "both_inside_gn": true}, "geometry": {"type": "LineString", "coordinates": [[79.86474728410457, 6.833868983178969], [79.86534915534493, 6.835046333371305]]}}, {"type": "Feature", "properties": {"edge_id": 133, "u": 200, "v": 258, "length_m": 154.416, "both_inside_gn": true}, "geometry": {"type": "LineString", "coordinates": [[79.86474728410457, 6.833868983178969], [79.86574441406995, 6.834252514241872]]}}, {"type": "Feature", "properties": {"edge_id": 134, "u": 203, "v": 204, "length_m": 49.163, "both_inside_gn": true}, "geometry": {"type": "LineString", "coordinates": [[79.86429812646251, 6.83311083947501], [79.86473830095173, 6.833146516852739]]}}, {"type": "Feature", "properties": {"edge_id": 135, "u": 205, "v": 311, "length_m": 35.057, "both_inside_gn": true}, "geometry": {"type": "LineString", "coordinates": [[79.86516949228812, 6.844456111341863], [79.86515152598243, 6.844768280893231]]}}, {"type": "Feature", "properties": {"edge_id": 136, "u": 205, "v": 324, "length_m": 50.01, "both_inside_gn": true}, "geometry": {"type": "LineString", "coordinates": [[79.86516949228812, 6.844456111341863], [79.86561864993017, 6.844465030474735]]}}, {"type": "Feature", "properties": {"edge_id": 137, "u": 207, "v": 235, "length_m": 104.173, "both_inside_gn": true}, "geometry": {"type": "LineString", "coordinates": [[79.86468440203468, 6.832388372003242], [79.86561864993017, 6.832441888149695]]}}, {"type": "Feature", "properties": {"edge_id": 138, "u": 212, "v": 213, "length_m": 81.405, "both_inside_gn": true}, "geometry": {"type": "LineString", "coordinates": [[79.86473830095173, 6.8314607578464885], [79.86439694114377, 6.830970191940091]]}}, {"type": "Feature", "properties": {"edge_id": 139, "u": 212, "v": 247, "length_m": 48.09, "both_inside_gn": true}, "geometry": {"type": "LineString", "coordinates": [[79.86473830095173, 6.8314607578464885], [79.86516050913526, 6.831433999719114]]}}, {"type": "Feature", "properties": {"edge_id": 140, "u": 218, "v": 219, "length_m": 53.609, "both_inside_gn": true}, "geometry": {"type": "LineString", "coordinates": [[79.86448677267218, 6.841387919746116], [79.86493593031423, 6.841539545956659]]}}, {"type": "Feature", "properties": {"edge_id": 141, "u": 219, "v": 281, "length_m": 29.155, "both_inside_gn": true}, "geometry": {"type": "LineString", "coordinates": [[79.86493593031423, 6.841539545956659], [79.86490898085572, 6.841798202322354]]}}, {"type": "Feature", "properties": {"edge_id": 142, "u": 219, "v": 290, "length_m": 23.022, "both_inside_gn": true}, "geometry": {"type": "LineString", "coordinates": [[79.86493593031423, 6.841539545956659], [79.86514254282959, 6.841548465144014]]}}, {"type": "Feature", "properties": {"edge_id": 143, "u": 221, "v": 227, "length_m": 276.368, "both_inside_gn": true}, "geometry": {"type": "LineString", "coordinates": [[79.86453168843639, 6.8410668287884056], [79.86694815655066, 6.841280889450866]]}}, {"type": "Feature", "properties": {"edge_id": 144, "u": 227, "v": 552, "length_m": 10.44, "both_inside_gn": true}, "geometry": {"type": "LineString", "coordinates": [[79.86694815655066, 6.841280889450866], [79.86703798807908, 6.841307647026928]]}}, {"type": "Feature", "properties": {"edge_id": 145, "u": 227, "v": 545, "length_m": 42.0, "both_inside_gn": true}, "geometry": {"type": "LineString", "coordinates": [[79.86694815655066, 6.841280889450866], [79.86694815655066, 6.841655495379295]]}}, {"type": "Feature", "properties": {"edge_id": 146, "u": 227, "v": 228, "length_m": 28.125, "both_inside_gn": true}, "geometry": {"type": "LineString", "coordinates": [[79.86694815655066, 6.841280889450866], [79.86693019024499, 6.8410311520019995]]}}, {"type": "Feature", "properties": {"edge_id": 147, "u": 228, "v": 352, "length_m": 83.045, "both_inside_gn": true}, "geometry": {"type": "LineString", "coordinates": [[79.86693019024499, 6.8410311520019995], [79.86691222393931, 6.8402908580827155]]}}, {"type": "Feature", "properties": {"edge_id": 148, "u": 229, "v": 300, "length_m": 33.242, "both_inside_gn": true}, "geometry": {"type": "LineString", "coordinates": [[79.8650347449955, 6.846908866602348], [79.86533118903925, 6.846944542949487]]}}, {"type": "Feature", "properties": {"edge_id": 149, "u": 231, "v": 233, "length_m": 103.832, "both_inside_gn": true}, "geometry": {"type": "LineString", "coordinates": [[79.86465745257617, 6.840041120116177], [79.86558271731882, 6.8401570699025935]]}}, {"type": "Feature", "properties": {"edge_id": 150, "u": 233, "v": 345, "length_m": 44.911, "both_inside_gn": true}, "geometry": {"type": "LineString", "coordinates": [[79.86558271731882, 6.8401570699025935], [79.86550186894323, 6.840549515124691]]}}, {"type": "Feature", "properties": {"edge_id": 151, "u": 233, "v": 340, "length_m": 81.194, "both_inside_gn": true}, "geometry": {"type": "LineString", "coordinates": [[79.86558271731882, 6.8401570699025935], [79.86549288579039, 6.839630836030543]]}}, {"type": "Feature", "properties": {"edge_id": 152, "u": 233, "v": 352, "length_m": 149.016, "both_inside_gn": true}, "geometry": {"type": "LineString", "coordinates": [[79.86558271731882, 6.8401570699025935], [79.86691222393931, 6.8402908580827155]]}}, {"type": "Feature", "properties": {"edge_id": 153, "u": 235, "v": 360, "length_m": 52.086, "both_inside_gn": true}, "geometry": {"type": "LineString", "coordinates": [[79.86561864993017, 6.832441888149695], [79.8660857738779, 6.832468646220676]]}}, {"type": "Feature", "properties": {"edge_id": 154, "u": 235, "v": 365, "length_m": 101.287, "both_inside_gn": true}, "geometry": {"type": "LineString", "coordinates": [[79.86561864993017, 6.832441888149695], [79.86591509397392, 6.8330305653653856]]}}, {"type": "Feature", "properties": {"edge_id": 155, "u": 236, "v": 244, "length_m": 99.942, "both_inside_gn": true}, "geometry": {"type": "LineString", "coordinates": [[79.86470236834036, 6.848871061733535], [79.86550186894323, 6.848772952168644]]}}, {"type": "Feature", "properties": {"edge_id": 156, "u": 244, "v": 344, "length_m": 52.154, "both_inside_gn": true}, "geometry": {"type": "LineString", "coordinates": [[79.86550186894323, 6.848772952168644], [79.86596899289097, 6.848737275958227]]}}, {"type": "Feature", "properties": {"edge_id": 157, "u": 244, "v": 276, "length_m": 97.793, "both_inside_gn": true}, "geometry": {"type": "LineString", "coordinates": [[79.86550186894323, 6.848772952168644], [79.86486406509151, 6.848380513707313]]}}, {"type": "Feature", "properties": {"edge_id": 158, "u": 247, "v": 323, "length_m": 114.435, "both_inside_gn": true}, "geometry": {"type": "LineString", "coordinates": [[79.86516050913526, 6.831433999719114], [79.86612170648928, 6.831549951593592]]}}, {"type": "Feature", "properties": {"edge_id": 159, "u": 248, "v": 395, "length_m": 63.032, "both_inside_gn": true}, "geometry": {"type": "LineString", "coordinates": [[79.86596899289097, 6.848077265584268], [79.86598695919666, 6.8475153641409285]]}}, {"type": "Feature", "properties": {"edge_id": 160, "u": 248, "v": 344, "length_m": 74.0, "both_inside_gn": true}, "geometry": {"type": "LineString", "coordinates": [[79.86596899289097, 6.848077265584268], [79.86596899289097, 6.848737275958227]]}}, {"type": "Feature", "properties": {"edge_id": 161, "u": 249, "v": 329, "length_m": 48.298, "both_inside_gn": true}, "geometry": {"type": "LineString", "coordinates": [[79.86534915534493, 6.835046333371305], [79.86571746461142, 6.835269316035679]]}}, {"type": "Feature", "properties": {"edge_id": 162, "u": 258, "v": 389, "length_m": 71.197, "both_inside_gn": true}, "geometry": {"type": "LineString", "coordinates": [[79.86574441406995, 6.834252514241872], [79.86637323476883, 6.834136563022746]]}}, {"type": "Feature", "properties": {"edge_id": 163, "u": 258, "v": 329, "length_m": 115.481, "both_inside_gn": true}, "geometry": {"type": "LineString", "coordinates": [[79.86574441406995, 6.834252514241872], [79.86571746461142, 6.835269316035679]]}}, {"type": "Feature", "properties": {"edge_id": 164, "u": 259, "v": 268, "length_m": 79.427, "both_inside_gn": true}, "geometry": {"type": "LineString", "coordinates": [[79.86478321671594, 6.839095682345786], [79.86516050913526, 6.839461370761901]]}}, {"type": "Feature", "properties": {"edge_id": 165, "u": 260, "v": 353, "length_m": 110.766, "both_inside_gn": true}, "geometry": {"type": "LineString", "coordinates": [[79.86560966677733, 6.842636604751534], [79.86659781358985, 6.842752553907781]]}}, {"type": "Feature", "properties": {"edge_id": 166, "u": 260, "v": 354, "length_m": 48.166, "both_inside_gn": true}, "geometry": {"type": "LineString", "coordinates": [[79.86560966677733, 6.842636604751534], [79.8656455993887, 6.8422084845460915]]}}, {"type": "Feature", "properties": {"edge_id": 167, "u": 275, "v": 397, "length_m": 50.01, "both_inside_gn": true}, "geometry": {"type": "LineString", "coordinates": [[79.86668764511828, 6.838899459177833], [79.86677747664669, 6.839336501578116]]}}, {"type": "Feature", "properties": {"edge_id": 168, "u": 275, "v": 329, "length_m": 421.8, "both_inside_gn": true}, "geometry": {"type": "LineString", "coordinates": [[79.86668764511828, 6.838899459177833], [79.86571746461142, 6.835269316035679]]}}, {"type": "Feature", "properties": {"edge_id": 169, "u": 275, "v": 508, "length_m": 89.483, "both_inside_gn": true}, "geometry": {"type": "LineString", "coordinates": [[79.86668764511828, 6.838899459177833], [79.86748714572114, 6.838979732301737]]}}, {"type": "Feature", "properties": {"edge_id": 170, "u": 282, "v": 286, "length_m": 125.312, "both_inside_gn": true}, "geometry": {"type": "LineString", "coordinates": [[79.86491796400855, 6.8380253731778495], [79.86603187496085, 6.838185919705895]]}}, {"type": "Feature", "properties": {"edge_id": 171, "u": 297, "v": 427, "length_m": 95.635, "both_inside_gn": true}, "geometry": {"type": "LineString", "coordinates": [[79.8660857738779, 6.8464272356549145], [79.86618458855916, 6.845579920771301]]}}, {"type": "Feature", "properties": {"edge_id": 172, "u": 297, "v": 328, "length_m": 64.307, "both_inside_gn": true}, "geometry": {"type": "LineString", "coordinates": [[79.8660857738779, 6.8464272356549145], [79.86603187496085, 6.846998057465194]]}}, {"type": "Feature", "properties": {"edge_id": 173, "u": 298, "v": 299, "length_m": 31.953, "both_inside_gn": true}, "geometry": {"type": "LineString", "coordinates": [[79.86497186292561, 6.835313912556071], [79.86524135751084, 6.835412024886288]]}}, {"type": "Feature", "properties": {"edge_id": 174, "u": 300, "v": 328, "length_m": 78.23, "both_inside_gn": true}, "geometry": {"type": "LineString", "coordinates": [[79.86533118903925, 6.846944542949487], [79.86603187496085, 6.846998057465194]]}}, {"type": "Feature", "properties": {"edge_id": 175, "u": 300, "v": 327, "length_m": 43.292, "both_inside_gn": true}, "geometry": {"type": "LineString", "coordinates": [[79.86533118903925, 6.846944542949487], [79.86528627327505, 6.847328063512761]]}}, {"type": "Feature", "properties": {"edge_id": 176, "u": 301, "v": 374, "length_m": 45.541, "both_inside_gn": false}, "geometry": {"type": "LineString", "coordinates": [[79.86568153200007, 6.830220963039294], [79.8660857738779, 6.830283398825851]]}}, {"type": "Feature", "properties": {"edge_id": 177, "u": 301, "v": 303, "length_m": 125.153, "both_inside_gn": false}, "geometry": {"type": "LineString", "coordinates": [[79.86568153200007, 6.830220963039294], [79.86506169445401, 6.8295876853151505]]}}, {"type": "Feature", "properties": {"edge_id": 178, "u": 310, "v": 311, "length_m": 70.178, "both_inside_gn": true}, "geometry": {"type": "LineString", "coordinates": [[79.8657803466813, 6.84481287652676], [79.86515152598243, 6.844768280893231]]}}, {"type": "Feature", "properties": {"edge_id": 179, "u": 311, "v": 318, "length_m": 188.236, "both_inside_gn": true}, "geometry": {"type": "LineString", "coordinates": [[79.86515152598243, 6.844768280893231], [79.86622052117053, 6.845330185571205]]}}, {"type": "Feature", "properties": {"edge_id": 180, "u": 318, "v": 371, "length_m": 23.087, "both_inside_gn": true}, "geometry": {"type": "LineString", "coordinates": [[79.86622052117053, 6.845330185571205], [79.86620255486486, 6.84553532520944]]}}, {"type": "Feature", "properties": {"edge_id": 181, "u": 318, "v": 366, "length_m": 95.336, "both_inside_gn": true}, "geometry": {"type": "LineString", "coordinates": [[79.86622052117053, 6.845330185571205], [79.86629238639325, 6.84448286873998]]}}, {"type": "Feature", "properties": {"edge_id": 182, "u": 323, "v": 431, "length_m": 43.012, "both_inside_gn": true}, "geometry": {"type": "LineString", "coordinates": [[79.86612170648928, 6.831549951593592], [79.86611272333644, 6.83116641836303]]}}, {"type": "Feature", "properties": {"edge_id": 183, "u": 323, "v": 435, "length_m": 71.063, "both_inside_gn": true}, "geometry": {"type": "LineString", "coordinates": [[79.86612170648928, 6.831549951593592], [79.86675951034101, 6.831576709714479]]}}, {"type": "Feature", "properties": {"edge_id": 184, "u": 324, "v": 366, "length_m": 75.027, "both_inside_gn": true}, "geometry": {"type": "LineString", "coordinates": [[79.86561864993017, 6.844465030474735], [79.86629238639325, 6.84448286873998]]}}, {"type": "Feature", "properties": {"edge_id": 185, "u": 324, "v": 332, "length_m": 52.799, "both_inside_gn": true}, "geometry": {"type": "LineString", "coordinates": [[79.86561864993017, 6.844465030474735], [79.86542102056767, 6.84416177986359]]}}, {"type": "Feature", "properties": {"edge_id": 186, "u": 328, "v": 395, "length_m": 58.215, "both_inside_gn": true}, "geometry": {"type": "LineString", "coordinates": [[79.86603187496085, 6.846998057465194], [79.86598695919666, 6.8475153641409285]]}}, {"type": "Feature", "properties": {"edge_id": 187, "u": 329, "v": 388, "length_m": 66.535, "both_inside_gn": true}, "geometry": {"type": "LineString", "coordinates": [[79.86571746461142, 6.835269316035679], [79.86631035269895, 6.835197961594397]]}}, {"type": "Feature", "properties": {"edge_id": 188, "u": 337, "v": 339, "length_m": 162.924, "both_inside_gn": true}, "geometry": {"type": "LineString", "coordinates": [[79.8654300037205, 6.8416911721190585], [79.86688527448078, 6.841842798233315]]}}, {"type": "Feature", "properties": {"edge_id": 189, "u": 339, "v": 545, "length_m": 22.136, "both_inside_gn": true}, "geometry": {"type": "LineString", "coordinates": [[79.86688527448078, 6.841842798233315], [79.86694815655066, 6.841655495379295]]}}, {"type": "Feature", "properties": {"edge_id": 190, "u": 339, "v": 494, "length_m": 25.962, "both_inside_gn": true}, "geometry": {"type": "LineString", "coordinates": [[79.86688527448078, 6.841842798233315], [79.8668223924109, 6.842065777725644]]}}, {"type": "Feature", "properties": {"edge_id": 191, "u": 346, "v": 349, "length_m": 92.021, "both_inside_gn": true}, "geometry": {"type": "LineString", "coordinates": [[79.86551085209607, 6.8439655587772545], [79.86633730215746, 6.843974477919291]]}}, {"type": "Feature", "properties": {"edge_id": 192, "u": 349, "v": 372, "length_m": 37.336, "both_inside_gn": true}, "geometry": {"type": "LineString", "coordinates": [[79.86633730215746, 6.843974477919291], [79.86638221792167, 6.843644469552912]]}}, {"type": "Feature", "properties": {"edge_id": 193, "u": 349, "v": 366, "length_m": 57.226, "both_inside_gn": true}, "geometry": {"type": "LineString", "coordinates": [[79.86633730215746, 6.843974477919291], [79.86629238639325, 6.84448286873998]]}}, {"type": "Feature", "properties": {"edge_id": 194, "u": 352, "v": 397, "length_m": 108.284, "both_inside_gn": true}, "geometry": {"type": "LineString", "coordinates": [[79.86691222393931, 6.8402908580827155], [79.86677747664669, 6.839336501578116]]}}, {"type": "Feature", "properties": {"edge_id": 195, "u": 353, "v": 494, "length_m": 80.967, "both_inside_gn": true}, "geometry": {"type": "LineString", "coordinates": [[79.86659781358985, 6.842752553907781], [79.8668223924109, 6.842065777725644]]}}, {"type": "Feature", "properties": {"edge_id": 196, "u": 355, "v": 359, "length_m": 89.342, "both_inside_gn": true}, "geometry": {"type": "LineString", "coordinates": [[79.86561864993017, 6.830702610324527], [79.86622950432337, 6.830372592792509]]}}, {"type": "Feature", "properties": {"edge_id": 197, "u": 359, "v": 374, "length_m": 18.868, "both_inside_gn": false}, "geometry": {"type": "LineString", "coordinates": [[79.86622950432337, 6.830372592792509], [79.8660857738779, 6.830283398825851]]}}, {"type": "Feature", "properties": {"edge_id": 198, "u": 359, "v": 438, "length_m": 90.496, "both_inside_gn": true}, "geometry": {"type": "LineString", "coordinates": [[79.86622950432337, 6.830372592792509], [79.86696612285635, 6.830711529714124]]}}, {"type": "Feature", "properties": {"edge_id": 199, "u": 360, "v": 423, "length_m": 53.39, "both_inside_gn": true}, "geometry": {"type": "LineString", "coordinates": [[79.8660857738779, 6.832468646220676], [79.8665618809785, 6.832522162358146]]}}, {"type": "Feature", "properties": {"edge_id": 200, "u": 360, "v": 426, "length_m": 35.136, "both_inside_gn": true}, "geometry": {"type": "LineString", "coordinates": [[79.8660857738779, 6.832468646220676], [79.86611272333644, 6.832156468632737]]}}, {"type": "Feature", "properties": {"edge_id": 201, "u": 367, "v": 371, "length_m": 69.147, "both_inside_gn": true}, "geometry": {"type": "LineString", "coordinates": [[79.86562763308301, 6.845428295843971], [79.86620255486486, 6.84553532520944]]}}, {"type": "Feature", "properties": {"edge_id": 202, "u": 371, "v": 427, "length_m": 5.385, "both_inside_gn": true}, "geometry": {"type": "LineString", "coordinates": [[79.86620255486486, 6.84553532520944], [79.86618458855916, 6.845579920771301]]}}, {"type": "Feature", "properties": {"edge_id": 203, "u": 372, "v": 373, "length_m": 82.219, "both_inside_gn": true}, "geometry": {"type": "LineString", "coordinates": [[79.86638221792167, 6.843644469552912], [79.8656455993887, 6.843590954661193]]}}, {"type": "Feature", "properties": {"edge_id": 204, "u": 374, "v": 430, "length_m": 75.265, "both_inside_gn": false}, "geometry": {"type": "LineString", "coordinates": [[79.8660857738779, 6.830283398825851], [79.86613967279496, 6.829614443545808]]}}, {"type": "Feature", "properties": {"edge_id": 205, "u": 375, "v": 376, "length_m": 78.16, "both_inside_gn": true}, "geometry": {"type": "LineString", "coordinates": [[79.86640018422736, 6.842003343478287], [79.86569949830574, 6.84195874758232]]}}, {"type": "Feature", "properties": {"edge_id": 206, "u": 375, "v": 451, "length_m": 24.187, "both_inside_gn": true}, "geometry": {"type": "LineString", "coordinates": [[79.86640018422736, 6.842003343478287], [79.86637323476883, 6.842217403720952]]}}, {"type": "Feature", "properties": {"edge_id": 207, "u": 375, "v": 474, "length_m": 33.377, "both_inside_gn": true}, "geometry": {"type": "LineString", "coordinates": [[79.86640018422736, 6.842003343478287], [79.86669662827111, 6.842047939370088]]}}, {"type": "Feature", "properties": {"edge_id": 208, "u": 388, "v": 445, "length_m": 25.179, "both_inside_gn": true}, "geometry": {"type": "LineString", "coordinates": [[79.86631035269895, 6.835197961594397], [79.86653493151996, 6.835171203676169]]}}, {"type": "Feature", "properties": {"edge_id": 209, "u": 388, "v": 444, "length_m": 46.395, "both_inside_gn": true}, "geometry": {"type": "LineString", "coordinates": [[79.86631035269895, 6.835197961594397], [79.86636425161599, 6.835608249486304]]}}, {"type": "Feature", "properties": {"edge_id": 210, "u": 389, "v": 445, "length_m": 119.023, "both_inside_gn": true}, "geometry": {"type": "LineString", "coordinates": [[79.86637323476883, 6.834136563022746], [79.86653493151996, 6.835171203676169]]}}, {"type": "Feature", "properties": {"edge_id": 211, "u": 389, "v": 423, "length_m": 182.921, "both_inside_gn": true}, "geometry": {"type": "LineString", "coordinates": [[79.86637323476883, 6.834136563022746], [79.8665618809785, 6.832522162358146]]}}, {"type": "Feature", "properties": {"edge_id": 212, "u": 389, "v": 466, "length_m": 101.84, "both_inside_gn": true}, "geometry": {"type": "LineString", "coordinates": [[79.86637323476883, 6.834136563022746], [79.8672805332058, 6.834020611775497]]}}, {"type": "Feature", "properties": {"edge_id": 213, "u": 390, "v": 391, "length_m": 69.029, "both_inside_gn": false}, "geometry": {"type": "LineString", "coordinates": [[79.86596000973813, 6.849477556777658], [79.86594204343245, 6.8500929700782995]]}}, {"type": "Feature", "properties": {"edge_id": 214, "u": 390, "v": 392, "length_m": 39.013, "both_inside_gn": false}, "geometry": {"type": "LineString", "coordinates": [[79.86596000973813, 6.849477556777658], [79.86596899289097, 6.849825399175587]]}}, {"type": "Feature", "properties": {"edge_id": 215, "u": 395, "v": 396, "length_m": 9.055, "both_inside_gn": false}, "geometry": {"type": "LineString", "coordinates": [[79.86598695919666, 6.8475153641409285], [79.86606780757222, 6.847524283216627]]}}, {"type": "Feature", "properties": {"edge_id": 216, "u": 396, "v": 422, "length_m": 77.162, "both_inside_gn": false}, "geometry": {"type": "LineString", "coordinates": [[79.86606780757222, 6.847524283216627], [79.86611272333644, 6.84683751390007]]}}, {"type": "Feature", "properties": {"edge_id": 217, "u": 396, "v": 408, "length_m": 127.005, "both_inside_gn": false}, "geometry": {"type": "LineString", "coordinates": [[79.86606780757222, 6.847524283216627], [79.86605882441938, 6.848657004475034]]}}, {"type": "Feature", "properties": {"edge_id": 218, "u": 396, "v": 421, "length_m": 57.942, "both_inside_gn": false}, "geometry": {"type": "LineString", "coordinates": [[79.86606780757222, 6.847524283216627], [79.86657984728417, 6.847595635816208]]}}, {"type": "Feature", "properties": {"edge_id": 219, "u": 397, "v": 398, "length_m": 85.0, "both_inside_gn": true}, "geometry": {"type": "LineString", "coordinates": [[79.86677747664669, 6.839336501578116], [79.86602289180802, 6.839220551592518]]}}, {"type": "Feature", "properties": {"edge_id": 220, "u": 399, "v": 400, "length_m": 38.053, "both_inside_gn": false}, "geometry": {"type": "LineString", "coordinates": [[79.86602289180802, 6.849825399175587], [79.8660408581137, 6.849486475816671]]}}, {"type": "Feature", "properties": {"edge_id": 221, "u": 400, "v": 403, "length_m": 16.031, "both_inside_gn": false}, "geometry": {"type": "LineString", "coordinates": [[79.8660408581137, 6.849486475816671], [79.86604984126654, 6.849629180418199]]}}, {"type": "Feature", "properties": {"edge_id": 222, "u": 400, "v": 404, "length_m": 59.008, "both_inside_gn": false}, "geometry": {"type": "LineString", "coordinates": [[79.8660408581137, 6.849486475816671], [79.86604984126654, 6.848960252229561]]}}, {"type": "Feature", "properties": {"edge_id": 223, "u": 403, "v": 416, "length_m": 51.01, "both_inside_gn": false}, "geometry": {"type": "LineString", "coordinates": [[79.86604984126654, 6.849629180418199], [79.86605882441938, 6.850084051050627]]}}, {"type": "Feature", "properties": {"edge_id": 224, "u": 403, "v": 409, "length_m": 65.677, "both_inside_gn": false}, "geometry": {"type": "LineString", "coordinates": [[79.86604984126654, 6.849629180418199], [79.86651696521429, 6.849834318208096]]}}, {"type": "Feature", "properties": {"edge_id": 225, "u": 404, "v": 408, "length_m": 34.015, "both_inside_gn": false}, "geometry": {"type": "LineString", "coordinates": [[79.86604984126654, 6.848960252229561], [79.86605882441938, 6.848657004475034]]}}, {"type": "Feature", "properties": {"edge_id": 226, "u": 404, "v": 407, "length_m": 68.552, "both_inside_gn": false}, "geometry": {"type": "LineString", "coordinates": [[79.86604984126654, 6.848960252229561], [79.86666069565976, 6.8490316046143755]]}}, {"type": "Feature", "properties": {"edge_id": 227, "u": 408, "v": 417, "length_m": 46.274, "both_inside_gn": false}, "geometry": {"type": "LineString", "coordinates": [[79.86605882441938, 6.848657004475034], [79.86647204945008, 6.848701599745142]]}}, {"type": "Feature", "properties": {"edge_id": 228, "u": 421, "v": 488, "length_m": 43.186, "both_inside_gn": false}, "geometry": {"type": "LineString", "coordinates": [[79.86657984728417, 6.847595635816208], [79.8665439146728, 6.847212115468002]]}}, {"type": "Feature", "properties": {"edge_id": 229, "u": 421, "v": 493, "length_m": 13.161, "both_inside_gn": false}, "geometry": {"type": "LineString", "coordinates": [[79.86657984728417, 6.847595635816208], [79.86668764511828, 6.847640231185526]]}}, {"type": "Feature", "properties": {"edge_id": 230, "u": 422, "v": 434, "length_m": 36.125, "both_inside_gn": false}, "geometry": {"type": "LineString", "coordinates": [[79.86611272333644, 6.84683751390007], [79.86643611683871, 6.846810756633964]]}}, {"type": "Feature", "properties": {"edge_id": 231, "u": 422, "v": 433, "length_m": 67.366, "both_inside_gn": false}, "geometry": {"type": "LineString", "coordinates": [[79.86611272333644, 6.84683751390007], [79.86617560540633, 6.846239934599635]]}}, {"type": "Feature", "properties": {"edge_id": 232, "u": 423, "v": 489, "length_m": 21.024, "both_inside_gn": true}, "geometry": {"type": "LineString", "coordinates": [[79.8665618809785, 6.832522162358146], [79.86675052718816, 6.832531081713808]]}}, {"type": "Feature", "properties": {"edge_id": 233, "u": 427, "v": 437, "length_m": 8.0, "both_inside_gn": false}, "geometry": {"type": "LineString", "coordinates": [[79.86618458855916, 6.845579920771301], [79.8662564537819, 6.845579920771301]]}}, {"type": "Feature", "properties": {"edge_id": 234, "u": 433, "v": 436, "length_m": 67.186, "both_inside_gn": false}, "geometry": {"type": "LineString", "coordinates": [[79.86617560540633, 6.846239934599635], [79.86677747664669, 6.846284530095655]]}}, {"type": "Feature", "properties": {"edge_id": 235, "u": 433, "v": 437, "length_m": 74.545, "both_inside_gn": false}, "geometry": {"type": "LineString", "coordinates": [[79.86617560540633, 6.846239934599635], [79.8662564537819, 6.845579920771301]]}}, {"type": "Feature", "properties": {"edge_id": 236, "u": 434, "v": 479, "length_m": 23.087, "both_inside_gn": false}, "geometry": {"type": "LineString", "coordinates": [[79.86643611683871, 6.846810756633964], [79.8664540831444, 6.847015895635762]]}}, {"type": "Feature", "properties": {"edge_id": 237, "u": 434, "v": 480, "length_m": 15.033, "both_inside_gn": false}, "geometry": {"type": "LineString", "coordinates": [[79.86643611683871, 6.846810756633964], [79.86657086413133, 6.8468018375449295]]}}, {"type": "Feature", "properties": {"edge_id": 238, "u": 435, "v": 521, "length_m": 48.042, "both_inside_gn": true}, "geometry": {"type": "LineString", "coordinates": [[79.86675951034101, 6.831576709714479], [79.86719070167737, 6.831594548460905]]}}, {"type": "Feature", "properties": {"edge_id": 239, "u": 435, "v": 501, "length_m": 73.773, "both_inside_gn": true}, "geometry": {"type": "LineString", "coordinates": [[79.86675951034101, 6.831576709714479], [79.8666696788126, 6.830925595014559]]}}, {"type": "Feature", "properties": {"edge_id": 240, "u": 437, "v": 440, "length_m": 53.038, "both_inside_gn": false}, "geometry": {"type": "LineString", "coordinates": [[79.8662564537819, 6.845579920771301], [79.86673256088248, 6.84559775899488]]}}, {"type": "Feature", "properties": {"edge_id": 241, "u": 437, "v": 441, "length_m": 104.48, "both_inside_gn": false}, "geometry": {"type": "LineString", "coordinates": [[79.8662564537819, 6.845579920771301], [79.86634628531031, 6.844652332226556]]}}, {"type": "Feature", "properties": {"edge_id": 242, "u": 438, "v": 553, "length_m": 78.132, "both_inside_gn": false}, "geometry": {"type": "LineString", "coordinates": [[79.86696612285635, 6.830711529714124], [79.86765782562512, 6.830827481763752]]}}, {"type": "Feature", "properties": {"edge_id": 243, "u": 438, "v": 555, "length_m": 77.238, "both_inside_gn": false}, "geometry": {"type": "LineString", "coordinates": [[79.86696612285635, 6.830711529714124], [79.86707392069044, 6.830033655630732]]}}, {"type": "Feature", "properties": {"edge_id": 244, "u": 440, "v": 517, "length_m": 7.071, "both_inside_gn": false}, "geometry": {"type": "LineString", "coordinates": [[79.86673256088248, 6.84559775899488], [79.86679544295237, 6.845606678106418]]}}, {"type": "Feature", "properties": {"edge_id": 245, "u": 440, "v": 519, "length_m": 35.244, "both_inside_gn": false}, "geometry": {"type": "LineString", "coordinates": [[79.86673256088248, 6.84559775899488], [79.86676849349385, 6.845285589986011]]}}, {"type": "Feature", "properties": {"edge_id": 246, "u": 441, "v": 447, "length_m": 71.131, "both_inside_gn": false}, "geometry": {"type": "LineString", "coordinates": [[79.86634628531031, 6.844652332226556], [79.86698408916203, 6.844634493967643]]}}, {"type": "Feature", "properties": {"edge_id": 247, "u": 441, "v": 450, "length_m": 50.266, "both_inside_gn": false}, "geometry": {"type": "LineString", "coordinates": [[79.86634628531031, 6.844652332226556], [79.8663912010745, 6.844206375553781]]}}, {"type": "Feature", "properties": {"edge_id": 248, "u": 445, "v": 487, "length_m": 24.739, "both_inside_gn": true}, "geometry": {"type": "LineString", "coordinates": [[79.86653493151996, 6.835171203676169], [79.86675052718816, 6.835117687835222]]}}, {"type": "Feature", "properties": {"edge_id": 249, "u": 450, "v": 473, "length_m": 25.02, "both_inside_gn": false}, "geometry": {"type": "LineString", "coordinates": [[79.8663912010745, 6.844206375553781], [79.86640018422736, 6.843983397061162]]}}, {"type": "Feature", "properties": {"edge_id": 250, "u": 450, "v": 469, "length_m": 39.952, "both_inside_gn": false}, "geometry": {"type": "LineString", "coordinates": [[79.8663912010745, 6.844206375553781], [79.86674154403532, 6.844179618140167]]}}, {"type": "Feature", "properties": {"edge_id": 251, "u": 473, "v": 476, "length_m": 70.772, "both_inside_gn": false}, "geometry": {"type": "LineString", "coordinates": [[79.86640018422736, 6.843983397061162], [79.86649001575576, 6.843359056727757]]}}, {"type": "Feature", "properties": {"edge_id": 252, "u": 473, "v": 477, "length_m": 74.229, "both_inside_gn": false}, "geometry": {"type": "LineString", "coordinates": [[79.86640018422736, 6.843983397061162], [79.86705595438475, 6.84387636734771]]}}, {"type": "Feature", "properties": {"edge_id": 253, "u": 474, "v": 496, "length_m": 22.136, "both_inside_gn": true}, "geometry": {"type": "LineString", "coordinates": [[79.86669662827111, 6.842047939370088], [79.86663374620122, 6.842235242070177]]}}, {"type": "Feature", "properties": {"edge_id": 254, "u": 474, "v": 494, "length_m": 14.142, "both_inside_gn": true}, "geometry": {"type": "LineString", "coordinates": [[79.86669662827111, 6.842047939370088], [79.8668223924109, 6.842065777725644]]}}, {"type": "Feature", "properties": {"edge_id": 255, "u": 476, "v": 483, "length_m": 73.171, "both_inside_gn": false}, "geometry": {"type": "LineString", "coordinates": [[79.86649001575576, 6.843359056727757], [79.86714578591317, 6.843403652492936]]}}, {"type": "Feature", "properties": {"edge_id": 256, "u": 476, "v": 486, "length_m": 75.012, "both_inside_gn": false}, "geometry": {"type": "LineString", "coordinates": [[79.86649001575576, 6.843359056727757], [79.86667866196544, 6.842716877247319]]}}, {"type": "Feature", "properties": {"edge_id": 257, "u": 480, "v": 490, "length_m": 22.091, "both_inside_gn": false}, "geometry": {"type": "LineString", "coordinates": [[79.86657086413133, 6.8468018375449295], [79.86658883043701, 6.846998057465194]]}}, {"type": "Feature", "properties": {"edge_id": 258, "u": 480, "v": 491, "length_m": 14.142, "both_inside_gn": false}, "geometry": {"type": "LineString", "coordinates": [[79.86657086413133, 6.8468018375449295], [79.86669662827111, 6.846783999366359]]}}, {"type": "Feature", "properties": {"edge_id": 259, "u": 486, "v": 502, "length_m": 72.076, "both_inside_gn": false}, "geometry": {"type": "LineString", "coordinates": [[79.86667866196544, 6.842716877247319], [79.86730748266432, 6.842868503035872]]}}, {"type": "Feature", "properties": {"edge_id": 260, "u": 486, "v": 544, "length_m": 90.497, "both_inside_gn": false}, "geometry": {"type": "LineString", "coordinates": [[79.86667866196544, 6.842716877247319], [79.86693019024499, 6.841949828402626]]}}, {"type": "Feature", "properties": {"edge_id": 261, "u": 487, "v": 516, "length_m": 53.848, "both_inside_gn": true}, "geometry": {"type": "LineString", "coordinates": [[79.86675052718816, 6.835117687835222], [79.8667145945768, 6.8355636529933745]]}}, {"type": "Feature", "properties": {"edge_id": 262, "u": 487, "v": 535, "length_m": 64.071, "both_inside_gn": true}, "geometry": {"type": "LineString", "coordinates": [[79.86675052718816, 6.835117687835222], [79.86731646581715, 6.835090929912502]]}}, {"type": "Feature", "properties": {"edge_id": 263, "u": 489, "v": 520, "length_m": 65.069, "both_inside_gn": true}, "geometry": {"type": "LineString", "coordinates": [[79.86675052718816, 6.832531081713808], [79.86733443212285, 6.832557839779798]]}}, {"type": "Feature", "properties": {"edge_id": 264, "u": 489, "v": 521, "length_m": 123.198, "both_inside_gn": true}, "geometry": {"type": "LineString", "coordinates": [[79.86675052718816, 6.832531081713808], [79.86719070167737, 6.831594548460905]]}}, {"type": "Feature", "properties": {"edge_id": 265, "u": 491, "v": 509, "length_m": 23.087, "both_inside_gn": false}, "geometry": {"type": "LineString", "coordinates": [[79.86669662827111, 6.846783999366359], [79.8667145945768, 6.8469891383796595]]}}, {"type": "Feature", "properties": {"edge_id": 266, "u": 491, "v": 510, "length_m": 6.0, "both_inside_gn": false}, "geometry": {"type": "LineString", "coordinates": [[79.86669662827111, 6.846783999366359], [79.86675052718816, 6.846783999366359]]}}, {"type": "Feature", "properties": {"edge_id": 267, "u": 508, "v": 649, "length_m": 7.28, "both_inside_gn": false}, "geometry": {"type": "LineString", "coordinates": [[79.86748714572114, 6.838979732301737], [79.86755002779103, 6.838961893830923]]}}, {"type": "Feature", "properties": {"edge_id": 268, "u": 508, "v": 552, "length_m": 266.949, "both_inside_gn": true}, "geometry": {"type": "LineString", "coordinates": [[79.86748714572114, 6.838979732301737], [79.86703798807908, 6.841307647026928]]}}, {"type": "Feature", "properties": {"edge_id": 269, "u": 508, "v": 606, "length_m": 184.27, "both_inside_gn": true}, "geometry": {"type": "LineString", "coordinates": [[79.86748714572114, 6.838979732301737], [79.8674152804984, 6.837338590198923]]}}, {"type": "Feature", "properties": {"edge_id": 270, "u": 517, "v": 539, "length_m": 9.0, "both_inside_gn": false}, "geometry": {"type": "LineString", "coordinates": [[79.86679544295237, 6.845606678106418], [79.86687629132794, 6.845606678106418]]}}, {"type": "Feature", "properties": {"edge_id": 271, "u": 517, "v": 540, "length_m": 39.6, "both_inside_gn": false}, "geometry": {"type": "LineString", "coordinates": [[79.86679544295237, 6.845606678106418], [79.86684035871657, 6.845954523326423]]}}, {"type": "Feature", "properties": {"edge_id": 272, "u": 520, "v": 596, "length_m": 8.062, "both_inside_gn": false}, "geometry": {"type": "LineString", "coordinates": [[79.86733443212285, 6.832557839779798], [79.86740629734557, 6.832566759134794]]}}, {"type": "Feature", "properties": {"edge_id": 273, "u": 520, "v": 535, "length_m": 284.192, "both_inside_gn": true}, "geometry": {"type": "LineString", "coordinates": [[79.86733443212285, 6.832557839779798], [79.86731646581715, 6.835090929912502]]}}, {"type": "Feature", "properties": {"edge_id": 274, "u": 520, "v": 575, "length_m": 108.244, "both_inside_gn": true}, "geometry": {"type": "LineString", "coordinates": [[79.86733443212285, 6.832557839779798], [79.8674781625683, 6.83160346783387]]}}, {"type": "Feature", "properties": {"edge_id": 275, "u": 521, "v": 575, "length_m": 32.016, "both_inside_gn": true}, "geometry": {"type": "LineString", "coordinates": [[79.86719070167737, 6.831594548460905], [79.8674781625683, 6.83160346783387]]}}, {"type": "Feature", "properties": {"edge_id": 276, "u": 535, "v": 576, "length_m": 8.062, "both_inside_gn": false}, "geometry": {"type": "LineString", "coordinates": [[79.86731646581715, 6.835090929912502], [79.86738833103989, 6.835099849220242]]}}, {"type": "Feature", "properties": {"edge_id": 277, "u": 535, "v": 606, "length_m": 252.429, "both_inside_gn": true}, "geometry": {"type": "LineString", "coordinates": [[79.86731646581715, 6.835090929912502], [79.8674152804984, 6.837338590198923]]}}, {"type": "Feature", "properties": {"edge_id": 278, "u": 544, "v": 551, "length_m": 72.422, "both_inside_gn": false}, "geometry": {"type": "LineString", "coordinates": [[79.86693019024499, 6.841949828402626], [79.86712781960749, 6.84133440460149]]}}, {"type": "Feature", "properties": {"edge_id": 279, "u": 544, "v": 550, "length_m": 70.916, "both_inside_gn": false}, "geometry": {"type": "LineString", "coordinates": [[79.86693019024499, 6.841949828402626], [79.86754104463819, 6.842119292788309]]}}, {"type": "Feature", "properties": {"edge_id": 280, "u": 545, "v": 552, "length_m": 40.262, "both_inside_gn": true}, "geometry": {"type": "LineString", "coordinates": [[79.86694815655066, 6.841655495379295], [79.86703798807908, 6.841307647026928]]}}, {"type": "Feature", "properties": {"edge_id": 281, "u": 551, "v": 552, "length_m": 10.44, "both_inside_gn": false}, "geometry": {"type": "LineString", "coordinates": [[79.86712781960749, 6.84133440460149], [79.86703798807908, 6.841307647026928]]}}, {"type": "Feature", "properties": {"edge_id": 282, "u": 551, "v": 574, "length_m": 86.152, "both_inside_gn": false}, "geometry": {"type": "LineString", "coordinates": [[79.86712781960749, 6.84133440460149], [79.86733443212285, 6.840594111152253]]}}, {"type": "Feature", "properties": {"edge_id": 283, "u": 553, "v": 575, "length_m": 89.356, "both_inside_gn": false}, "geometry": {"type": "LineString", "coordinates": [[79.86765782562512, 6.830827481763752], [79.8674781625683, 6.83160346783387]]}}, {"type": "Feature", "properties": {"edge_id": 284, "u": 553, "v": 677, "length_m": 40.83, "both_inside_gn": false}, "geometry": {"type": "LineString", "coordinates": [[79.86765782562512, 6.830827481763752], [79.8677656234592, 6.830479625530544]]}}, {"type": "Feature", "properties": {"edge_id": 285, "u": 574, "v": 603, "length_m": 73.007, "both_inside_gn": false}, "geometry": {"type": "LineString", "coordinates": [[79.86733443212285, 6.840594111152253], [79.86799020228025, 6.840585191947074]]}}, {"type": "Feature", "properties": {"edge_id": 286, "u": 574, "v": 602, "length_m": 48.061, "both_inside_gn": false}, "geometry": {"type": "LineString", "coordinates": [[79.86733443212285, 6.840594111152253], [79.86742426365126, 6.840174908328776]]}}, {"type": "Feature", "properties": {"edge_id": 287, "u": 576, "v": 618, "length_m": 71.386, "both_inside_gn": false}, "geometry": {"type": "LineString", "coordinates": [[79.86738833103989, 6.835099849220242], [79.86801715173877, 6.8352247195111255]]}}, {"type": "Feature", "properties": {"edge_id": 288, "u": 576, "v": 613, "length_m": 246.106, "both_inside_gn": false}, "geometry": {"type": "LineString", "coordinates": [[79.86738833103989, 6.835099849220242], [79.86737934788705, 6.832905694501405]]}}, {"type": "Feature", "properties": {"edge_id": 289, "u": 576, "v": 619, "length_m": 127.034, "both_inside_gn": false}, "geometry": {"type": "LineString", "coordinates": [[79.86738833103989, 6.835099849220242], [79.86740629734557, 6.836232599950407]]}}, {"type": "Feature", "properties": {"edge_id": 290, "u": 596, "v": 613, "length_m": 38.166, "both_inside_gn": false}, "geometry": {"type": "LineString", "coordinates": [[79.86740629734557, 6.832566759134794], [79.86737934788705, 6.832905694501405]]}}, {"type": "Feature", "properties": {"edge_id": 291, "u": 596, "v": 623, "length_m": 109.198, "both_inside_gn": false}, "geometry": {"type": "LineString", "coordinates": [[79.86740629734557, 6.832566759134794], [79.86755002779103, 6.83160346783387]]}}, {"type": "Feature", "properties": {"edge_id": 292, "u": 602, "v": 636, "length_m": 36.346, "both_inside_gn": false}, "geometry": {"type": "LineString", "coordinates": [[79.86742426365126, 6.840174908328776], [79.86774765715353, 6.840219504391314]]}}, {"type": "Feature", "properties": {"edge_id": 293, "u": 602, "v": 638, "length_m": 65.769, "both_inside_gn": false}, "geometry": {"type": "LineString", "coordinates": [[79.86742426365126, 6.840174908328776], [79.86751409517966, 6.839595159136878]]}}, {"type": "Feature", "properties": {"edge_id": 294, "u": 606, "v": 634, "length_m": 9.055, "both_inside_gn": false}, "geometry": {"type": "LineString", "coordinates": [[79.8674152804984, 6.837338590198923], [79.86749612887398, 6.837329670932965]]}}, {"type": "Feature", "properties": {"edge_id": 295, "u": 613, "v": 617, "length_m": 72.007, "both_inside_gn": false}, "geometry": {"type": "LineString", "coordinates": [[79.86737934788705, 6.832905694501405], [79.86802613489161, 6.83289677515273]]}}, {"type": "Feature", "properties": {"edge_id": 296, "u": 619, "v": 624, "length_m": 54.148, "both_inside_gn": false}, "geometry": {"type": "LineString", "coordinates": [[79.86740629734557, 6.836232599950407], [79.86744222995694, 6.836714241179711]]}}, {"type": "Feature", "properties": {"edge_id": 297, "u": 619, "v": 626, "length_m": 72.032, "both_inside_gn": false}, "geometry": {"type": "LineString", "coordinates": [[79.86740629734557, 6.836232599950407], [79.86805308435014, 6.836214761377036]]}}, {"type": "Feature", "properties": {"edge_id": 298, "u": 623, "v": 670, "length_m": 126.405, "both_inside_gn": false}, "geometry": {"type": "LineString", "coordinates": [[79.86755002779103, 6.83160346783387], [79.86783748868196, 6.830515303104567]]}}, {"type": "Feature", "properties": {"edge_id": 299, "u": 623, "v": 672, "length_m": 66.601, "both_inside_gn": false}, "geometry": {"type": "LineString", "coordinates": [[79.86755002779103, 6.83160346783387], [79.86814291587855, 6.831585629087776]]}}, {"type": "Feature", "properties": {"edge_id": 300, "u": 624, "v": 639, "length_m": 17.029, "both_inside_gn": false}, "geometry": {"type": "LineString", "coordinates": [[79.86744222995694, 6.836714241179711], [79.86745121310977, 6.836865868873659]]}}, {"type": "Feature", "properties": {"edge_id": 301, "u": 624, "v": 641, "length_m": 57.777, "both_inside_gn": false}, "geometry": {"type": "LineString", "coordinates": [[79.86744222995694, 6.836714241179711], [79.86795426966889, 6.836642886954147]]}}, {"type": "Feature", "properties": {"edge_id": 302, "u": 634, "v": 650, "length_m": 16.125, "both_inside_gn": false}, "geometry": {"type": "LineString", "coordinates": [[79.86749612887398, 6.837329670932965], [79.86751409517966, 6.837472379168339]]}}, {"type": "Feature", "properties": {"edge_id": 303, "u": 634, "v": 639, "length_m": 52.24, "both_inside_gn": false}, "geometry": {"type": "LineString", "coordinates": [[79.86749612887398, 6.837329670932965], [79.86745121310977, 6.836865868873659]]}}, {"type": "Feature", "properties": {"edge_id": 304, "u": 634, "v": 651, "length_m": 70.504, "both_inside_gn": false}, "geometry": {"type": "LineString", "coordinates": [[79.86749612887398, 6.837329670932965], [79.86812494957286, 6.837258316799295]]}}, {"type": "Feature", "properties": {"edge_id": 305, "u": 638, "v": 649, "length_m": 71.173, "both_inside_gn": false}, "geometry": {"type": "LineString", "coordinates": [[79.86751409517966, 6.839595159136878], [79.86755002779103, 6.838961893830923]]}}, {"type": "Feature", "properties": {"edge_id": 306, "u": 638, "v": 661, "length_m": 72.466, "both_inside_gn": false}, "geometry": {"type": "LineString", "coordinates": [[79.86751409517966, 6.839595159136878], [79.86816088218423, 6.839559482240547]]}}, {"type": "Feature", "properties": {"edge_id": 307, "u": 639, "v": 645, "length_m": 72.347, "both_inside_gn": false}, "geometry": {"type": "LineString", "coordinates": [[79.86745121310977, 6.836865868873659], [79.86809800011434, 6.836848030323926]]}}, {"type": "Feature", "properties": {"edge_id": 308, "u": 649, "v": 665, "length_m": 42.028, "both_inside_gn": false}, "geometry": {"type": "LineString", "coordinates": [[79.86755002779103, 6.838961893830923], [79.86755901094386, 6.838587285789988]]}}, {"type": "Feature", "properties": {"edge_id": 309, "u": 650, "v": 653, "length_m": 87.063, "both_inside_gn": false}, "geometry": {"type": "LineString", "coordinates": [[79.86751409517966, 6.837472379168339], [79.86754104463819, 6.838248354452232]]}}, {"type": "Feature", "properties": {"edge_id": 310, "u": 650, "v": 656, "length_m": 69.662, "both_inside_gn": false}, "geometry": {"type": "LineString", "coordinates": [[79.86751409517966, 6.837472379168339], [79.8681339327257, 6.837392105791185]]}}, {"type": "Feature", "properties": {"edge_id": 311, "u": 653, "v": 665, "length_m": 38.053, "both_inside_gn": false}, "geometry": {"type": "LineString", "coordinates": [[79.86754104463819, 6.838248354452232], [79.86755901094386, 6.838587285789988]]}}, {"type": "Feature", "properties": {"edge_id": 312, "u": 653, "v": 662, "length_m": 71.166, "both_inside_gn": false}, "geometry": {"type": "LineString", "coordinates": [[79.86754104463819, 6.838248354452232], [79.8681788484899, 6.838275112198166]]}}, {"type": "Feature", "properties": {"edge_id": 313, "u": 665, "v": 676, "length_m": 70.541, "both_inside_gn": false}, "geometry": {"type": "LineString", "coordinates": [[79.86755901094386, 6.838587285789988], [79.86818783164274, 6.838622962758923]]}}, {"type": "Feature", "properties": {"edge_id": 314, "u": 670, "v": 677, "length_m": 8.944, "both_inside_gn": false}, "geometry": {"type": "LineString", "coordinates": [[79.86783748868196, 6.830515303104567], [79.8677656234592, 6.830479625530544]]}}, {"type": "Feature", "properties": {"edge_id": 315, "u": 670, "v": 682, "length_m": 62.668, "both_inside_gn": false}, "geometry": {"type": "LineString", "coordinates": [[79.86783748868196, 6.830515303104567], [79.86836749469958, 6.830702610324527]]}}, {"type": "Feature", "properties": {"edge_id": 316, "u": 670, "v": 686, "length_m": 36.064, "both_inside_gn": false}, "geometry": {"type": "LineString", "coordinates": [[79.86783748868196, 6.830515303104567], [79.86794528651605, 6.83021204364055]]}}, {"type": "Feature", "properties": {"edge_id": 317, "u": 677, "v": 680, "length_m": 35.121, "both_inside_gn": false}, "geometry": {"type": "LineString", "coordinates": [[79.8677656234592, 6.830479625530544], [79.86787342129331, 6.830185285443318]]}}]}