{"type":"FeatureCollection","features":[{"type":"Feature","properties":{"name":"Ceypetco","name_en":null,"amenity":"fuel","shop":null,"tourism":null,"man_made":null},"geometry":{"type":"Point","coordinates":[79.869196,6.826255]}},{"type":"Feature","properties":{"name":"Domino's","name_en":"Domino's pizza","amenity":"fast_food","shop":null,"tourism":null,"man_made":null},"geometry":{"type":"Point","coordinates":[79.869265,6.827018]}},{"type":"Feature","properties":{"name":null,"name_en":"Salon sara ratmalana","amenity":null,"shop":"cosmetics","tourism":null,"man_made":null},"geometry":{"type":"Point","coordinates":[79.869419,6.827409]}},{"type":"Feature","properties":{"name":"British College of Applied Studies","name_en":null,"amenity":"college","shop":null,"tourism":null,"man_made":null},"geometry":{"type":"Point","coordinates":[79.867443,6.830504]}},{"type":"Feature","properties":{"name":null,"name_en":null,"amenity":"bank","shop":null,"tourism":null,"man_made":null},"geometry":{"type":"Point","coordinates":[79.868192,6.828519]}},{"type":"Feature","properties":{"name":"Pizza Hut","name_en":null,"amenity":"restaurant","shop":null,"tourism":null,"man_made":null},"geometry":{"type":"Point","coordinates":[79.868071,6.829428]}},{"type":"Feature","properties":{"name":"McDonald's","name_en":null,"amenity":"fast_food","shop":null,"tourism":null,"man_made":null},"geometry":{"type":"Point","coordinates":[79.868797,6.827355]}},{"type":"Feature","properties":{"name":"Cargills Food City","name_en":null,"amenity":null,"shop":"supermarket","tourism":null,"man_made":null},"geometry":{"type":"Point","coordinates":[79.869053,6.827708]}},{"type":"Feature","properties":{"name":null,"name_en":"Family bakers","amenity":"cafe","shop":null,"tourism":null,"man_made":null},"geometry":{"type":"Point","coordinates":[79.868558,6.82872]}},{"type":"Feature","properties":{"name":null,"name_en":"Salon 7 mount lavinia","amenity":null,"shop":"cosmetics","tourism":null,"man_made":null},"geometry":{"type":"Point","coordinates":[79.868708,6.828451]}},{"type":"Feature","properties":{"name":"Taco Bell","name_en":null,"amenity":"fast_food","shop":null,"tourism":null,"man_made":null},"geometry":{"type":"Point","coordinates":[79.868337,6.829573]}},{"type":"Feature","properties":{"name":null,"name_en":"Salon dinu mountlavina","amenity":null,"shop":"cosmetics","tourism":null,"man_made":null},"geometry":{"type":"Point","coordinates":[79.868362,6.830575]}},{"type":"Feature","properties":{"name":"Lalith Athulathmudali College","name_en":null,"amenity":"school","shop":null,"tourism":null,"man_made":null},"geometry":{"type":"Point","coordinates":[79.871779,6.82956]}},{"type":"Feature","properties":{"name":null,"name_en":"Salon wendys mtlavinia","amenity":null,"shop":"cosmetics","tourism":null,"man_made":null},"geometry":{"type":"Point","coordinates":[79.870269,6.830953]}},{"type":"Feature","properties":{"name":"NOLIMIT","name_en":null,"amenity":null,"shop":"clothes","tourism":null,"man_made":null},"geometry":{"type":"Point","coordinates":[79.869147,6.827524]}},{"type":"Feature","properties":{"name":null,"name_en":"Salon ovinca mountlavinia","amenity":null,"shop":"cosmetics","tourism":null,"man_made":null},"geometry":{"type":"Point","coordinates":[79.869748,6.831242]}},{"type":"Feature","properties":{"name":"Sri Sugatha Dharmayathanaya","name_en":null,"amenity":"place_of_worship","shop":null,"tourism":null,"man_made":null},"geometry":{"type":"Point","coordinates":[79.870858,6.831599]}},{"type":"Feature","properties":{"name":null,"name_en":"Okada Temple","amenity":null,"shop":null,"tourism":"attraction","man_made":null},"geometry":{"type":"Point","coordinates":[79.864012,6.828522]}},{"type":"Feature","properties":{"name":"Maharhishi Ayurveda Hospital","name_en":null,"amenity":"hospital","shop":null,"tourism":null,"man_made":null},"geometry":{"type":"Point","coordinates":[79.865675,6.830397]}},{"type":"Feature","properties":{"name":"Lavinia House","name_en":null,"amenity":null,"shop":null,"tourism":"hotel","man_made":null},"geometry":{"type":"Point","coordinates":[79.864502,6.832847]}},{"type":"Feature","properties":{"name":"Mount Lodge","name_en":null,"amenity":null,"shop":null,"tourism":"hotel","man_made":null},"geometry":{"type":"Point","coordinates":[79.864481,6.833533]}},{"type":"Feature","properties":{"name":null,"name_en":"Salon mirror mountlavinia","amenity":null,"shop":"cosmetics","tourism":null,"man_made":null},"geometry":{"type":"Point","coordinates":[79.867499,6.831042]}},{"type":"Feature","properties":{"name":null,"name_en":"Salon finesse mountlavinia","amenity":null,"shop":"cosmetics","tourism":null,"man_made":null},"geometry":{"type":"Point","coordinates":[79.867339,6.832087]}},{"type":"Feature","properties":{"name":"Keells Super, Mount Lavinia.","name_en":null,"amenity":null,"shop":"supermarket","tourism":null,"man_made":null},"geometry":{"type":"Point","coordinates":[79.867327,6.831863]}},{"type":"Feature","properties":{"name":"Thapodhanaramaya","name_en":null,"amenity":"place_of_worship","shop":null,"tourism":null,"man_made":null},"geometry":{"type":"Point","coordinates":[79.868235,6.831721]}},{"type":"Feature","properties":{"name":"Elite Indian Restaurant","name_en":null,"amenity":"restaurant","shop":null,"tourism":null,"man_made":null},"geometry":{"type":"Point","coordinates":[79.867878,6.831182]}},{"type":"Feature","properties":{"name":null,"name_en":"New lovers mountlavinia","amenity":null,"shop":"beauty","tourism":null,"man_made":null},"geometry":{"type":"Point","coordinates":[79.867765,6.831067]}},{"type":"Feature","properties":{"name":null,"name_en":null,"amenity":"atm","shop":null,"tourism":null,"man_made":null},"geometry":{"type":"Point","coordinates":[79.867802,6.830729]}},{"type":"Feature","properties":{"name":null,"name_en":null,"amenity":null,"shop":"convenience","tourism":null,"man_made":null},"geometry":{"type":"Point","coordinates":[79.867592,6.832308]}},{"type":"Feature","properties":{"name":null,"name_en":null,"amenity":null,"shop":"convenience","tourism":null,"man_made":null},"geometry":{"type":"Point","coordinates":[79.867509,6.832303]}},{"type":"Feature","properties":{"name":"HNB","name_en":null,"amenity":"bank","shop":null,"tourism":null,"man_made":null},"geometry":{"type":"Point","coordinates":[79.867555,6.832478]}},{"type":"Feature","properties":{"name":"Mahinda Florists","name_en":null,"amenity":null,"shop":"florist","tourism":null,"man_made":null},"geometry":{"type":"Point","coordinates":[79.867528,6.83265]}},{"type":"Feature","properties":{"name":"Prestige Court Residence Hotel","name_en":null,"amenity":null,"shop":null,"tourism":"hotel","man_made":null},"geometry":{"type":"Point","coordinates":[79.864946,6.832289]}},{"type":"Feature","properties":{"name":"mount lavinia post office","name_en":null,"amenity":"post_office","shop":null,"tourism":null,"man_made":null},"geometry":{"type":"Point","coordinates":[79.866443,6.832649]}},{"type":"Feature","properties":{"name":null,"name_en":null,"amenity":null,"shop":"convenience","tourism":null,"man_made":null},"geometry":{"type":"Point","coordinates":[79.867281,6.832243]}},{"type":"Feature","properties":{"name":null,"name_en":null,"amenity":null,"shop":"convenience","tourism":null,"man_made":null},"geometry":{"type":"Point","coordinates":[79.867318,6.832359]}},{"type":"Feature","properties":{"name":"Salon Elegance","name_en":null,"amenity":null,"shop":"beauty","tourism":null,"man_made":null},"geometry":{"type":"Point","coordinates":[79.867245,6.832464]}},{"type":"Feature","properties":{"name":"Food city express","name_en":null,"amenity":null,"shop":"supermarket","tourism":null,"man_made":null},"geometry":{"type":"Point","coordinates":[79.867167,6.832772]}},{"type":"Feature","properties":{"name":"Bata","name_en":null,"amenity":null,"shop":"shoes","tourism":null,"man_made":null},"geometry":{"type":"Point","coordinates":[79.867163,6.832691]}},{"type":"Feature","properties":{"name":"Cargills Food City","name_en":null,"amenity":null,"shop":"supermarket","tourism":null,"man_made":null},"geometry":{"type":"Point","coordinates":[79.867127,6.832965]}},{"type":"Feature","properties":{"name":null,"name_en":"Peoples bank","amenity":"bank","shop":null,"tourism":null,"man_made":null},"geometry":{"type":"Point","coordinates":[79.867225,6.833792]}},{"type":"Feature","properties":{"name":"BOC","name_en":null,"amenity":"atm","shop":null,"tourism":null,"man_made":null},"geometry":{"type":"Point","coordinates":[79.867238,6.83378]}},{"type":"Feature","properties":{"name":null,"name_en":"Singer Mega","amenity":null,"shop":"convenience","tourism":null,"man_made":null},"geometry":{"type":"Point","coordinates":[79.867303,6.834159]}},{"type":"Feature","properties":{"name":"Mount Lavinia Bus Stand","name_en":null,"amenity":"bus_station","shop":null,"tourism":null,"man_made":null},"geometry":{"type":"Point","coordinates":[79.867273,6.833009]}}]}