{"type":"FeatureCollection","features":[{"type":"Feature","properties":{"name":null,"name_en":"Salon ovinca mountlavinia","amenity":null,"shop":"cosmetics","tourism":null,"man_made":null,"id":"node/5100278324"},"geometry":{"type":"Point","coordinates":[79.869748,6.831242]}},{"type":"Feature","properties":{"name":"Sri Sugatha Dharmayathanaya","name_en":null,"amenity":"place_of_worship","shop":null,"tourism":null,"man_made":null,"id":"node/678640547"},"geometry":{"type":"Point","coordinates":[79.870858,6.831599]}},{"type":"Feature","properties":{"name":null,"name_en":"Salon wendys mtlavinia","amenity":null,"shop":"cosmetics","tourism":null,"man_made":null,"id":"node/5725214123"},"geometry":{"type":"Point","coordinates":[79.870269,6.830953]}},{"type":"Feature","properties":{"name":"Lalith Athulathmudali College","name_en":null,"amenity":"school","shop":null,"tourism":null,"man_made":null,"id":"node/1654309527"},"geometry":{"type":"Point","coordinates":[79.871779,6.82956]}},{"type":"Feature","properties":{"name":"5-Star Bakery","name_en":null,"amenity":null,"shop":"bakery","tourism":null,"man_made":null,"id":"node/1737502125"},"geometry":{"type":"Point","coordinates":[79.872583,6.831868]}},{"type":"Feature","properties":{"name":"NDB","name_en":"NDB Bank","amenity":"bank","shop":null,"tourism":null,"man_made":null,"id":"node/4609647907"},"geometry":{"type":"Point","coordinates":[79.867705,6.836796]}},{"type":"Feature","properties":{"name":"Little Star","name_en":"Little Star","amenity":null,"shop":"bakery","tourism":null,"man_made":null,"id":"node/5648067221"},"geometry":{"type":"Point","coordinates":[79.867287,6.83696]}},{"type":"Feature","properties":{"name":null,"name_en":"Bank of Ceylon (BOC)","amenity":"bank","shop":null,"tourism":null,"man_made":null,"id":"node/4711149289"},"geometry":{"type":"Point","coordinates":[79.867177,6.835776]}},{"type":"Feature","properties":{"name":"Sampath Bank","name_en":"Sampath Bank","amenity":"bank","shop":null,"tourism":null,"man_made":null,"id":"node/4609647908"},"geometry":{"type":"Point","coordinates":[79.867149,6.835413]}},{"type":"Feature","properties":{"name":"Big Taste","name_en":null,"amenity":"restaurant","shop":null,"tourism":null,"man_made":null,"id":"node/12388308625"},"geometry":{"type":"Point","coordinates":[79.867468,6.835041]}},{"type":"Feature","properties":{"name":null,"name_en":"Peoples bank","amenity":"bank","shop":null,"tourism":null,"man_made":null,"id":"node/4609680993"},"geometry":{"type":"Point","coordinates":[79.867225,6.833792]}},{"type":"Feature","properties":{"name":null,"name_en":"Singer Mega","amenity":null,"shop":"convenience","tourism":null,"man_made":null,"id":"node/4711114092"},"geometry":{"type":"Point","coordinates":[79.867303,6.834159]}},{"type":"Feature","properties":{"name":"BOC","name_en":null,"amenity":"atm","shop":null,"tourism":null,"man_made":null,"id":"node/5185255622"},"geometry":{"type":"Point","coordinates":[79.867238,6.83378]}},{"type":"Feature","properties":{"name":"Thapodhanaramaya","name_en":null,"amenity":"place_of_worship","shop":null,"tourism":null,"man_made":null,"id":"node/1654305500"},"geometry":{"type":"Point","coordinates":[79.868235,6.831721]}},{"type":"Feature","properties":{"name":"Taco Bell","name_en":null,"amenity":"fast_food","shop":null,"tourism":null,"man_made":null,"id":"node/9733862244"},"geometry":{"type":"Point","coordinates":[79.868337,6.829573]}},{"type":"Feature","properties":{"name":null,"name_en":"Salon dinu mountlavina","amenity":null,"shop":"cosmetics","tourism":null,"man_made":null,"id":"node/5116500822"},"geometry":{"type":"Point","coordinates":[79.868362,6.830575]}},{"type":"Feature","properties":{"name":"Elite Indian Restaurant","name_en":null,"amenity":"restaurant","shop":null,"tourism":null,"man_made":null,"id":"node/9936301580"},"geometry":{"type":"Point","coordinates":[79.867878,6.831182]}},{"type":"Feature","properties":{"name":null,"name_en":"New lovers mountlavinia","amenity":null,"shop":"beauty","tourism":null,"man_made":null,"id":"node/4954409225"},"geometry":{"type":"Point","coordinates":[79.867765,6.831067]}},{"type":"Feature","properties":{"name":null,"name_en":"Salon mirror mountlavinia","amenity":null,"shop":"cosmetics","tourism":null,"man_made":null,"id":"node/4954409226"},"geometry":{"type":"Point","coordinates":[79.867499,6.831042]}},{"type":"Feature","properties":{"name":null,"name_en":null,"amenity":"atm","shop":null,"tourism":null,"man_made":null,"id":"node/9379015327"},"geometry":{"type":"Point","coordinates":[79.867802,6.830729]}},{"type":"Feature","properties":{"name":"British College of Applied Studies","name_en":null,"amenity":"college","shop":null,"tourism":null,"man_made":null,"id":"node/6466232466"},"geometry":{"type":"Point","coordinates":[79.867443,6.830504]}},{"type":"Feature","properties":{"name":null,"name_en":null,"amenity":null,"shop":"convenience","tourism":null,"man_made":null,"id":"node/5632203289"},"geometry":{"type":"Point","coordinates":[79.867281,6.832243]}},{"type":"Feature","properties":{"name":null,"name_en":"Salon finesse mountlavinia","amenity":null,"shop":"cosmetics","tourism":null,"man_made":null,"id":"node/5581871227"},"geometry":{"type":"Point","coordinates":[79.867339,6.832087]}},{"type":"Feature","properties":{"name":"Keells Super, Mount Lavinia.","name_en":null,"amenity":null,"shop":"supermarket","tourism":null,"man_made":null,"id":"node/621917716"},"geometry":{"type":"Point","coordinates":[79.867327,6.831863]}},{"type":"Feature","properties":{"name":null,"name_en":null,"amenity":null,"shop":"convenience","tourism":null,"man_made":null,"id":"node/5632202904"},"geometry":{"type":"Point","coordinates":[79.867592,6.832308]}},{"type":"Feature","properties":{"name":null,"name_en":null,"amenity":null,"shop":"convenience","tourism":null,"man_made":null,"id":"node/5632202903"},"geometry":{"type":"Point","coordinates":[79.867509,6.832303]}},{"type":"Feature","properties":{"name":"HNB","name_en":null,"amenity":"bank","shop":null,"tourism":null,"man_made":null,"id":"node/1249816149"},"geometry":{"type":"Point","coordinates":[79.867555,6.832478]}},{"type":"Feature","properties":{"name":"Mahinda Florists","name_en":null,"amenity":null,"shop":"florist","tourism":null,"man_made":null,"id":"node/1683616012"},"geometry":{"type":"Point","coordinates":[79.867528,6.83265]}},{"type":"Feature","properties":{"name":"Mount Lavinia Bus Stand","name_en":null,"amenity":"bus_station","shop":null,"tourism":null,"man_made":null,"id":"node/1664611736"},"geometry":{"type":"Point","coordinates":[79.867273,6.833009]}},{"type":"Feature","properties":{"name":null,"name_en":null,"amenity":null,"shop":"convenience","tourism":null,"man_made":null,"id":"node/5632203232"},"geometry":{"type":"Point","coordinates":[79.867318,6.832359]}},{"type":"Feature","properties":{"name":"Salon Elegance","name_en":null,"amenity":null,"shop":"beauty","tourism":null,"man_made":null,"id":"node/5632203229"},"geometry":{"type":"Point","coordinates":[79.867245,6.832464]}},{"type":"Feature","properties":{"name":"Food city express","name_en":null,"amenity":null,"shop":"supermarket","tourism":null,"man_made":null,"id":"node/1990943761"},"geometry":{"type":"Point","coordinates":[79.867167,6.832772]}},{"type":"Feature","properties":{"name":"Bata","name_en":null,"amenity":null,"shop":"shoes","tourism":null,"man_made":null,"id":"node/5616352966"},"geometry":{"type":"Point","coordinates":[79.867163,6.832691]}},{"type":"Feature","properties":{"name":"Cargills Food City","name_en":null,"amenity":null,"shop":"supermarket","tourism":null,"man_made":null,"id":"node/269032442"},"geometry":{"type":"Point","coordinates":[79.867127,6.832965]}},{"type":"Feature","properties":{"name":"mount lavinia post office","name_en":null,"amenity":"post_office","shop":null,"tourism":null,"man_made":null,"id":"node/1990941099"},"geometry":{"type":"Point","coordinates":[79.866443,6.832649]}},{"type":"Feature","properties":{"name":"Maharhishi Ayurveda Hospital","name_en":null,"amenity":"hospital","shop":null,"tourism":null,"man_made":null,"id":"node/8594262509"},"geometry":{"type":"Point","coordinates":[79.865675,6.830397]}},{"type":"Feature","properties":{"name":"Prestige Court Residence Hotel","name_en":null,"amenity":null,"shop":null,"tourism":"hotel","man_made":null,"id":"node/3130764938"},"geometry":{"type":"Point","coordinates":[79.864946,6.832289]}},{"type":"Feature","properties":{"name":"Girls High School","name_en":null,"amenity":"school","shop":null,"tourism":null,"man_made":null,"id":"node/652406107"},"geometry":{"type":"Point","coordinates":[79.864985,6.834606]}},{"type":"Feature","properties":{"name":"The Vintage Club Hostel","name_en":null,"amenity":null,"shop":null,"tourism":"hostel","man_made":null,"id":"node/4142626848"},"geometry":{"type":"Point","coordinates":[79.865915,6.834661]}},{"type":"Feature","properties":{"name":"Golden Bridge Guest House","name_en":null,"amenity":null,"shop":null,"tourism":"hotel","man_made":null,"id":"node/3130764932"},"geometry":{"type":"Point","coordinates":[79.865868,6.835499]}},{"type":"Feature","properties":{"name":"Softlogic GLOMARK","name_en":null,"amenity":null,"shop":"supermarket","tourism":null,"man_made":null,"id":"node/9936308591"},"geometry":{"type":"Point","coordinates":[79.866818,6.836215]}},{"type":"Feature","properties":{"name":null,"name_en":null,"amenity":"atm","shop":null,"tourism":null,"man_made":null,"id":"node/13105594130"},"geometry":{"type":"Point","coordinates":[79.866314,6.83707]}},{"type":"Feature","properties":{"name":"Popeyes","name_en":null,"amenity":"fast_food","shop":null,"tourism":null,"man_made":null,"id":"node/9936308592"},"geometry":{"type":"Point","coordinates":[79.866307,6.836274]}},{"type":"Feature","properties":{"name":"Aqua Marine Holiday Homes","name_en":null,"amenity":null,"shop":null,"tourism":"hotel","man_made":null,"id":"node/3130764931"},"geometry":{"type":"Point","coordinates":[79.865311,6.835737]}},{"type":"Feature","properties":{"name":"Thilanka beach resort","name_en":null,"amenity":"restaurant","shop":null,"tourism":null,"man_made":null,"id":"node/8594263247"},"geometry":{"type":"Point","coordinates":[79.864885,6.835284]}},{"type":"Feature","properties":{"name":"Omni Holiday Bungalow","name_en":null,"amenity":null,"shop":null,"tourism":"hotel","man_made":null,"id":"node/3130764934"},"geometry":{"type":"Point","coordinates":[79.864034,6.835236]}},{"type":"Feature","properties":{"name":"Mount Lodge","name_en":null,"amenity":null,"shop":null,"tourism":"hotel","man_made":null,"id":"node/3130764936"},"geometry":{"type":"Point","coordinates":[79.864481,6.833533]}},{"type":"Feature","properties":{"name":null,"name_en":null,"amenity":"parking","shop":null,"tourism":null,"man_made":null,"id":"node/621919946"},"geometry":{"type":"Point","coordinates":[79.863213,6.833561]}},{"type":"Feature","properties":{"name":null,"name_en":"Mini supermarket and Gem Store","amenity":null,"shop":"supermarket","tourism":null,"man_made":null,"id":"node/5317654428"},"geometry":{"type":"Point","coordinates":[79.862966,6.833358]}},{"type":"Feature","properties":{"name":null,"name_en":null,"amenity":null,"shop":null,"tourism":null,"man_made":"water_tower","id":"node/8137532364"},"geometry":{"type":"Point","coordinates":[79.862906,6.83356]}},{"type":"Feature","properties":{"name":"Relaxn On Hotel","name_en":null,"amenity":null,"shop":null,"tourism":"hotel","man_made":null,"id":"node/3130764935"},"geometry":{"type":"Point","coordinates":[79.862563,6.833473]}},{"type":"Feature","properties":{"name":"La Langousterie","name_en":null,"amenity":"restaurant","shop":null,"tourism":null,"man_made":null,"id":"node/8594261102"},"geometry":{"type":"Point","coordinates":[79.863061,6.835941]}},{"type":"Feature","properties":{"name":"Ranveli Beach Resort","name_en":null,"amenity":null,"shop":null,"tourism":"hotel","man_made":null,"id":"node/3130764933"},"geometry":{"type":"Point","coordinates":[79.863422,6.835692]}},{"type":"Feature","properties":{"name":"Rivi Ras Hotel","name_en":null,"amenity":null,"shop":null,"tourism":"hotel","man_made":null,"id":"node/3130764930"},"geometry":{"type":"Point","coordinates":[79.863555,6.835745]}},{"type":"Feature","properties":{"name":"Sunil beach resort","name_en":null,"amenity":"restaurant","shop":null,"tourism":null,"man_made":null,"id":"node/8594249343"},"geometry":{"type":"Point","coordinates":[79.863301,6.836661]}},{"type":"Feature","properties":{"name":null,"name_en":"Mount Casadi","amenity":"restaurant","shop":null,"tourism":null,"man_made":null,"id":"node/4574074789"},"geometry":{"type":"Point","coordinates":[79.862603,6.830025]}},{"type":"Feature","properties":{"name":"Hotel Sunhill","name_en":null,"amenity":null,"shop":null,"tourism":"hotel","man_made":null,"id":"node/3130764939"},"geometry":{"type":"Point","coordinates":[79.863246,6.831244]}},{"type":"Feature","properties":{"name":"Lavinia House","name_en":null,"amenity":null,"shop":null,"tourism":"hotel","man_made":null,"id":"node/3130764937"},"geometry":{"type":"Point","coordinates":[79.864502,6.832847]}},{"type":"Feature","properties":{"name":null,"name_en":"Okada Temple","amenity":null,"shop":null,"tourism":"attraction","man_made":null,"id":"node/5317654427"},"geometry":{"type":"Point","coordinates":[79.864012,6.828522]}},{"type":"Feature","properties":{"name":null,"name_en":null,"amenity":"bank","shop":null,"tourism":null,"man_made":null,"id":"node/652398687"},"geometry":{"type":"Point","coordinates":[79.868192,6.828519]}},{"type":"Feature","properties":{"name":"Pizza Hut","name_en":null,"amenity":"restaurant","shop":null,"tourism":null,"man_made":null,"id":"node/9887018987"},"geometry":{"type":"Point","coordinates":[79.868071,6.829428]}},{"type":"Feature","properties":{"name":null,"name_en":"Family bakers","amenity":"cafe","shop":null,"tourism":null,"man_made":null,"id":"node/4609648100"},"geometry":{"type":"Point","coordinates":[79.868558,6.82872]}},{"type":"Feature","properties":{"name":null,"name_en":"Salon 7 mount lavinia","amenity":null,"shop":"cosmetics","tourism":null,"man_made":null,"id":"node/4971852326"},"geometry":{"type":"Point","coordinates":[79.868708,6.828451]}},{"type":"Feature","properties":{"name":"McDonald's","name_en":null,"amenity":"fast_food","shop":null,"tourism":null,"man_made":null,"id":"node/8792949875"},"geometry":{"type":"Point","coordinates":[79.868797,6.827355]}},{"type":"Feature","properties":{"name":"Jo-Jo's","name_en":null,"amenity":"bar","shop":null,"tourism":null,"man_made":null,"id":"node/3285726125"},"geometry":{"type":"Point","coordinates":[79.862881,6.841054]}},{"type":"Feature","properties":{"name":"Lavinia Breeze","name_en":null,"amenity":"restaurant","shop":null,"tourism":null,"man_made":null,"id":"node/661807990"},"geometry":{"type":"Point","coordinates":[79.86322,6.841332]}},{"type":"Feature","properties":{"name":"Haus Chandra Hotel","name_en":null,"amenity":null,"shop":null,"tourism":"hotel","man_made":null,"id":"node/598722464"},"geometry":{"type":"Point","coordinates":[79.86309,6.842271]}},{"type":"Feature","properties":{"name":"Steam Boat","name_en":null,"amenity":"restaurant","shop":null,"tourism":null,"man_made":null,"id":"node/1434108415"},"geometry":{"type":"Point","coordinates":[79.862815,6.842194]}},{"type":"Feature","properties":{"name":"Addara beach club","name_en":null,"amenity":"restaurant","shop":null,"tourism":null,"man_made":null,"id":"node/8594256619"},"geometry":{"type":"Point","coordinates":[79.862781,6.841947]}},{"type":"Feature","properties":{"name":null,"name_en":"Mount Sea Pal","amenity":"restaurant","shop":null,"tourism":null,"man_made":null,"id":"node/5648049123"},"geometry":{"type":"Point","coordinates":[79.86273,6.843003]}},{"type":"Feature","properties":{"name":"Surf club","name_en":null,"amenity":"restaurant","shop":null,"tourism":null,"man_made":null,"id":"node/8594255220"},"geometry":{"type":"Point","coordinates":[79.862596,6.843989]}},{"type":"Feature","properties":{"name":"The Villa In Lavinia","name_en":null,"amenity":null,"shop":null,"tourism":"hotel","man_made":null,"id":"node/13105632225"},"geometry":{"type":"Point","coordinates":[79.863483,6.844466]}},{"type":"Feature","properties":{"name":"Lavinia Beach Hostel","name_en":null,"amenity":null,"shop":null,"tourism":"hotel","man_made":null,"id":"node/3130733896"},"geometry":{"type":"Point","coordinates":[79.863928,6.842398]}},{"type":"Feature","properties":{"name":"Aurora Holiday House","name_en":null,"amenity":null,"shop":null,"tourism":"hotel","man_made":null,"id":"node/3130733895"},"geometry":{"type":"Point","coordinates":[79.864669,6.841689]}},{"type":"Feature","properties":{"name":"Colombo Beach Hostel","name_en":null,"amenity":null,"shop":null,"tourism":"hostel","man_made":null,"id":"node/3315836989"},"geometry":{"type":"Point","coordinates":[79.86452,6.840087]}},{"type":"Feature","properties":{"name":"Barnes Garden Café","name_en":null,"amenity":"cafe","shop":null,"tourism":null,"man_made":null,"id":"node/6782430786"},"geometry":{"type":"Point","coordinates":[79.864578,6.840148]}},{"type":"Feature","properties":{"name":"Mount breeze hotel","name_en":null,"amenity":"restaurant","shop":null,"tourism":null,"man_made":null,"id":"node/8594250504"},"geometry":{"type":"Point","coordinates":[79.863354,6.840673]}},{"type":"Feature","properties":{"name":"Mount Bay Guest House","name_en":null,"amenity":null,"shop":null,"tourism":"guest_house","man_made":null,"id":"node/11346033782"},"geometry":{"type":"Point","coordinates":[79.863502,6.840242]}},{"type":"Feature","properties":{"name":"Mount Bay Hotel","name_en":null,"amenity":null,"shop":null,"tourism":"hotel","man_made":null,"id":"node/3130733897"},"geometry":{"type":"Point","coordinates":[79.863607,6.840219]}},{"type":"Feature","properties":{"name":"Mount Breeze Hotel","name_en":null,"amenity":null,"shop":null,"tourism":"motel","man_made":null,"id":"node/1249816164"},"geometry":{"type":"Point","coordinates":[79.86324,6.84048]}},{"type":"Feature","properties":{"name":"Sawadee Beach Front","name_en":null,"amenity":"restaurant","shop":null,"tourism":null,"man_made":null,"id":"node/1249816131"},"geometry":{"type":"Point","coordinates":[79.862988,6.840448]}},{"type":"Feature","properties":{"name":null,"name_en":"La Voile Blanche","amenity":"restaurant","shop":null,"tourism":null,"man_made":null,"id":"node/5105388327"},"geometry":{"type":"Point","coordinates":[79.86297,6.840172]}},{"type":"Feature","properties":{"name":"Berjaya Mount Royal Beach Hotel","name_en":null,"amenity":null,"shop":null,"tourism":"hotel","man_made":null,"id":"node/621919953"},"geometry":{"type":"Point","coordinates":[79.863535,6.838679]}},{"type":"Feature","properties":{"name":null,"name_en":null,"amenity":"parking","shop":null,"tourism":null,"man_made":null,"id":"node/7133228692"},"geometry":{"type":"Point","coordinates":[79.863538,6.838386]}},{"type":"Feature","properties":{"name":"The Shore by O","name_en":null,"amenity":"restaurant","shop":null,"tourism":null,"man_made":null,"id":"node/1249816154"},"geometry":{"type":"Point","coordinates":[79.863272,6.838083]}},{"type":"Feature","properties":{"name":"Catamaran Seafood Restaurant","name_en":null,"amenity":"restaurant","shop":null,"tourism":null,"man_made":null,"id":"node/7133250596"},"geometry":{"type":"Point","coordinates":[79.8633,6.837819]}},{"type":"Feature","properties":{"name":"Shelton Sea Food Restaurant","name_en":null,"amenity":"restaurant","shop":null,"tourism":null,"man_made":null,"id":"node/7133159645"},"geometry":{"type":"Point","coordinates":[79.86335,6.837724]}},{"type":"Feature","properties":{"name":"The Regent Hotel","name_en":null,"amenity":null,"shop":null,"tourism":"hotel","man_made":null,"id":"node/7133159644"},"geometry":{"type":"Point","coordinates":[79.864224,6.838489]}},{"type":"Feature","properties":{"name":"Cottage Garden Bungalows","name_en":null,"amenity":null,"shop":null,"tourism":"guest_house","man_made":null,"id":"node/7133247886"},"geometry":{"type":"Point","coordinates":[79.864184,6.838686]}},{"type":"Feature","properties":{"name":null,"name_en":null,"amenity":"parking","shop":null,"tourism":null,"man_made":null,"id":"node/7133235343"},"geometry":{"type":"Point","coordinates":[79.864516,6.838477]}},{"type":"Feature","properties":{"name":"Tropic Inn - Mount Lavinia","name_en":"Tropic Inn - Restaurant","amenity":null,"shop":null,"tourism":"guest_house","man_made":null,"id":"node/1554576963"},"geometry":{"type":"Point","coordinates":[79.865119,6.838719]}},{"type":"Feature","properties":{"name":null,"name_en":"The Pit Stop","amenity":"cafe","shop":null,"tourism":null,"man_made":null,"id":"node/5648049122"},"geometry":{"type":"Point","coordinates":[79.864854,6.838962]}},{"type":"Feature","properties":{"name":"Ivory Inn","name_en":null,"amenity":null,"shop":null,"tourism":"hotel","man_made":null,"id":"node/3130733900"},"geometry":{"type":"Point","coordinates":[79.864782,6.839802]}},{"type":"Feature","properties":{"name":"Royce Hotel","name_en":null,"amenity":null,"shop":null,"tourism":"hotel","man_made":null,"id":"node/3130733898"},"geometry":{"type":"Point","coordinates":[79.865695,6.840254]}},{"type":"Feature","properties":{"name":null,"name_en":"Hotel Mount Lanka","amenity":null,"shop":null,"tourism":"hotel","man_made":null,"id":"node/4449258289"},"geometry":{"type":"Point","coordinates":[79.866275,6.839083]}},{"type":"Feature","properties":{"name":"Ocen Blue House","name_en":null,"amenity":null,"shop":null,"tourism":"hotel","man_made":null,"id":"node/3130733899"},"geometry":{"type":"Point","coordinates":[79.866601,6.840129]}},{"type":"Feature","properties":{"name":null,"name_en":null,"amenity":"atm","shop":null,"tourism":null,"man_made":null,"id":"node/13105617596"},"geometry":{"type":"Point","coordinates":[79.866588,6.83875]}},{"type":"Feature","properties":{"name":"Cargills Food City","name_en":null,"amenity":null,"shop":"supermarket","tourism":null,"man_made":null,"id":"node/1643928818"},"geometry":{"type":"Point","coordinates":[79.867289,6.837249]}},{"type":"Feature","properties":{"name":"Sri Jinarathana Gilan Bikku Ashramaya","name_en":"Sri Jinarathana Resident for Ill Monks","amenity":"place_of_worship","shop":null,"tourism":null,"man_made":null,"id":"node/4806433881"},"geometry":{"type":"Point","coordinates":[79.867027,6.838499]}},{"type":"Feature","properties":{"name":"Sleek saloon","name_en":null,"amenity":null,"shop":"hairdresser","tourism":null,"man_made":null,"id":"node/9887018986"},"geometry":{"type":"Point","coordinates":[79.86737,6.83882]}},{"type":"Feature","properties":{"name":"Ginsomin","name_en":null,"amenity":"pharmacy","shop":null,"tourism":null,"man_made":null,"id":"node/7133250972"},"geometry":{"type":"Point","coordinates":[79.867662,6.838173]}},{"type":"Feature","properties":{"name":null,"name_en":"Rf salon mountlaviniya","amenity":null,"shop":"cosmetics","tourism":null,"man_made":null,"id":"node/4954424022"},"geometry":{"type":"Point","coordinates":[79.867519,6.839964]}},{"type":"Feature","properties":{"name":"DFCV Bank","name_en":null,"amenity":"bank","shop":null,"tourism":null,"man_made":null,"id":"node/1870009411"},"geometry":{"type":"Point","coordinates":[79.867355,6.840981]}},{"type":"Feature","properties":{"name":"Subway","name_en":"Subway","amenity":"fast_food","shop":null,"tourism":null,"man_made":null,"id":"node/4590512292"},"geometry":{"type":"Point","coordinates":[79.867181,6.841401]}},{"type":"Feature","properties":{"name":null,"name_en":"suboda adarsha colleg","amenity":"college","shop":null,"tourism":null,"man_made":null,"id":"node/11842924070"},"geometry":{"type":"Point","coordinates":[79.867383,6.841901]}},{"type":"Feature","properties":{"name":null,"name_en":"Casserole","amenity":"restaurant","shop":null,"tourism":null,"man_made":null,"id":"node/7615406295"},"geometry":{"type":"Point","coordinates":[79.86711,6.841861]}},{"type":"Feature","properties":{"name":"Family Super","name_en":null,"amenity":null,"shop":"supermarket","tourism":null,"man_made":null,"id":"node/621925778"},"geometry":{"type":"Point","coordinates":[79.867123,6.841872]}},{"type":"Feature","properties":{"name":"Lanka IOC","name_en":null,"amenity":"fuel","shop":null,"tourism":null,"man_made":null,"id":"node/621925782"},"geometry":{"type":"Point","coordinates":[79.866925,6.84237]}},{"type":"Feature","properties":{"name":null,"name_en":"Evergreen hostel","amenity":null,"shop":null,"tourism":"hostel","man_made":null,"id":"node/5646899221"},"geometry":{"type":"Point","coordinates":[79.867569,6.842807]}},{"type":"Feature","properties":{"name":null,"name_en":"Hejaaz International Boys School","amenity":"school","shop":null,"tourism":null,"man_made":null,"id":"node/5606158822"},"geometry":{"type":"Point","coordinates":[79.868215,6.843139]}},{"type":"Feature","properties":{"name":null,"name_en":"Home as home","amenity":null,"shop":null,"tourism":"guest_house","man_made":null,"id":"node/4582159690"},"geometry":{"type":"Point","coordinates":[79.869074,6.842989]}},{"type":"Feature","properties":{"name":"St.Anthoney's Church","name_en":null,"amenity":"place_of_worship","shop":null,"tourism":null,"man_made":null,"id":"node/673953424"},"geometry":{"type":"Point","coordinates":[79.867556,6.843859]}},{"type":"Feature","properties":{"name":"Odeon","name_en":null,"amenity":"cinema","shop":null,"tourism":null,"man_made":null,"id":"node/1663867910"},"geometry":{"type":"Point","coordinates":[79.865852,6.844329]}},{"type":"Feature","properties":{"name":null,"name_en":"Cup Cafe","amenity":"cafe","shop":null,"tourism":null,"man_made":null,"id":"node/5103202333"},"geometry":{"type":"Point","coordinates":[79.866331,6.843834]}},{"type":"Feature","properties":{"name":null,"name_en":"US Car Sale","amenity":null,"shop":"car","tourism":null,"man_made":null,"id":"node/4711117490"},"geometry":{"type":"Point","coordinates":[79.866721,6.843262]}},{"type":"Feature","properties":{"name":"Burger King","name_en":null,"amenity":"fast_food","shop":null,"tourism":null,"man_made":null,"id":"node/4590512291"},"geometry":{"type":"Point","coordinates":[79.866639,6.842183]}},{"type":"Feature","properties":{"name":"Arthur's Pizza","name_en":null,"amenity":"restaurant","shop":null,"tourism":null,"man_made":null,"id":"node/4457451959"},"geometry":{"type":"Point","coordinates":[79.86683,6.841764]}},{"type":"Feature","properties":{"name":"Lion Pub","name_en":null,"amenity":"pub","shop":null,"tourism":null,"man_made":null,"id":"node/1249816171"},"geometry":{"type":"Point","coordinates":[79.866839,6.841644]}},{"type":"Feature","properties":{"name":"Dinducal Thalapakattu Buriyani","name_en":null,"amenity":"restaurant","shop":null,"tourism":null,"man_made":null,"id":"node/1643932408"},"geometry":{"type":"Point","coordinates":[79.866877,6.841404]}},{"type":"Feature","properties":{"name":"Fifteen Beach Road House","name_en":null,"amenity":null,"shop":null,"tourism":"hotel","man_made":null,"id":"node/3130733894"},"geometry":{"type":"Point","coordinates":[79.86491,6.84244]}},{"type":"Feature","properties":{"name":null,"name_en":"CircleCeylon Airbnb","amenity":null,"shop":null,"tourism":"apartment","man_made":null,"id":"node/5484270824"},"geometry":{"type":"Point","coordinates":[79.864746,6.842453]}},{"type":"Feature","properties":{"name":"Dammika Home","name_en":null,"amenity":null,"shop":null,"tourism":"hotel","man_made":null,"id":"node/3130733890"},"geometry":{"type":"Point","coordinates":[79.865171,6.843796]}},{"type":"Feature","properties":{"name":null,"name_en":"Lavinia Villa","amenity":null,"shop":null,"tourism":"hotel","man_made":null,"id":"node/4805790921"},"geometry":{"type":"Point","coordinates":[79.865458,6.843972]}},{"type":"Feature","properties":{"name":"Lavinia Villa","name_en":null,"amenity":null,"shop":null,"tourism":"hotel","man_made":null,"id":"node/3130733891"},"geometry":{"type":"Point","coordinates":[79.865047,6.845145]}},{"type":"Feature","properties":{"name":null,"name_en":"Tuk Tuk Rental","amenity":null,"shop":"travel_agency","tourism":null,"man_made":null,"id":"node/6339232385"},"geometry":{"type":"Point","coordinates":[79.864872,6.847584]}},{"type":"Feature","properties":{"name":null,"name_en":null,"amenity":"parking","shop":null,"tourism":null,"man_made":null,"id":"node/1533913606"},"geometry":{"type":"Point","coordinates":[79.866463,6.846907]}},{"type":"Feature","properties":{"name":"Commercial Bank of Ceylon","name_en":null,"amenity":"bank","shop":null,"tourism":null,"man_made":null,"id":"node/1870009410"},"geometry":{"type":"Point","coordinates":[79.866577,6.846733]}},{"type":"Feature","properties":{"name":"Ceypetco","name_en":null,"amenity":"fuel","shop":null,"tourism":null,"man_made":null,"id":"node/1249807538"},"geometry":{"type":"Point","coordinates":[79.866003,6.846339]}},{"type":"Feature","properties":{"name":"NOLIMIT Glitz","name_en":null,"amenity":null,"shop":"clothes","tourism":null,"man_made":null,"id":"node/621940779"},"geometry":{"type":"Point","coordinates":[79.866426,6.845324]}},{"type":"Feature","properties":{"name":null,"name_en":null,"amenity":"school","shop":null,"tourism":null,"man_made":null,"id":"node/1533913616"},"geometry":{"type":"Point","coordinates":[79.867757,6.846509]}},{"type":"Feature","properties":{"name":"Yum Yum Fine Foods","name_en":null,"amenity":null,"shop":"confectionery","tourism":null,"man_made":null,"id":"node/4733825095"},"geometry":{"type":"Point","coordinates":[79.867355,6.846694]}},{"type":"Feature","properties":{"name":null,"name_en":"Nippon paint center","amenity":null,"shop":"variety_store","tourism":null,"man_made":null,"id":"node/11842920569"},"geometry":{"type":"Point","coordinates":[79.865904,6.848792]}},{"type":"Feature","properties":{"name":null,"name_en":null,"amenity":null,"shop":null,"tourism":"apartment","man_made":null,"id":"node/11842856169"},"geometry":{"type":"Point","coordinates":[79.86589,6.848826]}},{"type":"Feature","properties":{"name":null,"name_en":"Nippon paint","amenity":null,"shop":"variety_store","tourism":null,"man_made":null,"id":"node/11842920769"},"geometry":{"type":"Point","coordinates":[79.865931,6.848906]}},{"type":"Feature","properties":{"name":"Dehiwala Gold House","name_en":null,"amenity":null,"shop":"jewelry","tourism":null,"man_made":null,"id":"node/12002014231"},"geometry":{"type":"Point","coordinates":[79.865781,6.849017]}},{"type":"Feature","properties":{"name":"no place","name_en":null,"amenity":"pharmacy","shop":null,"tourism":null,"man_made":null,"id":"node/11842763172"},"geometry":{"type":"Point","coordinates":[79.865342,6.848993]}},{"type":"Feature","properties":{"name":null,"name_en":"AMI Monteaaori housef children","amenity":"childcare","shop":null,"tourism":null,"man_made":null,"id":"node/11842967691"},"geometry":{"type":"Point","coordinates":[79.863685,6.848999]}},{"type":"Feature","properties":{"name":null,"name_en":"cgr2","amenity":null,"shop":null,"tourism":"apartment","man_made":null,"id":"node/11842769884"},"geometry":{"type":"Point","coordinates":[79.862409,6.848476]}},{"type":"Feature","properties":{"name":"Anu-Subodharamaya Temple","name_en":null,"amenity":"place_of_worship","shop":null,"tourism":null,"man_made":null,"id":"node/1528654167"},"geometry":{"type":"Point","coordinates":[79.872097,6.845057]}},{"type":"Feature","properties":{"name":"Summer Soft Cotton","name_en":null,"amenity":null,"shop":"clothes","tourism":null,"man_made":null,"id":"node/12983272825"},"geometry":{"type":"Point","coordinates":[79.869505,6.842608]}},{"type":"Feature","properties":{"name":"Sumanarama Temple","name_en":null,"amenity":"place_of_worship","shop":null,"tourism":null,"man_made":null,"id":"node/673953425"},"geometry":{"type":"Point","coordinates":[79.870117,6.840718]}},{"type":"Feature","properties":{"name":null,"name_en":"34/1/1 Sumanarama","amenity":null,"shop":null,"tourism":"guest_house","man_made":null,"id":"node/4400519590"},"geometry":{"type":"Point","coordinates":[79.869167,6.840108]}},{"type":"Feature","properties":{"name":"34/1/1 Sumanarama Hostel","name_en":"Hôtel","amenity":null,"shop":null,"tourism":"hostel","man_made":null,"id":"node/4270366491"},"geometry":{"type":"Point","coordinates":[79.869326,6.840157]}},{"type":"Feature","properties":{"name":"Najaa International School","name_en":null,"amenity":"school","shop":null,"tourism":null,"man_made":null,"id":"node/7133210345"},"geometry":{"type":"Point","coordinates":[79.869158,6.83862]}},{"type":"Feature","properties":{"name":"Jumma Mosque","name_en":null,"amenity":"place_of_worship","shop":null,"tourism":null,"man_made":null,"id":"node/678612526"},"geometry":{"type":"Point","coordinates":[79.869514,6.837246]}},{"type":"Feature","properties":{"name":"Shashtrananda School","name_en":null,"amenity":"place_of_worship","shop":null,"tourism":null,"man_made":null,"id":"node/673953427"},"geometry":{"type":"Point","coordinates":[79.874106,6.843981]}},{"type":"Feature","properties":{"name":null,"name_en":null,"amenity":null,"shop":"convenience","tourism":null,"man_made":null,"id":"node/1528655557"},"geometry":{"type":"Point","coordinates":[79.875554,6.844228]}}]}