{"type":"FeatureCollection","features":[{"type":"Feature","properties":{"id":1,"SVF_value1":0.549,"SVF_Class":"Mixed"},"geometry":{"type":"Point","coordinates":[79.867176,6.833025]}},{"type":"Feature","properties":{"id":2,"SVF_value1":0.631,"SVF_Class":"Mixed"},"geometry":{"type":"Point","coordinates":[79.867193,6.832942]}},{"type":"Feature","properties":{"id":3,"SVF_value1":0.907,"SVF_Class":"Very Open"},"geometry":{"type":"Point","coordinates":[79.867189,6.832826]}},{"type":"Feature","properties":{"id":4,"SVF_value1":0.638,"SVF_Class":"Mixed"},"geometry":{"type":"Point","coordinates":[79.867197,6.832693]}},{"type":"Feature","properties":{"id":5,"SVF_value1":0.715,"SVF_Class":"Open"},"geometry":{"type":"Point","coordinates":[79.867252,6.832789]}},{"type":"Feature","properties":{"id":6,"SVF_value1":0.687,"SVF_Class":"Mixed"},"geometry":{"type":"Point","coordinates":[79.867262,6.832865]}},{"type":"Feature","properties":{"id":7,"SVF_value1":0.625,"SVF_Class":"Mixed"},"geometry":{"type":"Point","coordinates":[79.867179,6.832863]}},{"type":"Feature","properties":{"id":8,"SVF_value1":0.756,"SVF_Class":"Open"},"geometry":{"type":"Point","coordinates":[79.86726,6.832943]}},{"type":"Feature","properties":{"id":9,"SVF_value1":0.75,"SVF_Class":"Open"},"geometry":{"type":"Point","coordinates":[79.867257,6.833043]}},{"type":"Feature","properties":{"id":10,"SVF_value1":0.513,"SVF_Class":"Mixed"},"geometry":{"type":"Point","coordinates":[79.86726,6.832653]}},{"type":"Feature","properties":{"id":11,"SVF_value1":0.809,"SVF_Class":"Open"},"geometry":{"type":"Point","coordinates":[79.867279,6.832728]}},{"type":"Feature","properties":{"id":12,"SVF_value1":0.634,"SVF_Class":"Mixed"},"geometry":{"type":"Point","coordinates":[79.867109,6.83267]}},{"type":"Feature","properties":{"id":13,"SVF_value1":0.649,"SVF_Class":"Mixed"},"geometry":{"type":"Point","coordinates":[79.866976,6.832659]}},{"type":"Feature","properties":{"id":14,"SVF_value1":0.221,"SVF_Class":"Very Enclosed"},"geometry":{"type":"Point","coordinates":[79.866788,6.832653]}},{"type":"Feature","properties":{"id":15,"SVF_value1":0.613,"SVF_Class":"Mixed"},"geometry":{"type":"Point","coordinates":[79.866618,6.832622]}},{"type":"Feature","properties":{"id":16,"SVF_value1":0.43,"SVF_Class":"Moderately Enclosed"},"geometry":{"type":"Point","coordinates":[79.866706,6.832573]}},{"type":"Feature","properties":{"id":17,"SVF_value1":0.747,"SVF_Class":"Open"},"geometry":{"type":"Point","coordinates":[79.866868,6.832578]}},{"type":"Feature","properties":{"id":18,"SVF_value1":0.748,"SVF_Class":"Open"},"geometry":{"type":"Point","coordinates":[79.867039,6.832583]}},{"type":"Feature","properties":{"id":19,"SVF_value1":0.668,"SVF_Class":"Mixed"},"geometry":{"type":"Point","coordinates":[79.866836,6.83237]}},{"type":"Feature","properties":{"id":20,"SVF_value1":0.549,"SVF_Class":"Mixed"},"geometry":{"type":"Point","coordinates":[79.867061,6.832527]}},{"type":"Feature","properties":{"id":21,"SVF_value1":0.778,"SVF_Class":"Open"},"geometry":{"type":"Point","coordinates":[79.867055,6.832449]}},{"type":"Feature","properties":{"id":22,"SVF_value1":0.733,"SVF_Class":"Open"},"geometry":{"type":"Point","coordinates":[79.867212,6.832539]}},{"type":"Feature","properties":{"id":23,"SVF_value1":0.894,"SVF_Class":"Very Open"},"geometry":{"type":"Point","coordinates":[79.867303,6.832522]}},{"type":"Feature","properties":{"id":24,"SVF_value1":0.773,"SVF_Class":"Open"},"geometry":{"type":"Point","coordinates":[79.866842,6.832459]}},{"type":"Feature","properties":{"id":25,"SVF_value1":0.769,"SVF_Class":"Open"},"geometry":{"type":"Point","coordinates":[79.866921,6.83246]}},{"type":"Feature","properties":{"id":26,"SVF_value1":0.785,"SVF_Class":"Open"},"geometry":{"type":"Point","coordinates":[79.866988,6.832472]}},{"type":"Feature","properties":{"id":27,"SVF_value1":0.675,"SVF_Class":"Mixed"},"geometry":{"type":"Point","coordinates":[79.866707,6.832478]}},{"type":"Feature","properties":{"id":28,"SVF_value1":0.809,"SVF_Class":"Open"},"geometry":{"type":"Point","coordinates":[79.866925,6.832531]}},{"type":"Feature","properties":{"id":29,"SVF_value1":0.673,"SVF_Class":"Mixed"},"geometry":{"type":"Point","coordinates":[79.866783,6.832519]}},{"type":"Feature","properties":{"id":30,"SVF_value1":0.872,"SVF_Class":"Very Open"},"geometry":{"type":"Point","coordinates":[79.867307,6.83259]}},{"type":"Feature","properties":{"id":31,"SVF_value1":0.752,"SVF_Class":"Open"},"geometry":{"type":"Point","coordinates":[79.867364,6.833027]}},{"type":"Feature","properties":{"id":32,"SVF_value1":0.828,"SVF_Class":"Open"},"geometry":{"type":"Point","coordinates":[79.867378,6.832801]}},{"type":"Feature","properties":{"id":33,"SVF_value1":0.888,"SVF_Class":"Very Open"},"geometry":{"type":"Point","coordinates":[79.867402,6.832533]}},{"type":"Feature","properties":{"id":34,"SVF_value1":0.908,"SVF_Class":"Very Open"},"geometry":{"type":"Point","coordinates":[79.867426,6.832284]}},{"type":"Feature","properties":{"id":35,"SVF_value1":0.879,"SVF_Class":"Very Open"},"geometry":{"type":"Point","coordinates":[79.867469,6.831945]}},{"type":"Feature","properties":{"id":36,"SVF_value1":0.847,"SVF_Class":"Open"},"geometry":{"type":"Point","coordinates":[79.867587,6.83141]}},{"type":"Feature","properties":{"id":37,"SVF_value1":0.915,"SVF_Class":"Very Open"},"geometry":{"type":"Point","coordinates":[79.867654,6.831081]}},{"type":"Feature","properties":{"id":38,"SVF_value1":0.878,"SVF_Class":"Very Open"},"geometry":{"type":"Point","coordinates":[79.867739,6.830826]}},{"type":"Feature","properties":{"id":39,"SVF_value1":0.876,"SVF_Class":"Very Open"},"geometry":{"type":"Point","coordinates":[79.867802,6.830477]}},{"type":"Feature","properties":{"id":40,"SVF_value1":0.054,"SVF_Class":"Very Enclosed"},"geometry":{"type":"Point","coordinates":[79.866528,6.832582]}},{"type":"Feature","properties":{"id":41,"SVF_value1":0.317,"SVF_Class":"Moderately Enclosed"},"geometry":{"type":"Point","coordinates":[79.86642,6.832566]}},{"type":"Feature","properties":{"id":42,"SVF_value1":0.604,"SVF_Class":"Mixed"},"geometry":{"type":"Point","coordinates":[79.866343,6.832467]}},{"type":"Feature","properties":{"id":43,"SVF_value1":0.877,"SVF_Class":"Very Open"},"geometry":{"type":"Point","coordinates":[79.866528,6.832462]}},{"type":"Feature","properties":{"id":44,"SVF_value1":0.661,"SVF_Class":"Mixed"},"geometry":{"type":"Point","coordinates":[79.866572,6.832511]}},{"type":"Feature","properties":{"id":45,"SVF_value1":0.458,"SVF_Class":"Moderately Enclosed"},"geometry":{"type":"Point","coordinates":[79.866405,6.832514]}},{"type":"Feature","properties":{"id":46,"SVF_value1":0.038,"SVF_Class":"Very Enclosed"},"geometry":{"type":"Point","coordinates":[79.866278,6.832511]}},{"type":"Feature","properties":{"id":47,"SVF_value1":0.223,"SVF_Class":"Very Enclosed"},"geometry":{"type":"Point","coordinates":[79.866163,6.832534]}},{"type":"Feature","properties":{"id":48,"SVF_value1":0.443,"SVF_Class":"Moderately Enclosed"},"geometry":{"type":"Point","coordinates":[79.866172,6.832452]}},{"type":"Feature","properties":{"id":49,"SVF_value1":0.416,"SVF_Class":"Moderately Enclosed"},"geometry":{"type":"Point","coordinates":[79.866591,6.832765]}},{"type":"Feature","properties":{"id":50,"SVF_value1":0.34,"SVF_Class":"Moderately Enclosed"},"geometry":{"type":"Point","coordinates":[79.866576,6.832948]}},{"type":"Feature","properties":{"id":51,"SVF_value1":0.447,"SVF_Class":"Moderately Enclosed"},"geometry":{"type":"Point","coordinates":[79.86653,6.832695]}},{"type":"Feature","properties":{"id":52,"SVF_value1":0.063,"SVF_Class":"Very Enclosed"},"geometry":{"type":"Point","coordinates":[79.866535,6.832806]}},{"type":"Feature","properties":{"id":53,"SVF_value1":0.019,"SVF_Class":"Very Enclosed"},"geometry":{"type":"Point","coordinates":[79.866525,6.832947]}},{"type":"Feature","properties":{"id":54,"SVF_value1":0.885,"SVF_Class":"Very Open"},"geometry":{"type":"Point","coordinates":[79.866619,6.832957]}},{"type":"Feature","properties":{"id":55,"SVF_value1":0.828,"SVF_Class":"Open"},"geometry":{"type":"Point","coordinates":[79.866773,6.832973]}},{"type":"Feature","properties":{"id":56,"SVF_value1":0.77,"SVF_Class":"Open"},"geometry":{"type":"Point","coordinates":[79.866947,6.832984]}},{"type":"Feature","properties":{"id":57,"SVF_value1":0.723,"SVF_Class":"Open"},"geometry":{"type":"Point","coordinates":[79.867125,6.833009]}},{"type":"Feature","properties":{"id":58,"SVF_value1":0.706,"SVF_Class":"Open"},"geometry":{"type":"Point","coordinates":[79.866637,6.832672]}},{"type":"Feature","properties":{"id":59,"SVF_value1":0.357,"SVF_Class":"Moderately Enclosed"},"geometry":{"type":"Point","coordinates":[79.86677,6.832687]}},{"type":"Feature","properties":{"id":60,"SVF_value1":0.791,"SVF_Class":"Open"},"geometry":{"type":"Point","coordinates":[79.866935,6.832694]}},{"type":"Feature","properties":{"id":61,"SVF_value1":0.801,"SVF_Class":"Open"},"geometry":{"type":"Point","coordinates":[79.867125,6.832704]}},{"type":"Feature","properties":{"id":62,"SVF_value1":0.867,"SVF_Class":"Very Open"},"geometry":{"type":"Point","coordinates":[79.867147,6.832843]}},{"type":"Feature","properties":{"id":63,"SVF_value1":0.596,"SVF_Class":"Mixed"},"geometry":{"type":"Point","coordinates":[79.866936,6.832821]}},{"type":"Feature","properties":{"id":64,"SVF_value1":0.491,"SVF_Class":"Moderately Enclosed"},"geometry":{"type":"Point","coordinates":[79.867027,6.832839]}},{"type":"Feature","properties":{"id":65,"SVF_value1":0.41,"SVF_Class":"Moderately Enclosed"},"geometry":{"type":"Point","coordinates":[79.867017,6.832883]}},{"type":"Feature","properties":{"id":66,"SVF_value1":0.557,"SVF_Class":"Mixed"},"geometry":{"type":"Point","coordinates":[79.866818,6.83288]}},{"type":"Feature","properties":{"id":67,"SVF_value1":0.856,"SVF_Class":"Very Open"},"geometry":{"type":"Point","coordinates":[79.866815,6.832771]}},{"type":"Feature","properties":{"id":68,"SVF_value1":0.932,"SVF_Class":"Very Open"},"geometry":{"type":"Point","coordinates":[79.867033,6.83278]}},{"type":"Feature","properties":{"id":69,"SVF_value1":0.842,"SVF_Class":"Open"},"geometry":{"type":"Point","coordinates":[79.866919,6.832775]}},{"type":"Feature","properties":{"id":70,"SVF_value1":0.498,"SVF_Class":"Moderately Enclosed"},"geometry":{"type":"Point","coordinates":[79.866922,6.832883]}},{"type":"Feature","properties":{"id":71,"SVF_value1":0.607,"SVF_Class":"Mixed"},"geometry":{"type":"Point","coordinates":[79.866873,6.832835]}},{"type":"Feature","properties":{"id":72,"SVF_value1":0.487,"SVF_Class":"Moderately Enclosed"},"geometry":{"type":"Point","coordinates":[79.866977,6.832855]}},{"type":"Feature","properties":{"id":73,"SVF_value1":0.477,"SVF_Class":"Moderately Enclosed"},"geometry":{"type":"Point","coordinates":[79.866983,6.832807]}},{"type":"Feature","properties":{"id":74,"SVF_value1":0.51,"SVF_Class":"Mixed"},"geometry":{"type":"Point","coordinates":[79.866846,6.832804]}},{"type":"Feature","properties":{"id":75,"SVF_value1":0.947,"SVF_Class":"Very Open"},"geometry":{"type":"Point","coordinates":[79.866732,6.832804]}},{"type":"Feature","properties":{"id":76,"SVF_value1":0.854,"SVF_Class":"Very Open"},"geometry":{"type":"Point","coordinates":[79.867085,6.832933]}},{"type":"Feature","properties":{"id":77,"SVF_value1":0.888,"SVF_Class":"Very Open"},"geometry":{"type":"Point","coordinates":[79.866721,6.832902]}},{"type":"Feature","properties":{"id":78,"SVF_value1":0.743,"SVF_Class":"Open"},"geometry":{"type":"Point","coordinates":[79.867187,6.832754]}},{"type":"Feature","properties":{"id":79,"SVF_value1":0.743,"SVF_Class":"Open"},"geometry":{"type":"Point","coordinates":[79.867237,6.832738]}},{"type":"Feature","properties":{"id":80,"SVF_value1":0.69,"SVF_Class":"Mixed"},"geometry":{"type":"Point","coordinates":[79.86723,6.832897]}},{"type":"Feature","properties":{"id":81,"SVF_value1":0.669,"SVF_Class":"Mixed"},"geometry":{"type":"Point","coordinates":[79.867219,6.83302]}},{"type":"Feature","properties":{"id":82,"SVF_value1":0.468,"SVF_Class":"Moderately Enclosed"},"geometry":{"type":"Point","coordinates":[79.866684,6.833035]}},{"type":"Feature","properties":{"id":83,"SVF_value1":0.368,"SVF_Class":"Moderately Enclosed"},"geometry":{"type":"Point","coordinates":[79.866808,6.833046]}},{"type":"Feature","properties":{"id":84,"SVF_value1":0.352,"SVF_Class":"Moderately Enclosed"},"geometry":{"type":"Point","coordinates":[79.866983,6.833054]}},{"type":"Feature","properties":{"id":85,"SVF_value1":0.369,"SVF_Class":"Moderately Enclosed"},"geometry":{"type":"Point","coordinates":[79.867128,6.833058]}},{"type":"Feature","properties":{"id":86,"SVF_value1":0.623,"SVF_Class":"Mixed"},"geometry":{"type":"Point","coordinates":[79.867126,6.833239]}},{"type":"Feature","properties":{"id":87,"SVF_value1":0.033,"SVF_Class":"Very Enclosed"},"geometry":{"type":"Point","coordinates":[79.866989,6.833277]}},{"type":"Feature","properties":{"id":88,"SVF_value1":0.365,"SVF_Class":"Moderately Enclosed"},"geometry":{"type":"Point","coordinates":[79.866875,6.83325]}},{"type":"Feature","properties":{"id":89,"SVF_value1":0.385,"SVF_Class":"Moderately Enclosed"},"geometry":{"type":"Point","coordinates":[79.866882,6.833143]}},{"type":"Feature","properties":{"id":90,"SVF_value1":0.048,"SVF_Class":"Very Enclosed"},"geometry":{"type":"Point","coordinates":[79.866991,6.833157]}},{"type":"Feature","properties":{"id":91,"SVF_value1":0.541,"SVF_Class":"Mixed"},"geometry":{"type":"Point","coordinates":[79.867222,6.833267]}},{"type":"Feature","properties":{"id":92,"SVF_value1":0.51,"SVF_Class":"Mixed"},"geometry":{"type":"Point","coordinates":[79.867236,6.833144]}},{"type":"Feature","properties":{"id":93,"SVF_value1":0.692,"SVF_Class":"Mixed"},"geometry":{"type":"Point","coordinates":[79.867294,6.833186]}},{"type":"Feature","properties":{"id":94,"SVF_value1":0.017,"SVF_Class":"Very Enclosed"},"geometry":{"type":"Point","coordinates":[79.86682,6.833234]}},{"type":"Feature","properties":{"id":95,"SVF_value1":0.52,"SVF_Class":"Mixed"},"geometry":{"type":"Point","coordinates":[79.866778,6.833152]}},{"type":"Feature","properties":{"id":96,"SVF_value1":0.03,"SVF_Class":"Very Enclosed"},"geometry":{"type":"Point","coordinates":[79.866943,6.833211]}},{"type":"Feature","properties":{"id":97,"SVF_value1":0.031,"SVF_Class":"Very Enclosed"},"geometry":{"type":"Point","coordinates":[79.867088,6.833267]}},{"type":"Feature","properties":{"id":98,"SVF_value1":0.016,"SVF_Class":"Very Enclosed"},"geometry":{"type":"Point","coordinates":[79.86685,6.83317]}},{"type":"Feature","properties":{"id":99,"SVF_value1":0.016,"SVF_Class":"Very Enclosed"},"geometry":{"type":"Point","coordinates":[79.866855,6.833308]}},{"type":"Feature","properties":{"id":100,"SVF_value1":0.453,"SVF_Class":"Moderately Enclosed"},"geometry":{"type":"Point","coordinates":[79.867245,6.833317]}},{"type":"Feature","properties":{"id":101,"SVF_value1":0.126,"SVF_Class":"Very Enclosed"},"geometry":{"type":"Point","coordinates":[79.867141,6.833123]}},{"type":"Feature","properties":{"id":102,"SVF_value1":0.783,"SVF_Class":"Open"},"geometry":{"type":"Point","coordinates":[79.866617,6.833081]}},{"type":"Feature","properties":{"id":103,"SVF_value1":0.559,"SVF_Class":"Mixed"},"geometry":{"type":"Point","coordinates":[79.866932,6.832384]}},{"type":"Feature","properties":{"id":104,"SVF_value1":0.198,"SVF_Class":"Very Enclosed"},"geometry":{"type":"Point","coordinates":[79.867033,6.832402]}},{"type":"Feature","properties":{"id":105,"SVF_value1":0.022,"SVF_Class":"Very Enclosed"},"geometry":{"type":"Point","coordinates":[79.867173,6.832602]}},{"type":"Feature","properties":{"id":106,"SVF_value1":0.534,"SVF_Class":"Mixed"},"geometry":{"type":"Point","coordinates":[79.866962,6.832915]}},{"type":"Feature","properties":{"id":107,"SVF_value1":0.761,"SVF_Class":"Open"},"geometry":{"type":"Point","coordinates":[79.866871,6.832919]}},{"type":"Feature","properties":{"id":108,"SVF_value1":0.573,"SVF_Class":"Mixed"},"geometry":{"type":"Point","coordinates":[79.866809,6.832822]}},{"type":"Feature","properties":{"id":109,"SVF_value1":0.723,"SVF_Class":"Open"},"geometry":{"type":"Point","coordinates":[79.866797,6.832915]}},{"type":"Feature","properties":{"id":110,"SVF_value1":0.419,"SVF_Class":"Moderately Enclosed"},"geometry":{"type":"Point","coordinates":[79.867022,6.832914]}},{"type":"Feature","properties":{"id":111,"SVF_value1":0.925,"SVF_Class":"Very Open"},"geometry":{"type":"Point","coordinates":[79.867098,6.832747]}},{"type":"Feature","properties":{"id":112,"SVF_value1":0.94,"SVF_Class":"Very Open"},"geometry":{"type":"Point","coordinates":[79.866693,6.832743]}},{"type":"Feature","properties":{"id":113,"SVF_value1":0.845,"SVF_Class":"Open"},"geometry":{"type":"Point","coordinates":[79.866659,6.83285]}},{"type":"Feature","properties":{"id":114,"SVF_value1":0.725,"SVF_Class":"Open"},"geometry":{"type":"Point","coordinates":[79.867037,6.832992]}},{"type":"Feature","properties":{"id":115,"SVF_value1":0.783,"SVF_Class":"Open"},"geometry":{"type":"Point","coordinates":[79.866865,6.832992]}},{"type":"Feature","properties":{"id":116,"SVF_value1":0.768,"SVF_Class":"Open"},"geometry":{"type":"Point","coordinates":[79.866684,6.832982]}},{"type":"Feature","properties":{"id":117,"SVF_value1":0.936,"SVF_Class":"Very Open"},"geometry":{"type":"Point","coordinates":[79.867113,6.8328]}},{"type":"Feature","properties":{"id":118,"SVF_value1":0.65,"SVF_Class":"Mixed"},"geometry":{"type":"Point","coordinates":[79.866841,6.832689]}},{"type":"Feature","properties":{"id":119,"SVF_value1":0.789,"SVF_Class":"Open"},"geometry":{"type":"Point","coordinates":[79.866606,6.832841]}},{"type":"Feature","properties":{"id":120,"SVF_value1":0.131,"SVF_Class":"Very Enclosed"},"geometry":{"type":"Point","coordinates":[79.866537,6.832874]}},{"type":"Feature","properties":{"id":121,"SVF_value1":0.674,"SVF_Class":"Mixed"},"geometry":{"type":"Point","coordinates":[79.867633,6.830701]}},{"type":"Feature","properties":{"id":122,"SVF_value1":0.668,"SVF_Class":"Mixed"},"geometry":{"type":"Point","coordinates":[79.867763,6.830983]}},{"type":"Feature","properties":{"id":123,"SVF_value1":0.744,"SVF_Class":"Open"},"geometry":{"type":"Point","coordinates":[79.867499,6.831139]}},{"type":"Feature","properties":{"id":124,"SVF_value1":0.86,"SVF_Class":"Very Open"},"geometry":{"type":"Point","coordinates":[79.867394,6.831466]}},{"type":"Feature","properties":{"id":125,"SVF_value1":0.638,"SVF_Class":"Mixed"},"geometry":{"type":"Point","coordinates":[79.867608,6.831644]}},{"type":"Feature","properties":{"id":126,"SVF_value1":0.857,"SVF_Class":"Very Open"},"geometry":{"type":"Point","coordinates":[79.867318,6.831642]}},{"type":"Feature","properties":{"id":127,"SVF_value1":0.9,"SVF_Class":"Very Open"},"geometry":{"type":"Point","coordinates":[79.867288,6.831926]}},{"type":"Feature","properties":{"id":128,"SVF_value1":0.689,"SVF_Class":"Mixed"},"geometry":{"type":"Point","coordinates":[79.867319,6.832241]}},{"type":"Feature","properties":{"id":129,"SVF_value1":0.618,"SVF_Class":"Mixed"},"geometry":{"type":"Point","coordinates":[79.866755,6.832259]}},{"type":"Feature","properties":{"id":130,"SVF_value1":0.605,"SVF_Class":"Mixed"},"geometry":{"type":"Point","coordinates":[79.866732,6.832362]}},{"type":"Feature","properties":{"id":131,"SVF_value1":0.625,"SVF_Class":"Mixed"},"geometry":{"type":"Point","coordinates":[79.866833,6.832216]}},{"type":"Feature","properties":{"id":132,"SVF_value1":0.366,"SVF_Class":"Moderately Enclosed"},"geometry":{"type":"Point","coordinates":[79.866967,6.833337]}},{"type":"Feature","properties":{"id":133,"SVF_value1":0.601,"SVF_Class":"Mixed"},"geometry":{"type":"Point","coordinates":[79.867132,6.833343]}},{"type":"Feature","properties":{"id":134,"SVF_value1":0.033,"SVF_Class":"Very Enclosed"},"geometry":{"type":"Point","coordinates":[79.866637,6.833168]}},{"type":"Feature","properties":{"id":135,"SVF_value1":0.778,"SVF_Class":"Open"},"geometry":{"type":"Point","coordinates":[79.866566,6.833258]}},{"type":"Feature","properties":{"id":136,"SVF_value1":0.332,"SVF_Class":"Moderately Enclosed"},"geometry":{"type":"Point","coordinates":[79.866536,6.833373]}},{"type":"Feature","properties":{"id":137,"SVF_value1":0.854,"SVF_Class":"Very Open"},"geometry":{"type":"Point","coordinates":[79.866646,6.833425]}},{"type":"Feature","properties":{"id":138,"SVF_value1":0.663,"SVF_Class":"Mixed"},"geometry":{"type":"Point","coordinates":[79.866712,6.833333]}},{"type":"Feature","properties":{"id":139,"SVF_value1":0.733,"SVF_Class":"Open"},"geometry":{"type":"Point","coordinates":[79.866798,6.833447]}},{"type":"Feature","properties":{"id":140,"SVF_value1":0.676,"SVF_Class":"Mixed"},"geometry":{"type":"Point","coordinates":[79.867075,6.833468]}},{"type":"Feature","properties":{"id":141,"SVF_value1":0.812,"SVF_Class":"Open"},"geometry":{"type":"Point","coordinates":[79.867221,6.833472]}},{"type":"Feature","properties":{"id":142,"SVF_value1":0.378,"SVF_Class":"Moderately Enclosed"},"geometry":{"type":"Point","coordinates":[79.866555,6.833066]}},{"type":"Feature","properties":{"id":143,"SVF_value1":0.647,"SVF_Class":"Mixed"},"geometry":{"type":"Point","coordinates":[79.866522,6.833157]}},{"type":"Feature","properties":{"id":144,"SVF_value1":0.805,"SVF_Class":"Open"},"geometry":{"type":"Point","coordinates":[79.866958,6.832608]}},{"type":"Feature","properties":{"id":145,"SVF_value1":0.225,"SVF_Class":"Very Enclosed"},"geometry":{"type":"Point","coordinates":[79.86672,6.832648]}},{"type":"Feature","properties":{"id":146,"SVF_value1":0.581,"SVF_Class":"Mixed"},"geometry":{"type":"Point","coordinates":[79.866585,6.832575]}},{"type":"Feature","properties":{"id":147,"SVF_value1":0.716,"SVF_Class":"Open"},"geometry":{"type":"Point","coordinates":[79.866654,6.832535]}},{"type":"Feature","properties":{"id":148,"SVF_value1":0.61,"SVF_Class":"Mixed"},"geometry":{"type":"Point","coordinates":[79.86748,6.832702]}},{"type":"Feature","properties":{"id":149,"SVF_value1":0.78,"SVF_Class":"Open"},"geometry":{"type":"Point","coordinates":[79.867508,6.832446]}},{"type":"Feature","properties":{"id":150,"SVF_value1":0.694,"SVF_Class":"Mixed"},"geometry":{"type":"Point","coordinates":[79.867445,6.831786]}}]}