{"type":"FeatureCollection","features":[{"type":"Feature","properties":{"id":108,"1entropy_i":0,"1average_c":0,"1landuse_d":0,"1normalize":0,"1normali_1":0,"1normali_2":0,"1urban mat":0},"geometry":{"type":"MultiPolygon","coordinates":[[[[79.863545,6.832004],[79.863595,6.832137],[79.86365,6.832268],[79.863682,6.83234],[79.863716,6.832281],[79.863529,6.831956],[79.863545,6.832004]]]]}},{"type":"Feature","properties":{"id":109,"1entropy_i":0.481264063,"1average_c":0.055433328,"1landuse_d":0.1122,"1normalize":0.722052576,"1normali_1":0.055433328,"1normali_2":0.1122,"1urban mat":0.296561968},"geometry":{"type":"MultiPolygon","coordinates":[[[[79.863316,6.831039],[79.863335,6.831179],[79.863359,6.831319],[79.863388,6.831458],[79.863421,6.831596],[79.863458,6.831733],[79.863476,6.831793],[79.863718,6.831377],[79.863458,6.830924],[79.863303,6.830924],[79.863316,6.831039]]]]}},{"type":"Feature","properties":{"id":110,"1entropy_i":0.121437574,"1average_c":0.006153067,"1landuse_d":0.1479,"1normalize":0.182195846,"1normali_1":0.006153067,"1normali_2":0.1479,"1urban mat":0.112082971},"geometry":{"type":"MultiPolygon","coordinates":[[[[79.863302,6.830046],[79.86329,6.830188],[79.863283,6.83033],[79.863281,6.830472],[79.863283,6.830614],[79.863289,6.830756],[79.8633,6.830897],[79.863303,6.830924],[79.863458,6.830924],[79.86372,6.830473],[79.863459,6.83002],[79.863305,6.83002],[79.863302,6.830046]]]]}},{"type":"Feature","properties":{"id":111,"1entropy_i":0.152433373,"1average_c":0.006427831,"1landuse_d":0.0677,"1normalize":0.228699622,"1normali_1":0.006427831,"1normali_2":0.0677,"1urban mat":0.100942484},"geometry":{"type":"MultiPolygon","coordinates":[[[[79.863463,6.829211],[79.863425,6.829348],[79.863392,6.829486],[79.863363,6.829625],[79.863338,6.829765],[79.863318,6.829905],[79.863305,6.83002],[79.863459,6.83002],[79.863721,6.829568],[79.863481,6.829151],[79.863463,6.829211]]]]}},{"type":"Feature","properties":{"id":112,"1entropy_i":0.33533437,"1average_c":0,"1landuse_d":0,"1normalize":0.503110589,"1normali_1":0,"1normali_2":0,"1urban mat":0.16770353},"geometry":{"type":"MultiPolygon","coordinates":[[[[79.863656,6.828677],[79.863602,6.828808],[79.863551,6.828941],[79.863535,6.828988],[79.863723,6.828664],[79.863689,6.828605],[79.863656,6.828677]]]]}},{"type":"Feature","properties":{"id":127,"1entropy_i":0,"1average_c":0.019272232,"1landuse_d":1,"1normalize":0,"1normali_1":0.019272232,"1normali_2":1,"1urban mat":0.339757411},"geometry":{"type":"MultiPolygon","coordinates":[[[[79.864225,6.833245],[79.864314,6.833356],[79.864377,6.83343],[79.864237,6.833186],[79.864181,6.833186],[79.864225,6.833245]]]]}},{"type":"Feature","properties":{"id":128,"1entropy_i":0.666522188,"1average_c":0.018165631,"1landuse_d":0.1148,"1normalize":1,"1normali_1":0.018165631,"1normali_2":0.1148,"1urban mat":0.37765521},"geometry":{"type":"MultiPolygon","coordinates":[[[[79.863708,6.832398],[79.86377,6.832525],[79.863836,6.832651],[79.863907,6.832774],[79.863981,6.832896],[79.864058,6.833014],[79.86414,6.833131],[79.864181,6.833186],[79.864237,6.833186],[79.864499,6.832735],[79.864238,6.832282],[79.863716,6.832281],[79.863682,6.83234],[79.863708,6.832398]]]]}},{"type":"Feature","properties":{"id":129,"1entropy_i":0.351266257,"1average_c":0.040114953,"1landuse_d":0.0719,"1normalize":0.527013599,"1normali_1":0.040114953,"1normali_2":0.0719,"1urban mat":0.213009517},"geometry":{"type":"MultiPolygon","coordinates":[[[[79.8635,6.831869],[79.863529,6.831956],[79.863716,6.832281],[79.864238,6.832282],[79.8645,6.83183],[79.86424,6.831378],[79.863718,6.831377],[79.863476,6.831793],[79.8635,6.831869]]]]}},{"type":"Feature","properties":{"id":130,"1entropy_i":0.287198439,"1average_c":0.007632165,"1landuse_d":0.1306,"1normalize":0.43089104,"1normali_1":0.007632165,"1normali_2":0.1306,"1urban mat":0.189707735},"geometry":{"type":"MultiPolygon","coordinates":[[[[79.863458,6.830924],[79.863718,6.831377],[79.86424,6.831378],[79.864502,6.830926],[79.864242,6.830474],[79.86372,6.830473],[79.863458,6.830924]]]]}},{"type":"Feature","properties":{"id":131,"1entropy_i":0.047665408,"1average_c":0.007412042,"1landuse_d":0.1235,"1normalize":0.07151361,"1normali_1":0.007412042,"1normali_2":0.1235,"1urban mat":0.067475217},"geometry":{"type":"MultiPolygon","coordinates":[[[[79.863459,6.83002],[79.86372,6.830473],[79.864242,6.830474],[79.864504,6.830022],[79.864244,6.829569],[79.863721,6.829568],[79.863459,6.83002]]]]}},{"type":"Feature","properties":{"id":132,"1entropy_i":0.454398948,"1average_c":0.006427831,"1landuse_d":0.0406,"1normalize":0.68174617,"1normali_1":0.006427831,"1normali_2":0.0406,"1urban mat":0.242924667},"geometry":{"type":"MultiPolygon","coordinates":[[[[79.863505,6.829075],[79.863481,6.829151],[79.863721,6.829568],[79.864244,6.829569],[79.864506,6.829118],[79.864245,6.828665],[79.863723,6.828664],[79.863535,6.828988],[79.863505,6.829075]]]]}},{"type":"Feature","properties":{"id":133,"1entropy_i":0.288180107,"1average_c":0.006571581,"1landuse_d":0.054,"1normalize":0.432363862,"1normali_1":0.006571581,"1normali_2":0.054,"1urban mat":0.164311814},"geometry":{"type":"MultiPolygon","coordinates":[[[[79.86415,6.827816],[79.864068,6.827932],[79.86399,6.828051],[79.863915,6.828172],[79.863845,6.828295],[79.863778,6.82842],[79.863715,6.828548],[79.863689,6.828605],[79.863723,6.828664],[79.864245,6.828665],[79.864507,6.828214],[79.864247,6.827761],[79.864191,6.827761],[79.86415,6.827816]]]]}},{"type":"Feature","properties":{"id":134,"1entropy_i":0,"1average_c":0,"1landuse_d":0.1157,"1normalize":0,"1normali_1":0,"1normali_2":0.1157,"1urban mat":0.038566667},"geometry":{"type":"MultiPolygon","coordinates":[[[[79.864324,6.827592],[79.864235,6.827703],[79.864191,6.827761],[79.864247,6.827761],[79.864388,6.827518],[79.864324,6.827592]]]]}},{"type":"Feature","properties":{"id":146,"1entropy_i":0.053986743,"1average_c":0.237149967,"1landuse_d":0.1338,"1normalize":0.080997669,"1normali_1":0.237149967,"1normali_2":0.1338,"1urban mat":0.150649212},"geometry":{"type":"MultiPolygon","coordinates":[[[[79.8646,6.833671],[79.864702,6.83377],[79.864807,6.833866],[79.864914,6.833958],[79.865025,6.834047],[79.865139,6.834133],[79.865222,6.834192],[79.86528,6.834092],[79.865019,6.83364],[79.864569,6.833639],[79.8646,6.833671]]]]}},{"type":"Feature","properties":{"id":147,"1entropy_i":0.290795028,"1average_c":0.01927237,"1landuse_d":0.1338,"1normalize":0.436287094,"1normali_1":0.01927237,"1normali_2":0.1338,"1urban mat":0.196453155},"geometry":{"type":"MultiPolygon","coordinates":[[[[79.864406,6.833464],[79.864501,6.833569],[79.864569,6.833639],[79.865019,6.83364],[79.865281,6.833188],[79.865021,6.832736],[79.864499,6.832735],[79.864237,6.833186],[79.864377,6.83343],[79.864406,6.833464]]]]}},{"type":"Feature","properties":{"id":148,"1entropy_i":0.332624777,"1average_c":0.04809075,"1landuse_d":0.0982,"1normalize":0.499045318,"1normali_1":0.04809075,"1normali_2":0.0982,"1urban mat":0.215112022},"geometry":{"type":"MultiPolygon","coordinates":[[[[79.864238,6.832282],[79.864499,6.832735],[79.865021,6.832736],[79.865283,6.832284],[79.865023,6.831831],[79.8645,6.83183],[79.864238,6.832282]]]]}},{"type":"Feature","properties":{"id":149,"1entropy_i":0,"1average_c":0.009220614,"1landuse_d":0.1077,"1normalize":0,"1normali_1":0.009220614,"1normali_2":0.1077,"1urban mat":0.038973538},"geometry":{"type":"MultiPolygon","coordinates":[[[[79.86424,6.831378],[79.8645,6.83183],[79.865023,6.831831],[79.865285,6.83138],[79.865024,6.830927],[79.864502,6.830926],[79.86424,6.831378]]]]}},{"type":"Feature","properties":{"id":150,"1entropy_i":0.03777334,"1average_c":0.014302846,"1landuse_d":0.108,"1normalize":0.056672292,"1normali_1":0.014302846,"1normali_2":0.108,"1urban mat":0.059658379},"geometry":{"type":"MultiPolygon","coordinates":[[[[79.864242,6.830474],[79.864502,6.830926],[79.865024,6.830927],[79.865286,6.830476],[79.865026,6.830023],[79.864504,6.830022],[79.864242,6.830474]]]]}},{"type":"Feature","properties":{"id":151,"1entropy_i":0.07623557,"1average_c":0.008907427,"1landuse_d":0.0886,"1normalize":0.114378142,"1normali_1":0.008907427,"1normali_2":0.0886,"1urban mat":0.070628523},"geometry":{"type":"MultiPolygon","coordinates":[[[[79.864244,6.829569],[79.864504,6.830022],[79.865026,6.830023],[79.865288,6.829571],[79.865028,6.829119],[79.864506,6.829118],[79.864244,6.829569]]]]}},{"type":"Feature","properties":{"id":152,"1entropy_i":0.348306613,"1average_c":0.010795782,"1landuse_d":0.071,"1normalize":0.52257317,"1normali_1":0.010795782,"1normali_2":0.071,"1urban mat":0.201456317},"geometry":{"type":"MultiPolygon","coordinates":[[[[79.864245,6.828665],[79.864506,6.829118],[79.865028,6.829119],[79.86529,6.828667],[79.86503,6.828215],[79.864507,6.828214],[79.864245,6.828665]]]]}},{"type":"Feature","properties":{"id":153,"1entropy_i":0.14928476,"1average_c":0.010217493,"1landuse_d":0.1011,"1normalize":0.22397568,"1normali_1":0.010217493,"1normali_2":0.1011,"1urban mat":0.111764391},"geometry":{"type":"MultiPolygon","coordinates":[[[[79.864513,6.827379],[79.864417,6.827484],[79.864388,6.827518],[79.864247,6.827761],[79.864507,6.828214],[79.86503,6.828215],[79.865292,6.827763],[79.865031,6.82731],[79.864581,6.82731],[79.864513,6.827379]]]]}},{"type":"Feature","properties":{"id":154,"1entropy_i":0.180969215,"1average_c":0.011634872,"1landuse_d":0.0841,"1normalize":0.271512664,"1normali_1":0.011634872,"1normali_2":0.0841,"1urban mat":0.122415845},"geometry":{"type":"MultiPolygon","coordinates":[[[[79.865152,6.826818],[79.865039,6.826903],[79.864928,6.826991],[79.864819,6.827083],[79.864714,6.827179],[79.864612,6.827277],[79.864581,6.82731],[79.865031,6.82731],[79.865293,6.826859],[79.865236,6.826759],[79.865152,6.826818]]]]}},{"type":"Feature","properties":{"id":166,"1entropy_i":0.183770323,"1average_c":0.140342042,"1landuse_d":0.1723,"1normalize":0.275715237,"1normali_1":0.140342042,"1normali_2":0.1723,"1urban mat":0.196119093},"geometry":{"type":"MultiPolygon","coordinates":[[[[79.865255,6.834215],[79.865373,6.834293],[79.865494,6.834367],[79.865618,6.834438],[79.865743,6.834505],[79.865871,6.834567],[79.866,6.834626],[79.866013,6.834631],[79.866062,6.834546],[79.865802,6.834093],[79.86528,6.834092],[79.865222,6.834192],[79.865255,6.834215]]]]}},{"type":"Feature","properties":{"id":167,"1entropy_i":0.151365312,"1average_c":0.249470118,"1landuse_d":0.1351,"1normalize":0.227097184,"1normali_1":0.249470118,"1normali_2":0.1351,"1urban mat":0.203889101},"geometry":{"type":"MultiPolygon","coordinates":[[[[79.865019,6.83364],[79.86528,6.834092],[79.865802,6.834093],[79.866064,6.833642],[79.865804,6.833189],[79.865281,6.833188],[79.865019,6.83364]]]]}},{"type":"Feature","properties":{"id":168,"1entropy_i":0.318447367,"1average_c":0.014696111,"1landuse_d":0.1061,"1normalize":0.477774593,"1normali_1":0.014696111,"1normali_2":0.1061,"1urban mat":0.199523568},"geometry":{"type":"MultiPolygon","coordinates":[[[[79.865021,6.832736],[79.865281,6.833188],[79.865804,6.833189],[79.866066,6.832738],[79.865805,6.832285],[79.865283,6.832284],[79.865021,6.832736]]]]}},{"type":"Feature","properties":{"id":169,"1entropy_i":0.266902593,"1average_c":0.009478203,"1landuse_d":0.1018,"1normalize":0.400440672,"1normali_1":0.009478203,"1normali_2":0.1018,"1urban mat":0.170572958},"geometry":{"type":"MultiPolygon","coordinates":[[[[79.865023,6.831831],[79.865283,6.832284],[79.865805,6.832285],[79.866067,6.831833],[79.865807,6.831381],[79.865285,6.83138],[79.865023,6.831831]]]]}},{"type":"Feature","properties":{"id":170,"1entropy_i":0.063839152,"1average_c":0.016772988,"1landuse_d":0.1485,"1normalize":0.095779486,"1normali_1":0.016772988,"1normali_2":0.1485,"1urban mat":0.087017491},"geometry":{"type":"MultiPolygon","coordinates":[[[[79.865024,6.830927],[79.865285,6.83138],[79.865807,6.831381],[79.866069,6.830929],[79.865809,6.830477],[79.865286,6.830476],[79.865024,6.830927]]]]}},{"type":"Feature","properties":{"id":171,"1entropy_i":0.04808799,"1average_c":0.008385351,"1landuse_d":0.1022,"1normalize":0.07214762,"1normali_1":0.008385351,"1normali_2":0.1022,"1urban mat":0.06091099},"geometry":{"type":"MultiPolygon","coordinates":[[[[79.865026,6.830023],[79.865286,6.830476],[79.865809,6.830477],[79.866071,6.830025],[79.865811,6.829572],[79.865288,6.829571],[79.865026,6.830023]]]]}},{"type":"Feature","properties":{"id":172,"1entropy_i":0.056102854,"1average_c":0.002925669,"1landuse_d":0.1078,"1normalize":0.084172523,"1normali_1":0.002925669,"1normali_2":0.1078,"1urban mat":0.064966064},"geometry":{"type":"MultiPolygon","coordinates":[[[[79.865028,6.829119],[79.865288,6.829571],[79.865811,6.829572],[79.866073,6.829121],[79.865812,6.828668],[79.86529,6.828667],[79.865028,6.829119]]]]}},{"type":"Feature","properties":{"id":173,"1entropy_i":0,"1average_c":0.010217493,"1landuse_d":0.1172,"1normalize":0,"1normali_1":0.010217493,"1normali_2":0.1172,"1urban mat":0.042472498},"geometry":{"type":"MultiPolygon","coordinates":[[[[79.86503,6.828215],[79.86529,6.828667],[79.865812,6.828668],[79.866074,6.828217],[79.865814,6.827764],[79.865292,6.827763],[79.86503,6.828215]]]]}},{"type":"Feature","properties":{"id":174,"1entropy_i":0.156730019,"1average_c":0.074583102,"1landuse_d":0.1217,"1normalize":0.235145989,"1normali_1":0.074583102,"1normali_2":0.1217,"1urban mat":0.143809697},"geometry":{"type":"MultiPolygon","coordinates":[[[[79.865031,6.82731],[79.865292,6.827763],[79.865814,6.827764],[79.866076,6.827312],[79.865816,6.82686],[79.865293,6.826859],[79.865031,6.82731]]]]}},{"type":"Feature","properties":{"id":175,"1entropy_i":0.156730019,"1average_c":0.191713502,"1landuse_d":0.0949,"1normalize":0.235145989,"1normali_1":0.191713502,"1normali_2":0.0949,"1urban mat":0.17391983},"geometry":{"type":"MultiPolygon","coordinates":[[[[79.866016,6.826328],[79.865886,6.826386],[79.865758,6.826448],[79.865633,6.826514],[79.865509,6.826585],[79.865388,6.826659],[79.865269,6.826736],[79.865236,6.826759],[79.865293,6.826859],[79.865816,6.82686],[79.866078,6.826408],[79.866028,6.826323],[79.866016,6.826328]]]]}},{"type":"Feature","properties":{"id":185,"1entropy_i":0,"1average_c":0.24908809,"1landuse_d":0.1054,"1normalize":0,"1normali_1":0.24908809,"1normali_2":0.1054,"1urban mat":0.118162697},"geometry":{"type":"MultiPolygon","coordinates":[[[[79.866131,6.834681],[79.866264,6.834731],[79.866398,6.834777],[79.866534,6.834819],[79.866671,6.834857],[79.866778,6.834883],[79.866585,6.834547],[79.866062,6.834546],[79.866013,6.834631],[79.866131,6.834681]]]]}},{"type":"Feature","properties":{"id":186,"1entropy_i":0.156233946,"1average_c":0.133990953,"1landuse_d":0.1361,"1normalize":0.234401718,"1normali_1":0.133990953,"1normali_2":0.1361,"1urban mat":0.168164223},"geometry":{"type":"MultiPolygon","coordinates":[[[[79.865802,6.834093],[79.866062,6.834546],[79.866585,6.834547],[79.866847,6.834095],[79.866586,6.833643],[79.866064,6.833642],[79.865802,6.834093]]]]}},{"type":"Feature","properties":{"id":187,"1entropy_i":0.417302914,"1average_c":0.13071064,"1landuse_d":0.2181,"1normalize":0.626090057,"1normali_1":0.13071064,"1normali_2":0.2181,"1urban mat":0.324966899},"geometry":{"type":"MultiPolygon","coordinates":[[[[79.865804,6.833189],[79.866064,6.833642],[79.866586,6.833643],[79.866848,6.833191],[79.866588,6.832739],[79.866066,6.832738],[79.865804,6.833189]]]]}},{"type":"Feature","properties":{"id":188,"1entropy_i":0.499532364,"1average_c":0.075057978,"1landuse_d":0.1937,"1normalize":0.749460968,"1normali_1":0.075057978,"1normali_2":0.1937,"1urban mat":0.339406316},"geometry":{"type":"MultiPolygon","coordinates":[[[[79.865805,6.832285],[79.866066,6.832738],[79.866588,6.832739],[79.86685,6.832287],[79.86659,6.831834],[79.866067,6.831833],[79.865805,6.832285]]]]}},{"type":"Feature","properties":{"id":189,"1entropy_i":0.142427492,"1average_c":0.015705725,"1landuse_d":0.1511,"1normalize":0.213687548,"1normali_1":0.015705725,"1normali_2":0.1511,"1urban mat":0.126831091},"geometry":{"type":"MultiPolygon","coordinates":[[[[79.865807,6.831381],[79.866067,6.831833],[79.86659,6.831834],[79.866852,6.831383],[79.866591,6.83093],[79.866069,6.830929],[79.865807,6.831381]]]]}},{"type":"Feature","properties":{"id":190,"1entropy_i":0,"1average_c":0.009930753,"1landuse_d":0.1335,"1normalize":0,"1normali_1":0.009930753,"1normali_2":0.1335,"1urban mat":0.047810251},"geometry":{"type":"MultiPolygon","coordinates":[[[[79.865809,6.830477],[79.866069,6.830929],[79.866591,6.83093],[79.866853,6.830479],[79.866593,6.830026],[79.866071,6.830025],[79.865809,6.830477]]]]}},{"type":"Feature","properties":{"id":191,"1entropy_i":0,"1average_c":0.009371629,"1landuse_d":0.1399,"1normalize":0,"1normali_1":0.009371629,"1normali_2":0.1399,"1urban mat":0.04975721},"geometry":{"type":"MultiPolygon","coordinates":[[[[79.865811,6.829572],[79.866071,6.830025],[79.866593,6.830026],[79.866855,6.829574],[79.866595,6.829122],[79.866073,6.829121],[79.865811,6.829572]]]]}},{"type":"Feature","properties":{"id":192,"1entropy_i":0.020536474,"1average_c":0.014184052,"1landuse_d":0.1044,"1normalize":0.030811388,"1normali_1":0.014184052,"1normali_2":0.1044,"1urban mat":0.04979848},"geometry":{"type":"MultiPolygon","coordinates":[[[[79.865812,6.828668],[79.866073,6.829121],[79.866595,6.829122],[79.866857,6.82867],[79.866597,6.828218],[79.866074,6.828217],[79.865812,6.828668]]]]}},{"type":"Feature","properties":{"id":193,"1entropy_i":0.040727039,"1average_c":0.012665476,"1landuse_d":0.1548,"1normalize":0.061103801,"1normali_1":0.012665476,"1normali_2":0.1548,"1urban mat":0.076189759},"geometry":{"type":"MultiPolygon","coordinates":[[[[79.865814,6.827764],[79.866074,6.828217],[79.866597,6.828218],[79.866859,6.827766],[79.866598,6.827313],[79.866076,6.827312],[79.865814,6.827764]]]]}},{"type":"Feature","properties":{"id":194,"1entropy_i":0.018313658,"1average_c":0.060899634,"1landuse_d":0.1069,"1normalize":0.027476442,"1normali_1":0.060899634,"1normali_2":0.1069,"1urban mat":0.065092025},"geometry":{"type":"MultiPolygon","coordinates":[[[[79.865816,6.82686],[79.866076,6.827312],[79.866598,6.827313],[79.86686,6.826862],[79.8666,6.826409],[79.866078,6.826408],[79.865816,6.82686]]]]}},{"type":"Feature","properties":{"id":195,"1entropy_i":0,"1average_c":0.016306263,"1landuse_d":0.1227,"1normalize":0,"1normali_1":0.016306263,"1normali_2":0.1227,"1urban mat":0.046335421},"geometry":{"type":"MultiPolygon","coordinates":[[[[79.866688,6.826099],[79.866551,6.826136],[79.866415,6.826178],[79.86628,6.826224],[79.866147,6.826274],[79.866028,6.826323],[79.866078,6.826408],[79.8666,6.826409],[79.866794,6.826074],[79.866688,6.826099]]]]}},{"type":"Feature","properties":{"id":206,"1entropy_i":0.338901088,"1average_c":1,"1landuse_d":0.1767,"1normalize":0.508461825,"1normali_1":1,"1normali_2":0.1767,"1urban mat":0.561720608},"geometry":{"type":"MultiPolygon","coordinates":[[[[79.866809,6.834891],[79.866948,6.83492],[79.867088,6.834944],[79.867229,6.834965],[79.86737,6.834981],[79.867378,6.834981],[79.867629,6.834549],[79.867369,6.834096],[79.866847,6.834095],[79.866585,6.834547],[79.866778,6.834883],[79.866809,6.834891]]]]}},{"type":"Feature","properties":{"id":207,"1entropy_i":0.281197854,"1average_c":0.672964605,"1landuse_d":0.1581,"1normalize":0.421888212,"1normali_1":0.672964605,"1normali_2":0.1581,"1urban mat":0.417650939},"geometry":{"type":"MultiPolygon","coordinates":[[[[79.866586,6.833643],[79.866847,6.834095],[79.867369,6.834096],[79.867631,6.833645],[79.867371,6.833192],[79.866848,6.833191],[79.866586,6.833643]]]]}},{"type":"Feature","properties":{"id":208,"1entropy_i":0.261268283,"1average_c":0.371208835,"1landuse_d":0.1824,"1normalize":0.391987375,"1normali_1":0.371208835,"1normali_2":0.1824,"1urban mat":0.315198737},"geometry":{"type":"MultiPolygon","coordinates":[[[[79.866588,6.832739],[79.866848,6.833191],[79.867371,6.833192],[79.867633,6.832741],[79.867372,6.832288],[79.86685,6.832287],[79.866588,6.832739]]]]}},{"type":"Feature","properties":{"id":209,"1entropy_i":0.318244769,"1average_c":0.4085315,"1landuse_d":0.1162,"1normalize":0.47747063,"1normali_1":0.4085315,"1normali_2":0.1162,"1urban mat":0.334067377},"geometry":{"type":"MultiPolygon","coordinates":[[[[79.86659,6.831834],[79.86685,6.832287],[79.867372,6.832288],[79.867634,6.831836],[79.867374,6.831384],[79.866852,6.831383],[79.86659,6.831834]]]]}},{"type":"Feature","properties":{"id":210,"1entropy_i":0.165170047,"1average_c":0.285034631,"1landuse_d":0.1804,"1normalize":0.247808775,"1normali_1":0.285034631,"1normali_2":0.1804,"1urban mat":0.237747802},"geometry":{"type":"MultiPolygon","coordinates":[[[[79.866591,6.83093],[79.866852,6.831383],[79.867374,6.831384],[79.867636,6.830932],[79.867376,6.83048],[79.866853,6.830479],[79.866591,6.83093]]]]}},{"type":"Feature","properties":{"id":211,"1entropy_i":0.248101228,"1average_c":0.018888392,"1landuse_d":0.1511,"1normalize":0.372232511,"1normali_1":0.018888392,"1normali_2":0.1511,"1urban mat":0.180740301},"geometry":{"type":"MultiPolygon","coordinates":[[[[79.866593,6.830026],[79.866853,6.830479],[79.867376,6.83048],[79.867638,6.830028],[79.867377,6.829575],[79.866855,6.829574],[79.866593,6.830026]]]]}},{"type":"Feature","properties":{"id":212,"1entropy_i":0,"1average_c":0.018234937,"1landuse_d":0.0515,"1normalize":0,"1normali_1":0.018234937,"1normali_2":0.0515,"1urban mat":0.023244979},"geometry":{"type":"MultiPolygon","coordinates":[[[[79.866595,6.829122],[79.866855,6.829574],[79.867377,6.829575],[79.867639,6.829124],[79.867379,6.828671],[79.866857,6.82867],[79.866595,6.829122]]]]}},{"type":"Feature","properties":{"id":213,"1entropy_i":0.014721568,"1average_c":0.013191899,"1landuse_d":0.1501,"1normalize":0.022087139,"1normali_1":0.013191899,"1normali_2":0.1501,"1urban mat":0.061793013},"geometry":{"type":"MultiPolygon","coordinates":[[[[79.866597,6.828218],[79.866857,6.82867],[79.867379,6.828671],[79.867641,6.82822],[79.867381,6.827767],[79.866859,6.827766],[79.866597,6.828218]]]]}},{"type":"Feature","properties":{"id":214,"1entropy_i":0.095882395,"1average_c":0.155488589,"1landuse_d":0.1047,"1normalize":0.143854769,"1normali_1":0.155488589,"1normali_2":0.1047,"1urban mat":0.134681119},"geometry":{"type":"MultiPolygon","coordinates":[[[[79.866598,6.827313],[79.866859,6.827766],[79.867381,6.827767],[79.867643,6.827315],[79.867383,6.826863],[79.86686,6.826862],[79.866598,6.827313]]]]}},{"type":"Feature","properties":{"id":215,"1entropy_i":0.19362816,"1average_c":0.539312491,"1landuse_d":0.0927,"1normalize":0.290505198,"1normali_1":0.539312491,"1normali_2":0.0927,"1urban mat":0.307505896},"geometry":{"type":"MultiPolygon","coordinates":[[[[79.867387,6.825979],[79.867246,6.825994],[79.867105,6.826014],[79.866965,6.826038],[79.866826,6.826066],[79.866794,6.826074],[79.8666,6.826409],[79.86686,6.826862],[79.867383,6.826863],[79.867645,6.826411],[79.867395,6.825978],[79.867387,6.825979]]]]}},{"type":"Feature","properties":{"id":225,"1entropy_i":0.297283643,"1average_c":0.905902903,"1landuse_d":0.1631,"1normalize":0.446022126,"1normali_1":0.905902903,"1normali_2":0.1631,"1urban mat":0.505008343},"geometry":{"type":"MultiPolygon","coordinates":[[[[79.867512,6.834992],[79.867654,6.834999],[79.867796,6.835001],[79.867938,6.834999],[79.86808,6.834993],[79.868221,6.834982],[79.868363,6.834967],[79.868389,6.834963],[79.868151,6.83455],[79.867629,6.834549],[79.867378,6.834981],[79.867512,6.834992]]]]}},{"type":"Feature","properties":{"id":226,"1entropy_i":0.297283643,"1average_c":0.805902903,"1landuse_d":0.1954,"1normalize":0.446022126,"1normali_1":0.805902903,"1normali_2":0.1954,"1urban mat":0.482441677},"geometry":{"type":"MultiPolygon","coordinates":[[[[79.867369,6.834096],[79.867629,6.834549],[79.868151,6.83455],[79.868414,6.834098],[79.868153,6.833646],[79.867631,6.833645],[79.867369,6.834096]]]]}},{"type":"Feature","properties":{"id":227,"1entropy_i":0.350951866,"1average_c":0.176108641,"1landuse_d":0.1065,"1normalize":0.526541911,"1normali_1":0.176108641,"1normali_2":0.1065,"1urban mat":0.269716851},"geometry":{"type":"MultiPolygon","coordinates":[[[[79.867371,6.833192],[79.867631,6.833645],[79.868153,6.833646],[79.868415,6.833194],[79.868155,6.832742],[79.867633,6.832741],[79.867371,6.833192]]]]}},{"type":"Feature","properties":{"id":228,"1entropy_i":0.484259753,"1average_c":0.905902903,"1landuse_d":0.0862,"1normalize":0.726547086,"1normali_1":0.905902903,"1normali_2":0.0862,"1urban mat":0.57288333},"geometry":{"type":"MultiPolygon","coordinates":[[[[79.867372,6.832288],[79.867633,6.832741],[79.868155,6.832742],[79.868417,6.83229],[79.868157,6.831837],[79.867634,6.831836],[79.867372,6.832288]]]]}},{"type":"Feature","properties":{"id":229,"1entropy_i":0.410783012,"1average_c":0.672250496,"1landuse_d":0.1062,"1normalize":0.616308084,"1normali_1":0.672250496,"1normali_2":0.1062,"1urban mat":0.464919527},"geometry":{"type":"MultiPolygon","coordinates":[[[[79.867374,6.831384],[79.867634,6.831836],[79.868157,6.831837],[79.868419,6.831386],[79.868158,6.830933],[79.867636,6.830932],[79.867374,6.831384]]]]}},{"type":"Feature","properties":{"id":230,"1entropy_i":0.455136412,"1average_c":0.342242051,"1landuse_d":0.1335,"1normalize":0.682852604,"1normali_1":0.342242051,"1normali_2":0.1335,"1urban mat":0.386198218},"geometry":{"type":"MultiPolygon","coordinates":[[[[79.867376,6.83048],[79.867636,6.830932],[79.868158,6.830933],[79.86842,6.830482],[79.86816,6.830029],[79.867638,6.830028],[79.867376,6.83048]]]]}},{"type":"Feature","properties":{"id":231,"1entropy_i":0.229129296,"1average_c":0.344992083,"1landuse_d":0.0879,"1normalize":0.343768445,"1normali_1":0.344992083,"1normali_2":0.0879,"1urban mat":0.258886843},"geometry":{"type":"MultiPolygon","coordinates":[[[[79.867377,6.829575],[79.867638,6.830028],[79.86816,6.830029],[79.868422,6.829577],[79.868162,6.829125],[79.867639,6.829124],[79.867377,6.829575]]]]}},{"type":"Feature","properties":{"id":232,"1entropy_i":0.1970523,"1average_c":0.010194095,"1landuse_d":0.0973,"1normalize":0.295642521,"1normali_1":0.010194095,"1normali_2":0.0973,"1urban mat":0.134378872},"geometry":{"type":"MultiPolygon","coordinates":[[[[79.867379,6.828671],[79.867639,6.829124],[79.868162,6.829125],[79.868424,6.828673],[79.868163,6.82822],[79.867641,6.82822],[79.867379,6.828671]]]]}},{"type":"Feature","properties":{"id":233,"1entropy_i":0.179754474,"1average_c":0.008953238,"1landuse_d":0.1149,"1normalize":0.269690157,"1normali_1":0.008953238,"1normali_2":0.1149,"1urban mat":0.131181132},"geometry":{"type":"MultiPolygon","coordinates":[[[[79.867381,6.827767],[79.867641,6.82822],[79.868163,6.82822],[79.868425,6.827769],[79.868165,6.827316],[79.867643,6.827315],[79.867381,6.827767]]]]}},{"type":"Feature","properties":{"id":234,"1entropy_i":0.101129892,"1average_c":0.200692604,"1landuse_d":0.099,"1normalize":0.15172772,"1normali_1":0.200692604,"1normali_2":0.099,"1urban mat":0.150473441},"geometry":{"type":"MultiPolygon","coordinates":[[[[79.867383,6.826863],[79.867643,6.827315],[79.868165,6.827316],[79.868427,6.826865],[79.868167,6.826412],[79.867645,6.826411],[79.867383,6.826863]]]]}},{"type":"Feature","properties":{"id":235,"1entropy_i":0.216809742,"1average_c":0.008338387,"1landuse_d":0.1364,"1normalize":0.325285108,"1normali_1":0.008338387,"1normali_2":0.1364,"1urban mat":0.156674498},"geometry":{"type":"MultiPolygon","coordinates":[[[[79.86838,6.825996],[79.868238,6.82598],[79.868097,6.825969],[79.867955,6.825962],[79.867813,6.825959],[79.867671,6.825961],[79.867529,6.825968],[79.867395,6.825978],[79.867645,6.826411],[79.868167,6.826412],[79.868406,6.826],[79.86838,6.825996]]]]}},{"type":"Feature","properties":{"id":246,"1entropy_i":0,"1average_c":0.017073847,"1landuse_d":0.112,"1normalize":0,"1normali_1":0.017073847,"1normali_2":0.112,"1urban mat":0.043024616},"geometry":{"type":"MultiPolygon","coordinates":[[[[79.868503,6.834947],[79.868643,6.834923],[79.868783,6.834894],[79.868921,6.834861],[79.869034,6.834831],[79.869196,6.834552],[79.868936,6.834099],[79.868414,6.834098],[79.868151,6.83455],[79.868389,6.834963],[79.868503,6.834947]]]]}},{"type":"Feature","properties":{"id":247,"1entropy_i":0.254416376,"1average_c":0.018539621,"1landuse_d":0.1574,"1normalize":0.381707287,"1normali_1":0.018539621,"1normali_2":0.1574,"1urban mat":0.185882303},"geometry":{"type":"MultiPolygon","coordinates":[[[[79.868153,6.833646],[79.868414,6.834098],[79.868936,6.834099],[79.869198,6.833648],[79.868938,6.833195],[79.868415,6.833194],[79.868153,6.833646]]]]}},{"type":"Feature","properties":{"id":248,"1entropy_i":0.040226103,"1average_c":0.096754594,"1landuse_d":0.0816,"1normalize":0.060352234,"1normali_1":0.096754594,"1normali_2":0.0816,"1urban mat":0.079568943},"geometry":{"type":"MultiPolygon","coordinates":[[[[79.868155,6.832742],[79.868415,6.833194],[79.868938,6.833195],[79.8692,6.832744],[79.868939,6.832291],[79.868417,6.83229],[79.868155,6.832742]]]]}},{"type":"Feature","properties":{"id":249,"1entropy_i":0.150201392,"1average_c":0.01601413,"1landuse_d":0.1012,"1normalize":0.225350925,"1normali_1":0.01601413,"1normali_2":0.1012,"1urban mat":0.114188352},"geometry":{"type":"MultiPolygon","coordinates":[[[[79.868157,6.831837],[79.868417,6.83229],[79.868939,6.832291],[79.869201,6.831839],[79.868941,6.831387],[79.868419,6.831386],[79.868157,6.831837]]]]}},{"type":"Feature","properties":{"id":250,"1entropy_i":0.312621718,"1average_c":0.012328763,"1landuse_d":0.0924,"1normalize":0.469034225,"1normali_1":0.012328763,"1normali_2":0.0924,"1urban mat":0.191254329},"geometry":{"type":"MultiPolygon","coordinates":[[[[79.868158,6.830933],[79.868419,6.831386],[79.868941,6.831387],[79.869203,6.830935],[79.868943,6.830482],[79.86842,6.830482],[79.868158,6.830933]]]]}},{"type":"Feature","properties":{"id":251,"1entropy_i":0.212498506,"1average_c":0.018849984,"1landuse_d":0.1237,"1normalize":0.318816853,"1normali_1":0.018849984,"1normali_2":0.1237,"1urban mat":0.153788945},"geometry":{"type":"MultiPolygon","coordinates":[[[[79.86816,6.830029],[79.86842,6.830482],[79.868943,6.830482],[79.869205,6.830031],[79.868944,6.829578],[79.868422,6.829577],[79.86816,6.830029]]]]}},{"type":"Feature","properties":{"id":252,"1entropy_i":0.270154299,"1average_c":0.298477144,"1landuse_d":0.0899,"1normalize":0.405319289,"1normali_1":0.298477144,"1normali_2":0.0899,"1urban mat":0.264565478},"geometry":{"type":"MultiPolygon","coordinates":[[[[79.868162,6.829125],[79.868422,6.829577],[79.868944,6.829578],[79.869206,6.829127],[79.868946,6.828674],[79.868424,6.828673],[79.868162,6.829125]]]]}},{"type":"Feature","properties":{"id":253,"1entropy_i":0.173013885,"1average_c":0.382002277,"1landuse_d":0.091,"1normalize":0.259577083,"1normali_1":0.382002277,"1normali_2":0.091,"1urban mat":0.24419312},"geometry":{"type":"MultiPolygon","coordinates":[[[[79.868163,6.82822],[79.868424,6.828673],[79.868946,6.828674],[79.869208,6.828222],[79.868948,6.82777],[79.868425,6.827769],[79.868163,6.82822]]]]}},{"type":"Feature","properties":{"id":254,"1entropy_i":0.090094879,"1average_c":0.422011485,"1landuse_d":0.1223,"1normalize":0.135171613,"1normali_1":0.422011485,"1normali_2":0.1223,"1urban mat":0.226494366},"geometry":{"type":"MultiPolygon","coordinates":[[[[79.868165,6.827316],[79.868425,6.827769],[79.868948,6.82777],[79.86921,6.827318],[79.868949,6.826866],[79.868427,6.826865],[79.868165,6.827316]]]]}},{"type":"Feature","properties":{"id":255,"1entropy_i":0,"1average_c":0.012273417,"1landuse_d":0.097,"1normalize":0,"1normali_1":0.012273417,"1normali_2":0.097,"1urban mat":0.036424472},"geometry":{"type":"MultiPolygon","coordinates":[[[[79.868937,6.826103],[79.868799,6.82607],[79.86866,6.826041],[79.86852,6.826016],[79.868406,6.826],[79.868167,6.826412],[79.868427,6.826865],[79.868949,6.826866],[79.869211,6.826414],[79.869051,6.826135],[79.868937,6.826103]]]]}},{"type":"Feature","properties":{"id":265,"1entropy_i":0,"1average_c":0,"1landuse_d":0.1953,"1normalize":0,"1normali_1":0,"1normali_2":0.1953,"1urban mat":0.0651},"geometry":{"type":"MultiPolygon","coordinates":[[[[79.869058,6.834824],[79.869194,6.834783],[79.869328,6.834737],[79.869461,6.834687],[79.869593,6.834633],[79.869723,6.834575],[79.869729,6.834572],[79.869718,6.834553],[79.869196,6.834552],[79.869034,6.834831],[79.869058,6.834824]]]]}},{"type":"Feature","properties":{"id":266,"1entropy_i":0,"1average_c":0.01487203,"1landuse_d":0.108,"1normalize":0,"1normali_1":0.01487203,"1normali_2":0.108,"1urban mat":0.040957343},"geometry":{"type":"MultiPolygon","coordinates":[[[[79.868936,6.834099],[79.869196,6.834552],[79.869718,6.834553],[79.86998,6.834101],[79.86972,6.833649],[79.869198,6.833648],[79.868936,6.834099]]]]}},{"type":"Feature","properties":{"id":267,"1entropy_i":0.061788382,"1average_c":0.057931876,"1landuse_d":0.0876,"1normalize":0.092702664,"1normali_1":0.057931876,"1normali_2":0.0876,"1urban mat":0.079411513},"geometry":{"type":"MultiPolygon","coordinates":[[[[79.868938,6.833195],[79.869198,6.833648],[79.86972,6.833649],[79.869982,6.833197],[79.869722,6.832744],[79.8692,6.832744],[79.868938,6.833195]]]]}},{"type":"Feature","properties":{"id":268,"1entropy_i":0.036356343,"1average_c":0.006267704,"1landuse_d":0.0992,"1normalize":0.054546336,"1normali_1":0.006267704,"1normali_2":0.0992,"1urban mat":0.053338013},"geometry":{"type":"MultiPolygon","coordinates":[[[[79.868939,6.832291],[79.8692,6.832744],[79.869722,6.832744],[79.869984,6.832293],[79.869724,6.83184],[79.869201,6.831839],[79.868939,6.832291]]]]}},{"type":"Feature","properties":{"id":269,"1entropy_i":0.124768793,"1average_c":0.010031915,"1landuse_d":0.1606,"1normalize":0.187193757,"1normali_1":0.010031915,"1normali_2":0.1606,"1urban mat":0.119275224},"geometry":{"type":"MultiPolygon","coordinates":[[[[79.868941,6.831387],[79.869201,6.831839],[79.869724,6.83184],[79.869986,6.831389],[79.869725,6.830936],[79.869203,6.830935],[79.868941,6.831387]]]]}},{"type":"Feature","properties":{"id":270,"1entropy_i":0.03023148,"1average_c":0.008859927,"1landuse_d":0.0881,"1normalize":0.04535705,"1normali_1":0.008859927,"1normali_2":0.0881,"1urban mat":0.047438993},"geometry":{"type":"MultiPolygon","coordinates":[[[[79.868943,6.830482],[79.869203,6.830935],[79.869725,6.830936],[79.869987,6.830484],[79.869727,6.830032],[79.869205,6.830031],[79.868943,6.830482]]]]}},{"type":"Feature","properties":{"id":271,"1entropy_i":0,"1average_c":0.098185112,"1landuse_d":0.1055,"1normalize":0,"1normali_1":0.098185112,"1normali_2":0.1055,"1urban mat":0.067895037},"geometry":{"type":"MultiPolygon","coordinates":[[[[79.868944,6.829578],[79.869205,6.830031],[79.869727,6.830032],[79.869989,6.82958],[79.869729,6.829128],[79.869206,6.829127],[79.868944,6.829578]]]]}},{"type":"Feature","properties":{"id":272,"1entropy_i":0.1762411,"1average_c":0.12524895,"1landuse_d":0.1068,"1normalize":0.264418955,"1normali_1":0.12524895,"1normali_2":0.1068,"1urban mat":0.165489302},"geometry":{"type":"MultiPolygon","coordinates":[[[[79.868946,6.828674],[79.869206,6.829127],[79.869729,6.829128],[79.869991,6.828676],[79.86973,6.828223],[79.869208,6.828222],[79.868946,6.828674]]]]}},{"type":"Feature","properties":{"id":273,"1entropy_i":0.074938693,"1average_c":0.143308728,"1landuse_d":0.1044,"1normalize":0.112432405,"1normali_1":0.143308728,"1normali_2":0.1044,"1urban mat":0.120047044},"geometry":{"type":"MultiPolygon","coordinates":[[[[79.868948,6.82777],[79.869208,6.828222],[79.86973,6.828223],[79.869992,6.827772],[79.869732,6.827319],[79.86921,6.827318],[79.868948,6.82777]]]]}},{"type":"Feature","properties":{"id":274,"1entropy_i":0.159676279,"1average_c":0.518342375,"1landuse_d":0.1269,"1normalize":0.239566337,"1normali_1":0.518342375,"1normali_2":0.1269,"1urban mat":0.294936237},"geometry":{"type":"MultiPolygon","coordinates":[[[[79.868949,6.826866],[79.86921,6.827318],[79.869732,6.827319],[79.869994,6.826868],[79.869734,6.826415],[79.869211,6.826414],[79.868949,6.826866]]]]}},{"type":"Feature","properties":{"id":275,"1entropy_i":0,"1average_c":0.499724731,"1landuse_d":0.0721,"1normalize":0,"1normali_1":0.499724731,"1normali_2":0.0721,"1urban mat":0.190608244},"geometry":{"type":"MultiPolygon","coordinates":[[[[79.869738,6.826393],[79.869609,6.826335],[79.869477,6.82628],[79.869345,6.826229],[79.86921,6.826183],[79.869074,6.826141],[79.869051,6.826135],[79.869211,6.826414],[79.869734,6.826415],[79.869745,6.826396],[79.869738,6.826393]]]]}},{"type":"Feature","properties":{"id":286,"1entropy_i":0.149640237,"1average_c":0.009856934,"1landuse_d":0.0796,"1normalize":0.224509011,"1normali_1":0.009856934,"1normali_2":0.0796,"1urban mat":0.104655315},"geometry":{"type":"MultiPolygon","coordinates":[[[[79.86985,6.834513],[79.869976,6.834446],[79.8701,6.834376],[79.870221,6.834302],[79.87034,6.834224],[79.870456,6.834143],[79.870505,6.834106],[79.870503,6.834102],[79.86998,6.834101],[79.869718,6.834553],[79.869729,6.834572],[79.86985,6.834513]]]]}},{"type":"Feature","properties":{"id":287,"1entropy_i":0,"1average_c":0.116021971,"1landuse_d":0.0987,"1normalize":0,"1normali_1":0.116021971,"1normali_2":0.0987,"1urban mat":0.07157399},"geometry":{"type":"MultiPolygon","coordinates":[[[[79.86972,6.833649],[79.86998,6.834101],[79.870503,6.834102],[79.870765,6.833651],[79.870504,6.833198],[79.869982,6.833197],[79.86972,6.833649]]]]}},{"type":"Feature","properties":{"id":288,"1entropy_i":0,"1average_c":0.10649859,"1landuse_d":0.1123,"1normalize":0,"1normali_1":0.10649859,"1normali_2":0.1123,"1urban mat":0.072932863},"geometry":{"type":"MultiPolygon","coordinates":[[[[79.869722,6.832744],[79.869982,6.833197],[79.870504,6.833198],[79.870766,6.832746],[79.870506,6.832294],[79.869984,6.832293],[79.869722,6.832744]]]]}},{"type":"Feature","properties":{"id":289,"1entropy_i":0.167323604,"1average_c":0.016572352,"1landuse_d":0.1577,"1normalize":0.251039811,"1normali_1":0.016572352,"1normali_2":0.1577,"1urban mat":0.141770721},"geometry":{"type":"MultiPolygon","coordinates":[[[[79.869724,6.83184],[79.869984,6.832293],[79.870506,6.832294],[79.870768,6.831842],[79.870508,6.83139],[79.869986,6.831389],[79.869724,6.83184]]]]}},{"type":"Feature","properties":{"id":290,"1entropy_i":0.110454864,"1average_c":0.006347599,"1landuse_d":0.1465,"1normalize":0.16571821,"1normali_1":0.006347599,"1normali_2":0.1465,"1urban mat":0.106188603},"geometry":{"type":"MultiPolygon","coordinates":[[[[79.869725,6.830936],[79.869986,6.831389],[79.870508,6.83139],[79.87077,6.830938],[79.87051,6.830485],[79.869987,6.830484],[79.869725,6.830936]]]]}},{"type":"Feature","properties":{"id":291,"1entropy_i":0,"1average_c":0.072851554,"1landuse_d":0.1039,"1normalize":0,"1normali_1":0.072851554,"1normali_2":0.1039,"1urban mat":0.058917185},"geometry":{"type":"MultiPolygon","coordinates":[[[[79.869727,6.830032],[79.869987,6.830484],[79.87051,6.830485],[79.870772,6.830034],[79.870511,6.829581],[79.869989,6.82958],[79.869727,6.830032]]]]}},{"type":"Feature","properties":{"id":292,"1entropy_i":0,"1average_c":0.101070571,"1landuse_d":0.0902,"1normalize":0,"1normali_1":0.101070571,"1normali_2":0.0902,"1urban mat":0.063756857},"geometry":{"type":"MultiPolygon","coordinates":[[[[79.869729,6.829128],[79.869989,6.82958],[79.870511,6.829581],[79.870773,6.82913],[79.870513,6.828677],[79.869991,6.828676],[79.869729,6.829128]]]]}},{"type":"Feature","properties":{"id":293,"1entropy_i":0.012184138,"1average_c":0.076975847,"1landuse_d":0.0881,"1normalize":0.018280169,"1normali_1":0.076975847,"1normali_2":0.0881,"1urban mat":0.061118672},"geometry":{"type":"MultiPolygon","coordinates":[[[[79.86973,6.828223],[79.869991,6.828676],[79.870513,6.828677],[79.870775,6.828225],[79.870515,6.827773],[79.869992,6.827772],[79.86973,6.828223]]]]}},{"type":"Feature","properties":{"id":294,"1entropy_i":0,"1average_c":0.005866793,"1landuse_d":0.1053,"1normalize":0,"1normali_1":0.005866793,"1normali_2":0.1053,"1urban mat":0.037055598},"geometry":{"type":"MultiPolygon","coordinates":[[[[79.869732,6.827319],[79.869992,6.827772],[79.870515,6.827773],[79.870777,6.827321],[79.870516,6.826869],[79.869994,6.826868],[79.869732,6.827319]]]]}},{"type":"Feature","properties":{"id":295,"1entropy_i":0.106389389,"1average_c":0.011098224,"1landuse_d":0.0954,"1normalize":0.159618675,"1normali_1":0.011098224,"1normali_2":0.0954,"1urban mat":0.088705633},"geometry":{"type":"MultiPolygon","coordinates":[[[[79.87047,6.826828],[79.870354,6.826746],[79.870235,6.826668],[79.870114,6.826593],[79.869991,6.826523],[79.869865,6.826456],[79.869745,6.826396],[79.869734,6.826415],[79.869994,6.826868],[79.870516,6.826869],[79.870519,6.826865],[79.87047,6.826828]]]]}},{"type":"Feature","properties":{"id":306,"1entropy_i":0,"1average_c":0.092818568,"1landuse_d":0.075,"1normalize":0,"1normali_1":0.092818568,"1normali_2":0.075,"1urban mat":0.055939523},"geometry":{"type":"MultiPolygon","coordinates":[[[[79.87057,6.834058],[79.870681,6.833969],[79.870789,6.833877],[79.870894,6.833782],[79.870997,6.833683],[79.871028,6.833651],[79.870765,6.833651],[79.870503,6.834102],[79.870505,6.834106],[79.87057,6.834058]]]]}},{"type":"Feature","properties":{"id":307,"1entropy_i":0,"1average_c":0.176096962,"1landuse_d":0.1059,"1normalize":0,"1normali_1":0.176096962,"1normali_2":0.1059,"1urban mat":0.093998987},"geometry":{"type":"MultiPolygon","coordinates":[[[[79.871096,6.833581],[79.871192,6.833477],[79.871284,6.833369],[79.871373,6.833258],[79.871459,6.833145],[79.871491,6.833099],[79.871289,6.832747],[79.870766,6.832746],[79.870504,6.833198],[79.870765,6.833651],[79.871028,6.833651],[79.871096,6.833581]]]]}},{"type":"Feature","properties":{"id":308,"1entropy_i":0.175372096,"1average_c":0.076161605,"1landuse_d":0.1481,"1normalize":0.263115165,"1normali_1":0.076161605,"1normali_2":0.1481,"1urban mat":0.162458923},"geometry":{"type":"MultiPolygon","coordinates":[[[[79.870506,6.832294],[79.870766,6.832746],[79.871289,6.832747],[79.871551,6.832296],[79.87129,6.831843],[79.870768,6.831842],[79.870506,6.832294]]]]}},{"type":"Feature","properties":{"id":309,"1entropy_i":0.221965748,"1average_c":0.045284717,"1landuse_d":0.1134,"1normalize":0.333020794,"1normali_1":0.045284717,"1normali_2":0.1134,"1urban mat":0.163901837},"geometry":{"type":"MultiPolygon","coordinates":[[[[79.870508,6.83139],[79.870768,6.831842],[79.87129,6.831843],[79.871552,6.831392],[79.871292,6.830939],[79.87077,6.830938],[79.870508,6.83139]]]]}},{"type":"Feature","properties":{"id":310,"1entropy_i":0.100340932,"1average_c":0.006476507,"1landuse_d":0.1285,"1normalize":0.150544024,"1normali_1":0.006476507,"1normali_2":0.1285,"1urban mat":0.09517351},"geometry":{"type":"MultiPolygon","coordinates":[[[[79.87051,6.830485],[79.87077,6.830938],[79.871292,6.830939],[79.871554,6.830487],[79.871294,6.830035],[79.870772,6.830034],[79.87051,6.830485]]]]}},{"type":"Feature","properties":{"id":311,"1entropy_i":0.232145073,"1average_c":0.182868635,"1landuse_d":0.0968,"1normalize":0.348293092,"1normali_1":0.182868635,"1normali_2":0.0968,"1urban mat":0.209320576},"geometry":{"type":"MultiPolygon","coordinates":[[[[79.870511,6.829581],[79.870772,6.830034],[79.871294,6.830035],[79.871556,6.829583],[79.871296,6.829131],[79.870773,6.82913],[79.870511,6.829581]]]]}},{"type":"Feature","properties":{"id":312,"1entropy_i":0.147322028,"1average_c":0.203683427,"1landuse_d":0.0808,"1normalize":0.221030943,"1normali_1":0.203683427,"1normali_2":0.0808,"1urban mat":0.16850479},"geometry":{"type":"MultiPolygon","coordinates":[[[[79.870513,6.828677],[79.870773,6.82913],[79.871296,6.829131],[79.871558,6.828679],[79.871297,6.828226],[79.870775,6.828225],[79.870513,6.828677]]]]}},{"type":"Feature","properties":{"id":313,"1entropy_i":0.012184138,"1average_c":0.09830471,"1landuse_d":0.073,"1normalize":0.018280169,"1normali_1":0.09830471,"1normali_2":0.073,"1urban mat":0.06319496},"geometry":{"type":"MultiPolygon","coordinates":[[[[79.871469,6.82783],[79.871384,6.827716],[79.871295,6.827605],[79.871203,6.827497],[79.871107,6.827392],[79.87104,6.827322],[79.870777,6.827321],[79.870515,6.827773],[79.870775,6.828225],[79.871297,6.828226],[79.871501,6.827876],[79.871469,6.82783]]]]}},{"type":"Feature","properties":{"id":314,"1entropy_i":0,"1average_c":0,"1landuse_d":0.2076,"1normalize":0,"1normali_1":0,"1normali_2":0.2076,"1urban mat":0.0692},"geometry":{"type":"MultiPolygon","coordinates":[[[[79.871009,6.827289],[79.870907,6.82719],[79.870802,6.827095],[79.870694,6.827002],[79.870583,6.826913],[79.870519,6.826865],[79.870516,6.826869],[79.870777,6.827321],[79.87104,6.827322],[79.871009,6.827289]]]]}},{"type":"Feature","properties":{"id":328,"1entropy_i":0,"1average_c":0.142690614,"1landuse_d":0.1243,"1normalize":0,"1normali_1":0.142690614,"1normali_2":0.1243,"1urban mat":0.088996871},"geometry":{"type":"MultiPolygon","coordinates":[[[[79.871541,6.833029],[79.871619,6.83291],[79.871693,6.832789],[79.871764,6.832666],[79.871831,6.83254],[79.871893,6.832413],[79.871946,6.832297],[79.871551,6.832296],[79.871289,6.832747],[79.871491,6.833099],[79.871541,6.833029]]]]}},{"type":"Feature","properties":{"id":329,"1entropy_i":0.224178931,"1average_c":0.087250672,"1landuse_d":0.0948,"1normalize":0.336341287,"1normali_1":0.087250672,"1normali_2":0.0948,"1urban mat":0.17279732},"geometry":{"type":"MultiPolygon","coordinates":[[[[79.871952,6.832284],[79.872007,6.832153],[79.872057,6.83202],[79.872104,6.831886],[79.872146,6.83175],[79.872183,6.831613],[79.872189,6.831591],[79.872075,6.831393],[79.871552,6.831392],[79.87129,6.831843],[79.871551,6.832296],[79.871946,6.832297],[79.871952,6.832284]]]]}},{"type":"Feature","properties":{"id":330,"1entropy_i":0.322497224,"1average_c":0.080038993,"1landuse_d":0.0815,"1normalize":0.483850695,"1normali_1":0.080038993,"1normali_2":0.0815,"1urban mat":0.215129896},"geometry":{"type":"MultiPolygon","coordinates":[[[[79.872307,6.830914],[79.872309,6.830892],[79.872076,6.830488],[79.871554,6.830487],[79.871292,6.830939],[79.871552,6.831392],[79.872075,6.831393],[79.872296,6.831012],[79.872307,6.830914]]]]}},{"type":"Feature","properties":{"id":331,"1entropy_i":0.373082391,"1average_c":0.075635715,"1landuse_d":0.1134,"1normalize":0.559744893,"1normali_1":0.075635715,"1normali_2":0.1134,"1urban mat":0.249593536},"geometry":{"type":"MultiPolygon","coordinates":[[[[79.872308,6.830063],[79.872298,6.829966],[79.872078,6.829584],[79.871556,6.829583],[79.871294,6.830035],[79.871554,6.830487],[79.872076,6.830488],[79.87231,6.830086],[79.872308,6.830063]]]]}},{"type":"Feature","properties":{"id":332,"1entropy_i":0.237806483,"1average_c":0.243984928,"1landuse_d":0.0711,"1normalize":0.356787047,"1normali_1":0.243984928,"1normali_2":0.0711,"1urban mat":0.223957325},"geometry":{"type":"MultiPolygon","coordinates":[[[[79.872188,6.829364],[79.87215,6.829227],[79.872109,6.829091],[79.872063,6.828957],[79.872013,6.828824],[79.871959,6.828693],[79.871953,6.82868],[79.871558,6.828679],[79.871296,6.829131],[79.871556,6.829583],[79.872078,6.829584],[79.872193,6.829386],[79.872188,6.829364]]]]}},{"type":"Feature","properties":{"id":333,"1entropy_i":0,"1average_c":0.2697125,"1landuse_d":0.0974,"1normalize":0,"1normali_1":0.2697125,"1normali_2":0.0974,"1urban mat":0.122370833},"geometry":{"type":"MultiPolygon","coordinates":[[[[79.871901,6.828563],[79.871838,6.828435],[79.871772,6.82831],[79.871702,6.828186],[79.871628,6.828065],[79.87155,6.827946],[79.871501,6.827876],[79.871297,6.828226],[79.871558,6.828679],[79.871953,6.82868],[79.871901,6.828563]]]]}},{"type":"Feature","properties":{"id":349,"1entropy_i":0.236016682,"1average_c":0.145312456,"1landuse_d":0.1038,"1normalize":0.354101763,"1normali_1":0.145312456,"1normali_2":0.1038,"1urban mat":0.201071406},"geometry":{"type":"MultiPolygon","coordinates":[[[[79.872217,6.831475],[79.872246,6.831336],[79.872271,6.831196],[79.872291,6.831055],[79.872296,6.831012],[79.872075,6.831393],[79.872189,6.831591],[79.872217,6.831475]]]]}},{"type":"Feature","properties":{"id":350,"1entropy_i":0,"1average_c":0,"1landuse_d":0.1042,"1normalize":0,"1normali_1":0,"1normali_2":0.1042,"1urban mat":0.034733333},"geometry":{"type":"MultiPolygon","coordinates":[[[[79.872326,6.830347],[79.872319,6.830205],[79.87231,6.830086],[79.872076,6.830488],[79.872309,6.830892],[79.872318,6.830773],[79.872325,6.830631],[79.872328,6.830489],[79.872326,6.830347]]]]}},{"type":"Feature","properties":{"id":351,"1entropy_i":0.204928509,"1average_c":0.145312456,"1landuse_d":0.377,"1normalize":0.307459396,"1normali_1":0.145312456,"1normali_2":0.377,"1urban mat":0.276590617},"geometry":{"type":"MultiPolygon","coordinates":[[[[79.872293,6.829922],[79.872273,6.829782],[79.872249,6.829642],[79.872221,6.829502],[79.872193,6.829386],[79.872078,6.829584],[79.872298,6.829966],[79.872293,6.829922]]]]}}]}