{
"type": "FeatureCollection",
"name": "roads_clipped_500m",
"crs": { "type": "name", "properties": { "name": "urn:ogc:def:crs:OGC:1.3:CRS84" } },
"features": [
{ "type": "Feature", "properties": { "id": "way/102651364", "name": "Galle Road", "name_en": null, "name_si": null, "name_ta": null, "highway": "trunk", "surface": "asphalt", "smoothness": null, "width": null, "lanes": "3", "oneway": "yes", "bridge": null, "layer": null, "source": null, "adm0_pcode": "LKA", "adm0_name": "Sri Lanka", "adm1_pcode": "LK1", "adm1_name": "Western", "adm2_pcode": "LK11", "adm2_name": "Colombo", "adm3_pcode": "LK1131", "adm3_name": "Ratmalana", "adm4_pcode": "LK1131050", "adm4_name": "Vihara", "name_latin": "Galle Road" }, "geometry": { "type": "MultiLineString", "coordinates": [ [ [ 79.86944645733827, 6.826268186265791 ], [ 79.8694403, 6.8262836 ], [ 79.8692475, 6.8266974 ] ] ] } },
{ "type": "Feature", "properties": { "id": "way/758636098", "name": "Galle Road", "name_en": null, "name_si": null, "name_ta": null, "highway": "trunk", "surface": "asphalt", "smoothness": null, "width": null, "lanes": "3", "oneway": "yes", "bridge": null, "layer": null, "source": null, "adm0_pcode": "LKA", "adm0_name": "Sri Lanka", "adm1_pcode": "LK1", "adm1_name": "Western", "adm2_pcode": "LK11", "adm2_name": "Colombo", "adm3_pcode": "LK1131", "adm3_name": "Ratmalana", "adm4_pcode": "LK1131050", "adm4_name": "Vihara", "name_latin": "Galle Road" }, "geometry": { "type": "MultiLineString", "coordinates": [ [ [ 79.8691108, 6.8272242 ], [ 79.8692851, 6.8268195 ], [ 79.8694962, 6.8263299 ], [ 79.86951107868785, 6.826293959273528 ] ] ] } },
{ "type": "Feature", "properties": { "id": "way/161752890", "name": "Templers Road", "name_en": null, "name_si": null, "name_ta": null, "highway": "primary", "surface": "asphalt", "smoothness": null, "width": null, "lanes": "2", "oneway": null, "bridge": null, "layer": null, "source": null, "adm0_pcode": "LKA", "adm0_name": "Sri Lanka", "adm1_pcode": "LK1", "adm1_name": "Western", "adm2_pcode": "LK11", "adm2_name": "Colombo", "adm3_pcode": "LK1130", "adm3_name": "Dehiwala", "adm4_pcode": "LK1130075", "adm4_name": "Kawdana East", "name_latin": "Templers Road" }, "geometry": { "type": "MultiLineString", "coordinates": [ [ [ 79.872173347925212, 6.83164928159619 ], [ 79.8721609, 6.8316457 ], [ 79.8718429, 6.8315154 ], [ 79.8714772, 6.8313643 ], [ 79.8709881, 6.8312435 ], [ 79.8707403, 6.831214 ], [ 79.8697807, 6.8310365 ], [ 79.8695286, 6.8309631 ], [ 79.869259, 6.8309046 ], [ 79.86909, 6.8308793 ], [ 79.8690509, 6.8308786 ], [ 79.8690082, 6.8308713 ], [ 79.86863, 6.830786 ], [ 79.8682559, 6.8306622 ], [ 79.8679307, 6.8305506 ], [ 79.8678375, 6.8305117 ] ] ] } },
{ "type": "Feature", "properties": { "id": "way/109081942", "name": "Hena Road", "name_en": null, "name_si": null, "name_ta": null, "highway": "residential", "surface": null, "smoothness": null, "width": null, "lanes": null, "oneway": null, "bridge": null, "layer": null, "source": null, "adm0_pcode": "LKA", "adm0_name": "Sri Lanka", "adm1_pcode": "LK1", "adm1_name": "Western", "adm2_pcode": "LK11", "adm2_name": "Colombo", "adm3_pcode": "LK1131", "adm3_name": "Ratmalana", "adm4_pcode": "LK1131050", "adm4_name": "Vihara", "name_latin": "Hena Road" }, "geometry": { "type": "MultiLineString", "coordinates": [ [ [ 79.871900690981263, 6.828563034150823 ], [ 79.8715377, 6.8284953 ] ] ] } },
{ "type": "Feature", "properties": { "id": "way/532086491", "name": null, "name_en": null, "name_si": null, "name_ta": null, "highway": "residential", "surface": null, "smoothness": null, "width": null, "lanes": null, "oneway": null, "bridge": null, "layer": null, "source": null, "adm0_pcode": "LKA", "adm0_name": "Sri Lanka", "adm1_pcode": "LK1", "adm1_name": "Western", "adm2_pcode": "LK11", "adm2_name": "Colombo", "adm3_pcode": "LK1131", "adm3_name": "Ratmalana", "adm4_pcode": "LK1131050", "adm4_name": "Vihara", "name_latin": null }, "geometry": { "type": "MultiLineString", "coordinates": [ [ [ 79.872184629192915, 6.829353329548676 ], [ 79.8715343, 6.8292087 ], [ 79.871372, 6.8291324 ] ] ] } },
{ "type": "Feature", "properties": { "id": "way/532086490", "name": null, "name_en": null, "name_si": null, "name_ta": null, "highway": "residential", "surface": null, "smoothness": null, "width": null, "lanes": null, "oneway": null, "bridge": null, "layer": null, "source": null, "adm0_pcode": "LKA", "adm0_name": "Sri Lanka", "adm1_pcode": "LK1", "adm1_name": "Western", "adm2_pcode": "LK11", "adm2_name": "Colombo", "adm3_pcode": "LK1131", "adm3_name": "Ratmalana", "adm4_pcode": "LK1131050", "adm4_name": "Vihara", "name_latin": null }, "geometry": { "type": "MultiLineString", "coordinates": [ [ [ 79.871372, 6.8291324 ], [ 79.8715377, 6.8284953 ] ] ] } },
{ "type": "Feature", "properties": { "id": "way/152244744", "name": null, "name_en": null, "name_si": null, "name_ta": null, "highway": "living_street", "surface": null, "smoothness": null, "width": null, "lanes": null, "oneway": null, "bridge": null, "layer": null, "source": null, "adm0_pcode": "LKA", "adm0_name": "Sri Lanka", "adm1_pcode": "LK1", "adm1_name": "Western", "adm2_pcode": "LK11", "adm2_name": "Colombo", "adm3_pcode": "LK1131", "adm3_name": "Ratmalana", "adm4_pcode": "LK1131050", "adm4_name": "Vihara", "name_latin": null }, "geometry": { "type": "MultiLineString", "coordinates": [ [ [ 79.8715377, 6.8284953 ], [ 79.8716005, 6.8281203 ], [ 79.871616249785617, 6.828047093243004 ] ] ] } },
{ "type": "Feature", "properties": { "id": "way/1095303374", "name": null, "name_en": null, "name_si": null, "name_ta": null, "highway": "residential", "surface": null, "smoothness": null, "width": null, "lanes": null, "oneway": null, "bridge": null, "layer": null, "source": null, "adm0_pcode": "LKA", "adm0_name": "Sri Lanka", "adm1_pcode": "LK1", "adm1_name": "Western", "adm2_pcode": "LK11", "adm2_name": "Colombo", "adm3_pcode": "LK1131", "adm3_name": "Ratmalana", "adm4_pcode": "LK1131050", "adm4_name": "Vihara", "name_latin": null }, "geometry": { "type": "MultiLineString", "coordinates": [ [ [ 79.8699903, 6.8272395 ], [ 79.8699739, 6.8270018 ], [ 79.8699529, 6.8269468 ], [ 79.8699006, 6.8269127 ], [ 79.8692851, 6.8268195 ], [ 79.8692029, 6.8268071 ] ] ] } },
{ "type": "Feature", "properties": { "id": "way/1095303370", "name": null, "name_en": null, "name_si": null, "name_ta": null, "highway": "residential", "surface": null, "smoothness": null, "width": null, "lanes": null, "oneway": null, "bridge": null, "layer": null, "source": null, "adm0_pcode": "LKA", "adm0_name": "Sri Lanka", "adm1_pcode": "LK1", "adm1_name": "Western", "adm2_pcode": "LK11", "adm2_name": "Colombo", "adm3_pcode": "LK1131", "adm3_name": "Ratmalana", "adm4_pcode": "LK1131050", "adm4_name": "Vihara", "name_latin": null }, "geometry": { "type": "MultiLineString", "coordinates": [ [ [ 79.869819895599974, 6.826433538207914 ], [ 79.8696926, 6.8264046 ], [ 79.8694962, 6.8263299 ] ] ] } },
{ "type": "Feature", "properties": { "id": "way/709353401", "name": null, "name_en": null, "name_si": null, "name_ta": null, "highway": "residential", "surface": null, "smoothness": null, "width": null, "lanes": null, "oneway": null, "bridge": null, "layer": null, "source": null, "adm0_pcode": "LKA", "adm0_name": "Sri Lanka", "adm1_pcode": "LK1", "adm1_name": "Western", "adm2_pcode": "LK11", "adm2_name": "Colombo", "adm3_pcode": "LK1131", "adm3_name": "Ratmalana", "adm4_pcode": "LK1131050", "adm4_name": "Vihara", "name_latin": null }, "geometry": { "type": "MultiLineString", "coordinates": [ [ [ 79.870343711860542, 6.826739213014722 ], [ 79.8703426, 6.8267776 ], [ 79.8704184, 6.8272354 ], [ 79.8704331, 6.82729 ], [ 79.8704727, 6.8273179 ], [ 79.8707101, 6.8273226 ] ] ] } },
{ "type": "Feature", "properties": { "id": "way/109081953", "name": "Hena Road", "name_en": null, "name_si": null, "name_ta": null, "highway": "residential", "surface": null, "smoothness": null, "width": null, "lanes": null, "oneway": null, "bridge": null, "layer": null, "source": null, "adm0_pcode": "LKA", "adm0_name": "Sri Lanka", "adm1_pcode": "LK1", "adm1_name": "Western", "adm2_pcode": "LK11", "adm2_name": "Colombo", "adm3_pcode": "LK1131", "adm3_name": "Ratmalana", "adm4_pcode": "LK1131050", "adm4_name": "Vihara", "name_latin": "Hena Road" }, "geometry": { "type": "MultiLineString", "coordinates": [ [ [ 79.8715377, 6.8284953 ], [ 79.8713066, 6.828452 ], [ 79.8710934, 6.8283839 ], [ 79.870824, 6.8281902 ], [ 79.8706345, 6.8281151 ], [ 79.8704422, 6.828094 ], [ 79.8702751, 6.8280826 ], [ 79.8701471, 6.8280769 ], [ 79.8698521, 6.8280431 ], [ 79.8697086, 6.8280516 ], [ 79.8696244, 6.8280858 ], [ 79.8692256, 6.8282478 ] ] ] } },
{ "type": "Feature", "properties": { "id": "way/1095303375", "name": null, "name_en": null, "name_si": null, "name_ta": null, "highway": "residential", "surface": null, "smoothness": null, "width": null, "lanes": null, "oneway": null, "bridge": null, "layer": null, "source": null, "adm0_pcode": "LKA", "adm0_name": "Sri Lanka", "adm1_pcode": "LK1", "adm1_name": "Western", "adm2_pcode": "LK11", "adm2_name": "Colombo", "adm3_pcode": "LK1131", "adm3_name": "Ratmalana", "adm4_pcode": "LK1131050", "adm4_name": "Vihara", "name_latin": null }, "geometry": { "type": "MultiLineString", "coordinates": [ [ [ 79.8706105, 6.8284533 ], [ 79.8701829, 6.8284366 ], [ 79.8701471, 6.8280769 ] ] ] } },
{ "type": "Feature", "properties": { "id": "way/1269276836", "name": null, "name_en": null, "name_si": null, "name_ta": null, "highway": "service", "surface": null, "smoothness": null, "width": null, "lanes": null, "oneway": null, "bridge": null, "layer": null, "source": null, "adm0_pcode": "LKA", "adm0_name": "Sri Lanka", "adm1_pcode": "LK1", "adm1_name": "Western", "adm2_pcode": "LK11", "adm2_name": "Colombo", "adm3_pcode": "LK1131", "adm3_name": "Ratmalana", "adm4_pcode": "LK1131050", "adm4_name": "Vihara", "name_latin": null }, "geometry": { "type": "MultiLineString", "coordinates": [ [ [ 79.8706345, 6.8281151 ], [ 79.8707664, 6.8280616 ], [ 79.8708978, 6.8280323 ], [ 79.87093, 6.8279897 ], [ 79.8709461, 6.8279311 ], [ 79.8709917, 6.8277021 ], [ 79.8710212, 6.8276675 ], [ 79.8710749, 6.8276595 ], [ 79.8711982, 6.8276781 ] ] ] } },
{ "type": "Feature", "properties": { "id": "way/1269276837", "name": null, "name_en": null, "name_si": null, "name_ta": null, "highway": "residential", "surface": null, "smoothness": null, "width": null, "lanes": null, "oneway": null, "bridge": null, "layer": null, "source": null, "adm0_pcode": "LKA", "adm0_name": "Sri Lanka", "adm1_pcode": "LK1", "adm1_name": "Western", "adm2_pcode": "LK11", "adm2_name": "Colombo", "adm3_pcode": "LK1131", "adm3_name": "Ratmalana", "adm4_pcode": "LK1131050", "adm4_name": "Vihara", "name_latin": null }, "geometry": { "type": "MultiLineString", "coordinates": [ [ [ 79.870824, 6.8281902 ], [ 79.8706819, 6.8287887 ] ] ] } },
{ "type": "Feature", "properties": { "id": "way/1269276834", "name": null, "name_en": null, "name_si": null, "name_ta": null, "highway": "residential", "surface": null, "smoothness": null, "width": null, "lanes": null, "oneway": null, "bridge": null, "layer": null, "source": null, "adm0_pcode": "LKA", "adm0_name": "Sri Lanka", "adm1_pcode": "LK1", "adm1_name": "Western", "adm2_pcode": "LK11", "adm2_name": "Colombo", "adm3_pcode": "LK1131", "adm3_name": "Ratmalana", "adm4_pcode": "LK1131050", "adm4_name": "Vihara", "name_latin": null }, "geometry": { "type": "MultiLineString", "coordinates": [ [ [ 79.8701829, 6.8284366 ], [ 79.8702192, 6.8286821 ] ] ] } },
{ "type": "Feature", "properties": { "id": "way/376599999", "name": null, "name_en": null, "name_si": null, "name_ta": null, "highway": "residential", "surface": null, "smoothness": null, "width": null, "lanes": null, "oneway": null, "bridge": null, "layer": null, "source": null, "adm0_pcode": "LKA", "adm0_name": "Sri Lanka", "adm1_pcode": "LK1", "adm1_name": "Western", "adm2_pcode": "LK11", "adm2_name": "Colombo", "adm3_pcode": "LK1131", "adm3_name": "Ratmalana", "adm4_pcode": "LK1131050", "adm4_name": "Vihara", "name_latin": null }, "geometry": { "type": "MultiLineString", "coordinates": [ [ [ 79.8695127, 6.8292227 ], [ 79.8697506, 6.829266 ], [ 79.8697919, 6.829297 ], [ 79.8698065, 6.8293447 ], [ 79.8697841, 6.8296375 ], [ 79.8697908, 6.8296775 ] ] ] } },
{ "type": "Feature", "properties": { "id": "way/1095303376", "name": null, "name_en": null, "name_si": null, "name_ta": null, "highway": "residential", "surface": null, "smoothness": null, "width": null, "lanes": null, "oneway": null, "bridge": null, "layer": null, "source": null, "adm0_pcode": "LKA", "adm0_name": "Sri Lanka", "adm1_pcode": "LK1", "adm1_name": "Western", "adm2_pcode": "LK11", "adm2_name": "Colombo", "adm3_pcode": "LK1131", "adm3_name": "Ratmalana", "adm4_pcode": "LK1131050", "adm4_name": "Vihara", "name_latin": null }, "geometry": { "type": "MultiLineString", "coordinates": [ [ [ 79.8696557, 6.8286482 ], [ 79.8696356, 6.8282589 ], [ 79.8696244, 6.8280858 ] ] ] } },
{ "type": "Feature", "properties": { "id": "way/1095303378", "name": null, "name_en": null, "name_si": null, "name_ta": null, "highway": "residential", "surface": null, "smoothness": null, "width": null, "lanes": null, "oneway": null, "bridge": null, "layer": null, "source": null, "adm0_pcode": "LKA", "adm0_name": "Sri Lanka", "adm1_pcode": "LK1", "adm1_name": "Western", "adm2_pcode": "LK11", "adm2_name": "Colombo", "adm3_pcode": "LK1131", "adm3_name": "Ratmalana", "adm4_pcode": "LK1131050", "adm4_name": "Vihara", "name_latin": null }, "geometry": { "type": "MultiLineString", "coordinates": [ [ [ 79.8692256, 6.8282478 ], [ 79.8694189, 6.8284031 ], [ 79.8694568, 6.8284574 ], [ 79.8694926, 6.8291872 ], [ 79.8695127, 6.8292227 ] ] ] } },
{ "type": "Feature", "properties": { "id": "way/1095303377", "name": null, "name_en": null, "name_si": null, "name_ta": null, "highway": "residential", "surface": null, "smoothness": null, "width": null, "lanes": null, "oneway": null, "bridge": null, "layer": null, "source": null, "adm0_pcode": "LKA", "adm0_name": "Sri Lanka", "adm1_pcode": "LK1", "adm1_name": "Western", "adm2_pcode": "LK11", "adm2_name": "Colombo", "adm3_pcode": "LK1131", "adm3_name": "Ratmalana", "adm4_pcode": "LK1131050", "adm4_name": "Vihara", "name_latin": null }, "geometry": { "type": "MultiLineString", "coordinates": [ [ [ 79.8697908, 6.8296775 ], [ 79.8698144, 6.8297099 ], [ 79.8700054, 6.8297691 ], [ 79.8700444, 6.8297928 ], [ 79.870064, 6.829831 ] ] ] } },
{ "type": "Feature", "properties": { "id": "way/159538121", "name": null, "name_en": null, "name_si": null, "name_ta": null, "highway": "residential", "surface": null, "smoothness": null, "width": null, "lanes": null, "oneway": null, "bridge": null, "layer": null, "source": null, "adm0_pcode": "LKA", "adm0_name": "Sri Lanka", "adm1_pcode": "LK1", "adm1_name": "Western", "adm2_pcode": "LK11", "adm2_name": "Colombo", "adm3_pcode": "LK1131", "adm3_name": "Ratmalana", "adm4_pcode": "LK1131050", "adm4_name": "Vihara", "name_latin": null }, "geometry": { "type": "MultiLineString", "coordinates": [ [ [ 79.8699928, 6.8301027 ], [ 79.8700272, 6.8299742 ], [ 79.870064, 6.829831 ] ] ] } },
{ "type": "Feature", "properties": { "id": "way/586399589", "name": null, "name_en": null, "name_si": null, "name_ta": null, "highway": "residential", "surface": "asphalt", "smoothness": null, "width": null, "lanes": null, "oneway": null, "bridge": null, "layer": null, "source": null, "adm0_pcode": "LKA", "adm0_name": "Sri Lanka", "adm1_pcode": "LK1", "adm1_name": "Western", "adm2_pcode": "LK11", "adm2_name": "Colombo", "adm3_pcode": "LK1131", "adm3_name": "Ratmalana", "adm4_pcode": "LK1131050", "adm4_name": "Vihara", "name_latin": null }, "geometry": { "type": "MultiLineString", "coordinates": [ [ [ 79.8691343, 6.8302161 ], [ 79.8692067, 6.8302654 ], [ 79.8692121, 6.8303573 ], [ 79.86909, 6.8308793 ] ] ] } },
{ "type": "Feature", "properties": { "id": "way/376599238", "name": null, "name_en": null, "name_si": null, "name_ta": null, "highway": "residential", "surface": null, "smoothness": null, "width": null, "lanes": null, "oneway": null, "bridge": null, "layer": null, "source": null, "adm0_pcode": "LKA", "adm0_name": "Sri Lanka", "adm1_pcode": "LK1", "adm1_name": "Western", "adm2_pcode": "LK11", "adm2_name": "Colombo", "adm3_pcode": "LK1130", "adm3_name": "Dehiwala", "adm4_pcode": "LK1130075", "adm4_name": "Kawdana East", "name_latin": null }, "geometry": { "type": "MultiLineString", "coordinates": [ [ [ 79.870376, 6.8326456 ], [ 79.8697166, 6.8324843 ] ] ] } },
{ "type": "Feature", "properties": { "id": "way/53757719", "name": null, "name_en": null, "name_si": null, "name_ta": null, "highway": "residential", "surface": null, "smoothness": null, "width": null, "lanes": null, "oneway": null, "bridge": null, "layer": null, "source": null, "adm0_pcode": "LKA", "adm0_name": "Sri Lanka", "adm1_pcode": "LK1", "adm1_name": "Western", "adm2_pcode": "LK11", "adm2_name": "Colombo", "adm3_pcode": "LK1131", "adm3_name": "Ratmalana", "adm4_pcode": "LK1131050", "adm4_name": "Vihara", "name_latin": null }, "geometry": { "type": "MultiLineString", "coordinates": [ [ [ 79.870941, 6.8327139 ], [ 79.8707999, 6.8324958 ], [ 79.8706359, 6.8322971 ], [ 79.8705109, 6.8321819 ], [ 79.870394, 6.8320688 ], [ 79.8699863, 6.8319942 ], [ 79.8697327, 6.8319871 ], [ 79.8689554, 6.8319643 ] ] ] } },
{ "type": "Feature", "properties": { "id": "way/532086487", "name": null, "name_en": null, "name_si": null, "name_ta": null, "highway": "residential", "surface": null, "smoothness": null, "width": null, "lanes": null, "oneway": null, "bridge": null, "layer": null, "source": null, "adm0_pcode": "LKA", "adm0_name": "Sri Lanka", "adm1_pcode": "LK1", "adm1_name": "Western", "adm2_pcode": "LK11", "adm2_name": "Colombo", "adm3_pcode": "LK1131", "adm3_name": "Ratmalana", "adm4_pcode": "LK1131050", "adm4_name": "Vihara", "name_latin": null }, "geometry": { "type": "MultiLineString", "coordinates": [ [ [ 79.8697166, 6.8324843 ], [ 79.8697055, 6.8324612 ], [ 79.8697327, 6.8319871 ] ] ] } },
{ "type": "Feature", "properties": { "id": "way/153203865", "name": null, "name_en": null, "name_si": null, "name_ta": null, "highway": "residential", "surface": null, "smoothness": null, "width": null, "lanes": null, "oneway": null, "bridge": null, "layer": null, "source": null, "adm0_pcode": "LKA", "adm0_name": "Sri Lanka", "adm1_pcode": "LK1", "adm1_name": "Western", "adm2_pcode": "LK11", "adm2_name": "Colombo", "adm3_pcode": "LK1131", "adm3_name": "Ratmalana", "adm4_pcode": "LK1131050", "adm4_name": "Vihara", "name_latin": null }, "geometry": { "type": "MultiLineString", "coordinates": [ [ [ 79.8707403, 6.831214 ], [ 79.8707181, 6.8313193 ], [ 79.8706491, 6.8317162 ], [ 79.8705109, 6.8321819 ] ] ] } },
{ "type": "Feature", "properties": { "id": "way/53757720", "name": null, "name_en": null, "name_si": null, "name_ta": null, "highway": "residential", "surface": null, "smoothness": null, "width": null, "lanes": null, "oneway": null, "bridge": null, "layer": null, "source": null, "adm0_pcode": "LKA", "adm0_name": "Sri Lanka", "adm1_pcode": "LK1", "adm1_name": "Western", "adm2_pcode": "LK11", "adm2_name": "Colombo", "adm3_pcode": "LK1130", "adm3_name": "Dehiwala", "adm4_pcode": "LK1130075", "adm4_name": "Kawdana East", "name_latin": null }, "geometry": { "type": "MultiLineString", "coordinates": [ [ [ 79.871131, 6.8332422 ], [ 79.8710883, 6.8332455 ], [ 79.8706079, 6.8330568 ] ] ] } },
{ "type": "Feature", "properties": { "id": "way/532086473", "name": "D.J. Wijesiriwardane Mawatha", "name_en": null, "name_si": null, "name_ta": null, "highway": "residential", "surface": null, "smoothness": null, "width": null, "lanes": null, "oneway": null, "bridge": null, "layer": null, "source": null, "adm0_pcode": "LKA", "adm0_name": "Sri Lanka", "adm1_pcode": "LK1", "adm1_name": "Western", "adm2_pcode": "LK11", "adm2_name": "Colombo", "adm3_pcode": "LK1130", "adm3_name": "Dehiwala", "adm4_pcode": "LK1130075", "adm4_name": "Kawdana East", "name_latin": "D.J. Wijesiriwardane Mawatha" }, "geometry": { "type": "MultiLineString", "coordinates": [ [ [ 79.8716294, 6.8324322 ], [ 79.8712375, 6.8325639 ], [ 79.870941, 6.8327139 ], [ 79.8708388, 6.8327927 ], [ 79.8707405, 6.8328903 ], [ 79.8706079, 6.8330568 ], [ 79.8702813, 6.8334101 ] ] ] } },
{ "type": "Feature", "properties": { "id": "way/109081963", "name": "Vidyala Road", "name_en": null, "name_si": null, "name_ta": null, "highway": "residential", "surface": "asphalt", "smoothness": null, "width": null, "lanes": null, "oneway": null, "bridge": null, "layer": null, "source": null, "adm0_pcode": "LKA", "adm0_name": "Sri Lanka", "adm1_pcode": "LK1", "adm1_name": "Western", "adm2_pcode": "LK11", "adm2_name": "Colombo", "adm3_pcode": "LK1131", "adm3_name": "Ratmalana", "adm4_pcode": "LK1131050", "adm4_name": "Vihara", "name_latin": "Vidyala Road" }, "geometry": { "type": "MultiLineString", "coordinates": [ [ [ 79.8697807, 6.8310365 ], [ 79.8698516, 6.830594 ], [ 79.8699928, 6.8301027 ], [ 79.8702052, 6.8301576 ], [ 79.8706366, 6.8303319 ], [ 79.8709784, 6.8304559 ], [ 79.8710385, 6.8305069 ], [ 79.8710681, 6.8305857 ], [ 79.8710422, 6.8308772 ], [ 79.8710033, 6.8311091 ], [ 79.8709881, 6.8312435 ] ] ] } },
{ "type": "Feature", "properties": { "id": "way/151459497", "name": null, "name_en": null, "name_si": null, "name_ta": null, "highway": "residential", "surface": null, "smoothness": null, "width": null, "lanes": null, "oneway": null, "bridge": null, "layer": null, "source": null, "adm0_pcode": "LKA", "adm0_name": "Sri Lanka", "adm1_pcode": "LK1", "adm1_name": "Western", "adm2_pcode": "LK11", "adm2_name": "Colombo", "adm3_pcode": "LK1131", "adm3_name": "Ratmalana", "adm4_pcode": "LK1131050", "adm4_name": "Vihara", "name_latin": null }, "geometry": { "type": "MultiLineString", "coordinates": [ [ [ 79.871372, 6.8291324 ], [ 79.8713295, 6.8291616 ], [ 79.8711848, 6.8291322 ], [ 79.8711636, 6.8291383 ], [ 79.8711513, 6.8291495 ], [ 79.8711284, 6.8292415 ], [ 79.8710698, 6.8293647 ], [ 79.8710537, 6.8294845 ], [ 79.8709974, 6.8295351 ], [ 79.8708655, 6.8295185 ], [ 79.8706214, 6.8294492 ], [ 79.8704325, 6.8293985 ], [ 79.8704126, 6.8294046 ], [ 79.8704016, 6.8294238 ], [ 79.8703456, 6.829607 ], [ 79.8702862, 6.829838 ], [ 79.8702052, 6.8301576 ] ] ] } },
{ "type": "Feature", "properties": { "id": "way/152625667", "name": null, "name_en": null, "name_si": null, "name_ta": null, "highway": "living_street", "surface": null, "smoothness": null, "width": null, "lanes": null, "oneway": null, "bridge": null, "layer": null, "source": null, "adm0_pcode": "LKA", "adm0_name": "Sri Lanka", "adm1_pcode": "LK1", "adm1_name": "Western", "adm2_pcode": "LK11", "adm2_name": "Colombo", "adm3_pcode": "LK1131", "adm3_name": "Ratmalana", "adm4_pcode": "LK1131050", "adm4_name": "Vihara", "name_latin": null }, "geometry": { "type": "MultiLineString", "coordinates": [ [ [ 79.8710385, 6.8305069 ], [ 79.8710507, 6.8304878 ], [ 79.871081, 6.8304507 ], [ 79.8711481, 6.8304534 ], [ 79.8712009, 6.8304238 ], [ 79.8712465, 6.8301895 ], [ 79.8712733, 6.8301336 ], [ 79.8713458, 6.8301202 ] ] ] } },
{ "type": "Feature", "properties": { "id": "way/109081955", "name": null, "name_en": null, "name_si": null, "name_ta": null, "highway": "residential", "surface": null, "smoothness": null, "width": null, "lanes": null, "oneway": null, "bridge": null, "layer": null, "source": null, "adm0_pcode": "LKA", "adm0_name": "Sri Lanka", "adm1_pcode": "LK1", "adm1_name": "Western", "adm2_pcode": "LK11", "adm2_name": "Colombo", "adm3_pcode": "LK1131", "adm3_name": "Ratmalana", "adm4_pcode": "LK1131050", "adm4_name": "Vihara", "name_latin": null }, "geometry": { "type": "MultiLineString", "coordinates": [ [ [ 79.8721609, 6.8316457 ], [ 79.8721461, 6.8314291 ], [ 79.872035, 6.830384 ], [ 79.8721142, 6.8299298 ], [ 79.8721283, 6.8299145 ], [ 79.872196, 6.8299206 ], [ 79.8722255, 6.829878 ], [ 79.872244486085478, 6.829619243837742 ] ] ] } },
{ "type": "Feature", "properties": { "id": "way/673645255", "name": null, "name_en": null, "name_si": null, "name_ta": null, "highway": "residential", "surface": null, "smoothness": null, "width": null, "lanes": null, "oneway": null, "bridge": null, "layer": null, "source": null, "adm0_pcode": "LKA", "adm0_name": "Sri Lanka", "adm1_pcode": "LK1", "adm1_name": "Western", "adm2_pcode": "LK11", "adm2_name": "Colombo", "adm3_pcode": "LK1130", "adm3_name": "Dehiwala", "adm4_pcode": "LK1130075", "adm4_name": "Kawdana East", "name_latin": null }, "geometry": { "type": "MultiLineString", "coordinates": [ [ [ 79.8716712, 6.8327142 ], [ 79.871720603216858, 6.832741541751062 ] ] ] } },
{ "type": "Feature", "properties": { "id": "way/376599243", "name": null, "name_en": null, "name_si": null, "name_ta": null, "highway": "residential", "surface": null, "smoothness": null, "width": null, "lanes": null, "oneway": null, "bridge": null, "layer": null, "source": null, "adm0_pcode": "LKA", "adm0_name": "Sri Lanka", "adm1_pcode": "LK1", "adm1_name": "Western", "adm2_pcode": "LK11", "adm2_name": "Colombo", "adm3_pcode": "LK1130", "adm3_name": "Dehiwala", "adm4_pcode": "LK1130075", "adm4_name": "Kawdana East", "name_latin": null }, "geometry": { "type": "MultiLineString", "coordinates": [ [ [ 79.8718165, 6.8321399 ], [ 79.871989290848688, 6.832194647168583 ] ] ] } },
{ "type": "Feature", "properties": { "id": "way/53758235", "name": null, "name_en": null, "name_si": null, "name_ta": null, "highway": "residential", "surface": null, "smoothness": null, "width": null, "lanes": null, "oneway": null, "bridge": null, "layer": null, "source": null, "adm0_pcode": "LKA", "adm0_name": "Sri Lanka", "adm1_pcode": "LK1", "adm1_name": "Western", "adm2_pcode": "LK11", "adm2_name": "Colombo", "adm3_pcode": "LK1131", "adm3_name": "Ratmalana", "adm4_pcode": "LK1131050", "adm4_name": "Vihara", "name_latin": null }, "geometry": { "type": "MultiLineString", "coordinates": [ [ [ 79.8707999, 6.8324958 ], [ 79.8710185, 6.8323893 ], [ 79.8711564, 6.8320244 ], [ 79.8712856, 6.8317605 ], [ 79.8714772, 6.8313643 ], [ 79.8716408, 6.8310417 ], [ 79.8718031, 6.8306076 ] ] ] } },
{ "type": "Feature", "properties": { "id": "way/53758234", "name": null, "name_en": null, "name_si": null, "name_ta": null, "highway": "residential", "surface": null, "smoothness": null, "width": null, "lanes": null, "oneway": null, "bridge": null, "layer": null, "source": null, "adm0_pcode": "LKA", "adm0_name": "Sri Lanka", "adm1_pcode": "LK1", "adm1_name": "Western", "adm2_pcode": "LK11", "adm2_name": "Colombo", "adm3_pcode": "LK1130", "adm3_name": "Dehiwala", "adm4_pcode": "LK1130075", "adm4_name": "Kawdana East", "name_latin": null }, "geometry": { "type": "MultiLineString", "coordinates": [ [ [ 79.8712856, 6.8317605 ], [ 79.8715237, 6.8319123 ], [ 79.8716006, 6.8320377 ], [ 79.8716404, 6.8321655 ], [ 79.8716294, 6.8324322 ] ] ] } },
{ "type": "Feature", "properties": { "id": "way/532086486", "name": "D.J. Wijesiriwardane Mawatha", "name_en": null, "name_si": null, "name_ta": null, "highway": "residential", "surface": null, "smoothness": null, "width": null, "lanes": null, "oneway": null, "bridge": null, "layer": null, "source": null, "adm0_pcode": "LKA", "adm0_name": "Sri Lanka", "adm1_pcode": "LK1", "adm1_name": "Western", "adm2_pcode": "LK11", "adm2_name": "Colombo", "adm3_pcode": "LK1130", "adm3_name": "Dehiwala", "adm4_pcode": "LK1130075", "adm4_name": "Kawdana East", "name_latin": "D.J. Wijesiriwardane Mawatha" }, "geometry": { "type": "MultiLineString", "coordinates": [ [ [ 79.871131, 6.8332422 ], [ 79.871166, 6.8332255 ], [ 79.8714954, 6.8329185 ], [ 79.8716712, 6.8327142 ], [ 79.8717053, 6.8326481 ], [ 79.8717195, 6.8325603 ], [ 79.8717223, 6.8324677 ], [ 79.8716784, 6.8324305 ], [ 79.8716294, 6.8324322 ] ] ] } },
{ "type": "Feature", "properties": { "id": "way/53757722", "name": null, "name_en": null, "name_si": null, "name_ta": null, "highway": "residential", "surface": null, "smoothness": null, "width": null, "lanes": null, "oneway": null, "bridge": null, "layer": null, "source": null, "adm0_pcode": "LKA", "adm0_name": "Sri Lanka", "adm1_pcode": "LK1", "adm1_name": "Western", "adm2_pcode": "LK11", "adm2_name": "Colombo", "adm3_pcode": "LK1130", "adm3_name": "Dehiwala", "adm4_pcode": "LK1130075", "adm4_name": "Kawdana East", "name_latin": null }, "geometry": { "type": "MultiLineString", "coordinates": [ [ [ 79.870801624129683, 6.83386602785905 ], [ 79.8705191, 6.8337698 ] ] ] } },
{ "type": "Feature", "properties": { "id": "way/53757721", "name": null, "name_en": null, "name_si": null, "name_ta": null, "highway": "residential", "surface": null, "smoothness": null, "width": null, "lanes": null, "oneway": null, "bridge": null, "layer": null, "source": null, "adm0_pcode": "LKA", "adm0_name": "Sri Lanka", "adm1_pcode": "LK1", "adm1_name": "Western", "adm2_pcode": "LK11", "adm2_name": "Colombo", "adm3_pcode": "LK1130", "adm3_name": "Dehiwala", "adm4_pcode": "LK1130075", "adm4_name": "Kawdana East", "name_latin": null }, "geometry": { "type": "MultiLineString", "coordinates": [ [ [ 79.870627947936484, 6.834011615125275 ], [ 79.8705024, 6.8339701 ], [ 79.8704648, 6.8339154 ], [ 79.870466, 6.8338796 ], [ 79.8705191, 6.8337698 ], [ 79.8705755, 6.8336629 ], [ 79.8705668, 6.83359 ], [ 79.870528, 6.8335319 ], [ 79.8702813, 6.8334101 ] ] ] } },
{ "type": "Feature", "properties": { "id": "way/532086475", "name": null, "name_en": null, "name_si": null, "name_ta": null, "highway": "residential", "surface": null, "smoothness": null, "width": null, "lanes": null, "oneway": null, "bridge": null, "layer": null, "source": null, "adm0_pcode": "LKA", "adm0_name": "Sri Lanka", "adm1_pcode": "LK1", "adm1_name": "Western", "adm2_pcode": "LK11", "adm2_name": "Colombo", "adm3_pcode": "LK1130", "adm3_name": "Dehiwala", "adm4_pcode": "LK1130075", "adm4_name": "Kawdana East", "name_latin": null }, "geometry": { "type": "MultiLineString", "coordinates": [ [ [ 79.870065208710301, 6.834395607681654 ], [ 79.8700685, 6.8342441 ], [ 79.8700708, 6.834175 ] ] ] } },
{ "type": "Feature", "properties": { "id": "way/53757716", "name": null, "name_en": null, "name_si": null, "name_ta": null, "highway": "residential", "surface": null, "smoothness": null, "width": null, "lanes": null, "oneway": null, "bridge": null, "layer": null, "source": null, "adm0_pcode": "LKA", "adm0_name": "Sri Lanka", "adm1_pcode": "LK1", "adm1_name": "Western", "adm2_pcode": "LK11", "adm2_name": "Colombo", "adm3_pcode": "LK1130", "adm3_name": "Dehiwala", "adm4_pcode": "LK1130075", "adm4_name": "Kawdana East", "name_latin": null }, "geometry": { "type": "MultiLineString", "coordinates": [ [ [ 79.8700708, 6.834175 ], [ 79.8700449, 6.8341589 ], [ 79.8694582, 6.8341751 ], [ 79.8693708, 6.8341544 ], [ 79.8689891, 6.8341872 ] ] ] } },
{ "type": "Feature", "properties": { "id": "way/53757717", "name": null, "name_en": null, "name_si": null, "name_ta": null, "highway": "residential", "surface": null, "smoothness": null, "width": null, "lanes": null, "oneway": null, "bridge": null, "layer": null, "source": null, "adm0_pcode": "LKA", "adm0_name": "Sri Lanka", "adm1_pcode": "LK1", "adm1_name": "Western", "adm2_pcode": "LK11", "adm2_name": "Colombo", "adm3_pcode": "LK1130", "adm3_name": "Dehiwala", "adm4_pcode": "LK1130075", "adm4_name": "Kawdana East", "name_latin": null }, "geometry": { "type": "MultiLineString", "coordinates": [ [ [ 79.869938, 6.8337192 ], [ 79.8691301, 6.8336043 ] ] ] } },
{ "type": "Feature", "properties": { "id": "way/53757723", "name": null, "name_en": null, "name_si": null, "name_ta": null, "highway": "residential", "surface": null, "smoothness": null, "width": null, "lanes": null, "oneway": null, "bridge": null, "layer": null, "source": null, "adm0_pcode": "LKA", "adm0_name": "Sri Lanka", "adm1_pcode": "LK1", "adm1_name": "Western", "adm2_pcode": "LK11", "adm2_name": "Colombo", "adm3_pcode": "LK1130", "adm3_name": "Dehiwala", "adm4_pcode": "LK1130075", "adm4_name": "Kawdana East", "name_latin": null }, "geometry": { "type": "MultiLineString", "coordinates": [ [ [ 79.868876950747364, 6.834871943606443 ], [ 79.8688791, 6.8347065 ], [ 79.8689891, 6.8341872 ], [ 79.8691301, 6.8336043 ], [ 79.8691998, 6.833417 ], [ 79.8693141, 6.8330283 ] ] ] } },
{ "type": "Feature", "properties": { "id": "way/376599209", "name": null, "name_en": null, "name_si": null, "name_ta": null, "highway": "residential", "surface": null, "smoothness": null, "width": null, "lanes": null, "oneway": null, "bridge": null, "layer": null, "source": null, "adm0_pcode": "LKA", "adm0_name": "Sri Lanka", "adm1_pcode": "LK1", "adm1_name": "Western", "adm2_pcode": "LK11", "adm2_name": "Colombo", "adm3_pcode": "LK1130", "adm3_name": "Dehiwala", "adm4_pcode": "LK1130075", "adm4_name": "Kawdana East", "name_latin": null }, "geometry": { "type": "MultiLineString", "coordinates": [ [ [ 79.8683136, 6.8333809 ], [ 79.8691998, 6.833417 ] ] ] } },
{ "type": "Feature", "properties": { "id": "way/53758198", "name": "D.J. Wijesiriwardane Mawatha", "name_en": null, "name_si": null, "name_ta": null, "highway": "residential", "surface": null, "smoothness": null, "width": null, "lanes": null, "oneway": null, "bridge": null, "layer": null, "source": null, "adm0_pcode": "LKA", "adm0_name": "Sri Lanka", "adm1_pcode": "LK1", "adm1_name": "Western", "adm2_pcode": "LK11", "adm2_name": "Colombo", "adm3_pcode": "LK1130", "adm3_name": "Dehiwala", "adm4_pcode": "LK1130075", "adm4_name": "Kawdana East", "name_latin": "D.J. Wijesiriwardane Mawatha" }, "geometry": { "type": "MultiLineString", "coordinates": [ [ [ 79.8702813, 6.8334101 ], [ 79.869902, 6.8331959 ], [ 79.869765, 6.8331326 ], [ 79.869616, 6.833087 ], [ 79.8693141, 6.8330283 ], [ 79.8692973, 6.8329897 ], [ 79.8692576, 6.8329376 ], [ 79.8691969, 6.8329067 ], [ 79.8691367, 6.8329004 ], [ 79.8689779, 6.8328976 ], [ 79.8673802, 6.8329013 ] ] ] } },
{ "type": "Feature", "properties": { "id": "way/53757718", "name": "Templer Place", "name_en": null, "name_si": null, "name_ta": null, "highway": "residential", "surface": null, "smoothness": null, "width": null, "lanes": null, "oneway": null, "bridge": null, "layer": null, "source": null, "adm0_pcode": "LKA", "adm0_name": "Sri Lanka", "adm1_pcode": "LK1", "adm1_name": "Western", "adm2_pcode": "LK11", "adm2_name": "Colombo", "adm3_pcode": "LK1131", "adm3_name": "Ratmalana", "adm4_pcode": "LK1131050", "adm4_name": "Vihara", "name_latin": "Templer Place" }, "geometry": { "type": "MultiLineString", "coordinates": [ [ [ 79.8690082, 6.8308713 ], [ 79.8689559, 6.8313107 ], [ 79.8689412, 6.8318428 ], [ 79.8689554, 6.8319643 ], [ 79.8689948, 6.8324106 ], [ 79.8689779, 6.8328976 ] ] ] } },
{ "type": "Feature", "properties": { "id": "way/683039763", "name": "Wijeratne Mawatha", "name_en": null, "name_si": null, "name_ta": null, "highway": "residential", "surface": "asphalt", "smoothness": null, "width": null, "lanes": null, "oneway": null, "bridge": null, "layer": null, "source": null, "adm0_pcode": "LKA", "adm0_name": "Sri Lanka", "adm1_pcode": "LK1", "adm1_name": "Western", "adm2_pcode": "LK11", "adm2_name": "Colombo", "adm3_pcode": "LK1131", "adm3_name": "Ratmalana", "adm4_pcode": "LK1131050", "adm4_name": "Vihara", "name_latin": "Wijeratne Mawatha" }, "geometry": { "type": "MultiLineString", "coordinates": [ [ [ 79.8682332, 6.8294429 ], [ 79.8683474, 6.8294837 ], [ 79.8693019, 6.8298575 ] ] ] } },
{ "type": "Feature", "properties": { "id": "way/1059432235", "name": null, "name_en": null, "name_si": null, "name_ta": null, "highway": "living_street", "surface": null, "smoothness": null, "width": null, "lanes": null, "oneway": null, "bridge": null, "layer": null, "source": null, "adm0_pcode": "LKA", "adm0_name": "Sri Lanka", "adm1_pcode": "LK1", "adm1_name": "Western", "adm2_pcode": "LK11", "adm2_name": "Colombo", "adm3_pcode": "LK1131", "adm3_name": "Ratmalana", "adm4_pcode": "LK1131050", "adm4_name": "Vihara", "name_latin": null }, "geometry": { "type": "MultiLineString", "coordinates": [ [ [ 79.8681791, 6.8295733 ], [ 79.8684418, 6.8296646 ], [ 79.86868, 6.8297867 ] ] ] } },
{ "type": "Feature", "properties": { "id": "way/1489954397", "name": "Templers Road", "name_en": null, "name_si": null, "name_ta": null, "highway": "primary_link", "surface": "asphalt", "smoothness": null, "width": null, "lanes": "2", "oneway": null, "bridge": null, "layer": null, "source": null, "adm0_pcode": "LKA", "adm0_name": "Sri Lanka", "adm1_pcode": "LK1", "adm1_name": "Western", "adm2_pcode": "LK11", "adm2_name": "Colombo", "adm3_pcode": "LK1131", "adm3_name": "Ratmalana", "adm4_pcode": "LK1131050", "adm4_name": "Vihara", "name_latin": "Templers Road" }, "geometry": { "type": "MultiLineString", "coordinates": [ [ [ 79.8678375, 6.8305117 ], [ 79.8677658, 6.8304817 ] ] ] } },
{ "type": "Feature", "properties": { "id": "way/1137580717", "name": null, "name_en": null, "name_si": null, "name_ta": null, "highway": "footway", "surface": null, "smoothness": null, "width": null, "lanes": null, "oneway": null, "bridge": null, "layer": null, "source": null, "adm0_pcode": "LKA", "adm0_name": "Sri Lanka", "adm1_pcode": "LK1", "adm1_name": "Western", "adm2_pcode": "LK11", "adm2_name": "Colombo", "adm3_pcode": "LK1131", "adm3_name": "Ratmalana", "adm4_pcode": "LK1131050", "adm4_name": "Vihara", "name_latin": null }, "geometry": { "type": "MultiLineString", "coordinates": [ [ [ 79.8678026, 6.8303742 ], [ 79.8678794, 6.8304018 ] ] ] } },
{ "type": "Feature", "properties": { "id": "way/708584964", "name": null, "name_en": null, "name_si": null, "name_ta": null, "highway": "residential", "surface": null, "smoothness": null, "width": null, "lanes": null, "oneway": null, "bridge": null, "layer": null, "source": null, "adm0_pcode": "LKA", "adm0_name": "Sri Lanka", "adm1_pcode": "LK1", "adm1_name": "Western", "adm2_pcode": "LK11", "adm2_name": "Colombo", "adm3_pcode": "LK1131", "adm3_name": "Ratmalana", "adm4_pcode": "LK1131050", "adm4_name": "Vihara", "name_latin": null }, "geometry": { "type": "MultiLineString", "coordinates": [ [ [ 79.8680088, 6.8298165 ], [ 79.8672817, 6.8296136 ] ] ] } },
{ "type": "Feature", "properties": { "id": "way/164720831", "name": null, "name_en": null, "name_si": null, "name_ta": null, "highway": "residential", "surface": null, "smoothness": null, "width": null, "lanes": null, "oneway": null, "bridge": null, "layer": null, "source": null, "adm0_pcode": "LKA", "adm0_name": "Sri Lanka", "adm1_pcode": "LK1", "adm1_name": "Western", "adm2_pcode": "LK11", "adm2_name": "Colombo", "adm3_pcode": "LK1131", "adm3_name": "Ratmalana", "adm4_pcode": "LK1131050", "adm4_name": "Vihara", "name_latin": null }, "geometry": { "type": "MultiLineString", "coordinates": [ [ [ 79.8679025, 6.830104 ], [ 79.8670796, 6.8299404 ], [ 79.8664602, 6.8298394 ] ] ] } },
{ "type": "Feature", "properties": { "id": "way/164720832", "name": null, "name_en": null, "name_si": null, "name_ta": null, "highway": "residential", "surface": null, "smoothness": null, "width": null, "lanes": null, "oneway": null, "bridge": null, "layer": null, "source": null, "adm0_pcode": "LKA", "adm0_name": "Sri Lanka", "adm1_pcode": "LK1", "adm1_name": "Western", "adm2_pcode": "LK11", "adm2_name": "Colombo", "adm3_pcode": "LK1131", "adm3_name": "Ratmalana", "adm4_pcode": "LK1131050", "adm4_name": "Vihara", "name_latin": null }, "geometry": { "type": "MultiLineString", "coordinates": [ [ [ 79.8670796, 6.8299404 ], [ 79.8670697, 6.830172 ], [ 79.8670502, 6.8303603 ], [ 79.8669637, 6.8307131 ] ] ] } },
{ "type": "Feature", "properties": { "id": "way/109078667", "name": null, "name_en": null, "name_si": null, "name_ta": null, "highway": "residential", "surface": null, "smoothness": null, "width": null, "lanes": null, "oneway": null, "bridge": null, "layer": null, "source": null, "adm0_pcode": "LKA", "adm0_name": "Sri Lanka", "adm1_pcode": "LK1", "adm1_name": "Western", "adm2_pcode": "LK11", "adm2_name": "Colombo", "adm3_pcode": "LK1130", "adm3_name": "Dehiwala", "adm4_pcode": "LK1131050", "adm4_name": "Vihara", "name_latin": null }, "geometry": { "type": "MultiLineString", "coordinates": [ [ [ 79.8671891, 6.8315904 ], [ 79.8671749, 6.8315979 ], [ 79.8669999, 6.8317409 ], [ 79.8669201, 6.8318034 ], [ 79.8668627, 6.8319071 ], [ 79.8668206, 6.8320592 ], [ 79.8667482, 6.832531 ] ] ] } },
{ "type": "Feature", "properties": { "id": "way/152625511", "name": null, "name_en": null, "name_si": null, "name_ta": null, "highway": "living_street", "surface": null, "smoothness": null, "width": null, "lanes": null, "oneway": null, "bridge": null, "layer": null, "source": null, "adm0_pcode": "LKA", "adm0_name": "Sri Lanka", "adm1_pcode": "LK1", "adm1_name": "Western", "adm2_pcode": "LK11", "adm2_name": "Colombo", "adm3_pcode": "LK1130", "adm3_name": "Dehiwala", "adm4_pcode": "LK1131050", "adm4_name": "Vihara", "name_latin": null }, "geometry": { "type": "MultiLineString", "coordinates": [ [ [ 79.8675461, 6.8316031 ], [ 79.868107, 6.831565 ], [ 79.86814, 6.8315813 ] ] ] } },
{ "type": "Feature", "properties": { "id": "way/1137580716", "name": null, "name_en": null, "name_si": null, "name_ta": null, "highway": "footway", "surface": null, "smoothness": null, "width": null, "lanes": null, "oneway": null, "bridge": null, "layer": null, "source": null, "adm0_pcode": "LKA", "adm0_name": "Sri Lanka", "adm1_pcode": "LK1", "adm1_name": "Western", "adm2_pcode": "LK11", "adm2_name": "Colombo", "adm3_pcode": "LK1130", "adm3_name": "Dehiwala", "adm4_pcode": "LK1131050", "adm4_name": "Vihara", "name_latin": null }, "geometry": { "type": "MultiLineString", "coordinates": [ [ [ 79.8673239, 6.8327924 ], [ 79.8673879, 6.8327916 ] ] ] } },
{ "type": "Feature", "properties": { "id": "way/589745461", "name": null, "name_en": null, "name_si": null, "name_ta": null, "highway": "residential", "surface": null, "smoothness": null, "width": null, "lanes": null, "oneway": null, "bridge": null, "layer": null, "source": null, "adm0_pcode": "LKA", "adm0_name": "Sri Lanka", "adm1_pcode": "LK1", "adm1_name": "Western", "adm2_pcode": "LK11", "adm2_name": "Colombo", "adm3_pcode": "LK1130", "adm3_name": "Dehiwala", "adm4_pcode": "LK1131050", "adm4_name": "Vihara", "name_latin": null }, "geometry": { "type": "MultiLineString", "coordinates": [ [ [ 79.8660832, 6.8324676 ], [ 79.8661038, 6.8322292 ], [ 79.8661101, 6.8321562 ] ] ] } },
{ "type": "Feature", "properties": { "id": "way/49000457", "name": "Old Quarry Road", "name_en": null, "name_si": null, "name_ta": null, "highway": "residential", "surface": null, "smoothness": null, "width": null, "lanes": null, "oneway": null, "bridge": null, "layer": null, "source": null, "adm0_pcode": "LKA", "adm0_name": "Sri Lanka", "adm1_pcode": "LK1", "adm1_name": "Western", "adm2_pcode": "LK11", "adm2_name": "Colombo", "adm3_pcode": "LK1130", "adm3_name": "Dehiwala", "adm4_pcode": "LK1131050", "adm4_name": "Vihara", "name_latin": "Old Quarry Road" }, "geometry": { "type": "MultiLineString", "coordinates": [ [ [ 79.8643586, 6.831661 ], [ 79.8644155, 6.8316208 ], [ 79.8645405, 6.8315665 ], [ 79.8647396, 6.8314643 ], [ 79.8648327, 6.8314225 ], [ 79.8649206, 6.831405 ], [ 79.8651595, 6.8314304 ], [ 79.86533, 6.8314999 ], [ 79.8655817, 6.8316501 ], [ 79.8656512, 6.831649 ], [ 79.8659702, 6.8315612 ], [ 79.8661233, 6.8315498 ], [ 79.8667638, 6.8315805 ], [ 79.8671891, 6.8315904 ], [ 79.867474, 6.8315998 ] ] ] } },
{ "type": "Feature", "properties": { "id": "way/375190503", "name": null, "name_en": null, "name_si": null, "name_ta": null, "highway": "residential", "surface": null, "smoothness": null, "width": null, "lanes": null, "oneway": null, "bridge": null, "layer": null, "source": null, "adm0_pcode": "LKA", "adm0_name": "Sri Lanka", "adm1_pcode": "LK1", "adm1_name": "Western", "adm2_pcode": "LK11", "adm2_name": "Colombo", "adm3_pcode": "LK1130", "adm3_name": "Dehiwala", "adm4_pcode": "LK1130040", "adm4_name": "Dehiwala West", "name_latin": null }, "geometry": { "type": "MultiLineString", "coordinates": [ [ [ 79.8667638, 6.8315805 ], [ 79.8667622, 6.8315221 ], [ 79.8667428, 6.831385 ], [ 79.8666927, 6.8310878 ], [ 79.8666781, 6.8310034 ], [ 79.8666676, 6.8309245 ] ] ] } },
{ "type": "Feature", "properties": { "id": "way/376599230", "name": "Kongahawatte Road", "name_en": null, "name_si": null, "name_ta": null, "highway": "residential", "surface": null, "smoothness": null, "width": null, "lanes": null, "oneway": null, "bridge": null, "layer": null, "source": null, "adm0_pcode": "LKA", "adm0_name": "Sri Lanka", "adm1_pcode": "LK1", "adm1_name": "Western", "adm2_pcode": "LK11", "adm2_name": "Colombo", "adm3_pcode": "LK1130", "adm3_name": "Dehiwala", "adm4_pcode": "LK1130040", "adm4_name": "Dehiwala West", "name_latin": "Kongahawatte Road" }, "geometry": { "type": "MultiLineString", "coordinates": [ [ [ 79.8656144, 6.8307026 ], [ 79.8659127, 6.8307515 ], [ 79.8659344, 6.8307508 ], [ 79.8659556, 6.8307421 ], [ 79.8662315, 6.8303714 ] ] ] } },
{ "type": "Feature", "properties": { "id": "way/524651613", "name": null, "name_en": null, "name_si": null, "name_ta": null, "highway": "living_street", "surface": null, "smoothness": null, "width": null, "lanes": null, "oneway": null, "bridge": null, "layer": null, "source": null, "adm0_pcode": "LKA", "adm0_name": "Sri Lanka", "adm1_pcode": "LK1", "adm1_name": "Western", "adm2_pcode": "LK11", "adm2_name": "Colombo", "adm3_pcode": "LK1130", "adm3_name": "Dehiwala", "adm4_pcode": "LK1130040", "adm4_name": "Dehiwala West", "name_latin": null }, "geometry": { "type": "MultiLineString", "coordinates": [ [ [ 79.8661125, 6.8311647 ], [ 79.8661233, 6.8315498 ] ] ] } },
{ "type": "Feature", "properties": { "id": "way/50133642", "name": "Samudrasanna Road", "name_en": null, "name_si": null, "name_ta": null, "highway": "residential", "surface": null, "smoothness": null, "width": null, "lanes": null, "oneway": null, "bridge": null, "layer": null, "source": null, "adm0_pcode": "LKA", "adm0_name": "Sri Lanka", "adm1_pcode": "LK1", "adm1_name": "Western", "adm2_pcode": "LK11", "adm2_name": "Colombo", "adm3_pcode": "LK1130", "adm3_name": "Dehiwala", "adm4_pcode": "LK1130040", "adm4_name": "Dehiwala West", "name_latin": "Samudrasanna Road" }, "geometry": { "type": "MultiLineString", "coordinates": [ [ [ 79.8676598, 6.8308297 ], [ 79.8674364, 6.8308014 ], [ 79.8669637, 6.8307131 ], [ 79.8664012, 6.8304747 ], [ 79.8662315, 6.8303714 ], [ 79.8660885, 6.8302851 ], [ 79.8656775, 6.8302206 ], [ 79.8650494, 6.8301038 ], [ 79.8647818, 6.8300786 ], [ 79.8647483, 6.8300879 ], [ 79.8647059, 6.8301229 ], [ 79.864536, 6.8303064 ], [ 79.8644549, 6.8303442 ], [ 79.8636511, 6.8305083 ] ] ] } },
{ "type": "Feature", "properties": { "id": "way/1095303373", "name": null, "name_en": null, "name_si": null, "name_ta": null, "highway": "living_street", "surface": null, "smoothness": null, "width": null, "lanes": null, "oneway": null, "bridge": null, "layer": null, "source": null, "adm0_pcode": "LKA", "adm0_name": "Sri Lanka", "adm1_pcode": "LK1", "adm1_name": "Western", "adm2_pcode": "LK11", "adm2_name": "Colombo", "adm3_pcode": "LK1130", "adm3_name": "Dehiwala", "adm4_pcode": "LK1131050", "adm4_name": "Vihara", "name_latin": null }, "geometry": { "type": "MultiLineString", "coordinates": [ [ [ 79.8656123, 6.8299122 ], [ 79.8656362, 6.8299538 ], [ 79.8656775, 6.8302206 ] ] ] } },
{ "type": "Feature", "properties": { "id": "way/524651614", "name": null, "name_en": null, "name_si": null, "name_ta": null, "highway": "living_street", "surface": null, "smoothness": null, "width": null, "lanes": null, "oneway": null, "bridge": null, "layer": null, "source": null, "adm0_pcode": "LKA", "adm0_name": "Sri Lanka", "adm1_pcode": "LK1", "adm1_name": "Western", "adm2_pcode": "LK11", "adm2_name": "Colombo", "adm3_pcode": "LK1130", "adm3_name": "Dehiwala", "adm4_pcode": "LK1130075", "adm4_name": "Kawdana East", "name_latin": null }, "geometry": { "type": "MultiLineString", "coordinates": [ [ [ 79.8650618, 6.8295891 ], [ 79.8650676, 6.8298052 ], [ 79.8650826, 6.8298438 ], [ 79.8651051, 6.8298557 ], [ 79.8655749, 6.8298929 ], [ 79.8656123, 6.8299122 ] ] ] } },
{ "type": "Feature", "properties": { "id": "way/109078670", "name": null, "name_en": null, "name_si": null, "name_ta": null, "highway": "residential", "surface": null, "smoothness": null, "width": null, "lanes": null, "oneway": null, "bridge": null, "layer": null, "source": null, "adm0_pcode": "LKA", "adm0_name": "Sri Lanka", "adm1_pcode": "LK1", "adm1_name": "Western", "adm2_pcode": "LK11", "adm2_name": "Colombo", "adm3_pcode": "LK1130", "adm3_name": "Dehiwala", "adm4_pcode": "LK1131050", "adm4_name": "Vihara", "name_latin": null }, "geometry": { "type": "MultiLineString", "coordinates": [ [ [ 79.8660754, 6.8291745 ], [ 79.865995, 6.8291369 ], [ 79.8650418, 6.8289319 ], [ 79.8645673, 6.8289412 ], [ 79.8643824, 6.8289303 ], [ 79.8643278, 6.82888 ], [ 79.8643002, 6.8287597 ], [ 79.8642097, 6.8285986 ], [ 79.8641393, 6.8285703 ], [ 79.8640133, 6.82858 ], [ 79.8639471, 6.8286699 ], [ 79.8638109, 6.829018 ], [ 79.863713, 6.8293987 ], [ 79.8636097, 6.8298889 ], [ 79.8636511, 6.8305083 ], [ 79.8636891, 6.8312593 ], [ 79.8637393, 6.8315789 ] ] ] } },
{ "type": "Feature", "properties": { "id": "way/164732217", "name": null, "name_en": null, "name_si": null, "name_ta": null, "highway": "residential", "surface": null, "smoothness": null, "width": null, "lanes": null, "oneway": null, "bridge": null, "layer": null, "source": null, "adm0_pcode": "LKA", "adm0_name": "Sri Lanka", "adm1_pcode": "LK1", "adm1_name": "Western", "adm2_pcode": "LK11", "adm2_name": "Colombo", "adm3_pcode": "LK1130", "adm3_name": "Dehiwala", "adm4_pcode": "LK1130040", "adm4_name": "Dehiwala West", "name_latin": null }, "geometry": { "type": "MultiLineString", "coordinates": [ [ [ 79.8650494, 6.8301038 ], [ 79.8650806, 6.8304506 ], [ 79.8651595, 6.8314304 ] ] ] } },
{ "type": "Feature", "properties": { "id": "way/15242148", "name": "Station Road", "name_en": null, "name_si": null, "name_ta": null, "highway": "residential", "surface": null, "smoothness": null, "width": null, "lanes": null, "oneway": null, "bridge": null, "layer": null, "source": null, "adm0_pcode": "LKA", "adm0_name": "Sri Lanka", "adm1_pcode": "LK1", "adm1_name": "Western", "adm2_pcode": "LK11", "adm2_name": "Colombo", "adm3_pcode": "LK1130", "adm3_name": "Dehiwala", "adm4_pcode": "LK1131050", "adm4_name": "Vihara", "name_latin": "Station Road" }, "geometry": { "type": "MultiLineString", "coordinates": [ [ [ 79.8674053, 6.8325652 ], [ 79.8673352, 6.8325615 ], [ 79.8667482, 6.832531 ], [ 79.866561, 6.8325255 ], [ 79.8661487, 6.8324712 ], [ 79.8660832, 6.8324676 ], [ 79.8656153, 6.8324416 ], [ 79.86468, 6.8323897 ], [ 79.8644201, 6.8324094 ], [ 79.8639698, 6.8323865 ] ] ] } },
{ "type": "Feature", "properties": { "id": "way/589745466", "name": null, "name_en": null, "name_si": null, "name_ta": null, "highway": "residential", "surface": null, "smoothness": null, "width": null, "lanes": null, "oneway": null, "bridge": null, "layer": null, "source": null, "adm0_pcode": "LKA", "adm0_name": "Sri Lanka", "adm1_pcode": "LK1", "adm1_name": "Western", "adm2_pcode": "LK11", "adm2_name": "Colombo", "adm3_pcode": "LK1130", "adm3_name": "Dehiwala", "adm4_pcode": "LK1131050", "adm4_name": "Vihara", "name_latin": null }, "geometry": { "type": "MultiLineString", "coordinates": [ [ [ 79.8656153, 6.8324416 ], [ 79.8655723, 6.8329738 ], [ 79.8655777, 6.8329991 ], [ 79.8655911, 6.8330104 ], [ 79.8656112, 6.8330191 ], [ 79.8659156, 6.8330324 ] ] ] } },
{ "type": "Feature", "properties": { "id": "way/53757725", "name": "Simon Abeywickrema Avenue", "name_en": null, "name_si": null, "name_ta": null, "highway": "residential", "surface": null, "smoothness": null, "width": null, "lanes": null, "oneway": null, "bridge": null, "layer": null, "source": null, "adm0_pcode": "LKA", "adm0_name": "Sri Lanka", "adm1_pcode": "LK1", "adm1_name": "Western", "adm2_pcode": "LK11", "adm2_name": "Colombo", "adm3_pcode": "LK1130", "adm3_name": "Dehiwala", "adm4_pcode": "LK1130040", "adm4_name": "Dehiwala West", "name_latin": "Simon Abeywickrema Avenue" }, "geometry": { "type": "MultiLineString", "coordinates": [ [ [ 79.864797544248503, 6.833857779582436 ], [ 79.8648591, 6.8338402 ], [ 79.8650005, 6.8338129 ], [ 79.8652199, 6.83381 ], [ 79.8656666, 6.8338128 ] ] ] } },
{ "type": "Feature", "properties": { "id": "way/532086472", "name": "Simon Abeywickrema Avenue", "name_en": null, "name_si": null, "name_ta": null, "highway": "residential", "surface": null, "smoothness": null, "width": null, "lanes": null, "oneway": null, "bridge": null, "layer": null, "source": null, "adm0_pcode": "LKA", "adm0_name": "Sri Lanka", "adm1_pcode": "LK1", "adm1_name": "Western", "adm2_pcode": "LK11", "adm2_name": "Colombo", "adm3_pcode": "LK1130", "adm3_name": "Dehiwala", "adm4_pcode": "LK1130075", "adm4_name": "Kawdana East", "name_latin": "Simon Abeywickrema Avenue" }, "geometry": { "type": "MultiLineString", "coordinates": [ [ [ 79.8656666, 6.8338128 ], [ 79.8656997, 6.8338327 ], [ 79.8657462, 6.8342561 ], [ 79.865774623034341, 6.83452025657543 ] ] ] } },
{ "type": "Feature", "properties": { "id": "way/53757728", "name": null, "name_en": null, "name_si": null, "name_ta": null, "highway": "residential", "surface": null, "smoothness": null, "width": null, "lanes": null, "oneway": null, "bridge": null, "layer": null, "source": null, "adm0_pcode": "LKA", "adm0_name": "Sri Lanka", "adm1_pcode": "LK1", "adm1_name": "Western", "adm2_pcode": "LK11", "adm2_name": "Colombo", "adm3_pcode": "LK1130", "adm3_name": "Dehiwala", "adm4_pcode": "LK1130040", "adm4_name": "Dehiwala West", "name_latin": null }, "geometry": { "type": "MultiLineString", "coordinates": [ [ [ 79.8672821, 6.8340186 ], [ 79.8667462, 6.8340821 ], [ 79.8663761, 6.8341327 ], [ 79.8657462, 6.8342561 ] ] ] } },
{ "type": "Feature", "properties": { "id": "way/53757726", "name": "Circular Road", "name_en": null, "name_si": null, "name_ta": null, "highway": "residential", "surface": null, "smoothness": null, "width": null, "lanes": null, "oneway": null, "bridge": null, "layer": null, "source": null, "adm0_pcode": "LKA", "adm0_name": "Sri Lanka", "adm1_pcode": "LK1", "adm1_name": "Western", "adm2_pcode": "LK11", "adm2_name": "Colombo", "adm3_pcode": "LK1130", "adm3_name": "Dehiwala", "adm4_pcode": "LK1130040", "adm4_name": "Dehiwala West", "name_latin": "Circular Road" }, "geometry": { "type": "MultiLineString", "coordinates": [ [ [ 79.866524749162963, 6.834816604420614 ], [ 79.8665191, 6.8347583 ], [ 79.8664977, 6.8346423 ], [ 79.8664561, 6.8345291 ], [ 79.8664299, 6.8344664 ], [ 79.866385, 6.8343653 ], [ 79.8663689, 6.8342748 ], [ 79.8663736, 6.8341836 ], [ 79.8663761, 6.8341327 ], [ 79.866387, 6.8340784 ], [ 79.8664064, 6.8339909 ], [ 79.8664702, 6.8337781 ], [ 79.866505, 6.8335025 ], [ 79.8665357, 6.8330444 ], [ 79.866561, 6.8325255 ] ] ] } },
{ "type": "Feature", "properties": { "id": "way/15242149", "name": "Station Road", "name_en": null, "name_si": null, "name_ta": null, "highway": "residential", "surface": null, "smoothness": null, "width": null, "lanes": null, "oneway": null, "bridge": null, "layer": null, "source": null, "adm0_pcode": "LKA", "adm0_name": "Sri Lanka", "adm1_pcode": "LK1", "adm1_name": "Western", "adm2_pcode": "LK11", "adm2_name": "Colombo", "adm3_pcode": "LK1130", "adm3_name": "Dehiwala", "adm4_pcode": "LK1130040", "adm4_name": "Dehiwala West", "name_latin": "Station Road" }, "geometry": { "type": "MultiLineString", "coordinates": [ [ [ 79.86468, 6.8323897 ], [ 79.8646245, 6.832241 ], [ 79.864445, 6.8318107 ], [ 79.8643586, 6.831661 ], [ 79.864254, 6.8315557 ], [ 79.8641805, 6.831531 ], [ 79.8637393, 6.8315789 ], [ 79.8636703, 6.8316111 ], [ 79.8635901, 6.8316263 ], [ 79.8635, 6.8316101 ], [ 79.8634499, 6.8315505 ], [ 79.8634375, 6.8312844 ], [ 79.8633957, 6.8312082 ], [ 79.863337236695244, 6.831190301234389 ] ] ] } },
{ "type": "Feature", "properties": { "id": "way/153609095", "name": "Lilian Avenue", "name_en": null, "name_si": null, "name_ta": null, "highway": "residential", "surface": "asphalt", "smoothness": null, "width": null, "lanes": null, "oneway": null, "bridge": null, "layer": null, "source": null, "adm0_pcode": "LKA", "adm0_name": "Sri Lanka", "adm1_pcode": "LK1", "adm1_name": "Western", "adm2_pcode": "LK11", "adm2_name": "Colombo", "adm3_pcode": "LK1130", "adm3_name": "Dehiwala", "adm4_pcode": "LK1130075", "adm4_name": "Kawdana East", "name_latin": "Lilian Avenue" }, "geometry": { "type": "MultiLineString", "coordinates": [ [ [ 79.8644201, 6.8324094 ], [ 79.8642949, 6.8331145 ], [ 79.864263279484518, 6.833292635770408 ] ] ] } },
{ "type": "Feature", "properties": { "id": "way/1104877250", "name": null, "name_en": null, "name_si": null, "name_ta": null, "highway": "residential", "surface": null, "smoothness": null, "width": null, "lanes": null, "oneway": null, "bridge": null, "layer": null, "source": null, "adm0_pcode": "LKA", "adm0_name": "Sri Lanka", "adm1_pcode": "LK1", "adm1_name": "Western", "adm2_pcode": "LK11", "adm2_name": "Colombo", "adm3_pcode": "LK1130", "adm3_name": "Dehiwala", "adm4_pcode": "LK1131050", "adm4_name": "Vihara", "name_latin": null }, "geometry": { "type": "MultiLineString", "coordinates": [ [ [ 79.8642949, 6.8331145 ], [ 79.8647341, 6.8331429 ] ] ] } },
{ "type": "Feature", "properties": { "id": "way/963694988", "name": null, "name_en": null, "name_si": null, "name_ta": null, "highway": "residential", "surface": null, "smoothness": null, "width": null, "lanes": null, "oneway": null, "bridge": null, "layer": null, "source": null, "adm0_pcode": "LKA", "adm0_name": "Sri Lanka", "adm1_pcode": "LK1", "adm1_name": "Western", "adm2_pcode": "LK11", "adm2_name": "Colombo", "adm3_pcode": "LK1130", "adm3_name": "Dehiwala", "adm4_pcode": "LK1130040", "adm4_name": "Dehiwala West", "name_latin": null }, "geometry": { "type": "MultiLineString", "coordinates": [ [ [ 79.8645998, 6.830963 ], [ 79.8646211, 6.8309781 ], [ 79.8646272, 6.8310077 ], [ 79.8647396, 6.8314643 ] ] ] } },
{ "type": "Feature", "properties": { "id": "way/963694989", "name": null, "name_en": null, "name_si": null, "name_ta": null, "highway": "residential", "surface": null, "smoothness": null, "width": null, "lanes": null, "oneway": null, "bridge": null, "layer": null, "source": null, "adm0_pcode": "LKA", "adm0_name": "Sri Lanka", "adm1_pcode": "LK1", "adm1_name": "Western", "adm2_pcode": "LK11", "adm2_name": "Colombo", "adm3_pcode": "LK1130", "adm3_name": "Dehiwala", "adm4_pcode": "LK1130040", "adm4_name": "Dehiwala West", "name_latin": null }, "geometry": { "type": "MultiLineString", "coordinates": [ [ [ 79.8643951, 6.8309741 ], [ 79.8645998, 6.830963 ] ] ] } },
{ "type": "Feature", "properties": { "id": "way/777797986", "name": null, "name_en": null, "name_si": null, "name_ta": null, "highway": "residential", "surface": null, "smoothness": null, "width": null, "lanes": null, "oneway": null, "bridge": null, "layer": null, "source": null, "adm0_pcode": "LKA", "adm0_name": "Sri Lanka", "adm1_pcode": "LK1", "adm1_name": "Western", "adm2_pcode": "LK11", "adm2_name": "Colombo", "adm3_pcode": "LK1130", "adm3_name": "Dehiwala", "adm4_pcode": "LK1130040", "adm4_name": "Dehiwala West", "name_latin": null }, "geometry": { "type": "MultiLineString", "coordinates": [ [ [ 79.8645673, 6.8289412 ], [ 79.8645313, 6.82878 ], [ 79.864493, 6.8286722 ] ] ] } },
{ "type": "Feature", "properties": { "id": "way/777797985", "name": null, "name_en": null, "name_si": null, "name_ta": null, "highway": "residential", "surface": null, "smoothness": null, "width": null, "lanes": null, "oneway": null, "bridge": null, "layer": null, "source": null, "adm0_pcode": "LKA", "adm0_name": "Sri Lanka", "adm1_pcode": "LK1", "adm1_name": "Western", "adm2_pcode": "LK11", "adm2_name": "Colombo", "adm3_pcode": "LK1130", "adm3_name": "Dehiwala", "adm4_pcode": "LK1130040", "adm4_name": "Dehiwala West", "name_latin": null }, "geometry": { "type": "MultiLineString", "coordinates": [ [ [ 79.863473526499703, 6.829176702273392 ], [ 79.8634924, 6.8291838 ], [ 79.8635392, 6.8292148 ], [ 79.863713, 6.8293987 ], [ 79.8641396, 6.8294945 ], [ 79.8642056, 6.8295262 ], [ 79.8642439, 6.8296298 ] ] ] } },
{ "type": "Feature", "properties": { "id": "way/376603434", "name": null, "name_en": null, "name_si": null, "name_ta": null, "highway": "living_street", "surface": null, "smoothness": null, "width": null, "lanes": null, "oneway": null, "bridge": null, "layer": null, "source": null, "adm0_pcode": "LKA", "adm0_name": "Sri Lanka", "adm1_pcode": "LK1", "adm1_name": "Western", "adm2_pcode": "LK11", "adm2_name": "Colombo", "adm3_pcode": "LK1131", "adm3_name": "Ratmalana", "adm4_pcode": "LK1131050", "adm4_name": "Vihara", "name_latin": null }, "geometry": { "type": "MultiLineString", "coordinates": [ [ [ 79.8647029, 6.8272174 ], [ 79.864675641847413, 6.827215900801608 ] ] ] } },
{ "type": "Feature", "properties": { "id": "way/46967633", "name": "St. Rita's Road", "name_en": null, "name_si": null, "name_ta": null, "highway": "residential", "surface": null, "smoothness": null, "width": null, "lanes": null, "oneway": null, "bridge": null, "layer": null, "source": null, "adm0_pcode": "LKA", "adm0_name": "Sri Lanka", "adm1_pcode": "LK1", "adm1_name": "Western", "adm2_pcode": "LK11", "adm2_name": "Colombo", "adm3_pcode": "LK1131", "adm3_name": "Ratmalana", "adm4_pcode": "LK1131050", "adm4_name": "Vihara", "name_latin": "St. Rita's Road" }, "geometry": { "type": "MultiLineString", "coordinates": [ [ [ 79.86535669880486, 6.826678848999046 ], [ 79.86554, 6.8267139 ], [ 79.8656005, 6.8267407 ], [ 79.8656517, 6.8267796 ], [ 79.865744, 6.8269284 ], [ 79.8658192, 6.8270038 ], [ 79.8660351, 6.8271452 ], [ 79.8663009, 6.8271435 ], [ 79.8665319, 6.8270735 ], [ 79.8665894, 6.8270561 ], [ 79.8669885, 6.826906 ], [ 79.8670986, 6.8268683 ] ] ] } },
{ "type": "Feature", "properties": { "id": "way/376603398", "name": null, "name_en": null, "name_si": null, "name_ta": null, "highway": "service", "surface": null, "smoothness": null, "width": null, "lanes": null, "oneway": null, "bridge": null, "layer": null, "source": null, "adm0_pcode": "LKA", "adm0_name": "Sri Lanka", "adm1_pcode": "LK1", "adm1_name": "Western", "adm2_pcode": "LK11", "adm2_name": "Colombo", "adm3_pcode": "LK1131", "adm3_name": "Ratmalana", "adm4_pcode": "LK1131050", "adm4_name": "Vihara", "name_latin": null }, "geometry": { "type": "MultiLineString", "coordinates": [ [ [ 79.8655482, 6.8275807 ], [ 79.8657239, 6.8275815 ], [ 79.8657537, 6.8275693 ], [ 79.8657749, 6.8275355 ], [ 79.8658192, 6.8270038 ] ] ] } },
{ "type": "Feature", "properties": { "id": "way/50133644", "name": "St. Mary's Road", "name_en": null, "name_si": null, "name_ta": null, "highway": "residential", "surface": null, "smoothness": null, "width": null, "lanes": null, "oneway": null, "bridge": null, "layer": null, "source": null, "adm0_pcode": "LKA", "adm0_name": "Sri Lanka", "adm1_pcode": "LK1", "adm1_name": "Western", "adm2_pcode": "LK11", "adm2_name": "Colombo", "adm3_pcode": "LK1131", "adm3_name": "Ratmalana", "adm4_pcode": "LK1131050", "adm4_name": "Vihara", "name_latin": "St. Mary's Road" }, "geometry": { "type": "MultiLineString", "coordinates": [ [ [ 79.8686614, 6.8281841 ], [ 79.86845, 6.8281204 ], [ 79.86828, 6.82806 ], [ 79.8681778, 6.8280428 ], [ 79.8679714, 6.8280355 ], [ 79.8671973, 6.828138 ], [ 79.8669541, 6.828152 ], [ 79.8663303, 6.8281884 ], [ 79.8657973, 6.8281494 ], [ 79.8654628, 6.828124 ], [ 79.8651358, 6.8280862 ], [ 79.8647303, 6.8280441 ], [ 79.864043064367522, 6.827969777920127 ] ] ] } },
{ "type": "Feature", "properties": { "id": "way/109078665", "name": null, "name_en": null, "name_si": null, "name_ta": null, "highway": "residential", "surface": null, "smoothness": null, "width": null, "lanes": null, "oneway": null, "bridge": null, "layer": null, "source": null, "adm0_pcode": "LKA", "adm0_name": "Sri Lanka", "adm1_pcode": "LK1", "adm1_name": "Western", "adm2_pcode": "LK11", "adm2_name": "Colombo", "adm3_pcode": "LK1131", "adm3_name": "Ratmalana", "adm4_pcode": "LK1131050", "adm4_name": "Vihara", "name_latin": null }, "geometry": { "type": "MultiLineString", "coordinates": [ [ [ 79.8660885, 6.8302851 ], [ 79.8660983, 6.830113 ], [ 79.8661113, 6.8298494 ], [ 79.8661392, 6.8295998 ], [ 79.8661269, 6.8295544 ], [ 79.8660699, 6.8295067 ], [ 79.8660308, 6.8294568 ], [ 79.8660102, 6.8293863 ], [ 79.8660348, 6.8292346 ], [ 79.8660754, 6.8291745 ], [ 79.8661043, 6.8291473 ], [ 79.8662417, 6.8287979 ], [ 79.8663216, 6.8285666 ], [ 79.8663405, 6.8284 ], [ 79.8663303, 6.8281884 ] ] ] } },
{ "type": "Feature", "properties": { "id": "way/164732216", "name": null, "name_en": null, "name_si": null, "name_ta": null, "highway": "residential", "surface": null, "smoothness": null, "width": null, "lanes": null, "oneway": null, "bridge": null, "layer": null, "source": null, "adm0_pcode": "LKA", "adm0_name": "Sri Lanka", "adm1_pcode": "LK1", "adm1_name": "Western", "adm2_pcode": "LK11", "adm2_name": "Colombo", "adm3_pcode": "LK1131", "adm3_name": "Ratmalana", "adm4_pcode": "LK1131050", "adm4_name": "Vihara", "name_latin": null }, "geometry": { "type": "MultiLineString", "coordinates": [ [ [ 79.8662417, 6.8287979 ], [ 79.86641, 6.8288599 ], [ 79.86658, 6.8289095 ], [ 79.8670699, 6.8289801 ] ] ] } },
{ "type": "Feature", "properties": { "id": "way/777797987", "name": null, "name_en": null, "name_si": null, "name_ta": null, "highway": "residential", "surface": null, "smoothness": null, "width": null, "lanes": null, "oneway": null, "bridge": null, "layer": null, "source": null, "adm0_pcode": "LKA", "adm0_name": "Sri Lanka", "adm1_pcode": "LK1", "adm1_name": "Western", "adm2_pcode": "LK11", "adm2_name": "Colombo", "adm3_pcode": "LK1131", "adm3_name": "Ratmalana", "adm4_pcode": "LK1131050", "adm4_name": "Vihara", "name_latin": null }, "geometry": { "type": "MultiLineString", "coordinates": [ [ [ 79.8663216, 6.8285666 ], [ 79.8665379, 6.8286232 ], [ 79.86712, 6.828649 ] ] ] } },
{ "type": "Feature", "properties": { "id": "way/1095303372", "name": null, "name_en": null, "name_si": null, "name_ta": null, "highway": "service", "surface": null, "smoothness": null, "width": null, "lanes": null, "oneway": null, "bridge": null, "layer": null, "source": null, "adm0_pcode": "LKA", "adm0_name": "Sri Lanka", "adm1_pcode": "LK1", "adm1_name": "Western", "adm2_pcode": "LK11", "adm2_name": "Colombo", "adm3_pcode": "LK1131", "adm3_name": "Ratmalana", "adm4_pcode": "LK1131050", "adm4_name": "Vihara", "name_latin": null }, "geometry": { "type": "MultiLineString", "coordinates": [ [ [ 79.8665415, 6.8274133 ], [ 79.8665319, 6.8270735 ] ] ] } },
{ "type": "Feature", "properties": { "id": "way/376603420", "name": null, "name_en": null, "name_si": null, "name_ta": null, "highway": "service", "surface": null, "smoothness": null, "width": null, "lanes": null, "oneway": null, "bridge": null, "layer": null, "source": null, "adm0_pcode": "LKA", "adm0_name": "Sri Lanka", "adm1_pcode": "LK1", "adm1_name": "Western", "adm2_pcode": "LK11", "adm2_name": "Colombo", "adm3_pcode": "LK1131", "adm3_name": "Ratmalana", "adm4_pcode": "LK1131050", "adm4_name": "Vihara", "name_latin": null }, "geometry": { "type": "MultiLineString", "coordinates": [ [ [ 79.8660262, 6.8276644 ], [ 79.8660351, 6.8271452 ] ] ] } },
{ "type": "Feature", "properties": { "id": "way/376559506", "name": null, "name_en": null, "name_si": null, "name_ta": null, "highway": "residential", "surface": null, "smoothness": null, "width": null, "lanes": null, "oneway": null, "bridge": null, "layer": null, "source": null, "adm0_pcode": "LKA", "adm0_name": "Sri Lanka", "adm1_pcode": "LK1", "adm1_name": "Western", "adm2_pcode": "LK11", "adm2_name": "Colombo", "adm3_pcode": "LK1131", "adm3_name": "Ratmalana", "adm4_pcode": "LK1131050", "adm4_name": "Vihara", "name_latin": null }, "geometry": { "type": "MultiLineString", "coordinates": [ [ [ 79.8665894, 6.8270561 ], [ 79.8665933, 6.8265992 ], [ 79.8665776, 6.8262538 ], [ 79.866555358865654, 6.826135115297754 ] ] ] } },
{ "type": "Feature", "properties": { "id": "way/376559469", "name": null, "name_en": null, "name_si": null, "name_ta": null, "highway": "residential", "surface": null, "smoothness": null, "width": null, "lanes": null, "oneway": null, "bridge": null, "layer": null, "source": null, "adm0_pcode": "LKA", "adm0_name": "Sri Lanka", "adm1_pcode": "LK1", "adm1_name": "Western", "adm2_pcode": "LK11", "adm2_name": "Colombo", "adm3_pcode": "LK1131", "adm3_name": "Ratmalana", "adm4_pcode": "LK1131050", "adm4_name": "Vihara", "name_latin": null }, "geometry": { "type": "MultiLineString", "coordinates": [ [ [ 79.8665776, 6.8262538 ], [ 79.866270284265525, 6.826227371896462 ] ] ] } },
{ "type": "Feature", "properties": { "id": "way/376603426", "name": null, "name_en": null, "name_si": null, "name_ta": null, "highway": "service", "surface": null, "smoothness": null, "width": null, "lanes": null, "oneway": null, "bridge": null, "layer": null, "source": null, "adm0_pcode": "LKA", "adm0_name": "Sri Lanka", "adm1_pcode": "LK1", "adm1_name": "Western", "adm2_pcode": "LK11", "adm2_name": "Colombo", "adm3_pcode": "LK1131", "adm3_name": "Ratmalana", "adm4_pcode": "LK1131050", "adm4_name": "Vihara", "name_latin": null }, "geometry": { "type": "MultiLineString", "coordinates": [ [ [ 79.8673497, 6.8273821 ], [ 79.8674353, 6.8268769 ] ] ] } },
{ "type": "Feature", "properties": { "id": "way/771540705", "name": "St. Rita's Road", "name_en": null, "name_si": null, "name_ta": null, "highway": "residential", "surface": null, "smoothness": null, "width": null, "lanes": null, "oneway": null, "bridge": null, "layer": null, "source": null, "adm0_pcode": "LKA", "adm0_name": "Sri Lanka", "adm1_pcode": "LK1", "adm1_name": "Western", "adm2_pcode": "LK11", "adm2_name": "Colombo", "adm3_pcode": "LK1131", "adm3_name": "Ratmalana", "adm4_pcode": "LK1131050", "adm4_name": "Vihara", "name_latin": "St. Rita's Road" }, "geometry": { "type": "MultiLineString", "coordinates": [ [ [ 79.8670986, 6.8268683 ], [ 79.8671872, 6.8268535 ], [ 79.8674353, 6.8268769 ], [ 79.8674734, 6.8268804 ] ] ] } },
{ "type": "Feature", "properties": { "id": "way/376603432", "name": null, "name_en": null, "name_si": null, "name_ta": null, "highway": "service", "surface": null, "smoothness": null, "width": null, "lanes": null, "oneway": null, "bridge": null, "layer": null, "source": null, "adm0_pcode": "LKA", "adm0_name": "Sri Lanka", "adm1_pcode": "LK1", "adm1_name": "Western", "adm2_pcode": "LK11", "adm2_name": "Colombo", "adm3_pcode": "LK1131", "adm3_name": "Ratmalana", "adm4_pcode": "LK1131050", "adm4_name": "Vihara", "name_latin": null }, "geometry": { "type": "MultiLineString", "coordinates": [ [ [ 79.8669398, 6.8274365 ], [ 79.8669856, 6.8271008 ], [ 79.8669885, 6.826906 ] ] ] } },
{ "type": "Feature", "properties": { "id": "way/773873295", "name": null, "name_en": null, "name_si": null, "name_ta": null, "highway": "residential", "surface": null, "smoothness": null, "width": null, "lanes": null, "oneway": null, "bridge": null, "layer": null, "source": null, "adm0_pcode": "LKA", "adm0_name": "Sri Lanka", "adm1_pcode": "LK1", "adm1_name": "Western", "adm2_pcode": "LK11", "adm2_name": "Colombo", "adm3_pcode": "LK1131", "adm3_name": "Ratmalana", "adm4_pcode": "LK1131050", "adm4_name": "Vihara", "name_latin": null }, "geometry": { "type": "MultiLineString", "coordinates": [ [ [ 79.8681778, 6.8280428 ], [ 79.8680089, 6.8279618 ], [ 79.867933, 6.8279348 ], [ 79.8676919, 6.827843 ], [ 79.8676416, 6.8278086 ], [ 79.867531, 6.8277188 ], [ 79.8674473, 6.8276888 ], [ 79.8671568, 6.8276888 ], [ 79.8670965, 6.827731 ], [ 79.8670217, 6.827813 ], [ 79.8669613, 6.8278186 ], [ 79.8666385, 6.8278273 ] ] ] } },
{ "type": "Feature", "properties": { "id": "way/1095303856", "name": null, "name_en": null, "name_si": null, "name_ta": null, "highway": "residential", "surface": null, "smoothness": null, "width": null, "lanes": null, "oneway": null, "bridge": null, "layer": null, "source": null, "adm0_pcode": "LKA", "adm0_name": "Sri Lanka", "adm1_pcode": "LK1", "adm1_name": "Western", "adm2_pcode": "LK11", "adm2_name": "Colombo", "adm3_pcode": "LK1131", "adm3_name": "Ratmalana", "adm4_pcode": "LK1131050", "adm4_name": "Vihara", "name_latin": null }, "geometry": { "type": "MultiLineString", "coordinates": [ [ [ 79.8675036, 6.8288796 ], [ 79.8674931, 6.8287771 ], [ 79.8674901, 6.8287489 ], [ 79.8675006, 6.8287177 ], [ 79.8675178, 6.8287088 ], [ 79.8675821, 6.8286932 ], [ 79.8675971, 6.8286813 ], [ 79.867606, 6.8286665 ], [ 79.8676315, 6.8285283 ], [ 79.8676517, 6.8284785 ], [ 79.8676734, 6.8284592 ], [ 79.8677489, 6.8284533 ], [ 79.8678584, 6.8284492 ] ] ] } },
{ "type": "Feature", "properties": { "id": "way/1095794280", "name": null, "name_en": null, "name_si": null, "name_ta": null, "highway": "residential", "surface": null, "smoothness": null, "width": null, "lanes": null, "oneway": null, "bridge": null, "layer": null, "source": null, "adm0_pcode": "LKA", "adm0_name": "Sri Lanka", "adm1_pcode": "LK1", "adm1_name": "Western", "adm2_pcode": "LK11", "adm2_name": "Colombo", "adm3_pcode": "LK1131", "adm3_name": "Ratmalana", "adm4_pcode": "LK1131050", "adm4_name": "Vihara", "name_latin": null }, "geometry": { "type": "MultiLineString", "coordinates": [ [ [ 79.8677051, 6.8293036 ], [ 79.8677468, 6.8293361 ], [ 79.8677632, 6.8293822 ], [ 79.8677878, 6.8294114 ], [ 79.8678403, 6.8294351 ], [ 79.8681164, 6.8295393 ] ] ] } },
{ "type": "Feature", "properties": { "id": "way/164720833", "name": null, "name_en": null, "name_si": null, "name_ta": null, "highway": "residential", "surface": null, "smoothness": null, "width": null, "lanes": null, "oneway": null, "bridge": null, "layer": null, "source": null, "adm0_pcode": "LKA", "adm0_name": "Sri Lanka", "adm1_pcode": "LK1", "adm1_name": "Western", "adm2_pcode": "LK11", "adm2_name": "Colombo", "adm3_pcode": "LK1131", "adm3_name": "Ratmalana", "adm4_pcode": "LK1131050", "adm4_name": "Vihara", "name_latin": null }, "geometry": { "type": "MultiLineString", "coordinates": [ [ [ 79.8684869, 6.8286227 ], [ 79.8678584, 6.8284492 ], [ 79.86776, 6.8283976 ], [ 79.8676607, 6.8283899 ], [ 79.8672689, 6.8284028 ] ] ] } },
{ "type": "Feature", "properties": { "id": "way/777797988", "name": null, "name_en": null, "name_si": null, "name_ta": null, "highway": "residential", "surface": null, "smoothness": null, "width": null, "lanes": null, "oneway": null, "bridge": null, "layer": null, "source": null, "adm0_pcode": "LKA", "adm0_name": "Sri Lanka", "adm1_pcode": "LK1", "adm1_name": "Western", "adm2_pcode": "LK11", "adm2_name": "Colombo", "adm3_pcode": "LK1131", "adm3_name": "Ratmalana", "adm4_pcode": "LK1131050", "adm4_name": "Vihara", "name_latin": null }, "geometry": { "type": "MultiLineString", "coordinates": [ [ [ 79.8678584, 6.8284492 ], [ 79.8679112, 6.8282635 ], [ 79.8679714, 6.8280355 ] ] ] } },
{ "type": "Feature", "properties": { "id": "way/1095303381", "name": null, "name_en": null, "name_si": null, "name_ta": null, "highway": "service", "surface": null, "smoothness": null, "width": null, "lanes": null, "oneway": null, "bridge": null, "layer": null, "source": null, "adm0_pcode": "LKA", "adm0_name": "Sri Lanka", "adm1_pcode": "LK1", "adm1_name": "Western", "adm2_pcode": "LK11", "adm2_name": "Colombo", "adm3_pcode": "LK1131", "adm3_name": "Ratmalana", "adm4_pcode": "LK1131050", "adm4_name": "Vihara", "name_latin": null }, "geometry": { "type": "MultiLineString", "coordinates": [ [ [ 79.8678483, 6.8285362 ], [ 79.8684506, 6.8287075 ] ] ] } },
{ "type": "Feature", "properties": { "id": "way/1489954396", "name": "Galle Road", "name_en": null, "name_si": null, "name_ta": null, "highway": "trunk", "surface": null, "smoothness": null, "width": null, "lanes": "2", "oneway": "yes", "bridge": null, "layer": null, "source": null, "adm0_pcode": "LKA", "adm0_name": "Sri Lanka", "adm1_pcode": "LK1", "adm1_name": "Western", "adm2_pcode": "LK11", "adm2_name": "Colombo", "adm3_pcode": "LK1131", "adm3_name": "Ratmalana", "adm4_pcode": "LK1131050", "adm4_name": "Vihara", "name_latin": "Galle Road" }, "geometry": { "type": "MultiLineString", "coordinates": [ [ [ 79.8678375, 6.8305117 ], [ 79.8678794, 6.8304018 ], [ 79.8681303, 6.829691 ], [ 79.8681791, 6.8295733 ], [ 79.8682332, 6.8294429 ], [ 79.8683255, 6.8292204 ], [ 79.8683454, 6.8291703 ], [ 79.8684948, 6.8287936 ], [ 79.8685549, 6.8286519 ], [ 79.8686012, 6.8285252 ], [ 79.8687111, 6.8282617 ], [ 79.8687886, 6.8280592 ], [ 79.8688591, 6.8278748 ], [ 79.8689785, 6.8275398 ], [ 79.8691108, 6.8272242 ] ] ] } },
{ "type": "Feature", "properties": { "id": "way/1122004539", "name": null, "name_en": null, "name_si": null, "name_ta": null, "highway": "residential", "surface": null, "smoothness": null, "width": null, "lanes": null, "oneway": null, "bridge": null, "layer": null, "source": null, "adm0_pcode": "LKA", "adm0_name": "Sri Lanka", "adm1_pcode": "LK1", "adm1_name": "Western", "adm2_pcode": "LK11", "adm2_name": "Colombo", "adm3_pcode": "LK1131", "adm3_name": "Ratmalana", "adm4_pcode": "LK1131050", "adm4_name": "Vihara", "name_latin": null }, "geometry": { "type": "MultiLineString", "coordinates": [ [ [ 79.8690679, 6.8288206 ], [ 79.8685549, 6.8286519 ] ] ] } },
{ "type": "Feature", "properties": { "id": "way/708584965", "name": null, "name_en": null, "name_si": null, "name_ta": null, "highway": "residential", "surface": null, "smoothness": null, "width": null, "lanes": null, "oneway": null, "bridge": null, "layer": null, "source": null, "adm0_pcode": "LKA", "adm0_name": "Sri Lanka", "adm1_pcode": "LK1", "adm1_name": "Western", "adm2_pcode": "LK11", "adm2_name": "Colombo", "adm3_pcode": "LK1131", "adm3_name": "Ratmalana", "adm4_pcode": "LK1131050", "adm4_name": "Vihara", "name_latin": null }, "geometry": { "type": "MultiLineString", "coordinates": [ [ [ 79.8683454, 6.8291703 ], [ 79.8690055, 6.8294078 ] ] ] } },
{ "type": "Feature", "properties": { "id": "way/708584963", "name": null, "name_en": null, "name_si": null, "name_ta": null, "highway": "residential", "surface": null, "smoothness": null, "width": null, "lanes": null, "oneway": null, "bridge": null, "layer": null, "source": null, "adm0_pcode": "LKA", "adm0_name": "Sri Lanka", "adm1_pcode": "LK1", "adm1_name": "Western", "adm2_pcode": "LK11", "adm2_name": "Colombo", "adm3_pcode": "LK1131", "adm3_name": "Ratmalana", "adm4_pcode": "LK1131050", "adm4_name": "Vihara", "name_latin": null }, "geometry": { "type": "MultiLineString", "coordinates": [ [ [ 79.8684948, 6.8287936 ], [ 79.8686528, 6.8288446 ], [ 79.8686944, 6.8288419 ], [ 79.8687547, 6.8288113 ], [ 79.868807, 6.8287913 ], [ 79.8688473, 6.8287973 ], [ 79.8692389, 6.8289345 ] ] ] } },
{ "type": "Feature", "properties": { "id": "way/532086492", "name": "Hena Road", "name_en": null, "name_si": null, "name_ta": null, "highway": "residential", "surface": null, "smoothness": null, "width": null, "lanes": null, "oneway": null, "bridge": null, "layer": null, "source": null, "adm0_pcode": "LKA", "adm0_name": "Sri Lanka", "adm1_pcode": "LK1", "adm1_name": "Western", "adm2_pcode": "LK11", "adm2_name": "Colombo", "adm3_pcode": "LK1131", "adm3_name": "Ratmalana", "adm4_pcode": "LK1131050", "adm4_name": "Vihara", "name_latin": "Hena Road" }, "geometry": { "type": "MultiLineString", "coordinates": [ [ [ 79.8692256, 6.8282478 ], [ 79.8687886, 6.8280592 ], [ 79.8687225, 6.8280307 ] ] ] } },
{ "type": "Feature", "properties": { "id": "way/1137580718", "name": null, "name_en": null, "name_si": null, "name_ta": null, "highway": "footway", "surface": null, "smoothness": null, "width": null, "lanes": null, "oneway": null, "bridge": null, "layer": null, "source": null, "adm0_pcode": "LKA", "adm0_name": "Sri Lanka", "adm1_pcode": "LK1", "adm1_name": "Western", "adm2_pcode": "LK11", "adm2_name": "Colombo", "adm3_pcode": "LK1131", "adm3_name": "Ratmalana", "adm4_pcode": "LK1131050", "adm4_name": "Vihara", "name_latin": null }, "geometry": { "type": "MultiLineString", "coordinates": [ [ [ 79.8689151, 6.8275184 ], [ 79.8689785, 6.8275398 ] ] ] } },
{ "type": "Feature", "properties": { "id": "way/1095303380", "name": null, "name_en": null, "name_si": null, "name_ta": null, "highway": "service", "surface": null, "smoothness": null, "width": null, "lanes": null, "oneway": null, "bridge": null, "layer": null, "source": null, "adm0_pcode": "LKA", "adm0_name": "Sri Lanka", "adm1_pcode": "LK1", "adm1_name": "Western", "adm2_pcode": "LK11", "adm2_name": "Colombo", "adm3_pcode": "LK1131", "adm3_name": "Ratmalana", "adm4_pcode": "LK1131050", "adm4_name": "Vihara", "name_latin": null }, "geometry": { "type": "MultiLineString", "coordinates": [ [ [ 79.8690009, 6.8273031 ], [ 79.8685973, 6.8271769 ], [ 79.8685749, 6.8271708 ], [ 79.8685531, 6.8271758 ], [ 79.8685018, 6.8273184 ] ] ] } },
{ "type": "Feature", "properties": { "id": "way/1095303379", "name": null, "name_en": null, "name_si": null, "name_ta": null, "highway": "service", "surface": null, "smoothness": null, "width": null, "lanes": null, "oneway": null, "bridge": null, "layer": null, "source": null, "adm0_pcode": "LKA", "adm0_name": "Sri Lanka", "adm1_pcode": "LK1", "adm1_name": "Western", "adm2_pcode": "LK11", "adm2_name": "Colombo", "adm3_pcode": "LK1131", "adm3_name": "Ratmalana", "adm4_pcode": "LK1131050", "adm4_name": "Vihara", "name_latin": null }, "geometry": { "type": "MultiLineString", "coordinates": [ [ [ 79.8689335, 6.8274688 ], [ 79.8687631, 6.8274526 ], [ 79.8685425, 6.8274027 ], [ 79.8685185, 6.8273827 ], [ 79.868509, 6.8273649 ], [ 79.8685018, 6.8273184 ] ] ] } },
{ "type": "Feature", "properties": { "id": "way/1095303371", "name": null, "name_en": null, "name_si": null, "name_ta": null, "highway": "service", "surface": null, "smoothness": null, "width": null, "lanes": null, "oneway": null, "bridge": null, "layer": null, "source": null, "adm0_pcode": "LKA", "adm0_name": "Sri Lanka", "adm1_pcode": "LK1", "adm1_name": "Western", "adm2_pcode": "LK11", "adm2_name": "Colombo", "adm3_pcode": "LK1131", "adm3_name": "Ratmalana", "adm4_pcode": "LK1131050", "adm4_name": "Vihara", "name_latin": null }, "geometry": { "type": "MultiLineString", "coordinates": [ [ [ 79.8683938, 6.8276094 ], [ 79.8681664, 6.8275247 ], [ 79.8681484, 6.8275054 ], [ 79.8681395, 6.8274787 ], [ 79.8682649, 6.8270088 ] ] ] } },
{ "type": "Feature", "properties": { "id": "way/771540706", "name": "St. Rita's Road", "name_en": null, "name_si": null, "name_ta": null, "highway": "residential", "surface": null, "smoothness": null, "width": null, "lanes": null, "oneway": null, "bridge": null, "layer": null, "source": null, "adm0_pcode": "LKA", "adm0_name": "Sri Lanka", "adm1_pcode": "LK1", "adm1_name": "Western", "adm2_pcode": "LK11", "adm2_name": "Colombo", "adm3_pcode": "LK1131", "adm3_name": "Ratmalana", "adm4_pcode": "LK1131050", "adm4_name": "Vihara", "name_latin": "St. Rita's Road" }, "geometry": { "type": "MultiLineString", "coordinates": [ [ [ 79.8674734, 6.8268804 ], [ 79.8678365, 6.826903 ], [ 79.8679276, 6.8269261 ], [ 79.8680244, 6.8269491 ], [ 79.8681405, 6.8269758 ], [ 79.8682649, 6.8270088 ], [ 79.8687371, 6.8271037 ], [ 79.8689146, 6.8271497 ], [ 79.8690421, 6.8271946 ], [ 79.8691108, 6.8272242 ] ] ] } },
{ "type": "Feature", "properties": { "id": "way/1117772328", "name": null, "name_en": null, "name_si": null, "name_ta": null, "highway": "service", "surface": null, "smoothness": null, "width": null, "lanes": null, "oneway": null, "bridge": null, "layer": null, "source": null, "adm0_pcode": "LKA", "adm0_name": "Sri Lanka", "adm1_pcode": "LK1", "adm1_name": "Western", "adm2_pcode": "LK11", "adm2_name": "Colombo", "adm3_pcode": "LK1131", "adm3_name": "Ratmalana", "adm4_pcode": "LK1131050", "adm4_name": "Vihara", "name_latin": null }, "geometry": { "type": "MultiLineString", "coordinates": [ [ [ 79.8692029, 6.8268071 ], [ 79.8689126, 6.8267605 ], [ 79.86828, 6.8266621 ], [ 79.8682424, 6.8266341 ], [ 79.868229, 6.8265915 ], [ 79.8682773, 6.8262267 ] ] ] } },
{ "type": "Feature", "properties": { "id": "way/1117772327", "name": null, "name_en": null, "name_si": null, "name_ta": null, "highway": "service", "surface": null, "smoothness": null, "width": null, "lanes": null, "oneway": null, "bridge": null, "layer": null, "source": null, "adm0_pcode": "LKA", "adm0_name": "Sri Lanka", "adm1_pcode": "LK1", "adm1_name": "Western", "adm2_pcode": "LK11", "adm2_name": "Colombo", "adm3_pcode": "LK1131", "adm3_name": "Ratmalana", "adm4_pcode": "LK1131050", "adm4_name": "Vihara", "name_latin": null }, "geometry": { "type": "MultiLineString", "coordinates": [ [ [ 79.8689126, 6.8267605 ], [ 79.8690377, 6.8263199 ], [ 79.8690324, 6.8262746 ], [ 79.8690216, 6.8262213 ], [ 79.868960518374266, 6.826109811207392 ] ] ] } },
{ "type": "Feature", "properties": { "id": "way/98371179", "name": "Sri Indrajhothi Road", "name_en": null, "name_si": null, "name_ta": null, "highway": "residential", "surface": null, "smoothness": null, "width": null, "lanes": null, "oneway": null, "bridge": null, "layer": null, "source": null, "adm0_pcode": "LKA", "adm0_name": "Sri Lanka", "adm1_pcode": "LK1", "adm1_name": "Western", "adm2_pcode": "LK11", "adm2_name": "Colombo", "adm3_pcode": "LK1131", "adm3_name": "Ratmalana", "adm4_pcode": "LK1131050", "adm4_name": "Vihara", "name_latin": "Sri Indrajhothi Road" }, "geometry": { "type": "MultiLineString", "coordinates": [ [ [ 79.8678365, 6.826903 ], [ 79.8678369, 6.8268678 ], [ 79.8678407, 6.826509 ], [ 79.8680029, 6.8259834 ], [ 79.868006215336834, 6.825964310912097 ] ] ] } },
{ "type": "Feature", "properties": { "id": "way/48701240", "name": "Galle Road", "name_en": null, "name_si": null, "name_ta": null, "highway": "trunk", "surface": null, "smoothness": null, "width": null, "lanes": "2", "oneway": "yes", "bridge": null, "layer": null, "source": null, "adm0_pcode": "LKA", "adm0_name": "Sri Lanka", "adm1_pcode": "LK1", "adm1_name": "Western", "adm2_pcode": "LK11", "adm2_name": "Colombo", "adm3_pcode": "LK1130", "adm3_name": "Dehiwala", "adm4_pcode": "LK1130075", "adm4_name": "Kawdana East", "name_latin": "Galle Road" }, "geometry": { "type": "MultiLineString", "coordinates": [ [ [ 79.8692475, 6.8266974 ], [ 79.8692029, 6.8268071 ], [ 79.8690421, 6.8271946 ], [ 79.8690009, 6.8273031 ], [ 79.8689335, 6.8274688 ], [ 79.8689151, 6.8275184 ], [ 79.8688536, 6.8276844 ], [ 79.8687225, 6.8280307 ], [ 79.8686614, 6.8281841 ], [ 79.8684869, 6.8286227 ], [ 79.8684506, 6.8287075 ], [ 79.8681164, 6.8295393 ], [ 79.868051, 6.8297022 ], [ 79.8680088, 6.8298165 ], [ 79.8679025, 6.830104 ], [ 79.8678026, 6.8303742 ], [ 79.8677658, 6.8304817 ], [ 79.867697, 6.8306914 ], [ 79.8676676, 6.8308008 ], [ 79.8676598, 6.8308297 ], [ 79.8676245, 6.830961 ], [ 79.8675501, 6.8312386 ], [ 79.867499, 6.8314726 ], [ 79.867474, 6.8315998 ], [ 79.867439, 6.831778 ], [ 79.8673919, 6.8321057 ], [ 79.8673506, 6.8324035 ], [ 79.8673352, 6.8325615 ], [ 79.8673269, 6.8326457 ], [ 79.8673239, 6.8327924 ], [ 79.867322, 6.8328855 ], [ 79.8673075, 6.8331442 ], [ 79.8673081, 6.8331777 ], [ 79.8673126, 6.833433 ], [ 79.8673089, 6.833712 ], [ 79.8673107, 6.8339632 ], [ 79.8673133, 6.8342144 ], [ 79.8673092, 6.8345341 ], [ 79.867317129492676, 6.834974583318593 ] ] ] } },
{ "type": "Feature", "properties": { "id": "way/50133381", "name": "Galle Road", "name_en": null, "name_si": null, "name_ta": null, "highway": "trunk", "surface": null, "smoothness": null, "width": null, "lanes": "2", "oneway": "yes", "bridge": null, "layer": null, "source": null, "adm0_pcode": "LKA", "adm0_name": "Sri Lanka", "adm1_pcode": "LK1", "adm1_name": "Western", "adm2_pcode": "LK11", "adm2_name": "Colombo", "adm3_pcode": "LK1130", "adm3_name": "Dehiwala", "adm4_pcode": "LK1130075", "adm4_name": "Kawdana East", "name_latin": "Galle Road" }, "geometry": { "type": "MultiLineString", "coordinates": [ [ [ 79.867382086827362, 6.834981494956121 ], [ 79.8673651, 6.8344908 ], [ 79.8673681, 6.8339984 ], [ 79.8673682, 6.8336925 ], [ 79.8673693, 6.8334696 ], [ 79.8673693, 6.8331765 ], [ 79.8673729, 6.8330465 ], [ 79.8673802, 6.8329013 ], [ 79.8673807, 6.8328933 ], [ 79.8673879, 6.8327916 ], [ 79.8674006, 6.8326147 ], [ 79.8674053, 6.8325652 ], [ 79.8674206, 6.8324031 ], [ 79.8675098, 6.8318056 ], [ 79.8675461, 6.8316031 ], [ 79.8675538, 6.83156 ], [ 79.8675852, 6.8313706 ], [ 79.8677078, 6.8309075 ], [ 79.8677945, 6.8306472 ], [ 79.8678375, 6.8305117 ] ] ] } }
]
}
