{
"type": "FeatureCollection",
"crs": { "type": "name", "properties": { "name": "urn:ogc:def:crs:EPSG::32644" } },
"features": [
{ "type": "Feature", "properties": { "site_id": "01", "key": "ml_veg_to_built_1", "label": "Mount Lavinia veg→built (primary)", "focus": "mount_lavinia_gn", "row": 36, "col": 19 }, "geometry": { "type": "Polygon", "coordinates": [ [ [ 374565.0, 756315.0 ], [ 374565.0, 756615.0 ], [ 374265.0, 756615.0 ], [ 374265.0, 756315.0 ], [ 374565.0, 756315.0 ] ] ] } },
{ "type": "Feature", "properties": { "site_id": "02", "key": "ml_veg_to_built_2", "label": "Mount Lavinia veg→built (secondary)", "focus": "mount_lavinia_gn", "row": 60, "col": 27 }, "geometry": { "type": "Polygon", "coordinates": [ [ [ 374805.0, 755595.0 ], [ 374805.0, 755895.0 ], [ 374505.0, 755895.0 ], [ 374505.0, 755595.0 ], [ 374805.0, 755595.0 ] ] ] } },
{ "type": "Feature", "properties": { "site_id": "03", "key": "ml_open_to_built", "label": "Mount Lavinia open→built", "focus": "mount_lavinia_gn", "row": 34, "col": 28 }, "geometry": { "type": "Polygon", "coordinates": [ [ [ 374835.0, 756375.0 ], [ 374835.0, 756675.0 ], [ 374535.0, 756675.0 ], [ 374535.0, 756375.0 ], [ 374835.0, 756375.0 ] ] ] } },
{ "type": "Feature", "properties": { "site_id": "04", "key": "ml_coastal_beach", "label": "Mount Lavinia coastal / beach edge", "focus": "mount_lavinia_gn", "row": 19, "col": 13 }, "geometry": { "type": "Polygon", "coordinates": [ [ [ 374385.0, 756825.0 ], [ 374385.0, 757125.0 ], [ 374085.0, 757125.0 ], [ 374085.0, 756825.0 ], [ 374385.0, 756825.0 ] ] ] } },
{ "type": "Feature", "properties": { "site_id": "05", "key": "ml_stable_green", "label": "Mount Lavinia remaining green/soft", "focus": "mount_lavinia_gn", "row": 74, "col": 18 }, "geometry": { "type": "Polygon", "coordinates": [ [ [ 374535.0, 755175.0 ], [ 374535.0, 755475.0 ], [ 374235.0, 755475.0 ], [ 374235.0, 755175.0 ], [ 374535.0, 755175.0 ] ] ] } },
{ "type": "Feature", "properties": { "site_id": "06", "key": "other_veg_to_built", "label": "Other GNs veg→built", "focus": "other_4gn", "row": 18, "col": 31 }, "geometry": { "type": "Polygon", "coordinates": [ [ [ 374925.0, 756855.0 ], [ 374925.0, 757155.0 ], [ 374625.0, 757155.0 ], [ 374625.0, 756855.0 ], [ 374925.0, 756855.0 ] ] ] } },
{ "type": "Feature", "properties": { "site_id": "07", "key": "other_stable_green", "label": "Other GNs stable vegetation", "focus": "other_4gn", "row": 85, "col": 22 }, "geometry": { "type": "Polygon", "coordinates": [ [ [ 374655.0, 754845.0 ], [ 374655.0, 755145.0 ], [ 374355.0, 755145.0 ], [ 374355.0, 754845.0 ], [ 374655.0, 754845.0 ] ] ] } },
{ "type": "Feature", "properties": { "site_id": "08", "key": "other_water_or_built", "label": "Other GNs water/wetland or densification", "focus": "other_4gn", "row": 116, "col": 27 }, "geometry": { "type": "Polygon", "coordinates": [ [ [ 374805.0, 753915.0 ], [ 374805.0, 754215.0 ], [ 374505.0, 754215.0 ], [ 374505.0, 753915.0 ], [ 374805.0, 753915.0 ] ] ] } }
]
}
