{
"type": "FeatureCollection",
"name": "GN5_combined_area",
"crs": { "type": "name", "properties": { "name": "urn:ogc:def:crs:OGC:1.3:CRS84" } },
"features": [
{ "type": "Feature", "properties": { "Shape_Leng": 0.05307524631, "Shape_Area": 9.214917e-05, "ADM4_EN": "Mount Lavinia", "ADM4_SI": "ගල්කිස්ස", "ADM4_TA": null, "ADM4_PCODE": "LK1131005", "ADM4_REF": null, "ADM3_EN": "Ratmalana", "ADM3_SI": "රත්මලාන", "ADM3_TA": "இரத்மலானை", "ADM3_PCODE": "LK1131", "ADM2_EN": "Colombo", "ADM2_SI": "කොළඹ දිස්ත්‍රික්ක", "ADM2_TA": "கொழும்பு மாவட்டம்", "ADM2_PCODE": "LK11", "ADM1_EN": "Western", "ADM1_SI": "බස්නාහිර පළාත", "ADM1_TA": "மேல் மாகாணம் ", "ADM1_PCODE": "LK1", "ADM0_EN": "Sri Lanka", "ADM0_SI": "ශ්‍රී ලංකා", "ADM0_TA": "இலங்கை", "ADM0_PCODE": "LK", "date": "2022-08-02", "validOn": "2022-08-16", "validTo": null, "area": 1.126 }, "geometry": { "type": "MultiPolygon", "coordinates": [ [ [ [ 79.865987785000073, 6.848977905000026 ], [ 79.865987819000054, 6.848974833000057 ], [ 79.865982663000068, 6.848736845000077 ], [ 79.865982578000057, 6.848732946000041 ], [ 79.865983969000069, 6.848657283000024 ], [ 79.86599448100003, 6.848085553000032 ], [ 79.866005622000046, 6.847800119000056 ], [ 79.866016922000085, 6.847510606000071 ], [ 79.86601818600009, 6.84749249200007 ], [ 79.866049749000069, 6.847040568000068 ], [ 79.866111254000032, 6.846427810000023 ], [ 79.866132916000083, 6.846215633000043 ], [ 79.866201498000066, 6.845544114000061 ], [ 79.866228613000033, 6.845311643000059 ], [ 79.866256061000058, 6.845076303000043 ], [ 79.866259711000055, 6.845045008000056 ], [ 79.866290204000052, 6.844755989000021 ], [ 79.866300244000058, 6.844661518000067 ], [ 79.866318213000056, 6.84448911800007 ], [ 79.866342140000029, 6.844274775000031 ], [ 79.86635354100008, 6.844130845000052 ], [ 79.866364786000076, 6.844021006000049 ], [ 79.866374932000042, 6.843918306000035 ], [ 79.86640944700008, 6.843655427000045 ], [ 79.866432881000037, 6.843510796000032 ], [ 79.866468226000052, 6.843334452000021 ], [ 79.866506979000064, 6.84317384700006 ], [ 79.866513363000081, 6.843147094000073 ], [ 79.866577111000083, 6.842925230000048 ], [ 79.866632351000078, 6.842753354000023 ], [ 79.866646275000051, 6.842710158000045 ], [ 79.866716894000035, 6.842491111000074 ], [ 79.866820089000043, 6.842171848000019 ], [ 79.866853216000038, 6.842068468000037 ], [ 79.866881973000034, 6.841978915000026 ], [ 79.866888442000061, 6.841958952000026 ], [ 79.866918282000086, 6.841866862000074 ], [ 79.866983619000052, 6.84166625000006 ], [ 79.867131511000082, 6.841200860000071 ], [ 79.86721463400005, 6.840922791000026 ], [ 79.867294252000093, 6.840633140000022 ], [ 79.867302369000072, 6.840598705000048 ], [ 79.867379756000048, 6.840244492000068 ], [ 79.867431237000062, 6.839955059000032 ], [ 79.867475932000048, 6.839617873000066 ], [ 79.867502604000052, 6.839340059000051 ], [ 79.867515931000071, 6.838989972000036 ], [ 79.867521203000081, 6.838880844000072 ], [ 79.867513192000047, 6.838582347000055 ], [ 79.867507428000067, 6.838367587000049 ], [ 79.867501587000049, 6.838250480000056 ], [ 79.867489431000081, 6.83798100100006 ], [ 79.867472132000046, 6.837656537000043 ], [ 79.867451294000034, 6.837337671000056 ], [ 79.867447945000038, 6.837288848000071 ], [ 79.867441169000074, 6.83719008500003 ], [ 79.867440290000047, 6.837175979000052 ], [ 79.86742238100004, 6.83688704800005 ], [ 79.867415503000075, 6.836792093000042 ], [ 79.867390610000044, 6.836417249000022 ], [ 79.867380258000082, 6.836246695000057 ], [ 79.867362942000057, 6.835978474000058 ], [ 79.867348369000069, 6.835599761000025 ], [ 79.867340649000084, 6.835280559000068 ], [ 79.867340834000061, 6.835134529000072 ], [ 79.867339791000063, 6.835064451000051 ], [ 79.86733901000008, 6.834999345000029 ], [ 79.86733771300004, 6.834440902000041 ], [ 79.867335807000075, 6.834013206000066 ], [ 79.867335471000047, 6.833956203000072 ], [ 79.867333275000078, 6.833581891000049 ], [ 79.86733518300008, 6.833385771000053 ], [ 79.867345871000055, 6.832996256000058 ], [ 79.86735333300004, 6.832876734000022 ], [ 79.867364907000081, 6.832688497000047 ], [ 79.86737350900006, 6.832588869000062 ], [ 79.867385131000049, 6.832470891000071 ], [ 79.86741979500006, 6.832223203000069 ], [ 79.867465491000075, 6.831881495000061 ], [ 79.867511303000072, 6.831624153000063 ], [ 79.867513942000073, 6.831611499000076 ], [ 79.867593923000072, 6.831228082000052 ], [ 79.867669879000061, 6.830959404000055 ], [ 79.867708737000044, 6.830838131000063 ], [ 79.867678075000072, 6.830834709000045 ], [ 79.867654719000029, 6.830832101000054 ], [ 79.867642453000045, 6.830830732000036 ], [ 79.867588831000035, 6.830824747000064 ], [ 79.867445897000039, 6.830808791000039 ], [ 79.867443079000054, 6.830808487000069 ], [ 79.867307691000065, 6.830793852000055 ], [ 79.867227103000062, 6.830785140000046 ], [ 79.86717365100003, 6.830777264000062 ], [ 79.867042474000073, 6.830729997000048 ], [ 79.866957134000074, 6.830697737000035 ], [ 79.866901473000055, 6.830680508000057 ], [ 79.86687865500005, 6.830673445000061 ], [ 79.866709282000045, 6.830609330000073 ], [ 79.866670278000072, 6.830594565000069 ], [ 79.866592898000079, 6.830563406000066 ], [ 79.866504232000068, 6.830520017000027 ], [ 79.86640888900007, 6.830467572000032 ], [ 79.86635295300006, 6.830434011000023 ], [ 79.866243970000085, 6.830371144000027 ], [ 79.866214683000067, 6.830356179000035 ], [ 79.866157477000058, 6.830326945000023 ], [ 79.86609358100003, 6.830293278000057 ], [ 79.866049647000068, 6.830275925000024 ], [ 79.865975128000059, 6.830261588000039 ], [ 79.865888768000048, 6.830243521000057 ], [ 79.865814706000037, 6.830227558000047 ], [ 79.865694621000046, 6.830199119000041 ], [ 79.865652436000062, 6.830194386000073 ], [ 79.865628232000063, 6.830191669000043 ], [ 79.865362230000073, 6.830160242000034 ], [ 79.865281830000072, 6.830147070000066 ], [ 79.865129979000073, 6.830124720000072 ], [ 79.865056719000052, 6.830115268000042 ], [ 79.865014317000032, 6.830106865000061 ], [ 79.86491944200003, 6.830088063000062 ], [ 79.864901717000066, 6.830084864000072 ], [ 79.864889597000058, 6.830083576000049 ], [ 79.864824295000062, 6.830075857000053 ], [ 79.864807739000071, 6.830075736000027 ], [ 79.864773166000077, 6.830084079000073 ], [ 79.864738943000077, 6.830098030000044 ], [ 79.864689295000062, 6.830135822000046 ], [ 79.864653675000056, 6.830171832000076 ], [ 79.864629458000081, 6.830204791000028 ], [ 79.864601155000059, 6.83024560800004 ], [ 79.864583431000085, 6.830289066000033 ], [ 79.86457263300008, 6.830306317000065 ], [ 79.86456247700005, 6.830318867000073 ], [ 79.864548428000035, 6.830333125000037 ], [ 79.864526968000064, 6.830343212000059 ], [ 79.86449927600006, 6.830347953000056 ], [ 79.864450238000074, 6.830351115000039 ], [ 79.864414941000078, 6.830358644000055 ], [ 79.864371273000074, 6.830367434000039 ], [ 79.86408470300006, 6.830425112000056 ], [ 79.863834474000058, 6.83047238000006 ], [ 79.863661069000045, 6.830510119000054 ], [ 79.863651570000059, 6.830461996000052 ], [ 79.863650877000055, 6.83045136900006 ], [ 79.863647790000073, 6.830404030000068 ], [ 79.863644110000052, 6.830340999000043 ], [ 79.863638863000062, 6.830293246000052 ], [ 79.863623104000055, 6.830159665000053 ], [ 79.863617159000057, 6.830098167000072 ], [ 79.863611854000055, 6.830033505000073 ], [ 79.863610541000071, 6.829997236000051 ], [ 79.863609275000044, 6.829962248000072 ], [ 79.863609889000031, 6.829924816000071 ], [ 79.863612927000077, 6.829896700000063 ], [ 79.86361841300004, 6.829866330000073 ], [ 79.86362799300008, 6.82982339800003 ], [ 79.863641175000055, 6.829765567000037 ], [ 79.863646329000062, 6.829742957000064 ], [ 79.863675956000066, 6.829624560000069 ], [ 79.863698794000072, 6.829441202000053 ], [ 79.863672283000085, 6.829438155000048 ], [ 79.863576309000052, 6.829318600000022 ], [ 79.863567101000058, 6.829310530000043 ], [ 79.863476296000044, 6.829230945000062 ], [ 79.863190202000055, 6.829206582000038 ], [ 79.863159546000077, 6.829198340000062 ], [ 79.863130126000044, 6.829190431000028 ], [ 79.863125241000034, 6.829189118000044 ], [ 79.863080483000033, 6.829177086000072 ], [ 79.862765691000064, 6.829092456000069 ], [ 79.862525228000038, 6.829027706000034 ], [ 79.862525656000059, 6.829111140000065 ], [ 79.862514202000057, 6.829235266000069 ], [ 79.862489202000063, 6.82934670800006 ], [ 79.862457584000083, 6.829466456000035 ], [ 79.862428881000085, 6.829574817000037 ], [ 79.862393890000078, 6.829707399000028 ], [ 79.862360478000085, 6.829818463000038 ], [ 79.862299836000034, 6.829929566000033 ], [ 79.862251504000085, 6.830036984000058 ], [ 79.862175790000038, 6.830175909000046 ], [ 79.86212808900008, 6.830285318000051 ], [ 79.862065339000083, 6.830410071000074 ], [ 79.862021804000051, 6.830516234000072 ], [ 79.861959315000036, 6.830646321000073 ], [ 79.861920814000044, 6.83076967300002 ], [ 79.861909623000031, 6.830803651000052 ], [ 79.861900969000033, 6.83083437700003 ], [ 79.861892223000041, 6.830867183000065 ], [ 79.861885194000081, 6.830900084000064 ], [ 79.861876624000047, 6.830935061000047 ], [ 79.861864983000032, 6.830966775000035 ], [ 79.861852878000036, 6.83100536300003 ], [ 79.861842496000065, 6.831041693000032 ], [ 79.861830208000072, 6.831081183000038 ], [ 79.861819010000033, 6.83111850600005 ], [ 79.861812707000084, 6.831150321000052 ], [ 79.861807476000081, 6.831189465000024 ], [ 79.861804324000062, 6.831229606000022 ], [ 79.86179973000003, 6.831266941000022 ], [ 79.861793774000034, 6.831306987000062 ], [ 79.861787366000058, 6.831346398000051 ], [ 79.861784399000044, 6.831384188000071 ], [ 79.861779346000048, 6.83142477800004 ], [ 79.861772396000049, 6.831464278000055 ], [ 79.861766363000072, 6.83149645700007 ], [ 79.861758239000039, 6.831535142000065 ], [ 79.86175559000003, 6.831548067000027 ], [ 79.861753266000051, 6.83158142800005 ], [ 79.861733551000043, 6.831673259000069 ], [ 79.861719718000074, 6.831716092000021 ], [ 79.861712690000047, 6.831748720000065 ], [ 79.861705739000058, 6.831788403000075 ], [ 79.861696696000081, 6.831833776000052 ], [ 79.861688746000084, 6.831876259000068 ], [ 79.861677225000051, 6.831939622000049 ], [ 79.861668261000034, 6.831992050000053 ], [ 79.861656333000042, 6.832032446000027 ], [ 79.861637991000066, 6.832067494000057 ], [ 79.861613729000055, 6.832124775000067 ], [ 79.861597441000072, 6.832174205000058 ], [ 79.861577263000072, 6.832223897000063 ], [ 79.861566224000057, 6.832272342000066 ], [ 79.861550562000048, 6.832325391000039 ], [ 79.861526667000078, 6.832379508000029 ], [ 79.861506659000042, 6.832435350000025 ], [ 79.861488198000075, 6.832485859000029 ], [ 79.861476785000036, 6.832540543000049 ], [ 79.861461292000058, 6.832600643000034 ], [ 79.861447891000068, 6.832654509000064 ], [ 79.861433151000085, 6.832698517000039 ], [ 79.861415138000055, 6.832751560000076 ], [ 79.861393428000042, 6.832798175000049 ], [ 79.86137822700006, 6.832846882000069 ], [ 79.86136782400007, 6.832894335000048 ], [ 79.861358488000064, 6.83295110100005 ], [ 79.861342561000072, 6.833001165000042 ], [ 79.861292193000054, 6.833132632000058 ], [ 79.861271646000034, 6.833185488000027 ], [ 79.861248401000068, 6.833230384000045 ], [ 79.86116859200007, 6.833382049000022 ], [ 79.861114419000046, 6.833468846000073 ], [ 79.861108585000068, 6.833478192000029 ], [ 79.861072314000069, 6.833536306000042 ], [ 79.861057223000046, 6.833574978000057 ], [ 79.861037783000029, 6.833616263000066 ], [ 79.861026751000054, 6.833662086000062 ], [ 79.861030938000056, 6.83369564000003 ], [ 79.861045965000073, 6.833738618000042 ], [ 79.86105152500005, 6.833764670000051 ], [ 79.86105331300007, 6.833775523000042 ], [ 79.861048503000063, 6.833783743000025 ], [ 79.861028825000062, 6.833808210000028 ], [ 79.861024282000074, 6.83381841800002 ], [ 79.861023634000048, 6.833826104000024 ], [ 79.861027576000097, 6.83384591300006 ], [ 79.861039140000059, 6.833854706000067 ], [ 79.86106961400003, 6.833861726000066 ], [ 79.861098656000081, 6.833860606000031 ], [ 79.861128052000083, 6.833863827000072 ], [ 79.861136095000063, 6.833867731000054 ], [ 79.861150278000082, 6.833878156000026 ], [ 79.861178853000069, 6.833885354000074 ], [ 79.861224898000046, 6.833886887000062 ], [ 79.861252316000048, 6.833883503000037 ], [ 79.861254667000082, 6.833884322000073 ], [ 79.861256653000069, 6.833886405000044 ], [ 79.861267203000068, 6.833904781000057 ], [ 79.86127424700004, 6.833910762000073 ], [ 79.861284279000074, 6.833916116000068 ], [ 79.861310322000065, 6.833922495000024 ], [ 79.861324737000075, 6.833953898000059 ], [ 79.861333904000048, 6.833985654000059 ], [ 79.861336827000059, 6.834018482000032 ], [ 79.86132251600003, 6.834027768000056 ], [ 79.86130259600003, 6.834036140000024 ], [ 79.86128799200003, 6.834056819000066 ], [ 79.861293101000058, 6.83408169300003 ], [ 79.861303194000072, 6.834102691000055 ], [ 79.861312367000039, 6.834131372000058 ], [ 79.861329510000076, 6.834155095000028 ], [ 79.86134803300007, 6.834167518000072 ], [ 79.861370572000055, 6.834161050000033 ], [ 79.861384681000061, 6.834162795000053 ], [ 79.86141361500006, 6.834171167000021 ], [ 79.861426192000067, 6.834169475000066 ], [ 79.861450646000037, 6.834155597000064 ], [ 79.861454567000067, 6.834138785000049 ], [ 79.861466003000032, 6.834119457000041 ], [ 79.861477343000047, 6.834102931000073 ], [ 79.861486789000082, 6.834082876000024 ], [ 79.861500124000031, 6.834063731000072 ], [ 79.861520492000068, 6.834056898000028 ], [ 79.861536883000042, 6.834047887000054 ], [ 79.861550858000044, 6.834026213000072 ], [ 79.861568255000066, 6.834011506000024 ], [ 79.861592702000053, 6.834000522000053 ], [ 79.861615138000047, 6.834000837000076 ], [ 79.861633589000064, 6.834002498000075 ], [ 79.861656392000043, 6.833999830000039 ], [ 79.86168131200003, 6.833978356000046 ], [ 79.86170949600006, 6.833952459000045 ], [ 79.861751060000074, 6.833931651000057 ], [ 79.86177742600006, 6.833910724000021 ], [ 79.861795714000039, 6.83390370500007 ], [ 79.861826299000029, 6.833900055000072 ], [ 79.861858237000035, 6.833897765000073 ], [ 79.861891904000061, 6.833891048000057 ], [ 79.86191361200008, 6.833893079000061 ], [ 79.861933769000075, 6.833902429000033 ], [ 79.861962953000045, 6.833921473000032 ], [ 79.86199657800006, 6.833936638000068 ], [ 79.862026043000071, 6.833950800000025 ], [ 79.862055316000067, 6.83397110900006 ], [ 79.86206966900005, 6.833987775000025 ], [ 79.862086539000074, 6.834012943000061 ], [ 79.86209761300006, 6.834040724000033 ], [ 79.862108684000077, 6.834070403000053 ], [ 79.862112977000038, 6.83409645200004 ], [ 79.862114580000082, 6.834109929000021 ], [ 79.862127207000071, 6.834129934000033 ], [ 79.862149311000053, 6.83416207700003 ], [ 79.862173682000048, 6.83419132900002 ], [ 79.862195163000081, 6.83421732100004 ], [ 79.862218177000045, 6.834246119000055 ], [ 79.862216354000054, 6.834253710000041 ], [ 79.862213541000074, 6.834258135000026 ], [ 79.862196780000033, 6.834270944000024 ], [ 79.862173149000057, 6.834281116000056 ], [ 79.862155926000071, 6.834298626000019 ], [ 79.862151556000072, 6.834313265000048 ], [ 79.862151062000066, 6.83433577900007 ], [ 79.862152083000069, 6.834369508000064 ], [ 79.862159637000047, 6.834393394000074 ], [ 79.862167448000037, 6.834424332000024 ], [ 79.862163165000084, 6.83444114300005 ], [ 79.862155130000076, 6.834479557000065 ], [ 79.862149001000034, 6.834515533000057 ], [ 79.862151506000032, 6.834530457000027 ], [ 79.862156741000035, 6.83453634400007 ], [ 79.862163699000064, 6.834540517000049 ], [ 79.862171386000057, 6.834542430000056 ], [ 79.862179166000033, 6.83454208400002 ], [ 79.862198369000069, 6.834530093000068 ], [ 79.862205543000073, 6.834515549000059 ], [ 79.862217724000061, 6.834484829000075 ], [ 79.862232334000069, 6.834461167000027 ], [ 79.862250918000029, 6.834440948000064 ], [ 79.862277293000048, 6.834415137000065 ], [ 79.862297930000068, 6.834409571000039 ], [ 79.862315564000085, 6.83441367300003 ], [ 79.862331370000049, 6.834426905000044 ], [ 79.86235703400007, 6.834441873000061 ], [ 79.862369604000037, 6.834444608000068 ], [ 79.862389516000064, 6.834439854000039 ], [ 79.862403895000057, 6.834442505000027 ], [ 79.862416538000048, 6.83445428300007 ], [ 79.862432597000065, 6.834477822000051 ], [ 79.86245234900008, 6.834509599000057 ], [ 79.86246568200005, 6.83453910000003 ], [ 79.86246284200007, 6.834557088000053 ], [ 79.862450503000048, 6.834576055000071 ], [ 79.862431450000031, 6.834605315000033 ], [ 79.862425705000078, 6.834629627000028 ], [ 79.862421027000053, 6.834663436000027 ], [ 79.86242859400005, 6.834679635000043 ], [ 79.862440341000081, 6.834687252000037 ], [ 79.862448119000078, 6.834688806000031 ], [ 79.862456352000038, 6.834688188000029 ], [ 79.862464318000036, 6.834685399000024 ], [ 79.862477004000084, 6.834674935000066 ], [ 79.862487897000051, 6.834654701000033 ], [ 79.862504854000065, 6.834634388000041 ], [ 79.862520520000032, 6.834626643000036 ], [ 79.862526038000055, 6.83462674300006 ], [ 79.862542396000038, 6.834635817000048 ], [ 79.862554394000085, 6.834653381000066 ], [ 79.862564213000041, 6.834675643000025 ], [ 79.862575915000036, 6.834706318000029 ], [ 79.862589066000055, 6.834736092000071 ], [ 79.862604478000037, 6.834766322000063 ], [ 79.862617626000031, 6.834799079000049 ], [ 79.862630317000082, 6.834833192000075 ], [ 79.862647443000071, 6.834866318000024 ], [ 79.862661677000062, 6.834897089000036 ], [ 79.86267663600006, 6.834927951000054 ], [ 79.862692048000042, 6.834958904000076 ], [ 79.862708540000085, 6.834992481000028 ], [ 79.862717441000029, 6.83502134200006 ], [ 79.862721459000056, 6.835049562000051 ], [ 79.862725559000069, 6.835081669000032 ], [ 79.862727125000049, 6.835114224000049 ], [ 79.862730576000047, 6.835155191000071 ], [ 79.862736833000042, 6.835194627000021 ], [ 79.862741828000082, 6.835231979000071 ], [ 79.862744831000043, 6.835270686000057 ], [ 79.86274594300005, 6.835304958000051 ], [ 79.862741808000067, 6.835338767000053 ], [ 79.862735861000033, 6.835372754000047 ], [ 79.86272565400003, 6.835412792000057 ], [ 79.862713926000083, 6.835442969000041 ], [ 79.862699668000062, 6.835472058000052 ], [ 79.862681976000033, 6.835498427000061 ], [ 79.862661837000076, 6.835527414000069 ], [ 79.862641606000068, 6.835557758000049 ], [ 79.862627619000079, 6.835586485000022 ], [ 79.86261255800008, 6.835609514000055 ], [ 79.862592362000044, 6.835620869000025 ], [ 79.862568469000067, 6.83562615900007 ], [ 79.862543745000039, 6.835639675000038 ], [ 79.862523808000049, 6.835657812000023 ], [ 79.86250784200007, 6.835680839000077 ], [ 79.862491777000059, 6.835708297000053 ], [ 79.862475073000041, 6.835738918000061 ], [ 79.862470506000079, 6.835761786000035 ], [ 79.862473205000072, 6.835769386000037 ], [ 79.862478168000052, 6.835776537000071 ], [ 79.862491722000073, 6.835784791000037 ], [ 79.862499319000051, 6.835785531000054 ], [ 79.862512897000045, 6.835781487000077 ], [ 79.862526760000037, 6.835770572000058 ], [ 79.862544978000074, 6.835752342000034 ], [ 79.862549685000047, 6.835750904000066 ], [ 79.862577010000052, 6.835749690000056 ], [ 79.862598804000072, 6.835753529000043 ], [ 79.862631358000044, 6.835761095000066 ], [ 79.862656122000033, 6.835773801000074 ], [ 79.862674278000043, 6.835788575000037 ], [ 79.862700459000052, 6.835817198000028 ], [ 79.862724645000071, 6.835848619000045 ], [ 79.862742497000056, 6.835879668000076 ], [ 79.862756733000083, 6.83591116100007 ], [ 79.862765453000065, 6.83593984200007 ], [ 79.862768651000067, 6.835970863000055 ], [ 79.862762916000065, 6.835990202000064 ], [ 79.862746322000078, 6.836010152000028 ], [ 79.862721113000077, 6.836040757000032 ], [ 79.862712937000083, 6.836059189000026 ], [ 79.862701471000037, 6.83609406900007 ], [ 79.862694081000029, 6.836126697000055 ], [ 79.862689767000063, 6.83615969300007 ], [ 79.86269416600004, 6.836177514000042 ], [ 79.862706253000056, 6.83619634400003 ], [ 79.862720084000046, 6.836201254000058 ], [ 79.862728411000035, 6.836199642000055 ], [ 79.862735746000055, 6.836195768000037 ], [ 79.862739281000074, 6.836192339000036 ], [ 79.86275695900008, 6.836172932000067 ], [ 79.862773787000037, 6.836172420000025 ], [ 79.862795031000076, 6.836180690000049 ], [ 79.862827116000062, 6.836197026000037 ], [ 79.862851055000078, 6.836214975000076 ], [ 79.862869832000058, 6.836236621000068 ], [ 79.862883078000038, 6.836264405000064 ], [ 79.862893061000079, 6.83629553000003 ], [ 79.862903677000077, 6.836326925000038 ], [ 79.862914378000085, 6.836360944000034 ], [ 79.862920368000061, 6.836398300000041 ], [ 79.862923457000079, 6.836438995000037 ], [ 79.862921118000031, 6.836479500000051 ], [ 79.862914621000073, 6.836518367000054 ], [ 79.862907762000077, 6.836557507000065 ], [ 79.862900448000062, 6.836598002000073 ], [ 79.862893412000062, 6.83663479100005 ], [ 79.862882671000079, 6.836669040000062 ], [ 79.862870936000036, 6.836703105000026 ], [ 79.862864175000084, 6.836738629000023 ], [ 79.862857863000045, 6.836774153000021 ], [ 79.862852456000041, 6.836811396000031 ], [ 79.862854282000058, 6.836850190000063 ], [ 79.862862354000072, 6.836887731000046 ], [ 79.86286771500005, 6.836922642000047 ], [ 79.862870719000057, 6.836960263000037 ], [ 79.862876982000046, 6.836997258000054 ], [ 79.862883153000041, 6.837034523000057 ], [ 79.862889051000082, 6.837072963000026 ], [ 79.862892508000073, 6.837110404000043 ], [ 79.862890913000058, 6.837140420000025 ], [ 79.862888872000042, 6.837167363000048 ], [ 79.862888408000074, 6.837173420000056 ], [ 79.862886873000036, 6.837219713000025 ], [ 79.86288741900006, 6.837265647000038 ], [ 79.862889958000054, 6.837309959000038 ], [ 79.862890169000082, 6.837342059000036 ], [ 79.862888570000052, 6.837374065000062 ], [ 79.862888148000081, 6.837405711000031 ], [ 79.862887813000043, 6.837438715000076 ], [ 79.86288666300004, 6.837472802000036 ], [ 79.862886145000061, 6.837506799000039 ], [ 79.862884815000044, 6.837540342000067 ], [ 79.862883217000046, 6.837572349000026 ], [ 79.862882500000069, 6.837616381000031 ], [ 79.862881238000057, 6.837662223000052 ], [ 79.862878348000038, 6.837706885000046 ], [ 79.862875120000069, 6.837738799000021 ], [ 79.862872798000069, 6.83777062100006 ], [ 79.862866558000064, 6.837817267000048 ], [ 79.862860794000085, 6.837851075000059 ], [ 79.862855033000073, 6.837883796000028 ], [ 79.862849785000037, 6.837913791000062 ], [ 79.862849545000074, 6.837915162000058 ], [ 79.862843784000063, 6.837948065000035 ], [ 79.862836912000034, 6.837993443000073 ], [ 79.862835583000049, 6.838026081000065 ], [ 79.86283506500007, 6.838060984000035 ], [ 79.862830744000064, 6.838096420000057 ], [ 79.862824522000039, 6.838134024000056 ], [ 79.862818301000061, 6.83817 ], [ 79.862812353000038, 6.838206156000068 ], [ 79.86280567700004, 6.838244211000074 ], [ 79.862798817000069, 6.838283170000068 ], [ 79.862791413000082, 6.838323032000063 ], [ 79.862781753000036, 6.838360357000055 ], [ 79.862768747000089, 6.838396772000067 ], [ 79.862755195000034, 6.838434905000042 ], [ 79.862741825000057, 6.838472585000032 ], [ 79.862726464000048, 6.838509900000075 ], [ 79.862710200000038, 6.838547032000064 ], [ 79.862694481000062, 6.83858316900006 ], [ 79.862682104000044, 6.838621303000023 ], [ 79.862673705000077, 6.838661616000023 ], [ 79.86266657200008, 6.838701840000055 ], [ 79.862656728000047, 6.838740160000043 ], [ 79.862644988000056, 6.83877657800002 ], [ 79.862633878000054, 6.838815167000065 ], [ 79.862624395000068, 6.83885439200003 ], [ 79.862613561000046, 6.838890630000038 ], [ 79.862602367000079, 6.838925239000048 ], [ 79.862593344000061, 6.838959763000046 ], [ 79.862583144000041, 6.838996093000048 ], [ 79.862573396000073, 6.839031610000062 ], [ 79.862564107000082, 6.839063602000067 ], [ 79.862556510000047, 6.839109884000037 ], [ 79.862553435000052, 6.839157439000074 ], [ 79.862556810000058, 6.839190539000072 ], [ 79.862561, 6.839223189000052 ], [ 79.862565549000067, 6.839257558000042 ], [ 79.86256991700003, 6.839291111000023 ], [ 79.862573928000074, 6.839322677000041 ], [ 79.86258288700003, 6.839368809000063 ], [ 79.862590428000033, 6.839399838000077 ], [ 79.862602649000053, 6.839443082000058 ], [ 79.862611273000084, 6.839475560000039 ], [ 79.862621343000058, 6.839508040000055 ], [ 79.862630141000068, 6.839543683000044 ], [ 79.862637575000065, 6.83958294000007 ], [ 79.862642295000057, 6.839622824000058 ], [ 79.862643939000066, 6.839662252000038 ], [ 79.862645039000085, 6.83970203900003 ], [ 79.862645057000066, 6.839740378000044 ], [ 79.862639827000066, 6.839778706000059 ], [ 79.862633785000085, 6.839816310000061 ], [ 79.862630186000047, 6.839853465000033 ], [ 79.862628489000031, 6.83988990100005 ], [ 79.86262951100008, 6.839922726000054 ], [ 79.862628364000045, 6.839955367000073 ], [ 79.862624137000068, 6.839989810000076 ], [ 79.862618100000077, 6.840024158000062 ], [ 79.862611424000079, 6.840062303000024 ], [ 79.862605018000068, 6.840100539000046 ], [ 79.862598433000073, 6.840138323000076 ], [ 79.862592474000053, 6.840179633000046 ], [ 79.862588046000042, 6.840224384000066 ], [ 79.862582171000042, 6.840269311000042 ], [ 79.86257783700006, 6.840311891000055 ], [ 79.862576679000085, 6.840350771000034 ], [ 79.862574883000036, 6.840391005000073 ], [ 79.862569830000041, 6.840431323000074 ], [ 79.862562513000057, 6.840473175000056 ], [ 79.862555470000075, 6.840514122000059 ], [ 79.862547885000083, 6.840554072000031 ], [ 79.862539481000056, 6.840596827000071 ], [ 79.862530264000043, 6.840638494000075 ], [ 79.862520868000047, 6.840679254000066 ], [ 79.862511839000035, 6.84071721600003 ], [ 79.862504797000042, 6.840757439000073 ], [ 79.862499650000075, 6.840799837000078 ], [ 79.862495139000032, 6.840841241000021 ], [ 79.862488369000062, 6.840880924000032 ], [ 79.862483410000038, 6.840919523000025 ], [ 79.862481703000071, 6.840960662000044 ], [ 79.862480178000055, 6.841001711000048 ], [ 79.862475583000048, 6.841039227000068 ], [ 79.862468636000074, 6.841076557000063 ], [ 79.862462050000033, 6.84111406900007 ], [ 79.862453744000049, 6.841153116000043 ], [ 79.86244064300007, 6.841191972000048 ], [ 79.86242582400007, 6.841230102000053 ], [ 79.862411547000079, 6.841268865000075 ], [ 79.862400253000033, 6.841308628000036 ], [ 79.862393656000052, 6.841352470000059 ], [ 79.862391313000046, 6.841395326000055 ], [ 79.862389705000055, 6.84143176200007 ], [ 79.862384580000082, 6.841462948000071 ], [ 79.862375203000056, 6.841493945000024 ], [ 79.862368263000064, 6.841527568000061 ], [ 79.862362321000035, 6.841560109000056 ], [ 79.862355453000077, 6.841603136000061 ], [ 79.862351746000058, 6.841649606000033 ], [ 79.862344518000043, 6.841692361000069 ], [ 79.862337201000059, 6.841734302000021 ], [ 79.862326182000061, 6.841771987000071 ], [ 79.862313250000057, 6.841817263000053 ], [ 79.862296881000077, 6.841862081000045 ], [ 79.862283345000037, 6.841891262000047 ], [ 79.86226273300008, 6.841930917000072 ], [ 79.862245287000064, 6.841970759000048 ], [ 79.862229825000057, 6.84201395100007 ], [ 79.86222289300008, 6.842043687000056 ], [ 79.86221740600007, 6.84207505300003 ], [ 79.862217617000056, 6.842106430000058 ], [ 79.862223803000063, 6.842135919000044 ], [ 79.862233682000067, 6.842174546000022 ], [ 79.862236959000029, 6.842211445000032 ], [ 79.862231029000043, 6.842237566000051 ], [ 79.862229348000085, 6.842265141000041 ], [ 79.86223381700006, 6.842293812000036 ], [ 79.862245141000074, 6.842332895000029 ], [ 79.862254930000063, 6.842371072000047 ], [ 79.862255582000046, 6.842408779000037 ], [ 79.862244134000036, 6.842434709000029 ], [ 79.862227223000048, 6.842478531000038 ], [ 79.862221555000076, 6.842509444000028 ], [ 79.86221832800004, 6.842541717000072 ], [ 79.862216702000069, 6.842587288000062 ], [ 79.862211583000033, 6.842615128000035 ], [ 79.86220426400007, 6.842658062000054 ], [ 79.86219514000004, 6.842698645000041 ], [ 79.862180042000034, 6.842740391000063 ], [ 79.862160693000078, 6.842782491000037 ], [ 79.862142974000051, 6.842823057000033 ], [ 79.862131228000067, 6.842862638000041 ], [ 79.862121931000047, 6.842898608000041 ], [ 79.862115262000032, 6.842933769000069 ], [ 79.862106064000045, 6.84296494700004 ], [ 79.862089359000038, 6.842996110000059 ], [ 79.862071661000073, 6.843026007000049 ], [ 79.862056137000081, 6.843054550000034 ], [ 79.862043143000051, 6.843083911000065 ], [ 79.862031589000082, 6.843118069000071 ], [ 79.862023471000043, 6.843152595000048 ], [ 79.862018516000035, 6.843189296000048 ], [ 79.862019904000078, 6.843220946000029 ], [ 79.862022642000071, 6.843255492000026 ], [ 79.862027190000049, 6.843290132000051 ], [ 79.862035460000072, 6.843318179000049 ], [ 79.862035322000054, 6.843343224000024 ], [ 79.862031540000032, 6.843381105000049 ], [ 79.862031709000064, 6.843482377000043 ], [ 79.862019016000033, 6.843591852000031 ], [ 79.861989024000081, 6.843711874000065 ], [ 79.861973049000085, 6.843786622000038 ], [ 79.86195770300003, 6.843864174000031 ], [ 79.861947172000043, 6.843978537000053 ], [ 79.86194318400004, 6.844077451000032 ], [ 79.861948797000082, 6.844170413000029 ], [ 79.86195933700003, 6.844288795000068 ], [ 79.86196665600005, 6.844388544000027 ], [ 79.861974245000056, 6.844489016000067 ], [ 79.861977850000073, 6.844591650000042 ], [ 79.861961500000064, 6.844640229000048 ], [ 79.861947312000041, 6.844682387000035 ], [ 79.861868669000046, 6.844916055000056 ], [ 79.861864245000049, 6.844958906000045 ], [ 79.861857645000043, 6.845004284000026 ], [ 79.861845863000042, 6.845062494000045 ], [ 79.86183836400005, 6.845105249000027 ], [ 79.861825961000079, 6.845157216000076 ], [ 79.861808127000074, 6.845258003000026 ], [ 79.861787256000071, 6.84533889000005 ], [ 79.861766828000043, 6.845424209000044 ], [ 79.861748479000084, 6.845511431000032 ], [ 79.861729765000064, 6.845599012000036 ], [ 79.861728853000045, 6.845603261000064 ], [ 79.86172255300005, 6.84563354000005 ], [ 79.861717586000054, 6.845654728000056 ], [ 79.861707394000064, 6.845697141000072 ], [ 79.861700727000084, 6.845729102000065 ], [ 79.861696048000056, 6.845761304000063 ], [ 79.861694775000046, 6.845777528000042 ], [ 79.861693985000045, 6.845827567000072 ], [ 79.861697565000043, 6.845927723000043 ], [ 79.861698941000043, 6.845982910000031 ], [ 79.861700394000081, 6.846010463000028 ], [ 79.861715308000043, 6.846207249000033 ], [ 79.861717190000036, 6.84621656500002 ], [ 79.861727586000029, 6.846268305000023 ], [ 79.861730722000061, 6.846283954000056 ], [ 79.861748798000065, 6.846341045000031 ], [ 79.861760779000079, 6.846414942000025 ], [ 79.861759134000067, 6.846471813000051 ], [ 79.861753020000052, 6.846546671000056 ], [ 79.861748059000035, 6.846634007000032 ], [ 79.861743669000077, 6.846706427000072 ], [ 79.861739015000069, 6.846775228000069 ], [ 79.861734986000045, 6.846847828000023 ], [ 79.861732507000056, 6.846961936000071 ], [ 79.861726152000074, 6.847021329000028 ], [ 79.861720626000078, 6.84707295000004 ], [ 79.861699987000065, 6.847173549000048 ], [ 79.861689093000052, 6.847241164000024 ], [ 79.86168482100004, 6.847299206000057 ], [ 79.861682234000057, 6.847374613000056 ], [ 79.861670651000068, 6.847423689000038 ], [ 79.861661790000085, 6.847468612000057 ], [ 79.861637492000057, 6.847495963000028 ], [ 79.861618455000041, 6.847516090000057 ], [ 79.861605213000075, 6.847533788000022 ], [ 79.861599821000084, 6.847562079000055 ], [ 79.861603360000061, 6.84760386100004 ], [ 79.861613953000074, 6.847647283000072 ], [ 79.861620232000064, 6.847675324000022 ], [ 79.861634271000071, 6.847714323000047 ], [ 79.861655659000064, 6.847742756000059 ], [ 79.861684230000037, 6.847751762000029 ], [ 79.861724774000038, 6.847744426000076 ], [ 79.861734820000038, 6.847742636000022 ], [ 79.861773579000058, 6.847722818000022 ], [ 79.861797593000077, 6.847701614000071 ], [ 79.861812710000038, 6.84769739300003 ], [ 79.861851519000083, 6.847698460000059 ], [ 79.861884332000045, 6.847712992000026 ], [ 79.86191675200007, 6.847743796000031 ], [ 79.86194600500005, 6.847774866000066 ], [ 79.861980346000053, 6.847841933000041 ], [ 79.861982410000053, 6.847898270000031 ], [ 79.861981062000041, 6.847988779000047 ], [ 79.861979014000042, 6.848066537000022 ], [ 79.861970620000079, 6.848151336000057 ], [ 79.861968429000058, 6.848209111000075 ], [ 79.861967778000079, 6.848265352000056 ], [ 79.861966926000036, 6.848333257000035 ], [ 79.861965601000065, 6.848411106000071 ], [ 79.861955593000062, 6.848488126000062 ], [ 79.861937844000067, 6.848544695000043 ], [ 79.861902813000029, 6.848649969000064 ], [ 79.86188360400007, 6.848759975000064 ], [ 79.861870815000032, 6.848872435000032 ], [ 79.861863228000061, 6.848904886000071 ], [ 79.861925605000067, 6.848914256000056 ], [ 79.862055146000046, 6.848955394000028 ], [ 79.862158505000082, 6.848980472000051 ], [ 79.862252322000074, 6.84898830700007 ], [ 79.862408441000071, 6.848995146000051 ], [ 79.862425040000062, 6.848998381000059 ], [ 79.862495429000035, 6.849012096000022 ], [ 79.862541619000069, 6.849021096000056 ], [ 79.86253305300005, 6.849063580000065 ], [ 79.86253303400008, 6.849073436000025 ], [ 79.862539257000037, 6.849083846000042 ], [ 79.862549196000032, 6.849090194000043 ], [ 79.862555708000059, 6.849091292000026 ], [ 79.863341328000047, 6.849197854000066 ], [ 79.864163692000034, 6.849297885000055 ], [ 79.864510668000037, 6.849332723000033 ], [ 79.865081132000057, 6.849401530000023 ], [ 79.865517358000034, 6.849412846000062 ], [ 79.865982810000048, 6.849421866000057 ], [ 79.865987785000073, 6.848977905000026 ] ] ] ] } },
{ "type": "Feature", "properties": { "Shape_Leng": 0.03099730766, "Shape_Area": 4.206567e-05, "ADM4_EN": "Kawdana West", "ADM4_SI": "බටහිර කව්ඩාන", "ADM4_TA": null, "ADM4_PCODE": "LK1131010", "ADM4_REF": null, "ADM3_EN": "Ratmalana", "ADM3_SI": "රත්මලාන", "ADM3_TA": "இரத்மலானை", "ADM3_PCODE": "LK1131", "ADM2_EN": "Colombo", "ADM2_SI": "කොළඹ දිස්ත්‍රික්ක", "ADM2_TA": "கொழும்பு மாவட்டம்", "ADM2_PCODE": "LK11", "ADM1_EN": "Western", "ADM1_SI": "බස්නාහිර පළාත", "ADM1_TA": "மேல் மாகாணம் ", "ADM1_PCODE": "LK1", "ADM0_EN": "Sri Lanka", "ADM0_SI": "ශ්‍රී ලංකා", "ADM0_TA": "இலங்கை", "ADM0_PCODE": "LK", "date": "2022-08-02", "validOn": "2022-08-16", "validTo": null, "area": 0.514 }, "geometry": { "type": "MultiPolygon", "coordinates": [ [ [ [ 79.872549999000057, 6.845167096000067 ], [ 79.87269705500006, 6.845114107000028 ], [ 79.872749709000061, 6.845095135000064 ], [ 79.872949325000036, 6.84502624600003 ], [ 79.872977977000062, 6.84501679300007 ], [ 79.873223708000069, 6.844935709000025 ], [ 79.873355312000058, 6.844903041000064 ], [ 79.873619610000048, 6.844835360000047 ], [ 79.873829241000067, 6.844780417000037 ], [ 79.873999962000084, 6.844729466000046 ], [ 79.874086783000052, 6.844696988000067 ], [ 79.87436168000005, 6.844621639000025 ], [ 79.874529406000079, 6.84457566000003 ], [ 79.874935104000031, 6.844461855000075 ], [ 79.875013888000069, 6.844440465000047 ], [ 79.875313582000047, 6.844359090000069 ], [ 79.875339255000085, 6.844352119000063 ], [ 79.875481471000057, 6.844305456000027 ], [ 79.87558281500003, 6.844247325000025 ], [ 79.875594020000051, 6.844158008000021 ], [ 79.875610734000077, 6.844025482000062 ], [ 79.875623009000037, 6.843895388000021 ], [ 79.875642400000075, 6.84368628100003 ], [ 79.875668162000068, 6.843457019000026 ], [ 79.875671161000071, 6.843401415000073 ], [ 79.87568052000006, 6.843331266000063 ], [ 79.875699612000062, 6.843185181000025 ], [ 79.875709629000099, 6.843130978000032 ], [ 79.875746137000078, 6.842957398000066 ], [ 79.875765279000063, 6.842889765000052 ], [ 79.875799820000054, 6.842767712000067 ], [ 79.875827840000056, 6.842665341000043 ], [ 79.875876156000061, 6.842488815000025 ], [ 79.875878904000061, 6.842474722000076 ], [ 79.87589022300007, 6.842416683000067 ], [ 79.875903728000083, 6.842393610000043 ], [ 79.875926436000043, 6.842354814000029 ], [ 79.875984728000049, 6.842290813000035 ], [ 79.876009305000082, 6.842258489000072 ], [ 79.876018574000057, 6.842253582000069 ], [ 79.876017220000051, 6.842239864000022 ], [ 79.876005847000044, 6.842124568000029 ], [ 79.875921704000064, 6.84188669200006 ], [ 79.875857422000081, 6.841719926000053 ], [ 79.875745030000076, 6.841445738000061 ], [ 79.875659408000047, 6.841225491000047 ], [ 79.875567867000029, 6.841025217000037 ], [ 79.875532593000059, 6.840931859000023 ], [ 79.875498189000041, 6.840840808000052 ], [ 79.87548299000008, 6.840792674000055 ], [ 79.87547771100003, 6.840761470000075 ], [ 79.875388188000045, 6.840643483000067 ], [ 79.875336290000064, 6.840594214000022 ], [ 79.875287111000034, 6.840547525000034 ], [ 79.875280540000063, 6.840541286000075 ], [ 79.875276203000055, 6.84053784200006 ], [ 79.875155074000077, 6.84044225100007 ], [ 79.875058678000073, 6.84036617600003 ], [ 79.874791343000084, 6.840173168000036 ], [ 79.874547598000049, 6.840001297000072 ], [ 79.874543064000079, 6.83999809900007 ], [ 79.874315808000063, 6.839832867000041 ], [ 79.874310153000081, 6.83982875600003 ], [ 79.874304015000064, 6.839824239000053 ], [ 79.87425980200004, 6.83988927300004 ], [ 79.874163388000056, 6.839989574000072 ], [ 79.874107253000034, 6.840055499000072 ], [ 79.87388323700003, 6.840295037000031 ], [ 79.873591540000064, 6.840629427000067 ], [ 79.873441853000031, 6.840801399000042 ], [ 79.873165544000074, 6.841099453000028 ], [ 79.872877694000067, 6.841424279000023 ], [ 79.872710751000056, 6.841607702000033 ], [ 79.872409378000043, 6.841946195000048 ], [ 79.87234856200007, 6.842014529000039 ], [ 79.872180148000041, 6.84220375700005 ], [ 79.872117202000084, 6.84227448400003 ], [ 79.871874971000068, 6.842561873000021 ], [ 79.871870495000053, 6.842567183000027 ], [ 79.871677008000063, 6.84276963600007 ], [ 79.87164408600006, 6.84280408400002 ], [ 79.871419546000098, 6.843065869000043 ], [ 79.871197736000056, 6.84333119300004 ], [ 79.871194973000058, 6.84332908400006 ], [ 79.871182739000062, 6.843320435000066 ], [ 79.871174839000048, 6.84331485000007 ], [ 79.871143293000046, 6.843292548000021 ], [ 79.871033608000076, 6.843216116000065 ], [ 79.870899873000042, 6.843131681000044 ], [ 79.870813995000049, 6.84307222900003 ], [ 79.87081250500006, 6.843071197000028 ], [ 79.870776634000038, 6.843046364000029 ], [ 79.870524535000072, 6.842881864000049 ], [ 79.870450712000036, 6.842834253000035 ], [ 79.870360341000037, 6.842782 ], [ 79.870348867000075, 6.842774112000027 ], [ 79.870334866000064, 6.842762151000044 ], [ 79.87031356500006, 6.842736070000058 ], [ 79.870283994000033, 6.842681309000056 ], [ 79.870268937000048, 6.842654245000063 ], [ 79.870258015000047, 6.842641203000028 ], [ 79.870256247000043, 6.842640087000064 ], [ 79.870252953000033, 6.842638007000063 ], [ 79.870202443000039, 6.842606105000073 ], [ 79.870102946000031, 6.842548229000045 ], [ 79.869951391000029, 6.842462495000063 ], [ 79.869916052000065, 6.842444345000048 ], [ 79.86989724600005, 6.842437889000052 ], [ 79.869869125000037, 6.842430241000046 ], [ 79.86984226400007, 6.842426120000026 ], [ 79.869796038000061, 6.84242368300005 ], [ 79.869679424000083, 6.842423373000031 ], [ 79.869568041000036, 6.842432024000062 ], [ 79.869474145000083, 6.842426421000026 ], [ 79.869261291000043, 6.84241634500006 ], [ 79.869222333000039, 6.842414573000042 ], [ 79.869097465000038, 6.842408894000072 ], [ 79.868948293000074, 6.842403820000073 ], [ 79.868832774000055, 6.842398538000054 ], [ 79.86877996100003, 6.842386954000061 ], [ 79.86872076800006, 6.842353297000045 ], [ 79.868667727000059, 6.842320172000028 ], [ 79.868660496000075, 6.842315658000073 ], [ 79.868590226000038, 6.842303318000063 ], [ 79.868506463000074, 6.842297283000049 ], [ 79.868397813000058, 6.842295270000021 ], [ 79.868362694000041, 6.842293430000041 ], [ 79.868306449000045, 6.842290485000034 ], [ 79.868237090000036, 6.842274350000026 ], [ 79.868148671000085, 6.842242535000024 ], [ 79.867914303000077, 6.842175272000075 ], [ 79.867728978000059, 6.842151322000064 ], [ 79.867521402000079, 6.842124889000047 ], [ 79.867438830000083, 6.842111259000034 ], [ 79.867276420000053, 6.842072885000049 ], [ 79.867158679000056, 6.842047345000027 ], [ 79.867026021000072, 6.842015446000061 ], [ 79.866950875000043, 6.841998034000028 ], [ 79.866881973000034, 6.841978915000026 ], [ 79.866853216000038, 6.842068468000037 ], [ 79.866820089000043, 6.842171848000019 ], [ 79.866716894000035, 6.842491111000074 ], [ 79.866646275000051, 6.842710158000045 ], [ 79.866632351000078, 6.842753354000023 ], [ 79.866577111000083, 6.842925230000048 ], [ 79.866513363000081, 6.843147094000073 ], [ 79.866506979000064, 6.84317384700006 ], [ 79.866468226000052, 6.843334452000021 ], [ 79.866432881000037, 6.843510796000032 ], [ 79.86640944700008, 6.843655427000045 ], [ 79.866374932000042, 6.843918306000035 ], [ 79.866364786000076, 6.844021006000049 ], [ 79.86635354100008, 6.844130845000052 ], [ 79.866342140000029, 6.844274775000031 ], [ 79.866318213000056, 6.84448911800007 ], [ 79.866300244000058, 6.844661518000067 ], [ 79.866290204000052, 6.844755989000021 ], [ 79.866259711000055, 6.845045008000056 ], [ 79.866256061000058, 6.845076303000043 ], [ 79.866228613000033, 6.845311643000059 ], [ 79.866201498000066, 6.845544114000061 ], [ 79.866132916000083, 6.846215633000043 ], [ 79.866111254000032, 6.846427810000023 ], [ 79.866049749000069, 6.847040568000068 ], [ 79.86601818600009, 6.84749249200007 ], [ 79.866016922000085, 6.847510606000071 ], [ 79.866100690000053, 6.847514383000032 ], [ 79.866300575000082, 6.847542610000061 ], [ 79.866444534000038, 6.847578600000078 ], [ 79.866642973000069, 6.847653662000026 ], [ 79.86681516200008, 6.847688711000046 ], [ 79.866990227000031, 6.84768497300007 ], [ 79.867204277000042, 6.847659170000043 ], [ 79.867411913000083, 6.847634140000026 ], [ 79.867468106000047, 6.847628459000021 ], [ 79.867527179000035, 6.847630379000065 ], [ 79.867878125000061, 6.847670465000022 ], [ 79.867884548000063, 6.847671202000073 ], [ 79.867904028000055, 6.847674451000047 ], [ 79.868024009000067, 6.847694468000043 ], [ 79.868027626000071, 6.847695072000022 ], [ 79.868183094000074, 6.847723406000058 ], [ 79.868287818000056, 6.847742492000067 ], [ 79.868297225000049, 6.847744048000038 ], [ 79.868476860000044, 6.847773132000042 ], [ 79.868585504000066, 6.84779072300006 ], [ 79.868611424000051, 6.847794919000023 ], [ 79.86881396800004, 6.847827714000061 ], [ 79.868858328000059, 6.847834896000052 ], [ 79.869040265000081, 6.847833431000026 ], [ 79.869269059000032, 6.847832325000071 ], [ 79.86929026100006, 6.847830340000029 ], [ 79.86933833500008, 6.84782584000004 ], [ 79.869342988000085, 6.847825405000037 ], [ 79.869666661000053, 6.847795099000052 ], [ 79.869783573000063, 6.84778166500007 ], [ 79.869895362000079, 6.847750048000022 ], [ 79.869897521000041, 6.84774644500004 ], [ 79.869926131000057, 6.847698688000038 ], [ 79.869929397000078, 6.847693236000056 ], [ 79.869944893000081, 6.847672739000074 ], [ 79.869946725000034, 6.847670318000041 ], [ 79.870062721000068, 6.847516895000068 ], [ 79.870452322000062, 6.847064891000059 ], [ 79.870466413000031, 6.847046307000027 ], [ 79.870491499000082, 6.84701933200006 ], [ 79.870597101000044, 6.846871202000046 ], [ 79.870712308000066, 6.846706343000052 ], [ 79.870820312000035, 6.846553433000055 ], [ 79.870825361000072, 6.846546634000049 ], [ 79.871061930000053, 6.846285794000039 ], [ 79.871130039000036, 6.84622845900003 ], [ 79.871134058000067, 6.846225076000053 ], [ 79.871272968000085, 6.846108061000051 ], [ 79.871402878000083, 6.845966344000032 ], [ 79.871464614000047, 6.845908005000068 ], [ 79.871490065000046, 6.845883952000066 ], [ 79.871816811000031, 6.845625132000065 ], [ 79.871830673000034, 6.845615511000062 ], [ 79.871868603000053, 6.845589189000066 ], [ 79.872347088000083, 6.845257136000043 ], [ 79.872385215000065, 6.845235598000044 ], [ 79.872427771000048, 6.845216960000073 ], [ 79.872546612000065, 6.845168478000062 ], [ 79.872549999000057, 6.845167096000067 ] ] ] ] } },
{ "type": "Feature", "properties": { "Shape_Leng": 0.02294114753, "Shape_Area": 3.164505e-05, "ADM4_EN": "Watarappala", "ADM4_SI": "වටරප්පල", "ADM4_TA": null, "ADM4_PCODE": "LK1131015", "ADM4_REF": null, "ADM3_EN": "Ratmalana", "ADM3_SI": "රත්මලාන", "ADM3_TA": "இரத்மலானை", "ADM3_PCODE": "LK1131", "ADM2_EN": "Colombo", "ADM2_SI": "කොළඹ දිස්ත්‍රික්ක", "ADM2_TA": "கொழும்பு மாவட்டம்", "ADM2_PCODE": "LK11", "ADM1_EN": "Western", "ADM1_SI": "බස්නාහිර පළාත", "ADM1_TA": "மேல் மாகாணம் ", "ADM1_PCODE": "LK1", "ADM0_EN": "Sri Lanka", "ADM0_SI": "ශ්‍රී ලංකා", "ADM0_TA": "இலங்கை", "ADM0_PCODE": "LK", "date": "2022-08-02", "validOn": "2022-08-16", "validTo": null, "area": 0.387 }, "geometry": { "type": "MultiPolygon", "coordinates": [ [ [ [ 79.874304015000064, 6.839824239000053 ], [ 79.874300222000045, 6.839821448000066 ], [ 79.874292427000057, 6.839815712000075 ], [ 79.874286576000031, 6.839811406000024 ], [ 79.874226843000031, 6.83976745700005 ], [ 79.874191261000078, 6.83974127600004 ], [ 79.87402601000008, 6.839626674000044 ], [ 79.873855973000047, 6.839506546000052 ], [ 79.873809983000058, 6.83947463100003 ], [ 79.873509135000063, 6.839255970000067 ], [ 79.873428008000076, 6.839195416000054 ], [ 79.873346960000049, 6.839141102000042 ], [ 79.873303872000065, 6.839106480000055 ], [ 79.873159221000051, 6.839006293000067 ], [ 79.873072731000036, 6.83894882200002 ], [ 79.873091560000034, 6.838917174000073 ], [ 79.873107510000068, 6.838890366000044 ], [ 79.873131865000062, 6.838831819000063 ], [ 79.873192934000031, 6.838685631000033 ], [ 79.873223500000051, 6.838596443000027 ], [ 79.873252343000047, 6.838460413000064 ], [ 79.873284729000034, 6.838316703000032 ], [ 79.873313368000083, 6.838192971000066 ], [ 79.873317042000053, 6.838163681000026 ], [ 79.873314373000085, 6.838139262000027 ], [ 79.873313114000041, 6.838137807000066 ], [ 79.87329406200007, 6.838115804000039 ], [ 79.87320870800005, 6.838041951000035 ], [ 79.873090373000082, 6.837947691000068 ], [ 79.873011699000074, 6.837881625000021 ], [ 79.87298306100007, 6.837859962000038 ], [ 79.872933464000084, 6.837823066000055 ], [ 79.872862654000087, 6.837760543000059 ], [ 79.872763039000063, 6.83766848700003 ], [ 79.872686648000069, 6.83759193800006 ], [ 79.872629476000043, 6.837542099000076 ], [ 79.872600016000035, 6.837524863000055 ], [ 79.872532592000084, 6.837490286000047 ], [ 79.872416540000074, 6.837432380000052 ], [ 79.87240081300007, 6.837424484000053 ], [ 79.872383461000084, 6.837415228000053 ], [ 79.872357260000058, 6.837396643000032 ], [ 79.872344794000071, 6.837386673000023 ], [ 79.872320759000047, 6.83737071300004 ], [ 79.872203531000082, 6.83731298500004 ], [ 79.872094705000052, 6.837260788000036 ], [ 79.871961111000076, 6.837198147000038 ], [ 79.871930016000078, 6.83718443500004 ], [ 79.871846137000034, 6.837144401000045 ], [ 79.871838238000066, 6.837159939000061 ], [ 79.871629101000053, 6.83709796900007 ], [ 79.87147991300003, 6.837053924000031 ], [ 79.871397182000067, 6.837028632000055 ], [ 79.871331369000075, 6.837003008000067 ], [ 79.871262929000068, 6.83697973300002 ], [ 79.871233183000086, 6.836970092000057 ], [ 79.871210585000085, 6.83696010400007 ], [ 79.871128525000074, 6.836915100000055 ], [ 79.870994792000047, 6.83683003300007 ], [ 79.870899456000075, 6.83677288700005 ], [ 79.870853007000051, 6.836745585000074 ], [ 79.870789115000036, 6.836709294000057 ], [ 79.870768417000079, 6.836699401000031 ], [ 79.870746810000071, 6.836691492000057 ], [ 79.87072438000007, 6.83668837600004 ], [ 79.870701220000058, 6.836688604000074 ], [ 79.870680216000039, 6.83669670300003 ], [ 79.87066481100004, 6.83670978500004 ], [ 79.870654107000064, 6.83672513600004 ], [ 79.870646660000034, 6.83674049500007 ], [ 79.870617776000074, 6.836801474000025 ], [ 79.87060260800007, 6.836833274000071 ], [ 79.870579475000056, 6.836867500000039 ], [ 79.870569506000038, 6.836876886000026 ], [ 79.870555841000055, 6.836884693000057 ], [ 79.870554939000044, 6.836886111000068 ], [ 79.870553333000032, 6.83688556200002 ], [ 79.870541709000079, 6.836889130000031 ], [ 79.870526235000057, 6.836890729000059 ], [ 79.870495572000038, 6.836888501000033 ], [ 79.870414895000081, 6.836877408000021 ], [ 79.870329525000045, 6.83686024800005 ], [ 79.870272822000061, 6.836849743000073 ], [ 79.87024107600007, 6.836845253000035 ], [ 79.870190424000043, 6.836839551000024 ], [ 79.870131986000047, 6.836837814000035 ], [ 79.870079690000068, 6.836840609000035 ], [ 79.870027386000061, 6.836847834000026 ], [ 79.869987470000069, 6.836858247000067 ], [ 79.869953519000035, 6.836872199000027 ], [ 79.869936043000052, 6.836879580000071 ], [ 79.869857995000075, 6.836914969000076 ], [ 79.869759649000059, 6.836966506000065 ], [ 79.869703856000058, 6.837000218000071 ], [ 79.86965830500003, 6.837025179000021 ], [ 79.869586067000057, 6.837048642000071 ], [ 79.869544162000068, 6.837058510000077 ], [ 79.869497376000083, 6.837065656000048 ], [ 79.869447892000039, 6.837064748000044 ], [ 79.869409262000033, 6.837065128000064 ], [ 79.869313061000071, 6.837082760000044 ], [ 79.869254769000065, 6.83709901700007 ], [ 79.869182801000079, 6.837123656000074 ], [ 79.869052896000085, 6.837178780000043 ], [ 79.869052332000081, 6.837179019000075 ], [ 79.868982974000062, 6.83721071700006 ], [ 79.868963848000078, 6.837218265000049 ], [ 79.868946488000063, 6.83722511600007 ], [ 79.86889923800004, 6.837238409000064 ], [ 79.868841771000064, 6.837249242000041 ], [ 79.868744861000053, 6.837259004000033 ], [ 79.868610870000055, 6.837263544000052 ], [ 79.868577217000052, 6.837263210000057 ], [ 79.868559307000055, 6.837261278000026 ], [ 79.868534707000038, 6.83725752400005 ], [ 79.868467794000082, 6.837240127000028 ], [ 79.868407914000045, 6.837235040000054 ], [ 79.868364307000036, 6.837235320000047 ], [ 79.868214111000043, 6.837246067000023 ], [ 79.868053135000082, 6.837263758000061 ], [ 79.867884642000035, 6.837286136000046 ], [ 79.867723397000077, 6.837302651000073 ], [ 79.867548577000036, 6.837321490000024 ], [ 79.867451294000034, 6.837337671000056 ], [ 79.867472132000046, 6.837656537000043 ], [ 79.867489431000081, 6.83798100100006 ], [ 79.867501587000049, 6.838250480000056 ], [ 79.867507428000067, 6.838367587000049 ], [ 79.867513192000047, 6.838582347000055 ], [ 79.867521203000081, 6.838880844000072 ], [ 79.867515931000071, 6.838989972000036 ], [ 79.867502604000052, 6.839340059000051 ], [ 79.867475932000048, 6.839617873000066 ], [ 79.867431237000062, 6.839955059000032 ], [ 79.867379756000048, 6.840244492000068 ], [ 79.867302369000072, 6.840598705000048 ], [ 79.867294252000093, 6.840633140000022 ], [ 79.86721463400005, 6.840922791000026 ], [ 79.867131511000082, 6.841200860000071 ], [ 79.866983619000052, 6.84166625000006 ], [ 79.866918282000086, 6.841866862000074 ], [ 79.866888442000061, 6.841958952000026 ], [ 79.866881973000034, 6.841978915000026 ], [ 79.866950875000043, 6.841998034000028 ], [ 79.867026021000072, 6.842015446000061 ], [ 79.867158679000056, 6.842047345000027 ], [ 79.867276420000053, 6.842072885000049 ], [ 79.867438830000083, 6.842111259000034 ], [ 79.867521402000079, 6.842124889000047 ], [ 79.867728978000059, 6.842151322000064 ], [ 79.867914303000077, 6.842175272000075 ], [ 79.868148671000085, 6.842242535000024 ], [ 79.868237090000036, 6.842274350000026 ], [ 79.868306449000045, 6.842290485000034 ], [ 79.868362694000041, 6.842293430000041 ], [ 79.868397813000058, 6.842295270000021 ], [ 79.868506463000074, 6.842297283000049 ], [ 79.868590226000038, 6.842303318000063 ], [ 79.868660496000075, 6.842315658000073 ], [ 79.868667727000059, 6.842320172000028 ], [ 79.86872076800006, 6.842353297000045 ], [ 79.86877996100003, 6.842386954000061 ], [ 79.868832774000055, 6.842398538000054 ], [ 79.868948293000074, 6.842403820000073 ], [ 79.869097465000038, 6.842408894000072 ], [ 79.869222333000039, 6.842414573000042 ], [ 79.869261291000043, 6.84241634500006 ], [ 79.869474145000083, 6.842426421000026 ], [ 79.869568041000036, 6.842432024000062 ], [ 79.869679424000083, 6.842423373000031 ], [ 79.869796038000061, 6.84242368300005 ], [ 79.86984226400007, 6.842426120000026 ], [ 79.869869125000037, 6.842430241000046 ], [ 79.86989724600005, 6.842437889000052 ], [ 79.869916052000065, 6.842444345000048 ], [ 79.869951391000029, 6.842462495000063 ], [ 79.870102946000031, 6.842548229000045 ], [ 79.870202443000039, 6.842606105000073 ], [ 79.870252953000033, 6.842638007000063 ], [ 79.870256247000043, 6.842640087000064 ], [ 79.870258015000047, 6.842641203000028 ], [ 79.870268937000048, 6.842654245000063 ], [ 79.870283994000033, 6.842681309000056 ], [ 79.87031356500006, 6.842736070000058 ], [ 79.870334866000064, 6.842762151000044 ], [ 79.870348867000075, 6.842774112000027 ], [ 79.870360341000037, 6.842782 ], [ 79.870450712000036, 6.842834253000035 ], [ 79.870524535000072, 6.842881864000049 ], [ 79.870776634000038, 6.843046364000029 ], [ 79.87081250500006, 6.843071197000028 ], [ 79.870813995000049, 6.84307222900003 ], [ 79.870899873000042, 6.843131681000044 ], [ 79.871033608000076, 6.843216116000065 ], [ 79.871143293000046, 6.843292548000021 ], [ 79.871174839000048, 6.84331485000007 ], [ 79.871182739000062, 6.843320435000066 ], [ 79.871194973000058, 6.84332908400006 ], [ 79.871197736000056, 6.84333119300004 ], [ 79.871419546000098, 6.843065869000043 ], [ 79.87164408600006, 6.84280408400002 ], [ 79.871677008000063, 6.84276963600007 ], [ 79.871870495000053, 6.842567183000027 ], [ 79.871874971000068, 6.842561873000021 ], [ 79.872117202000084, 6.84227448400003 ], [ 79.872180148000041, 6.84220375700005 ], [ 79.87234856200007, 6.842014529000039 ], [ 79.872409378000043, 6.841946195000048 ], [ 79.872710751000056, 6.841607702000033 ], [ 79.872877694000067, 6.841424279000023 ], [ 79.873165544000074, 6.841099453000028 ], [ 79.873441853000031, 6.840801399000042 ], [ 79.873591540000064, 6.840629427000067 ], [ 79.87388323700003, 6.840295037000031 ], [ 79.874107253000034, 6.840055499000072 ], [ 79.874163388000056, 6.839989574000072 ], [ 79.87425980200004, 6.83988927300004 ], [ 79.874304015000064, 6.839824239000053 ] ] ] ] } },
{ "type": "Feature", "properties": { "Shape_Leng": 0.02836099649, "Shape_Area": 4.400347e-05, "ADM4_EN": "Wathumulla", "ADM4_SI": "වතුමුල්ල", "ADM4_TA": null, "ADM4_PCODE": "LK1131020", "ADM4_REF": null, "ADM3_EN": "Ratmalana", "ADM3_SI": "රත්මලාන", "ADM3_TA": "இரத்மலானை", "ADM3_PCODE": "LK1131", "ADM2_EN": "Colombo", "ADM2_SI": "කොළඹ දිස්ත්‍රික්ක", "ADM2_TA": "கொழும்பு மாவட்டம்", "ADM2_PCODE": "LK11", "ADM1_EN": "Western", "ADM1_SI": "බස්නාහිර පළාත", "ADM1_TA": "மேல் மாகாணம் ", "ADM1_PCODE": "LK1", "ADM0_EN": "Sri Lanka", "ADM0_SI": "ශ්‍රී ලංකා", "ADM0_TA": "இலங்கை", "ADM0_PCODE": "LK", "date": "2022-08-02", "validOn": "2022-08-16", "validTo": null, "area": 0.538 }, "geometry": { "type": "MultiPolygon", "coordinates": [ [ [ [ 79.871846137000034, 6.837144401000045 ], [ 79.871856489000052, 6.837120386000038 ], [ 79.871868763000066, 6.837091909000038 ], [ 79.871952599000068, 6.836913935000042 ], [ 79.872035631000074, 6.83673089800004 ], [ 79.872096319000036, 6.836595018000025 ], [ 79.872178483000084, 6.836392448000026 ], [ 79.872231387000056, 6.836258633000056 ], [ 79.872232570000051, 6.836250226000061 ], [ 79.872237531000053, 6.836214971000061 ], [ 79.872266455000045, 6.836084186000051 ], [ 79.872299697000074, 6.835965027000043 ], [ 79.872314182000082, 6.835913107000067 ], [ 79.872349340000085, 6.835786040000072 ], [ 79.872367054000051, 6.835721303000071 ], [ 79.872390788000075, 6.835634573000049 ], [ 79.872417989000041, 6.835506044000055 ], [ 79.872435344000053, 6.835417917000029 ], [ 79.872460011000044, 6.83528938400002 ], [ 79.872472449000043, 6.835218154000073 ], [ 79.872482981000076, 6.835149724000074 ], [ 79.87249104600005, 6.835046659000057 ], [ 79.872499362000056, 6.834953902000052 ], [ 79.872513508000054, 6.834839727000031 ], [ 79.872516275000066, 6.834763779000068 ], [ 79.872516422000047, 6.834761576000064 ], [ 79.872520417000047, 6.834701660000063 ], [ 79.872523442000045, 6.834656282000026 ], [ 79.872527695000031, 6.834608095000022 ], [ 79.872544250000033, 6.834463812000022 ], [ 79.872555304000059, 6.834358493000023 ], [ 79.872564812000064, 6.834257420000028 ], [ 79.872581007000065, 6.834112413000071 ], [ 79.872592544000042, 6.833990276000065 ], [ 79.87260907700005, 6.833857568000043 ], [ 79.872628975000055, 6.83371618700005 ], [ 79.872641086000044, 6.833625787000074 ], [ 79.872652857000048, 6.833524176000025 ], [ 79.872684057000072, 6.833385981000049 ], [ 79.87270073600007, 6.833271539000065 ], [ 79.872732538000037, 6.833101335000037 ], [ 79.872732860000042, 6.833099208000022 ], [ 79.872755073000064, 6.832952181000053 ], [ 79.872811421000051, 6.832718276000037 ], [ 79.872837304000029, 6.832617143000048 ], [ 79.87284049200008, 6.832557019000033 ], [ 79.87283939100007, 6.832469037000067 ], [ 79.872831027000075, 6.832349777000046 ], [ 79.872824589000061, 6.832257966000042 ], [ 79.872812735000082, 6.83211480600005 ], [ 79.872793759000047, 6.831958522000036 ], [ 79.87278391500007, 6.831887779000057 ], [ 79.872779299000058, 6.831854600000043 ], [ 79.872769538000057, 6.831753310000066 ], [ 79.872708669000076, 6.83174610700007 ], [ 79.87269500900004, 6.83174449100005 ], [ 79.872653228000047, 6.831737267000049 ], [ 79.87265582100008, 6.831591111000022 ], [ 79.872656364000079, 6.831560500000024 ], [ 79.872640090000061, 6.83126587700002 ], [ 79.872642072000076, 6.831077984000046 ], [ 79.872645153000065, 6.83093060300007 ], [ 79.872637859000065, 6.830719185000021 ], [ 79.872622671000045, 6.830617884000048 ], [ 79.872602897000036, 6.830500660000039 ], [ 79.872601034000084, 6.830336903000044 ], [ 79.87260176400008, 6.830237170000031 ], [ 79.872607350000067, 6.830104985000047 ], [ 79.872625867000068, 6.829975536000062 ], [ 79.872626085000036, 6.829714490000072 ], [ 79.872631068000032, 6.829662416000076 ], [ 79.872654448000048, 6.82959346900003 ], [ 79.872695760000056, 6.829561538000064 ], [ 79.872737753000095, 6.829553025000052 ], [ 79.872798100000082, 6.829549884000073 ], [ 79.87284758100003, 6.829552147000071 ], [ 79.872980641000083, 6.829560806000074 ], [ 79.873164809000059, 6.829572634000044 ], [ 79.873191861000066, 6.829571419000047 ], [ 79.87322037000007, 6.829564781000044 ], [ 79.873240482000085, 6.829549628000052 ], [ 79.873256720000029, 6.82952614900006 ], [ 79.873296371000038, 6.82941545700004 ], [ 79.873322782000059, 6.829321377000042 ], [ 79.873368513000059, 6.82914564300006 ], [ 79.87336915800006, 6.829144265000023 ], [ 79.873369525000044, 6.829141750000076 ], [ 79.873371442000064, 6.829134387000066 ], [ 79.873401038000054, 6.829030909000037 ], [ 79.873440907000031, 6.828900506000025 ], [ 79.873465744000057, 6.828825594000023 ], [ 79.873452167000039, 6.828817401000037 ], [ 79.873309414000062, 6.828731262000076 ], [ 79.873255006000079, 6.82870394300005 ], [ 79.873209708000047, 6.828690024000024 ], [ 79.873146493000036, 6.828678421000062 ], [ 79.87308127600005, 6.828673507000075 ], [ 79.873005199000033, 6.828670743000033 ], [ 79.872858672000064, 6.828666421000037 ], [ 79.87283255300008, 6.828665651000052 ], [ 79.872623912000051, 6.828655831000048 ], [ 79.872430349000069, 6.82863711300007 ], [ 79.87232055100003, 6.828621897000062 ], [ 79.87195672100006, 6.828560089000063 ], [ 79.87173787400009, 6.82851654800004 ], [ 79.871555823000051, 6.828485915000043 ], [ 79.871457889000055, 6.82846366900003 ], [ 79.871307123000065, 6.828441955000073 ], [ 79.871221841000079, 6.828427418000046 ], [ 79.871163889000059, 6.828407417000051 ], [ 79.871107867000035, 6.828371957000059 ], [ 79.871033245000049, 6.828317112000037 ], [ 79.870941464000055, 6.828246500000033 ], [ 79.870884453000031, 6.828207784000029 ], [ 79.870834943000034, 6.828172245000075 ], [ 79.870795269000041, 6.82815092200002 ], [ 79.87077041200007, 6.828140115000054 ], [ 79.870754772000055, 6.82813330500005 ], [ 79.870673125000053, 6.828110997000069 ], [ 79.870598246000043, 6.828096208000033 ], [ 79.870576367000083, 6.828094599000053 ], [ 79.870398796000075, 6.828081548000058 ], [ 79.870179079000081, 6.828070460000047 ], [ 79.870136378000041, 6.828068304000056 ], [ 79.869971734000046, 6.828044468000031 ], [ 79.869969332000039, 6.828044118000037 ], [ 79.869841805000078, 6.828028237000068 ], [ 79.869756137000081, 6.82802626700004 ], [ 79.869720576000077, 6.828030540000043 ], [ 79.869687171000066, 6.828042684000025 ], [ 79.869653127000049, 6.828058172000055 ], [ 79.869629480000086, 6.828076122000026 ], [ 79.869616162000057, 6.82808694600004 ], [ 79.869596040000033, 6.828107435000049 ], [ 79.869550137000033, 6.828127240000073 ], [ 79.869526053000072, 6.828137776000061 ], [ 79.869442754000033, 6.828174149000063 ], [ 79.86929591300003, 6.828229934000036 ], [ 79.869229906000044, 6.828260192000073 ], [ 79.868959736000079, 6.828136710000023 ], [ 79.868955398000082, 6.828134713000054 ], [ 79.868757895000044, 6.828046361000077 ], [ 79.868724163000081, 6.828136266000057 ], [ 79.868698978000054, 6.828203402000041 ], [ 79.868589736000047, 6.828469035000067 ], [ 79.868522823000035, 6.828644145000055 ], [ 79.868313580000063, 6.829168557000058 ], [ 79.86821223700008, 6.829419647000066 ], [ 79.868108336000034, 6.829683572000023 ], [ 79.868036425000071, 6.829869795000034 ], [ 79.867945943000052, 6.830117740000047 ], [ 79.867917479000084, 6.830196444000022 ], [ 79.86786143900008, 6.830361718000064 ], [ 79.867815847000031, 6.83050395500004 ], [ 79.86772439300006, 6.830789288000062 ], [ 79.867708737000044, 6.830838131000063 ], [ 79.867669879000061, 6.830959404000055 ], [ 79.867593923000072, 6.831228082000052 ], [ 79.867513942000073, 6.831611499000076 ], [ 79.867511303000072, 6.831624153000063 ], [ 79.867465491000075, 6.831881495000061 ], [ 79.86741979500006, 6.832223203000069 ], [ 79.867385131000049, 6.832470891000071 ], [ 79.86737350900006, 6.832588869000062 ], [ 79.867364907000081, 6.832688497000047 ], [ 79.86735333300004, 6.832876734000022 ], [ 79.867345871000055, 6.832996256000058 ], [ 79.86733518300008, 6.833385771000053 ], [ 79.867333275000078, 6.833581891000049 ], [ 79.867335471000047, 6.833956203000072 ], [ 79.867335807000075, 6.834013206000066 ], [ 79.86733771300004, 6.834440902000041 ], [ 79.86733901000008, 6.834999345000029 ], [ 79.867339791000063, 6.835064451000051 ], [ 79.867340834000061, 6.835134529000072 ], [ 79.867340649000084, 6.835280559000068 ], [ 79.867348369000069, 6.835599761000025 ], [ 79.867362942000057, 6.835978474000058 ], [ 79.867380258000082, 6.836246695000057 ], [ 79.867390610000044, 6.836417249000022 ], [ 79.867415503000075, 6.836792093000042 ], [ 79.86742238100004, 6.83688704800005 ], [ 79.867440290000047, 6.837175979000052 ], [ 79.867441169000074, 6.83719008500003 ], [ 79.867447945000038, 6.837288848000071 ], [ 79.867451294000034, 6.837337671000056 ], [ 79.867548577000036, 6.837321490000024 ], [ 79.867723397000077, 6.837302651000073 ], [ 79.867884642000035, 6.837286136000046 ], [ 79.868053135000082, 6.837263758000061 ], [ 79.868214111000043, 6.837246067000023 ], [ 79.868364307000036, 6.837235320000047 ], [ 79.868407914000045, 6.837235040000054 ], [ 79.868467794000082, 6.837240127000028 ], [ 79.868534707000038, 6.83725752400005 ], [ 79.868559307000055, 6.837261278000026 ], [ 79.868577217000052, 6.837263210000057 ], [ 79.868610870000055, 6.837263544000052 ], [ 79.868744861000053, 6.837259004000033 ], [ 79.868841771000064, 6.837249242000041 ], [ 79.86889923800004, 6.837238409000064 ], [ 79.868946488000063, 6.83722511600007 ], [ 79.868963848000078, 6.837218265000049 ], [ 79.868982974000062, 6.83721071700006 ], [ 79.869052332000081, 6.837179019000075 ], [ 79.869052896000085, 6.837178780000043 ], [ 79.869182801000079, 6.837123656000074 ], [ 79.869254769000065, 6.83709901700007 ], [ 79.869313061000071, 6.837082760000044 ], [ 79.869409262000033, 6.837065128000064 ], [ 79.869447892000039, 6.837064748000044 ], [ 79.869497376000083, 6.837065656000048 ], [ 79.869544162000068, 6.837058510000077 ], [ 79.869586067000057, 6.837048642000071 ], [ 79.86965830500003, 6.837025179000021 ], [ 79.869703856000058, 6.837000218000071 ], [ 79.869759649000059, 6.836966506000065 ], [ 79.869857995000075, 6.836914969000076 ], [ 79.869936043000052, 6.836879580000071 ], [ 79.869953519000035, 6.836872199000027 ], [ 79.869987470000069, 6.836858247000067 ], [ 79.870027386000061, 6.836847834000026 ], [ 79.870079690000068, 6.836840609000035 ], [ 79.870131986000047, 6.836837814000035 ], [ 79.870190424000043, 6.836839551000024 ], [ 79.87024107600007, 6.836845253000035 ], [ 79.870272822000061, 6.836849743000073 ], [ 79.870329525000045, 6.83686024800005 ], [ 79.870414895000081, 6.836877408000021 ], [ 79.870495572000038, 6.836888501000033 ], [ 79.870526235000057, 6.836890729000059 ], [ 79.870541709000079, 6.836889130000031 ], [ 79.870553333000032, 6.83688556200002 ], [ 79.870554939000044, 6.836886111000068 ], [ 79.870555841000055, 6.836884693000057 ], [ 79.870569506000038, 6.836876886000026 ], [ 79.870579475000056, 6.836867500000039 ], [ 79.87060260800007, 6.836833274000071 ], [ 79.870617776000074, 6.836801474000025 ], [ 79.870646660000034, 6.83674049500007 ], [ 79.870654107000064, 6.83672513600004 ], [ 79.87066481100004, 6.83670978500004 ], [ 79.870680216000039, 6.83669670300003 ], [ 79.870701220000058, 6.836688604000074 ], [ 79.87072438000007, 6.83668837600004 ], [ 79.870746810000071, 6.836691492000057 ], [ 79.870768417000079, 6.836699401000031 ], [ 79.870789115000036, 6.836709294000057 ], [ 79.870853007000051, 6.836745585000074 ], [ 79.870899456000075, 6.83677288700005 ], [ 79.870994792000047, 6.83683003300007 ], [ 79.871128525000074, 6.836915100000055 ], [ 79.871210585000085, 6.83696010400007 ], [ 79.871233183000086, 6.836970092000057 ], [ 79.871262929000068, 6.83697973300002 ], [ 79.871331369000075, 6.837003008000067 ], [ 79.871397182000067, 6.837028632000055 ], [ 79.87147991300003, 6.837053924000031 ], [ 79.871629101000053, 6.83709796900007 ], [ 79.871838238000066, 6.837159939000061 ], [ 79.871846137000034, 6.837144401000045 ] ] ] ] } },
{ "type": "Feature", "properties": { "Shape_Leng": 0.03388886352, "Shape_Area": 5.373016e-05, "ADM4_EN": "Wedikanda", "ADM4_SI": "වෙඩිකන්ද", "ADM4_TA": null, "ADM4_PCODE": "LK1131045", "ADM4_REF": null, "ADM3_EN": "Ratmalana", "ADM3_SI": "රත්මලාන", "ADM3_TA": "இரத்மலானை", "ADM3_PCODE": "LK1131", "ADM2_EN": "Colombo", "ADM2_SI": "කොළඹ දිස්ත්‍රික්ක", "ADM2_TA": "கொழும்பு மாவட்டம்", "ADM2_PCODE": "LK11", "ADM1_EN": "Western", "ADM1_SI": "බස්නාහිර පළාත", "ADM1_TA": "மேல் மாகாணம் ", "ADM1_PCODE": "LK1", "ADM0_EN": "Sri Lanka", "ADM0_SI": "ශ්‍රී ලංකා", "ADM0_TA": "இலங்கை", "ADM0_PCODE": "LK", "date": "2022-08-02", "validOn": "2022-08-16", "validTo": null, "area": 0.657 }, "geometry": { "type": "MultiPolygon", "coordinates": [ [ [ [ 79.868757895000044, 6.828046361000077 ], [ 79.868769548000046, 6.828017542000054 ], [ 79.868832970000085, 6.827860686000066 ], [ 79.868965791000051, 6.827516339000054 ], [ 79.86907532400005, 6.827238952000072 ], [ 79.869090046000053, 6.827203807000045 ], [ 79.868939235000084, 6.827158311000063 ], [ 79.868684056000077, 6.827096707000067 ], [ 79.868479428000057, 6.827045504000068 ], [ 79.868255679000072, 6.827011809000055 ], [ 79.867913513000076, 6.826927975000046 ], [ 79.867843067000081, 6.82691373700004 ], [ 79.867843891000064, 6.826885125000046 ], [ 79.867849650000039, 6.826685074000067 ], [ 79.867853719000038, 6.826590501000053 ], [ 79.86785885900008, 6.82650316400003 ], [ 79.867870923000055, 6.82643871600004 ], [ 79.867932544000041, 6.826239182000052 ], [ 79.868001134000053, 6.826038303000074 ], [ 79.868020883000042, 6.825927757000043 ], [ 79.868032579000044, 6.825770355000031 ], [ 79.868046271000082, 6.825561869000068 ], [ 79.868062766000037, 6.825497520000056 ], [ 79.868084460000034, 6.825370327000031 ], [ 79.868090301000052, 6.825336079000066 ], [ 79.868099163000068, 6.82529007200003 ], [ 79.868117420000033, 6.825230427000063 ], [ 79.868138940000065, 6.825160121000066 ], [ 79.868220604000044, 6.824934672000041 ], [ 79.868269563000069, 6.824829333000024 ], [ 79.868347002000064, 6.824589411000034 ], [ 79.868390275000081, 6.824475479000057 ], [ 79.868445737000059, 6.824329455000053 ], [ 79.868489160000081, 6.824234142000023 ], [ 79.868499267000061, 6.824198987000045 ], [ 79.868499705000033, 6.824190178000038 ], [ 79.868501993000052, 6.824144197000066 ], [ 79.868498128000056, 6.824035775000027 ], [ 79.868507517000069, 6.823949982000046 ], [ 79.868518906000077, 6.823906871000077 ], [ 79.868556618000085, 6.823865440000077 ], [ 79.868583922000084, 6.82382597700007 ], [ 79.868705967000039, 6.823678186000051 ], [ 79.868863393000083, 6.823477477000039 ], [ 79.868867799000043, 6.823470386000053 ], [ 79.86890340900004, 6.82341308100007 ], [ 79.868943683000055, 6.823372449000033 ], [ 79.868944559000056, 6.823371565000058 ], [ 79.869056635000049, 6.823232436000068 ], [ 79.869109575000053, 6.823175208000064 ], [ 79.869132802000081, 6.823139084000047 ], [ 79.869213303000038, 6.823049899000067 ], [ 79.869387833000076, 6.822845695000068 ], [ 79.869518739000057, 6.82270027100003 ], [ 79.869651695000073, 6.822548013000072 ], [ 79.869710213000076, 6.822480998000059 ], [ 79.869752923000078, 6.822427548000064 ], [ 79.869815206000055, 6.822356865000073 ], [ 79.869949274000078, 6.822213437000071 ], [ 79.870032042000048, 6.822121002000074 ], [ 79.870179821000079, 6.821950384000047 ], [ 79.870208727000033, 6.821897246000048 ], [ 79.870228556000029, 6.821877129000029 ], [ 79.870219673000079, 6.821877127000049 ], [ 79.870087618000071, 6.821871560000034 ], [ 79.870069242000056, 6.821870786000034 ], [ 79.869970477000038, 6.821858122000036 ], [ 79.869826888000034, 6.821821503000024 ], [ 79.869691265000085, 6.821781733000022 ], [ 79.869538565000084, 6.821730721000051 ], [ 79.869363918000033, 6.82167602100003 ], [ 79.869292556000062, 6.821653671000036 ], [ 79.869250074000036, 6.821640693000062 ], [ 79.869053412000085, 6.821580613000036 ], [ 79.868779376000077, 6.82149401600003 ], [ 79.868765357000029, 6.821489516000042 ], [ 79.868598284000029, 6.821435896000025 ], [ 79.868546034000076, 6.821415814000033 ], [ 79.86849668900004, 6.821389771000042 ], [ 79.868463259000066, 6.82136755500005 ], [ 79.868432731000041, 6.821341365000023 ], [ 79.868357526000068, 6.821260025000071 ], [ 79.86830066300007, 6.821192011000051 ], [ 79.868254404000083, 6.821160728000051 ], [ 79.868201372000044, 6.821122742000056 ], [ 79.868198633000077, 6.821120900000039 ], [ 79.868083736000074, 6.821043584000052 ], [ 79.868008470000063, 6.820994795000046 ], [ 79.867889911000077, 6.820925581000039 ], [ 79.867872942000076, 6.820905566000023 ], [ 79.867869392000046, 6.820893117000025 ], [ 79.867862157000047, 6.820867749000058 ], [ 79.867863287000034, 6.820796138000047 ], [ 79.867863022000051, 6.820793682000043 ], [ 79.867858753000064, 6.820754083000054 ], [ 79.867842920000044, 6.820706853000046 ], [ 79.867824151000036, 6.820681590000048 ], [ 79.867776860000063, 6.820622095000032 ], [ 79.867740559000083, 6.820582993000073 ], [ 79.867735149000055, 6.820577167000067 ], [ 79.867708783000069, 6.820550895000052 ], [ 79.867641954000078, 6.820490458000052 ], [ 79.867555253000035, 6.820413528000073 ], [ 79.86745017800007, 6.82034153500007 ], [ 79.867313815000045, 6.820262158000048 ], [ 79.867264436000085, 6.820235935000027 ], [ 79.867216935000044, 6.820210708000046 ], [ 79.867102861000049, 6.82016139500007 ], [ 79.866985716000045, 6.82011017600007 ], [ 79.866944867000029, 6.820088488000066 ], [ 79.866902223000068, 6.820058840000057 ], [ 79.866687231000071, 6.819988901000044 ], [ 79.866517720000047, 6.819921876000024 ], [ 79.866511679000041, 6.819919488000038 ], [ 79.866358093000031, 6.819859611000027 ], [ 79.866277624000077, 6.819836311000074 ], [ 79.86619960400003, 6.819809399000063 ], [ 79.866015703000073, 6.819753896000065 ], [ 79.865963444000045, 6.819738063000045 ], [ 79.865961942000069, 6.819737718000055 ], [ 79.865986974000066, 6.819685482000067 ], [ 79.865986824000061, 6.819669026000041 ], [ 79.865965695000057, 6.819648551000057 ], [ 79.865716303000056, 6.81954255900007 ], [ 79.865480050000031, 6.819464532000039 ], [ 79.865404061000049, 6.819431859000078 ], [ 79.865248566000048, 6.81938611000004 ], [ 79.865048784000066, 6.819374452000033 ], [ 79.86504300200005, 6.819385039000053 ], [ 79.86502009600008, 6.819454083000039 ], [ 79.864985683000043, 6.819557816000042 ], [ 79.864932914000065, 6.819716226000026 ], [ 79.864889750000032, 6.819818320000025 ], [ 79.864848970000082, 6.819903691000035 ], [ 79.864798191000034, 6.820014362000051 ], [ 79.864754572000038, 6.820117901000061 ], [ 79.864703202000044, 6.820206416000075 ], [ 79.864621812000053, 6.820383037000055 ], [ 79.864583731000039, 6.820476370000051 ], [ 79.864540962000035, 6.820608848000062 ], [ 79.864509135000048, 6.820695140000054 ], [ 79.864470579000056, 6.820800136000061 ], [ 79.864446152000085, 6.820897203000073 ], [ 79.864421955000068, 6.821015428000067 ], [ 79.864397623000059, 6.821109510000042 ], [ 79.864375563000067, 6.821198263000044 ], [ 79.864344875000029, 6.821304178000047 ], [ 79.864311223000087, 6.821399780000034 ], [ 79.864277104000053, 6.821502615000044 ], [ 79.864241623000055, 6.821607888000074 ], [ 79.864203996000072, 6.821700319000056 ], [ 79.864164973000072, 6.821813 ], [ 79.864128249000032, 6.82190633600004 ], [ 79.864073981000047, 6.822043673000053 ], [ 79.864039848000061, 6.822154375000023 ], [ 79.863998969000079, 6.822243905000051 ], [ 79.863952023000081, 6.822336860000064 ], [ 79.863897779000069, 6.822413525000059 ], [ 79.863844852000057, 6.822511622000035 ], [ 79.863793076000036, 6.822623014000044 ], [ 79.863755208000043, 6.822699258000056 ], [ 79.863714977000029, 6.822781464000057 ], [ 79.863684093000074, 6.822847414000023 ], [ 79.863642423000044, 6.822924917000022 ], [ 79.863598492000051, 6.82300205300004 ], [ 79.863564810000071, 6.823064561000025 ], [ 79.86352179000005, 6.823138264000022 ], [ 79.863473716000044, 6.823205808000068 ], [ 79.863414461000048, 6.823301723000043 ], [ 79.863372768000033, 6.823390437000057 ], [ 79.86334159200004, 6.823468231000049 ], [ 79.863344592000033, 6.82360350700003 ], [ 79.863329570000076, 6.823722969000073 ], [ 79.863298986000075, 6.823864329000058 ], [ 79.863276438000071, 6.823955749000048 ], [ 79.863226139000062, 6.824051320000024 ], [ 79.86318734200006, 6.824139860000058 ], [ 79.86315098700004, 6.824229308000042 ], [ 79.863104748000069, 6.824330582000073 ], [ 79.863063643000032, 6.82444425400007 ], [ 79.862981982000065, 6.824667169000064 ], [ 79.862899885000047, 6.824785917000042 ], [ 79.862828630000081, 6.824911920000034 ], [ 79.862805091000041, 6.82496956400007 ], [ 79.862783543000035, 6.825073960000054 ], [ 79.862755347000075, 6.825154200000041 ], [ 79.86274471500009, 6.825226698000051 ], [ 79.862732318000042, 6.825324149000038 ], [ 79.862729601000069, 6.825420984000061 ], [ 79.862737856000095, 6.825504368000053 ], [ 79.862762950000047, 6.825581636000038 ], [ 79.86278580100003, 6.825648772000021 ], [ 79.862806091000039, 6.825730189000068 ], [ 79.862819270000045, 6.825793328000031 ], [ 79.862845897000057, 6.825872949000029 ], [ 79.86287272900006, 6.825939911000034 ], [ 79.862903697000036, 6.82602008300006 ], [ 79.86293801000005, 6.82610125600007 ], [ 79.862969296000074, 6.826204577000055 ], [ 79.862983173000032, 6.826329023000028 ], [ 79.862990006000075, 6.826446764000024 ], [ 79.862987317000034, 6.826576694000041 ], [ 79.862978687000066, 6.826691061000075 ], [ 79.86296829500003, 6.826780467000048 ], [ 79.862957083000083, 6.82687303800003 ], [ 79.862939524000069, 6.826972378000051 ], [ 79.86292306100006, 6.82706728900007 ], [ 79.862902686000041, 6.827172953000058 ], [ 79.86287143800007, 6.827288361000058 ], [ 79.862845480000033, 6.827380994000066 ], [ 79.862821890000077, 6.827463774000024 ], [ 79.862798762000068, 6.82754348100002 ], [ 79.862781226000038, 6.827631157000042 ], [ 79.862759707000066, 6.827720634000059 ], [ 79.862729139000066, 6.827810636000037 ], [ 79.862715256000058, 6.827927976000069 ], [ 79.862708606000069, 6.828047591000029 ], [ 79.862712621000071, 6.828124908000064 ], [ 79.862715149000067, 6.828174465000075 ], [ 79.862697731000083, 6.828296138000042 ], [ 79.862668534000079, 6.828426742000033 ], [ 79.862643515000059, 6.828548401000035 ], [ 79.862602745000061, 6.828675727000076 ], [ 79.862571195000044, 6.82875894500006 ], [ 79.86253374100005, 6.828854721000026 ], [ 79.862524864000079, 6.828956337000021 ], [ 79.862525228000038, 6.829027706000034 ], [ 79.862765691000064, 6.829092456000069 ], [ 79.863080483000033, 6.829177086000072 ], [ 79.863125241000034, 6.829189118000044 ], [ 79.863130126000044, 6.829190431000028 ], [ 79.863159546000077, 6.829198340000062 ], [ 79.863190202000055, 6.829206582000038 ], [ 79.863476296000044, 6.829230945000062 ], [ 79.863567101000058, 6.829310530000043 ], [ 79.863576309000052, 6.829318600000022 ], [ 79.863672283000085, 6.829438155000048 ], [ 79.863698794000072, 6.829441202000053 ], [ 79.863675956000066, 6.829624560000069 ], [ 79.863646329000062, 6.829742957000064 ], [ 79.863641175000055, 6.829765567000037 ], [ 79.86362799300008, 6.82982339800003 ], [ 79.86361841300004, 6.829866330000073 ], [ 79.863612927000077, 6.829896700000063 ], [ 79.863609889000031, 6.829924816000071 ], [ 79.863609275000044, 6.829962248000072 ], [ 79.863610541000071, 6.829997236000051 ], [ 79.863611854000055, 6.830033505000073 ], [ 79.863617159000057, 6.830098167000072 ], [ 79.863623104000055, 6.830159665000053 ], [ 79.863638863000062, 6.830293246000052 ], [ 79.863644110000052, 6.830340999000043 ], [ 79.863647790000073, 6.830404030000068 ], [ 79.863650877000055, 6.83045136900006 ], [ 79.863651570000059, 6.830461996000052 ], [ 79.863661069000045, 6.830510119000054 ], [ 79.863834474000058, 6.83047238000006 ], [ 79.86408470300006, 6.830425112000056 ], [ 79.864371273000074, 6.830367434000039 ], [ 79.864414941000078, 6.830358644000055 ], [ 79.864450238000074, 6.830351115000039 ], [ 79.86449927600006, 6.830347953000056 ], [ 79.864526968000064, 6.830343212000059 ], [ 79.864548428000035, 6.830333125000037 ], [ 79.86456247700005, 6.830318867000073 ], [ 79.86457263300008, 6.830306317000065 ], [ 79.864583431000085, 6.830289066000033 ], [ 79.864601155000059, 6.83024560800004 ], [ 79.864629458000081, 6.830204791000028 ], [ 79.864653675000056, 6.830171832000076 ], [ 79.864689295000062, 6.830135822000046 ], [ 79.864738943000077, 6.830098030000044 ], [ 79.864773166000077, 6.830084079000073 ], [ 79.864807739000071, 6.830075736000027 ], [ 79.864824295000062, 6.830075857000053 ], [ 79.864889597000058, 6.830083576000049 ], [ 79.864901717000066, 6.830084864000072 ], [ 79.86491944200003, 6.830088063000062 ], [ 79.865014317000032, 6.830106865000061 ], [ 79.865056719000052, 6.830115268000042 ], [ 79.865129979000073, 6.830124720000072 ], [ 79.865281830000072, 6.830147070000066 ], [ 79.865362230000073, 6.830160242000034 ], [ 79.865628232000063, 6.830191669000043 ], [ 79.865652436000062, 6.830194386000073 ], [ 79.865694621000046, 6.830199119000041 ], [ 79.865814706000037, 6.830227558000047 ], [ 79.865888768000048, 6.830243521000057 ], [ 79.865975128000059, 6.830261588000039 ], [ 79.866049647000068, 6.830275925000024 ], [ 79.86609358100003, 6.830293278000057 ], [ 79.866157477000058, 6.830326945000023 ], [ 79.866214683000067, 6.830356179000035 ], [ 79.866243970000085, 6.830371144000027 ], [ 79.86635295300006, 6.830434011000023 ], [ 79.86640888900007, 6.830467572000032 ], [ 79.866504232000068, 6.830520017000027 ], [ 79.866592898000079, 6.830563406000066 ], [ 79.866670278000072, 6.830594565000069 ], [ 79.866709282000045, 6.830609330000073 ], [ 79.86687865500005, 6.830673445000061 ], [ 79.866901473000055, 6.830680508000057 ], [ 79.866957134000074, 6.830697737000035 ], [ 79.867042474000073, 6.830729997000048 ], [ 79.86717365100003, 6.830777264000062 ], [ 79.867227103000062, 6.830785140000046 ], [ 79.867307691000065, 6.830793852000055 ], [ 79.867443079000054, 6.830808487000069 ], [ 79.867445897000039, 6.830808791000039 ], [ 79.867588831000035, 6.830824747000064 ], [ 79.867642453000045, 6.830830732000036 ], [ 79.867654719000029, 6.830832101000054 ], [ 79.867678075000072, 6.830834709000045 ], [ 79.867708737000044, 6.830838131000063 ], [ 79.86772439300006, 6.830789288000062 ], [ 79.867815847000031, 6.83050395500004 ], [ 79.86786143900008, 6.830361718000064 ], [ 79.867917479000084, 6.830196444000022 ], [ 79.867945943000052, 6.830117740000047 ], [ 79.868036425000071, 6.829869795000034 ], [ 79.868108336000034, 6.829683572000023 ], [ 79.86821223700008, 6.829419647000066 ], [ 79.868313580000063, 6.829168557000058 ], [ 79.868522823000035, 6.828644145000055 ], [ 79.868589736000047, 6.828469035000067 ], [ 79.868698978000054, 6.828203402000041 ], [ 79.868724163000081, 6.828136266000057 ], [ 79.868757895000044, 6.828046361000077 ] ] ] ] } }
]
}
