{
"type": "FeatureCollection",
"name": "boundary_5000m",
"crs": { "type": "name", "properties": { "name": "urn:ogc:def:crs:EPSG::5235" } },
"xy_coordinate_resolution": 1e-15,
"features": [
{ "type": "Feature", "properties": { "id": 1 }, "geometry": { "type": "MultiPolygon", "coordinates": [ [ [ [ 404868.167843862262089, 481260.399366904282942 ], [ 404866.454468740033917, 481129.514625364914536 ], [ 404861.315517635142896, 480998.719585689541418 ], [ 404852.754512527899351, 480868.103888265031856 ], [ 404840.777320703607984, 480737.75705056602601 ], [ 404825.392150731291622, 480607.768405804003123 ], [ 404806.609546837978996, 480478.227041703124996 ], [ 404784.442381682049017, 480349.221739443542901 ], [ 404758.905847531277686, 480220.840912815474439 ], [ 404730.017445850651711, 480093.17254762473749 ], [ 404697.796975307632238, 479966.304141391650774 ], [ 404662.266518203250598, 479840.322643384686671 ], [ 404623.450425338058267, 479715.314395029563457 ], [ 404581.375299323175568, 479591.365070735453628 ], [ 404536.069976348255295, 479468.559619177773129 ], [ 404487.565506418701261, 479346.982205078820698 ], [ 404435.895132075238507, 479226.716151525266469 ], [ 404381.094265611551236, 479107.843882862827741 ], [ 404323.200464804074727, 478990.44686820654897 ], [ 404262.253407172102015, 478874.605565606267191 ], [ 404198.294862784445286, 478760.399366904282942 ], [ 404131.36866563273361, 478647.906543324526865 ], [ 404061.52068358939141, 478537.204191829136107 ], [ 403988.798786972358357, 478428.368182280100882 ], [ 403913.252815736981574, 478321.473105441895314 ], [ 403834.934545318421442, 478216.592221860657446 ], [ 403753.897651147097349, 478113.797411655075848 ], [ 403670.197671862435527, 478013.159125253383536 ], [ 403583.891971249249764, 477914.746335109986831 ], [ 403495.039698923705146, 477818.626488435489591 ], [ 403403.701749795000069, 477724.865460971544962 ], [ 403309.94072233105544, 477633.527511842839886 ], [ 403213.820875656558201, 477544.675239517295267 ], [ 403115.408085513161495, 477458.369538904109504 ], [ 403014.769799111469183, 477374.669559619447682 ], [ 402911.974988905887585, 477293.632665448123589 ], [ 402807.094105324649718, 477215.314395029563457 ], [ 402700.199028486444149, 477139.768423794186674 ], [ 402591.363018937408924, 477067.046527177153621 ], [ 402480.660667442018166, 476997.198545133811422 ], [ 402368.167843862262089, 476930.272347982099745 ], [ 402253.96164516027784, 476866.313803594443016 ], [ 402138.120342559996061, 476805.366745962470304 ], [ 402020.723327903717291, 476747.472945154993795 ], [ 401901.851059241278563, 476692.672078691306524 ], [ 401781.585005687724333, 476641.00170434784377 ], [ 401660.007591588771902, 476592.497234418289736 ], [ 401537.202140031091403, 476547.191911443369463 ], [ 401413.252815736981574, 476505.116785428486764 ], [ 401288.24456738185836, 476466.300692563294433 ], [ 401162.263069374894258, 476430.770235458971001 ], [ 401035.394663141807541, 476398.54976491589332 ], [ 400907.726297951070592, 476369.661363235267345 ], [ 400779.34547132300213, 476344.124829084496014 ], [ 400650.340169063420035, 476321.957663928566035 ], [ 400520.798804962541908, 476303.175060035253409 ], [ 400390.810160200519022, 476287.789890062937047 ], [ 400260.463322501513176, 476275.81269823864568 ], [ 400129.847625077003613, 476267.251693131402135 ], [ 399999.052585401630495, 476262.112742026511114 ], [ 399868.167843862262089, 476260.399366904282942 ], [ 399737.283102322893683, 476262.112742026511114 ], [ 399606.488062647520564, 476267.251693131402135 ], [ 399475.872365223011002, 476275.81269823864568 ], [ 399345.525527524005156, 476287.789890062937047 ], [ 399215.53688276198227, 476303.175060035253409 ], [ 399085.995518661104143, 476321.957663928566035 ], [ 398956.990216401522048, 476344.124829084496014 ], [ 398828.609389773453586, 476369.661363235267345 ], [ 398700.941024582716636, 476398.54976491589332 ], [ 398574.072618349688128, 476430.770235458912794 ], [ 398448.091120342665818, 476466.300692563294433 ], [ 398323.082871987542603, 476505.116785428486764 ], [ 398199.133547693432774, 476547.191911443369463 ], [ 398076.328096135752276, 476592.497234418289736 ], [ 397954.750682036799844, 476641.00170434784377 ], [ 397834.484628483245615, 476692.672078691306524 ], [ 397715.612359820806887, 476747.472945154993795 ], [ 397598.215345164528117, 476805.366745962470304 ], [ 397482.374042564246338, 476866.313803594443016 ], [ 397368.167843862262089, 476930.272347982099745 ], [ 397255.675020282506011, 476997.198545133811422 ], [ 397144.972668787115254, 477067.046527177153621 ], [ 397036.136659238080028, 477139.768423794186674 ], [ 396929.24158239987446, 477215.314395029563457 ], [ 396824.360698818636592, 477293.632665448123589 ], [ 396721.565888613054994, 477374.669559619447682 ], [ 396620.927602211362682, 477458.369538904109504 ], [ 396522.514812067965977, 477544.675239517295267 ], [ 396426.394965393468738, 477633.527511842839886 ], [ 396332.633937929524109, 477724.865460971544962 ], [ 396241.295988800819032, 477818.626488435489591 ], [ 396152.443716475274414, 477914.746335109986831 ], [ 396066.13801586208865, 478013.159125253383536 ], [ 395982.438036577426828, 478113.797411655075848 ], [ 395901.401142406102736, 478216.592221860657446 ], [ 395823.082871987542603, 478321.473105441895314 ], [ 395747.53690075216582, 478428.368182280100882 ], [ 395674.815004135132767, 478537.204191829136107 ], [ 395604.967022091790568, 478647.906543324526865 ], [ 395538.040824940078892, 478760.399366904282942 ], [ 395474.082280552422162, 478874.605565606267191 ], [ 395413.135222920449451, 478990.44686820654897 ], [ 395355.241422112972941, 479107.843882862827741 ], [ 395300.44055564928567, 479226.716151525266469 ], [ 395248.770181305822916, 479346.982205078820698 ], [ 395200.265711376268882, 479468.559619177773129 ], [ 395154.960388401348609, 479591.365070735453628 ], [ 395112.885262386465911, 479715.314395029563457 ], [ 395074.069169521273579, 479840.322643384686671 ], [ 395038.53871241689194, 479966.304141391650774 ], [ 395006.318241873872466, 480093.17254762473749 ], [ 394977.429840193246491, 480220.840912815474439 ], [ 394951.89330604247516, 480349.221739443542901 ], [ 394929.726140886545181, 480478.227041703124996 ], [ 394910.943536993232556, 480607.768405804003123 ], [ 394895.558367020916194, 480737.75705056602601 ], [ 394883.581175196624827, 480868.103888265031856 ], [ 394875.020170089381281, 480998.719585689541418 ], [ 394869.88121898449026, 481129.514625364914536 ], [ 394868.167843862262089, 481260.399366904282942 ], [ 394869.88121898449026, 481391.284108443651348 ], [ 394875.020170089381281, 481522.079148119024467 ], [ 394883.581175196624827, 481652.694845543534029 ], [ 394895.558367020916194, 481783.041683242539875 ], [ 394910.943536993232556, 481913.030328004562762 ], [ 394929.726140886545181, 482042.571692105440889 ], [ 394951.89330604247516, 482171.576994365022983 ], [ 394977.429840193246491, 482299.957820993091445 ], [ 395006.318241873872466, 482427.626186183828395 ], [ 395038.53871241689194, 482554.494592416856904 ], [ 395074.069169521273579, 482680.476090423879214 ], [ 395112.885262386465911, 482805.484338779002428 ], [ 395154.960388401348609, 482929.433663073112257 ], [ 395200.265711376268882, 483052.239114630792756 ], [ 395248.770181305822916, 483173.816528729745187 ], [ 395300.440555649227463, 483294.082582283299416 ], [ 395355.241422112972941, 483412.954850945738144 ], [ 395413.135222920449451, 483530.351865602016915 ], [ 395474.082280552422162, 483646.193168202298693 ], [ 395538.040824940078892, 483760.399366904282942 ], [ 395604.967022091790568, 483872.89219048403902 ], [ 395674.815004135132767, 483983.594541979429778 ], [ 395747.53690075216582, 484092.430551528465003 ], [ 395823.082871987542603, 484199.325628366670571 ], [ 395901.401142406102736, 484304.206511947908439 ], [ 395982.438036577426828, 484407.001322153490037 ], [ 396066.13801586208865, 484507.639608555182349 ], [ 396152.443716475274414, 484606.052398698579054 ], [ 396241.295988800819032, 484702.172245373076294 ], [ 396332.633937929524109, 484795.933272837020922 ], [ 396426.394965393468738, 484887.271221965725999 ], [ 396522.514812067965977, 484976.123494291270617 ], [ 396620.927602211362682, 485062.429194904456381 ], [ 396721.565888613054994, 485146.129174189118203 ], [ 396824.360698818636592, 485227.166068360442296 ], [ 396929.24158239987446, 485305.484338779002428 ], [ 397036.136659238080028, 485381.030310014379211 ], [ 397144.972668787115254, 485453.752206631412264 ], [ 397255.675020282506011, 485523.600188674754463 ], [ 397368.167843862262089, 485590.526385826466139 ], [ 397482.374042564246338, 485654.484930214122869 ], [ 397598.215345164528117, 485715.431987846095581 ], [ 397715.612359820806887, 485773.32578865357209 ], [ 397834.484628483245615, 485828.126655117259361 ], [ 397954.750682036799844, 485879.797029460722115 ], [ 398076.328096135752276, 485928.301499390276149 ], [ 398199.133547693432774, 485973.606822365196422 ], [ 398323.082871987542603, 486015.68194838007912 ], [ 398448.091120342665818, 486054.498041245271452 ], [ 398574.07261834962992, 486090.028498349594884 ], [ 398700.941024582716636, 486122.248968892672565 ], [ 398828.609389773453586, 486151.13737057329854 ], [ 398956.990216401522048, 486176.673904724069871 ], [ 399085.995518661104143, 486198.84106987999985 ], [ 399215.53688276198227, 486217.623673773312476 ], [ 399345.525527524005156, 486233.008843745628837 ], [ 399475.872365223011002, 486244.986035569920205 ], [ 399606.488062647520564, 486253.54704067716375 ], [ 399737.283102322893683, 486258.685991782054771 ], [ 399868.167843862262089, 486260.399366904282942 ], [ 399999.052585401630495, 486258.685991782054771 ], [ 400129.847625077003613, 486253.54704067716375 ], [ 400260.463322501454968, 486244.986035569920205 ], [ 400390.810160200519022, 486233.008843745628837 ], [ 400520.798804962541908, 486217.623673773312476 ], [ 400650.340169063420035, 486198.84106987999985 ], [ 400779.34547132300213, 486176.673904724069871 ], [ 400907.726297951070592, 486151.13737057329854 ], [ 401035.394663141807541, 486122.248968892672565 ], [ 401162.26306937483605, 486090.028498349653091 ], [ 401288.24456738185836, 486054.498041245271452 ], [ 401413.252815736981574, 486015.68194838007912 ], [ 401537.202140031091403, 485973.606822365196422 ], [ 401660.007591588771902, 485928.301499390276149 ], [ 401781.585005687724333, 485879.797029460722115 ], [ 401901.851059241278563, 485828.126655117259361 ], [ 402020.723327903717291, 485773.32578865357209 ], [ 402138.120342559996061, 485715.431987846095581 ], [ 402253.96164516027784, 485654.484930214122869 ], [ 402368.167843862262089, 485590.526385826466139 ], [ 402480.660667442018166, 485523.600188674754463 ], [ 402591.363018937408924, 485453.752206631412264 ], [ 402700.199028486444149, 485381.030310014379211 ], [ 402807.094105324649718, 485305.484338779002428 ], [ 402911.974988905887585, 485227.166068360442296 ], [ 403014.769799111469183, 485146.129174189118203 ], [ 403115.408085513161495, 485062.429194904456381 ], [ 403213.820875656558201, 484976.123494291270617 ], [ 403309.94072233105544, 484887.271221965725999 ], [ 403403.701749795000069, 484795.933272837020922 ], [ 403495.039698923705146, 484702.172245373076294 ], [ 403583.891971249249764, 484606.052398698579054 ], [ 403670.197671862435527, 484507.639608555182349 ], [ 403753.897651147097349, 484407.001322153490037 ], [ 403834.934545318421442, 484304.206511947908439 ], [ 403913.252815736981574, 484199.325628366670571 ], [ 403988.798786972358357, 484092.430551528465003 ], [ 404061.52068358939141, 483983.594541979429778 ], [ 404131.36866563273361, 483872.89219048403902 ], [ 404198.294862784445286, 483760.399366904282942 ], [ 404262.253407172102015, 483646.193168202298693 ], [ 404323.200464804074727, 483530.351865602016915 ], [ 404381.094265611551236, 483412.954850945738144 ], [ 404435.895132075238507, 483294.082582283299416 ], [ 404487.565506418701261, 483173.816528729745187 ], [ 404536.069976348255295, 483052.239114630792756 ], [ 404581.375299323175568, 482929.433663073112257 ], [ 404623.450425338058267, 482805.484338779002428 ], [ 404662.266518203250598, 482680.476090423879214 ], [ 404697.79697530757403, 482554.494592416915111 ], [ 404730.017445850651711, 482427.626186183828395 ], [ 404758.905847531277686, 482299.957820993091445 ], [ 404784.442381682049017, 482171.576994365022983 ], [ 404806.609546837978996, 482042.571692105440889 ], [ 404825.392150731291622, 481913.030328004562762 ], [ 404840.777320703607984, 481783.041683242539875 ], [ 404852.754512527899351, 481652.694845543534029 ], [ 404861.315517635142896, 481522.079148119024467 ], [ 404866.454468740033917, 481391.284108443651348 ], [ 404868.167843862262089, 481260.399366904282942 ] ] ] ] } }
]
}
