{"type": "FeatureCollection", "crs": {"type": "name", "properties": {"name": "EPSG:32644"}}, "features": [{"type": "Feature", "properties": {"class_id": 4, "row": 25, "col": 13, "class_name": "water_wetland", "class_label": "Water / wetland"}, "geometry": {"type": "Point", "coordinates": [374235.0, 756795.0]}}, {"type": "Feature", "properties": {"class_id": 4, "row": 17, "col": 12, "class_name": "water_wetland", "class_label": "Water / wetland"}, "geometry": {"type": "Point", "coordinates": [374205.0, 757035.0]}}, {"type": "Feature", "properties": {"class_id": 4, "row": 79, "col": 13, "class_name": "water_wetland", "class_label": "Water / wetland"}, "geometry": {"type": "Point", "coordinates": [374235.0, 755175.0]}}, {"type": "Feature", "properties": {"class_id": 4, "row": 16, "col": 12, "class_name": "water_wetland", "class_label": "Water / wetland"}, "geometry": {"type": "Point", "coordinates": [374205.0, 757065.0]}}, {"type": "Feature", "properties": {"class_id": 4, "row": 69, "col": 10, "class_name": "water_wetland", "class_label": "Water / wetland"}, "geometry": {"type": "Point", "coordinates": [374145.0, 755475.0]}}, {"type": "Feature", "properties": {"class_id": 4, "row": 68, "col": 10, "class_name": "water_wetland", "class_label": "Water / wetland"}, "geometry": {"type": "Point", "coordinates": [374145.0, 755505.0]}}, {"type": "Feature", "properties": {"class_id": 4, "row": 65, "col": 14, "class_name": "water_wetland", "class_label": "Water / wetland"}, "geometry": {"type": "Point", "coordinates": [374265.0, 755595.0]}}, {"type": "Feature", "properties": {"class_id": 4, "row": 64, "col": 15, "class_name": "water_wetland", "class_label": "Water / wetland"}, "geometry": {"type": "Point", "coordinates": [374295.0, 755625.0]}}, {"type": "Feature", "properties": {"class_id": 4, "row": 24, "col": 13, "class_name": "water_wetland", "class_label": "Water / wetland"}, "geometry": {"type": "Point", "coordinates": [374235.0, 756825.0]}}, {"type": "Feature", "properties": {"class_id": 4, "row": 27, "col": 13, "class_name": "water_wetland", "class_label": "Water / wetland"}, "geometry": {"type": "Point", "coordinates": [374235.0, 756735.0]}}, {"type": "Feature", "properties": {"class_id": 4, "row": 60, "col": 15, "class_name": "water_wetland", "class_label": "Water / wetland"}, "geometry": {"type": "Point", "coordinates": [374295.0, 755745.0]}}, {"type": "Feature", "properties": {"class_id": 4, "row": 67, "col": 10, "class_name": "water_wetland", "class_label": "Water / wetland"}, "geometry": {"type": "Point", "coordinates": [374145.0, 755535.0]}}, {"type": "Feature", "properties": {"class_id": 4, "row": 100, "col": 16, "class_name": "water_wetland", "class_label": "Water / wetland"}, "geometry": {"type": "Point", "coordinates": [374325.0, 754545.0]}}, {"type": "Feature", "properties": {"class_id": 4, "row": 26, "col": 13, "class_name": "water_wetland", "class_label": "Water / wetland"}, "geometry": {"type": "Point", "coordinates": [374235.0, 756765.0]}}, {"type": "Feature", "properties": {"class_id": 4, "row": 71, "col": 11, "class_name": "water_wetland", "class_label": "Water / wetland"}, "geometry": {"type": "Point", "coordinates": [374175.0, 755415.0]}}, {"type": "Feature", "properties": {"class_id": 4, "row": 41, "col": 15, "class_name": "water_wetland", "class_label": "Water / wetland"}, "geometry": {"type": "Point", "coordinates": [374295.0, 756315.0]}}, {"type": "Feature", "properties": {"class_id": 4, "row": 70, "col": 11, "class_name": "water_wetland", "class_label": "Water / wetland"}, "geometry": {"type": "Point", "coordinates": [374175.0, 755445.0]}}, {"type": "Feature", "properties": {"class_id": 4, "row": 23, "col": 13, "class_name": "water_wetland", "class_label": "Water / wetland"}, "geometry": {"type": "Point", "coordinates": [374235.0, 756855.0]}}, {"type": "Feature", "properties": {"class_id": 2, "row": 43, "col": 58, "class_name": "vegetation", "class_label": "Vegetation / tree cover"}, "geometry": {"type": "Point", "coordinates": [375585.0, 756255.0]}}, {"type": "Feature", "properties": {"class_id": 2, "row": 104, "col": 38, "class_name": "vegetation", "class_label": "Vegetation / tree cover"}, "geometry": {"type": "Point", "coordinates": [374985.0, 754425.0]}}, {"type": "Feature", "properties": {"class_id": 2, "row": 60, "col": 27, "class_name": "vegetation", "class_label": "Vegetation / tree cover"}, "geometry": {"type": "Point", "coordinates": [374655.0, 755745.0]}}, {"type": "Feature", "properties": {"class_id": 2, "row": 25, "col": 46, "class_name": "vegetation", "class_label": "Vegetation / tree cover"}, "geometry": {"type": "Point", "coordinates": [375225.0, 756795.0]}}, {"type": "Feature", "properties": {"class_id": 2, "row": 36, "col": 26, "class_name": "vegetation", "class_label": "Vegetation / tree cover"}, "geometry": {"type": "Point", "coordinates": [374625.0, 756465.0]}}, {"type": "Feature", "properties": {"class_id": 2, "row": 52, "col": 49, "class_name": "vegetation", "class_label": "Vegetation / tree cover"}, "geometry": {"type": "Point", "coordinates": [375315.0, 755985.0]}}, {"type": "Feature", "properties": {"class_id": 2, "row": 98, "col": 27, "class_name": "vegetation", "class_label": "Vegetation / tree cover"}, "geometry": {"type": "Point", "coordinates": [374655.0, 754605.0]}}, {"type": "Feature", "properties": {"class_id": 2, "row": 69, "col": 30, "class_name": "vegetation", "class_label": "Vegetation / tree cover"}, "geometry": {"type": "Point", "coordinates": [374745.0, 755475.0]}}, {"type": "Feature", "properties": {"class_id": 2, "row": 112, "col": 24, "class_name": "vegetation", "class_label": "Vegetation / tree cover"}, "geometry": {"type": "Point", "coordinates": [374565.0, 754185.0]}}, {"type": "Feature", "properties": {"class_id": 2, "row": 59, "col": 46, "class_name": "vegetation", "class_label": "Vegetation / tree cover"}, "geometry": {"type": "Point", "coordinates": [375225.0, 755775.0]}}, {"type": "Feature", "properties": {"class_id": 2, "row": 60, "col": 41, "class_name": "vegetation", "class_label": "Vegetation / tree cover"}, "geometry": {"type": "Point", "coordinates": [375075.0, 755745.0]}}, {"type": "Feature", "properties": {"class_id": 2, "row": 79, "col": 23, "class_name": "vegetation", "class_label": "Vegetation / tree cover"}, "geometry": {"type": "Point", "coordinates": [374535.0, 755175.0]}}, {"type": "Feature", "properties": {"class_id": 2, "row": 46, "col": 35, "class_name": "vegetation", "class_label": "Vegetation / tree cover"}, "geometry": {"type": "Point", "coordinates": [374895.0, 756165.0]}}, {"type": "Feature", "properties": {"class_id": 2, "row": 66, "col": 29, "class_name": "vegetation", "class_label": "Vegetation / tree cover"}, "geometry": {"type": "Point", "coordinates": [374715.0, 755565.0]}}, {"type": "Feature", "properties": {"class_id": 2, "row": 79, "col": 38, "class_name": "vegetation", "class_label": "Vegetation / tree cover"}, "geometry": {"type": "Point", "coordinates": [374985.0, 755175.0]}}, {"type": "Feature", "properties": {"class_id": 2, "row": 64, "col": 23, "class_name": "vegetation", "class_label": "Vegetation / tree cover"}, "geometry": {"type": "Point", "coordinates": [374535.0, 755625.0]}}, {"type": "Feature", "properties": {"class_id": 2, "row": 21, "col": 37, "class_name": "vegetation", "class_label": "Vegetation / tree cover"}, "geometry": {"type": "Point", "coordinates": [374955.0, 756915.0]}}, {"type": "Feature", "properties": {"class_id": 2, "row": 57, "col": 29, "class_name": "vegetation", "class_label": "Vegetation / tree cover"}, "geometry": {"type": "Point", "coordinates": [374715.0, 755835.0]}}, {"type": "Feature", "properties": {"class_id": 2, "row": 70, "col": 36, "class_name": "vegetation", "class_label": "Vegetation / tree cover"}, "geometry": {"type": "Point", "coordinates": [374925.0, 755445.0]}}, {"type": "Feature", "properties": {"class_id": 2, "row": 97, "col": 28, "class_name": "vegetation", "class_label": "Vegetation / tree cover"}, "geometry": {"type": "Point", "coordinates": [374685.0, 754635.0]}}, {"type": "Feature", "properties": {"class_id": 2, "row": 45, "col": 29, "class_name": "vegetation", "class_label": "Vegetation / tree cover"}, "geometry": {"type": "Point", "coordinates": [374715.0, 756195.0]}}, {"type": "Feature", "properties": {"class_id": 2, "row": 33, "col": 43, "class_name": "vegetation", "class_label": "Vegetation / tree cover"}, "geometry": {"type": "Point", "coordinates": [375135.0, 756555.0]}}, {"type": "Feature", "properties": {"class_id": 2, "row": 86, "col": 54, "class_name": "vegetation", "class_label": "Vegetation / tree cover"}, "geometry": {"type": "Point", "coordinates": [375465.0, 754965.0]}}, {"type": "Feature", "properties": {"class_id": 2, "row": 75, "col": 43, "class_name": "vegetation", "class_label": "Vegetation / tree cover"}, "geometry": {"type": "Point", "coordinates": [375135.0, 755295.0]}}, {"type": "Feature", "properties": {"class_id": 2, "row": 25, "col": 52, "class_name": "vegetation", "class_label": "Vegetation / tree cover"}, "geometry": {"type": "Point", "coordinates": [375405.0, 756795.0]}}, {"type": "Feature", "properties": {"class_id": 2, "row": 54, "col": 21, "class_name": "vegetation", "class_label": "Vegetation / tree cover"}, "geometry": {"type": "Point", "coordinates": [374475.0, 755925.0]}}, {"type": "Feature", "properties": {"class_id": 2, "row": 87, "col": 22, "class_name": "vegetation", "class_label": "Vegetation / tree cover"}, "geometry": {"type": "Point", "coordinates": [374505.0, 754935.0]}}, {"type": "Feature", "properties": {"class_id": 2, "row": 38, "col": 51, "class_name": "vegetation", "class_label": "Vegetation / tree cover"}, "geometry": {"type": "Point", "coordinates": [375375.0, 756405.0]}}, {"type": "Feature", "properties": {"class_id": 2, "row": 50, "col": 19, "class_name": "vegetation", "class_label": "Vegetation / tree cover"}, "geometry": {"type": "Point", "coordinates": [374415.0, 756045.0]}}, {"type": "Feature", "properties": {"class_id": 2, "row": 88, "col": 41, "class_name": "vegetation", "class_label": "Vegetation / tree cover"}, "geometry": {"type": "Point", "coordinates": [375075.0, 754905.0]}}, {"type": "Feature", "properties": {"class_id": 2, "row": 38, "col": 62, "class_name": "vegetation", "class_label": "Vegetation / tree cover"}, "geometry": {"type": "Point", "coordinates": [375705.0, 756405.0]}}, {"type": "Feature", "properties": {"class_id": 2, "row": 88, "col": 23, "class_name": "vegetation", "class_label": "Vegetation / tree cover"}, "geometry": {"type": "Point", "coordinates": [374535.0, 754905.0]}}, {"type": "Feature", "properties": {"class_id": 2, "row": 86, "col": 31, "class_name": "vegetation", "class_label": "Vegetation / tree cover"}, "geometry": {"type": "Point", "coordinates": [374775.0, 754965.0]}}, {"type": "Feature", "properties": {"class_id": 2, "row": 32, "col": 59, "class_name": "vegetation", "class_label": "Vegetation / tree cover"}, "geometry": {"type": "Point", "coordinates": [375615.0, 756585.0]}}, {"type": "Feature", "properties": {"class_id": 2, "row": 22, "col": 43, "class_name": "vegetation", "class_label": "Vegetation / tree cover"}, "geometry": {"type": "Point", "coordinates": [375135.0, 756885.0]}}, {"type": "Feature", "properties": {"class_id": 2, "row": 20, "col": 36, "class_name": "vegetation", "class_label": "Vegetation / tree cover"}, "geometry": {"type": "Point", "coordinates": [374925.0, 756945.0]}}, {"type": "Feature", "properties": {"class_id": 2, "row": 69, "col": 48, "class_name": "vegetation", "class_label": "Vegetation / tree cover"}, "geometry": {"type": "Point", "coordinates": [375285.0, 755475.0]}}, {"type": "Feature", "properties": {"class_id": 2, "row": 39, "col": 60, "class_name": "vegetation", "class_label": "Vegetation / tree cover"}, "geometry": {"type": "Point", "coordinates": [375645.0, 756375.0]}}, {"type": "Feature", "properties": {"class_id": 2, "row": 50, "col": 43, "class_name": "vegetation", "class_label": "Vegetation / tree cover"}, "geometry": {"type": "Point", "coordinates": [375135.0, 756045.0]}}, {"type": "Feature", "properties": {"class_id": 2, "row": 59, "col": 30, "class_name": "vegetation", "class_label": "Vegetation / tree cover"}, "geometry": {"type": "Point", "coordinates": [374745.0, 755775.0]}}, {"type": "Feature", "properties": {"class_id": 2, "row": 45, "col": 56, "class_name": "vegetation", "class_label": "Vegetation / tree cover"}, "geometry": {"type": "Point", "coordinates": [375525.0, 756195.0]}}, {"type": "Feature", "properties": {"class_id": 2, "row": 96, "col": 20, "class_name": "vegetation", "class_label": "Vegetation / tree cover"}, "geometry": {"type": "Point", "coordinates": [374445.0, 754665.0]}}, {"type": "Feature", "properties": {"class_id": 2, "row": 85, "col": 44, "class_name": "vegetation", "class_label": "Vegetation / tree cover"}, "geometry": {"type": "Point", "coordinates": [375165.0, 754995.0]}}, {"type": "Feature", "properties": {"class_id": 2, "row": 30, "col": 64, "class_name": "vegetation", "class_label": "Vegetation / tree cover"}, "geometry": {"type": "Point", "coordinates": [375765.0, 756645.0]}}, {"type": "Feature", "properties": {"class_id": 2, "row": 84, "col": 16, "class_name": "vegetation", "class_label": "Vegetation / tree cover"}, "geometry": {"type": "Point", "coordinates": [374325.0, 755025.0]}}, {"type": "Feature", "properties": {"class_id": 2, "row": 91, "col": 19, "class_name": "vegetation", "class_label": "Vegetation / tree cover"}, "geometry": {"type": "Point", "coordinates": [374415.0, 754815.0]}}, {"type": "Feature", "properties": {"class_id": 2, "row": 100, "col": 34, "class_name": "vegetation", "class_label": "Vegetation / tree cover"}, "geometry": {"type": "Point", "coordinates": [374865.0, 754545.0]}}, {"type": "Feature", "properties": {"class_id": 2, "row": 59, "col": 31, "class_name": "vegetation", "class_label": "Vegetation / tree cover"}, "geometry": {"type": "Point", "coordinates": [374775.0, 755775.0]}}, {"type": "Feature", "properties": {"class_id": 2, "row": 79, "col": 16, "class_name": "vegetation", "class_label": "Vegetation / tree cover"}, "geometry": {"type": "Point", "coordinates": [374325.0, 755175.0]}}, {"type": "Feature", "properties": {"class_id": 2, "row": 37, "col": 19, "class_name": "vegetation", "class_label": "Vegetation / tree cover"}, "geometry": {"type": "Point", "coordinates": [374415.0, 756435.0]}}, {"type": "Feature", "properties": {"class_id": 2, "row": 26, "col": 34, "class_name": "vegetation", "class_label": "Vegetation / tree cover"}, "geometry": {"type": "Point", "coordinates": [374865.0, 756765.0]}}, {"type": "Feature", "properties": {"class_id": 2, "row": 86, "col": 52, "class_name": "vegetation", "class_label": "Vegetation / tree cover"}, "geometry": {"type": "Point", "coordinates": [375405.0, 754965.0]}}, {"type": "Feature", "properties": {"class_id": 2, "row": 83, "col": 31, "class_name": "vegetation", "class_label": "Vegetation / tree cover"}, "geometry": {"type": "Point", "coordinates": [374775.0, 755055.0]}}, {"type": "Feature", "properties": {"class_id": 2, "row": 45, "col": 27, "class_name": "vegetation", "class_label": "Vegetation / tree cover"}, "geometry": {"type": "Point", "coordinates": [374655.0, 756195.0]}}, {"type": "Feature", "properties": {"class_id": 2, "row": 68, "col": 50, "class_name": "vegetation", "class_label": "Vegetation / tree cover"}, "geometry": {"type": "Point", "coordinates": [375345.0, 755505.0]}}, {"type": "Feature", "properties": {"class_id": 2, "row": 21, "col": 23, "class_name": "vegetation", "class_label": "Vegetation / tree cover"}, "geometry": {"type": "Point", "coordinates": [374535.0, 756915.0]}}, {"type": "Feature", "properties": {"class_id": 2, "row": 73, "col": 23, "class_name": "vegetation", "class_label": "Vegetation / tree cover"}, "geometry": {"type": "Point", "coordinates": [374535.0, 755355.0]}}, {"type": "Feature", "properties": {"class_id": 2, "row": 42, "col": 19, "class_name": "vegetation", "class_label": "Vegetation / tree cover"}, "geometry": {"type": "Point", "coordinates": [374415.0, 756285.0]}}, {"type": "Feature", "properties": {"class_id": 2, "row": 92, "col": 32, "class_name": "vegetation", "class_label": "Vegetation / tree cover"}, "geometry": {"type": "Point", "coordinates": [374805.0, 754785.0]}}, {"type": "Feature", "properties": {"class_id": 2, "row": 60, "col": 48, "class_name": "vegetation", "class_label": "Vegetation / tree cover"}, "geometry": {"type": "Point", "coordinates": [375285.0, 755745.0]}}, {"type": "Feature", "properties": {"class_id": 2, "row": 77, "col": 52, "class_name": "vegetation", "class_label": "Vegetation / tree cover"}, "geometry": {"type": "Point", "coordinates": [375405.0, 755235.0]}}, {"type": "Feature", "properties": {"class_id": 2, "row": 33, "col": 64, "class_name": "vegetation", "class_label": "Vegetation / tree cover"}, "geometry": {"type": "Point", "coordinates": [375765.0, 756555.0]}}, {"type": "Feature", "properties": {"class_id": 2, "row": 69, "col": 45, "class_name": "vegetation", "class_label": "Vegetation / tree cover"}, "geometry": {"type": "Point", "coordinates": [375195.0, 755475.0]}}, {"type": "Feature", "properties": {"class_id": 2, "row": 84, "col": 26, "class_name": "vegetation", "class_label": "Vegetation / tree cover"}, "geometry": {"type": "Point", "coordinates": [374625.0, 755025.0]}}, {"type": "Feature", "properties": {"class_id": 2, "row": 74, "col": 18, "class_name": "vegetation", "class_label": "Vegetation / tree cover"}, "geometry": {"type": "Point", "coordinates": [374385.0, 755325.0]}}, {"type": "Feature", "properties": {"class_id": 2, "row": 112, "col": 39, "class_name": "vegetation", "class_label": "Vegetation / tree cover"}, "geometry": {"type": "Point", "coordinates": [375015.0, 754185.0]}}, {"type": "Feature", "properties": {"class_id": 2, "row": 75, "col": 18, "class_name": "vegetation", "class_label": "Vegetation / tree cover"}, "geometry": {"type": "Point", "coordinates": [374385.0, 755295.0]}}, {"type": "Feature", "properties": {"class_id": 2, "row": 80, "col": 48, "class_name": "vegetation", "class_label": "Vegetation / tree cover"}, "geometry": {"type": "Point", "coordinates": [375285.0, 755145.0]}}, {"type": "Feature", "properties": {"class_id": 2, "row": 50, "col": 23, "class_name": "vegetation", "class_label": "Vegetation / tree cover"}, "geometry": {"type": "Point", "coordinates": [374535.0, 756045.0]}}, {"type": "Feature", "properties": {"class_id": 2, "row": 100, "col": 24, "class_name": "vegetation", "class_label": "Vegetation / tree cover"}, "geometry": {"type": "Point", "coordinates": [374565.0, 754545.0]}}, {"type": "Feature", "properties": {"class_id": 2, "row": 69, "col": 46, "class_name": "vegetation", "class_label": "Vegetation / tree cover"}, "geometry": {"type": "Point", "coordinates": [375225.0, 755475.0]}}, {"type": "Feature", "properties": {"class_id": 2, "row": 58, "col": 38, "class_name": "vegetation", "class_label": "Vegetation / tree cover"}, "geometry": {"type": "Point", "coordinates": [374985.0, 755805.0]}}, {"type": "Feature", "properties": {"class_id": 2, "row": 91, "col": 31, "class_name": "vegetation", "class_label": "Vegetation / tree cover"}, "geometry": {"type": "Point", "coordinates": [374775.0, 754815.0]}}, {"type": "Feature", "properties": {"class_id": 2, "row": 83, "col": 39, "class_name": "vegetation", "class_label": "Vegetation / tree cover"}, "geometry": {"type": "Point", "coordinates": [375015.0, 755055.0]}}, {"type": "Feature", "properties": {"class_id": 2, "row": 88, "col": 47, "class_name": "vegetation", "class_label": "Vegetation / tree cover"}, "geometry": {"type": "Point", "coordinates": [375255.0, 754905.0]}}, {"type": "Feature", "properties": {"class_id": 2, "row": 40, "col": 49, "class_name": "vegetation", "class_label": "Vegetation / tree cover"}, "geometry": {"type": "Point", "coordinates": [375315.0, 756345.0]}}, {"type": "Feature", "properties": {"class_id": 2, "row": 73, "col": 25, "class_name": "vegetation", "class_label": "Vegetation / tree cover"}, "geometry": {"type": "Point", "coordinates": [374595.0, 755355.0]}}, {"type": "Feature", "properties": {"class_id": 2, "row": 101, "col": 34, "class_name": "vegetation", "class_label": "Vegetation / tree cover"}, "geometry": {"type": "Point", "coordinates": [374865.0, 754515.0]}}, {"type": "Feature", "properties": {"class_id": 2, "row": 34, "col": 19, "class_name": "vegetation", "class_label": "Vegetation / tree cover"}, "geometry": {"type": "Point", "coordinates": [374415.0, 756525.0]}}, {"type": "Feature", "properties": {"class_id": 2, "row": 42, "col": 63, "class_name": "vegetation", "class_label": "Vegetation / tree cover"}, "geometry": {"type": "Point", "coordinates": [375735.0, 756285.0]}}, {"type": "Feature", "properties": {"class_id": 2, "row": 107, "col": 23, "class_name": "vegetation", "class_label": "Vegetation / tree cover"}, "geometry": {"type": "Point", "coordinates": [374535.0, 754335.0]}}, {"type": "Feature", "properties": {"class_id": 2, "row": 90, "col": 33, "class_name": "vegetation", "class_label": "Vegetation / tree cover"}, "geometry": {"type": "Point", "coordinates": [374835.0, 754845.0]}}, {"type": "Feature", "properties": {"class_id": 2, "row": 44, "col": 47, "class_name": "vegetation", "class_label": "Vegetation / tree cover"}, "geometry": {"type": "Point", "coordinates": [375255.0, 756225.0]}}, {"type": "Feature", "properties": {"class_id": 2, "row": 88, "col": 21, "class_name": "vegetation", "class_label": "Vegetation / tree cover"}, "geometry": {"type": "Point", "coordinates": [374475.0, 754905.0]}}, {"type": "Feature", "properties": {"class_id": 2, "row": 78, "col": 22, "class_name": "vegetation", "class_label": "Vegetation / tree cover"}, "geometry": {"type": "Point", "coordinates": [374505.0, 755205.0]}}, {"type": "Feature", "properties": {"class_id": 2, "row": 61, "col": 47, "class_name": "vegetation", "class_label": "Vegetation / tree cover"}, "geometry": {"type": "Point", "coordinates": [375255.0, 755715.0]}}, {"type": "Feature", "properties": {"class_id": 2, "row": 50, "col": 54, "class_name": "vegetation", "class_label": "Vegetation / tree cover"}, "geometry": {"type": "Point", "coordinates": [375465.0, 756045.0]}}, {"type": "Feature", "properties": {"class_id": 2, "row": 27, "col": 49, "class_name": "vegetation", "class_label": "Vegetation / tree cover"}, "geometry": {"type": "Point", "coordinates": [375315.0, 756735.0]}}, {"type": "Feature", "properties": {"class_id": 2, "row": 31, "col": 63, "class_name": "vegetation", "class_label": "Vegetation / tree cover"}, "geometry": {"type": "Point", "coordinates": [375735.0, 756615.0]}}, {"type": "Feature", "properties": {"class_id": 2, "row": 68, "col": 35, "class_name": "vegetation", "class_label": "Vegetation / tree cover"}, "geometry": {"type": "Point", "coordinates": [374895.0, 755505.0]}}, {"type": "Feature", "properties": {"class_id": 2, "row": 79, "col": 39, "class_name": "vegetation", "class_label": "Vegetation / tree cover"}, "geometry": {"type": "Point", "coordinates": [375015.0, 755175.0]}}, {"type": "Feature", "properties": {"class_id": 2, "row": 28, "col": 59, "class_name": "vegetation", "class_label": "Vegetation / tree cover"}, "geometry": {"type": "Point", "coordinates": [375615.0, 756705.0]}}, {"type": "Feature", "properties": {"class_id": 2, "row": 43, "col": 59, "class_name": "vegetation", "class_label": "Vegetation / tree cover"}, "geometry": {"type": "Point", "coordinates": [375615.0, 756255.0]}}, {"type": "Feature", "properties": {"class_id": 2, "row": 43, "col": 35, "class_name": "vegetation", "class_label": "Vegetation / tree cover"}, "geometry": {"type": "Point", "coordinates": [374895.0, 756255.0]}}, {"type": "Feature", "properties": {"class_id": 2, "row": 57, "col": 27, "class_name": "vegetation", "class_label": "Vegetation / tree cover"}, "geometry": {"type": "Point", "coordinates": [374655.0, 755835.0]}}, {"type": "Feature", "properties": {"class_id": 2, "row": 58, "col": 29, "class_name": "vegetation", "class_label": "Vegetation / tree cover"}, "geometry": {"type": "Point", "coordinates": [374715.0, 755805.0]}}, {"type": "Feature", "properties": {"class_id": 2, "row": 85, "col": 31, "class_name": "vegetation", "class_label": "Vegetation / tree cover"}, "geometry": {"type": "Point", "coordinates": [374775.0, 754995.0]}}, {"type": "Feature", "properties": {"class_id": 2, "row": 87, "col": 51, "class_name": "vegetation", "class_label": "Vegetation / tree cover"}, "geometry": {"type": "Point", "coordinates": [375375.0, 754935.0]}}, {"type": "Feature", "properties": {"class_id": 2, "row": 55, "col": 43, "class_name": "vegetation", "class_label": "Vegetation / tree cover"}, "geometry": {"type": "Point", "coordinates": [375135.0, 755895.0]}}, {"type": "Feature", "properties": {"class_id": 2, "row": 14, "col": 23, "class_name": "vegetation", "class_label": "Vegetation / tree cover"}, "geometry": {"type": "Point", "coordinates": [374535.0, 757125.0]}}, {"type": "Feature", "properties": {"class_id": 2, "row": 86, "col": 50, "class_name": "vegetation", "class_label": "Vegetation / tree cover"}, "geometry": {"type": "Point", "coordinates": [375345.0, 754965.0]}}, {"type": "Feature", "properties": {"class_id": 2, "row": 106, "col": 22, "class_name": "vegetation", "class_label": "Vegetation / tree cover"}, "geometry": {"type": "Point", "coordinates": [374505.0, 754365.0]}}, {"type": "Feature", "properties": {"class_id": 2, "row": 48, "col": 52, "class_name": "vegetation", "class_label": "Vegetation / tree cover"}, "geometry": {"type": "Point", "coordinates": [375405.0, 756105.0]}}, {"type": "Feature", "properties": {"class_id": 2, "row": 106, "col": 30, "class_name": "vegetation", "class_label": "Vegetation / tree cover"}, "geometry": {"type": "Point", "coordinates": [374745.0, 754365.0]}}, {"type": "Feature", "properties": {"class_id": 2, "row": 91, "col": 27, "class_name": "vegetation", "class_label": "Vegetation / tree cover"}, "geometry": {"type": "Point", "coordinates": [374655.0, 754815.0]}}, {"type": "Feature", "properties": {"class_id": 2, "row": 59, "col": 47, "class_name": "vegetation", "class_label": "Vegetation / tree cover"}, "geometry": {"type": "Point", "coordinates": [375255.0, 755775.0]}}, {"type": "Feature", "properties": {"class_id": 2, "row": 36, "col": 41, "class_name": "vegetation", "class_label": "Vegetation / tree cover"}, "geometry": {"type": "Point", "coordinates": [375075.0, 756465.0]}}, {"type": "Feature", "properties": {"class_id": 2, "row": 27, "col": 32, "class_name": "vegetation", "class_label": "Vegetation / tree cover"}, "geometry": {"type": "Point", "coordinates": [374805.0, 756735.0]}}, {"type": "Feature", "properties": {"class_id": 2, "row": 77, "col": 30, "class_name": "vegetation", "class_label": "Vegetation / tree cover"}, "geometry": {"type": "Point", "coordinates": [374745.0, 755235.0]}}, {"type": "Feature", "properties": {"class_id": 2, "row": 116, "col": 30, "class_name": "vegetation", "class_label": "Vegetation / tree cover"}, "geometry": {"type": "Point", "coordinates": [374745.0, 754065.0]}}, {"type": "Feature", "properties": {"class_id": 2, "row": 97, "col": 33, "class_name": "vegetation", "class_label": "Vegetation / tree cover"}, "geometry": {"type": "Point", "coordinates": [374835.0, 754635.0]}}, {"type": "Feature", "properties": {"class_id": 2, "row": 77, "col": 42, "class_name": "vegetation", "class_label": "Vegetation / tree cover"}, "geometry": {"type": "Point", "coordinates": [375105.0, 755235.0]}}, {"type": "Feature", "properties": {"class_id": 2, "row": 82, "col": 19, "class_name": "vegetation", "class_label": "Vegetation / tree cover"}, "geometry": {"type": "Point", "coordinates": [374415.0, 755085.0]}}, {"type": "Feature", "properties": {"class_id": 2, "row": 119, "col": 26, "class_name": "vegetation", "class_label": "Vegetation / tree cover"}, "geometry": {"type": "Point", "coordinates": [374625.0, 753975.0]}}, {"type": "Feature", "properties": {"class_id": 2, "row": 97, "col": 19, "class_name": "vegetation", "class_label": "Vegetation / tree cover"}, "geometry": {"type": "Point", "coordinates": [374415.0, 754635.0]}}, {"type": "Feature", "properties": {"class_id": 2, "row": 92, "col": 23, "class_name": "vegetation", "class_label": "Vegetation / tree cover"}, "geometry": {"type": "Point", "coordinates": [374535.0, 754785.0]}}, {"type": "Feature", "properties": {"class_id": 2, "row": 32, "col": 53, "class_name": "vegetation", "class_label": "Vegetation / tree cover"}, "geometry": {"type": "Point", "coordinates": [375435.0, 756585.0]}}, {"type": "Feature", "properties": {"class_id": 2, "row": 77, "col": 28, "class_name": "vegetation", "class_label": "Vegetation / tree cover"}, "geometry": {"type": "Point", "coordinates": [374685.0, 755235.0]}}, {"type": "Feature", "properties": {"class_id": 2, "row": 68, "col": 36, "class_name": "vegetation", "class_label": "Vegetation / tree cover"}, "geometry": {"type": "Point", "coordinates": [374925.0, 755505.0]}}, {"type": "Feature", "properties": {"class_id": 2, "row": 29, "col": 40, "class_name": "vegetation", "class_label": "Vegetation / tree cover"}, "geometry": {"type": "Point", "coordinates": [375045.0, 756675.0]}}, {"type": "Feature", "properties": {"class_id": 1, "row": 46, "col": 17, "class_name": "built_up", "class_label": "Built-up / impervious"}, "geometry": {"type": "Point", "coordinates": [374355.0, 756165.0]}}, {"type": "Feature", "properties": {"class_id": 1, "row": 42, "col": 52, "class_name": "built_up", "class_label": "Built-up / impervious"}, "geometry": {"type": "Point", "coordinates": [375405.0, 756285.0]}}, {"type": "Feature", "properties": {"class_id": 1, "row": 16, "col": 42, "class_name": "built_up", "class_label": "Built-up / impervious"}, "geometry": {"type": "Point", "coordinates": [375105.0, 757065.0]}}, {"type": "Feature", "properties": {"class_id": 1, "row": 18, "col": 15, "class_name": "built_up", "class_label": "Built-up / impervious"}, "geometry": {"type": "Point", "coordinates": [374295.0, 757005.0]}}, {"type": "Feature", "properties": {"class_id": 1, "row": 76, "col": 13, "class_name": "built_up", "class_label": "Built-up / impervious"}, "geometry": {"type": "Point", "coordinates": [374235.0, 755265.0]}}, {"type": "Feature", "properties": {"class_id": 1, "row": 115, "col": 29, "class_name": "built_up", "class_label": "Built-up / impervious"}, "geometry": {"type": "Point", "coordinates": [374715.0, 754095.0]}}, {"type": "Feature", "properties": {"class_id": 1, "row": 12, "col": 14, "class_name": "built_up", "class_label": "Built-up / impervious"}, "geometry": {"type": "Point", "coordinates": [374265.0, 757185.0]}}, {"type": "Feature", "properties": {"class_id": 1, "row": 20, "col": 15, "class_name": "built_up", "class_label": "Built-up / impervious"}, "geometry": {"type": "Point", "coordinates": [374295.0, 756945.0]}}, {"type": "Feature", "properties": {"class_id": 1, "row": 28, "col": 24, "class_name": "built_up", "class_label": "Built-up / impervious"}, "geometry": {"type": "Point", "coordinates": [374565.0, 756705.0]}}, {"type": "Feature", "properties": {"class_id": 1, "row": 72, "col": 13, "class_name": "built_up", "class_label": "Built-up / impervious"}, "geometry": {"type": "Point", "coordinates": [374235.0, 755385.0]}}, {"type": "Feature", "properties": {"class_id": 1, "row": 82, "col": 49, "class_name": "built_up", "class_label": "Built-up / impervious"}, "geometry": {"type": "Point", "coordinates": [375315.0, 755085.0]}}, {"type": "Feature", "properties": {"class_id": 1, "row": 23, "col": 18, "class_name": "built_up", "class_label": "Built-up / impervious"}, "geometry": {"type": "Point", "coordinates": [374385.0, 756855.0]}}, {"type": "Feature", "properties": {"class_id": 1, "row": 25, "col": 16, "class_name": "built_up", "class_label": "Built-up / impervious"}, "geometry": {"type": "Point", "coordinates": [374325.0, 756795.0]}}, {"type": "Feature", "properties": {"class_id": 1, "row": 40, "col": 36, "class_name": "built_up", "class_label": "Built-up / impervious"}, "geometry": {"type": "Point", "coordinates": [374925.0, 756345.0]}}, {"type": "Feature", "properties": {"class_id": 1, "row": 23, "col": 15, "class_name": "built_up", "class_label": "Built-up / impervious"}, "geometry": {"type": "Point", "coordinates": [374295.0, 756855.0]}}, {"type": "Feature", "properties": {"class_id": 1, "row": 17, "col": 15, "class_name": "built_up", "class_label": "Built-up / impervious"}, "geometry": {"type": "Point", "coordinates": [374295.0, 757035.0]}}, {"type": "Feature", "properties": {"class_id": 1, "row": 75, "col": 13, "class_name": "built_up", "class_label": "Built-up / impervious"}, "geometry": {"type": "Point", "coordinates": [374235.0, 755295.0]}}, {"type": "Feature", "properties": {"class_id": 1, "row": 78, "col": 14, "class_name": "built_up", "class_label": "Built-up / impervious"}, "geometry": {"type": "Point", "coordinates": [374265.0, 755205.0]}}, {"type": "Feature", "properties": {"class_id": 1, "row": 22, "col": 28, "class_name": "built_up", "class_label": "Built-up / impervious"}, "geometry": {"type": "Point", "coordinates": [374685.0, 756885.0]}}, {"type": "Feature", "properties": {"class_id": 1, "row": 55, "col": 32, "class_name": "built_up", "class_label": "Built-up / impervious"}, "geometry": {"type": "Point", "coordinates": [374805.0, 755895.0]}}, {"type": "Feature", "properties": {"class_id": 1, "row": 31, "col": 14, "class_name": "built_up", "class_label": "Built-up / impervious"}, "geometry": {"type": "Point", "coordinates": [374265.0, 756615.0]}}, {"type": "Feature", "properties": {"class_id": 1, "row": 66, "col": 31, "class_name": "built_up", "class_label": "Built-up / impervious"}, "geometry": {"type": "Point", "coordinates": [374775.0, 755565.0]}}, {"type": "Feature", "properties": {"class_id": 1, "row": 32, "col": 29, "class_name": "built_up", "class_label": "Built-up / impervious"}, "geometry": {"type": "Point", "coordinates": [374715.0, 756585.0]}}, {"type": "Feature", "properties": {"class_id": 1, "row": 33, "col": 30, "class_name": "built_up", "class_label": "Built-up / impervious"}, "geometry": {"type": "Point", "coordinates": [374745.0, 756555.0]}}, {"type": "Feature", "properties": {"class_id": 1, "row": 56, "col": 37, "class_name": "built_up", "class_label": "Built-up / impervious"}, "geometry": {"type": "Point", "coordinates": [374955.0, 755865.0]}}, {"type": "Feature", "properties": {"class_id": 1, "row": 96, "col": 17, "class_name": "built_up", "class_label": "Built-up / impervious"}, "geometry": {"type": "Point", "coordinates": [374355.0, 754665.0]}}, {"type": "Feature", "properties": {"class_id": 1, "row": 32, "col": 15, "class_name": "built_up", "class_label": "Built-up / impervious"}, "geometry": {"type": "Point", "coordinates": [374295.0, 756585.0]}}, {"type": "Feature", "properties": {"class_id": 1, "row": 76, "col": 14, "class_name": "built_up", "class_label": "Built-up / impervious"}, "geometry": {"type": "Point", "coordinates": [374265.0, 755265.0]}}, {"type": "Feature", "properties": {"class_id": 1, "row": 97, "col": 36, "class_name": "built_up", "class_label": "Built-up / impervious"}, "geometry": {"type": "Point", "coordinates": [374925.0, 754635.0]}}, {"type": "Feature", "properties": {"class_id": 1, "row": 22, "col": 15, "class_name": "built_up", "class_label": "Built-up / impervious"}, "geometry": {"type": "Point", "coordinates": [374295.0, 756885.0]}}, {"type": "Feature", "properties": {"class_id": 1, "row": 36, "col": 38, "class_name": "built_up", "class_label": "Built-up / impervious"}, "geometry": {"type": "Point", "coordinates": [374985.0, 756465.0]}}, {"type": "Feature", "properties": {"class_id": 1, "row": 11, "col": 27, "class_name": "built_up", "class_label": "Built-up / impervious"}, "geometry": {"type": "Point", "coordinates": [374655.0, 757215.0]}}, {"type": "Feature", "properties": {"class_id": 1, "row": 40, "col": 16, "class_name": "built_up", "class_label": "Built-up / impervious"}, "geometry": {"type": "Point", "coordinates": [374325.0, 756345.0]}}, {"type": "Feature", "properties": {"class_id": 1, "row": 27, "col": 21, "class_name": "built_up", "class_label": "Built-up / impervious"}, "geometry": {"type": "Point", "coordinates": [374475.0, 756735.0]}}, {"type": "Feature", "properties": {"class_id": 1, "row": 78, "col": 34, "class_name": "built_up", "class_label": "Built-up / impervious"}, "geometry": {"type": "Point", "coordinates": [374865.0, 755205.0]}}, {"type": "Feature", "properties": {"class_id": 1, "row": 16, "col": 43, "class_name": "built_up", "class_label": "Built-up / impervious"}, "geometry": {"type": "Point", "coordinates": [375135.0, 757065.0]}}, {"type": "Feature", "properties": {"class_id": 1, "row": 42, "col": 32, "class_name": "built_up", "class_label": "Built-up / impervious"}, "geometry": {"type": "Point", "coordinates": [374805.0, 756285.0]}}, {"type": "Feature", "properties": {"class_id": 1, "row": 81, "col": 22, "class_name": "built_up", "class_label": "Built-up / impervious"}, "geometry": {"type": "Point", "coordinates": [374505.0, 755115.0]}}, {"type": "Feature", "properties": {"class_id": 1, "row": 64, "col": 33, "class_name": "built_up", "class_label": "Built-up / impervious"}, "geometry": {"type": "Point", "coordinates": [374835.0, 755625.0]}}, {"type": "Feature", "properties": {"class_id": 1, "row": 21, "col": 28, "class_name": "built_up", "class_label": "Built-up / impervious"}, "geometry": {"type": "Point", "coordinates": [374685.0, 756915.0]}}, {"type": "Feature", "properties": {"class_id": 1, "row": 107, "col": 20, "class_name": "built_up", "class_label": "Built-up / impervious"}, "geometry": {"type": "Point", "coordinates": [374445.0, 754335.0]}}, {"type": "Feature", "properties": {"class_id": 1, "row": 25, "col": 30, "class_name": "built_up", "class_label": "Built-up / impervious"}, "geometry": {"type": "Point", "coordinates": [374745.0, 756795.0]}}, {"type": "Feature", "properties": {"class_id": 1, "row": 34, "col": 15, "class_name": "built_up", "class_label": "Built-up / impervious"}, "geometry": {"type": "Point", "coordinates": [374295.0, 756525.0]}}, {"type": "Feature", "properties": {"class_id": 1, "row": 71, "col": 13, "class_name": "built_up", "class_label": "Built-up / impervious"}, "geometry": {"type": "Point", "coordinates": [374235.0, 755415.0]}}, {"type": "Feature", "properties": {"class_id": 1, "row": 37, "col": 36, "class_name": "built_up", "class_label": "Built-up / impervious"}, "geometry": {"type": "Point", "coordinates": [374925.0, 756435.0]}}, {"type": "Feature", "properties": {"class_id": 1, "row": 25, "col": 19, "class_name": "built_up", "class_label": "Built-up / impervious"}, "geometry": {"type": "Point", "coordinates": [374415.0, 756795.0]}}, {"type": "Feature", "properties": {"class_id": 1, "row": 72, "col": 32, "class_name": "built_up", "class_label": "Built-up / impervious"}, "geometry": {"type": "Point", "coordinates": [374805.0, 755385.0]}}, {"type": "Feature", "properties": {"class_id": 1, "row": 10, "col": 27, "class_name": "built_up", "class_label": "Built-up / impervious"}, "geometry": {"type": "Point", "coordinates": [374655.0, 757245.0]}}, {"type": "Feature", "properties": {"class_id": 1, "row": 54, "col": 17, "class_name": "built_up", "class_label": "Built-up / impervious"}, "geometry": {"type": "Point", "coordinates": [374355.0, 755925.0]}}, {"type": "Feature", "properties": {"class_id": 1, "row": 24, "col": 16, "class_name": "built_up", "class_label": "Built-up / impervious"}, "geometry": {"type": "Point", "coordinates": [374325.0, 756825.0]}}, {"type": "Feature", "properties": {"class_id": 1, "row": 23, "col": 14, "class_name": "built_up", "class_label": "Built-up / impervious"}, "geometry": {"type": "Point", "coordinates": [374265.0, 756855.0]}}, {"type": "Feature", "properties": {"class_id": 1, "row": 82, "col": 50, "class_name": "built_up", "class_label": "Built-up / impervious"}, "geometry": {"type": "Point", "coordinates": [375345.0, 755085.0]}}, {"type": "Feature", "properties": {"class_id": 1, "row": 42, "col": 33, "class_name": "built_up", "class_label": "Built-up / impervious"}, "geometry": {"type": "Point", "coordinates": [374835.0, 756285.0]}}, {"type": "Feature", "properties": {"class_id": 1, "row": 20, "col": 17, "class_name": "built_up", "class_label": "Built-up / impervious"}, "geometry": {"type": "Point", "coordinates": [374355.0, 756945.0]}}, {"type": "Feature", "properties": {"class_id": 1, "row": 93, "col": 36, "class_name": "built_up", "class_label": "Built-up / impervious"}, "geometry": {"type": "Point", "coordinates": [374925.0, 754755.0]}}, {"type": "Feature", "properties": {"class_id": 1, "row": 27, "col": 20, "class_name": "built_up", "class_label": "Built-up / impervious"}, "geometry": {"type": "Point", "coordinates": [374445.0, 756735.0]}}, {"type": "Feature", "properties": {"class_id": 1, "row": 28, "col": 23, "class_name": "built_up", "class_label": "Built-up / impervious"}, "geometry": {"type": "Point", "coordinates": [374535.0, 756705.0]}}, {"type": "Feature", "properties": {"class_id": 1, "row": 77, "col": 14, "class_name": "built_up", "class_label": "Built-up / impervious"}, "geometry": {"type": "Point", "coordinates": [374265.0, 755235.0]}}, {"type": "Feature", "properties": {"class_id": 1, "row": 24, "col": 28, "class_name": "built_up", "class_label": "Built-up / impervious"}, "geometry": {"type": "Point", "coordinates": [374685.0, 756825.0]}}, {"type": "Feature", "properties": {"class_id": 1, "row": 63, "col": 34, "class_name": "built_up", "class_label": "Built-up / impervious"}, "geometry": {"type": "Point", "coordinates": [374865.0, 755655.0]}}, {"type": "Feature", "properties": {"class_id": 1, "row": 56, "col": 31, "class_name": "built_up", "class_label": "Built-up / impervious"}, "geometry": {"type": "Point", "coordinates": [374775.0, 755865.0]}}, {"type": "Feature", "properties": {"class_id": 1, "row": 37, "col": 32, "class_name": "built_up", "class_label": "Built-up / impervious"}, "geometry": {"type": "Point", "coordinates": [374805.0, 756435.0]}}, {"type": "Feature", "properties": {"class_id": 1, "row": 81, "col": 21, "class_name": "built_up", "class_label": "Built-up / impervious"}, "geometry": {"type": "Point", "coordinates": [374475.0, 755115.0]}}, {"type": "Feature", "properties": {"class_id": 1, "row": 22, "col": 19, "class_name": "built_up", "class_label": "Built-up / impervious"}, "geometry": {"type": "Point", "coordinates": [374415.0, 756885.0]}}, {"type": "Feature", "properties": {"class_id": 1, "row": 23, "col": 48, "class_name": "built_up", "class_label": "Built-up / impervious"}, "geometry": {"type": "Point", "coordinates": [375285.0, 756855.0]}}, {"type": "Feature", "properties": {"class_id": 1, "row": 17, "col": 35, "class_name": "built_up", "class_label": "Built-up / impervious"}, "geometry": {"type": "Point", "coordinates": [374895.0, 757035.0]}}, {"type": "Feature", "properties": {"class_id": 1, "row": 23, "col": 24, "class_name": "built_up", "class_label": "Built-up / impervious"}, "geometry": {"type": "Point", "coordinates": [374565.0, 756855.0]}}, {"type": "Feature", "properties": {"class_id": 1, "row": 66, "col": 32, "class_name": "built_up", "class_label": "Built-up / impervious"}, "geometry": {"type": "Point", "coordinates": [374805.0, 755565.0]}}, {"type": "Feature", "properties": {"class_id": 1, "row": 106, "col": 19, "class_name": "built_up", "class_label": "Built-up / impervious"}, "geometry": {"type": "Point", "coordinates": [374415.0, 754365.0]}}, {"type": "Feature", "properties": {"class_id": 1, "row": 13, "col": 17, "class_name": "built_up", "class_label": "Built-up / impervious"}, "geometry": {"type": "Point", "coordinates": [374355.0, 757155.0]}}, {"type": "Feature", "properties": {"class_id": 1, "row": 38, "col": 36, "class_name": "built_up", "class_label": "Built-up / impervious"}, "geometry": {"type": "Point", "coordinates": [374925.0, 756405.0]}}, {"type": "Feature", "properties": {"class_id": 1, "row": 32, "col": 30, "class_name": "built_up", "class_label": "Built-up / impervious"}, "geometry": {"type": "Point", "coordinates": [374745.0, 756585.0]}}, {"type": "Feature", "properties": {"class_id": 1, "row": 31, "col": 15, "class_name": "built_up", "class_label": "Built-up / impervious"}, "geometry": {"type": "Point", "coordinates": [374295.0, 756615.0]}}, {"type": "Feature", "properties": {"class_id": 1, "row": 10, "col": 28, "class_name": "built_up", "class_label": "Built-up / impervious"}, "geometry": {"type": "Point", "coordinates": [374685.0, 757245.0]}}, {"type": "Feature", "properties": {"class_id": 1, "row": 15, "col": 15, "class_name": "built_up", "class_label": "Built-up / impervious"}, "geometry": {"type": "Point", "coordinates": [374295.0, 757095.0]}}, {"type": "Feature", "properties": {"class_id": 1, "row": 36, "col": 44, "class_name": "built_up", "class_label": "Built-up / impervious"}, "geometry": {"type": "Point", "coordinates": [375165.0, 756465.0]}}, {"type": "Feature", "properties": {"class_id": 1, "row": 48, "col": 47, "class_name": "built_up", "class_label": "Built-up / impervious"}, "geometry": {"type": "Point", "coordinates": [375255.0, 756105.0]}}, {"type": "Feature", "properties": {"class_id": 1, "row": 37, "col": 38, "class_name": "built_up", "class_label": "Built-up / impervious"}, "geometry": {"type": "Point", "coordinates": [374985.0, 756435.0]}}, {"type": "Feature", "properties": {"class_id": 1, "row": 35, "col": 38, "class_name": "built_up", "class_label": "Built-up / impervious"}, "geometry": {"type": "Point", "coordinates": [374985.0, 756495.0]}}, {"type": "Feature", "properties": {"class_id": 1, "row": 28, "col": 30, "class_name": "built_up", "class_label": "Built-up / impervious"}, "geometry": {"type": "Point", "coordinates": [374745.0, 756705.0]}}, {"type": "Feature", "properties": {"class_id": 1, "row": 27, "col": 24, "class_name": "built_up", "class_label": "Built-up / impervious"}, "geometry": {"type": "Point", "coordinates": [374565.0, 756735.0]}}, {"type": "Feature", "properties": {"class_id": 1, "row": 19, "col": 15, "class_name": "built_up", "class_label": "Built-up / impervious"}, "geometry": {"type": "Point", "coordinates": [374295.0, 756975.0]}}, {"type": "Feature", "properties": {"class_id": 1, "row": 22, "col": 17, "class_name": "built_up", "class_label": "Built-up / impervious"}, "geometry": {"type": "Point", "coordinates": [374355.0, 756885.0]}}, {"type": "Feature", "properties": {"class_id": 1, "row": 58, "col": 32, "class_name": "built_up", "class_label": "Built-up / impervious"}, "geometry": {"type": "Point", "coordinates": [374805.0, 755805.0]}}, {"type": "Feature", "properties": {"class_id": 1, "row": 27, "col": 31, "class_name": "built_up", "class_label": "Built-up / impervious"}, "geometry": {"type": "Point", "coordinates": [374775.0, 756735.0]}}, {"type": "Feature", "properties": {"class_id": 1, "row": 76, "col": 33, "class_name": "built_up", "class_label": "Built-up / impervious"}, "geometry": {"type": "Point", "coordinates": [374835.0, 755265.0]}}, {"type": "Feature", "properties": {"class_id": 1, "row": 20, "col": 28, "class_name": "built_up", "class_label": "Built-up / impervious"}, "geometry": {"type": "Point", "coordinates": [374685.0, 756945.0]}}, {"type": "Feature", "properties": {"class_id": 1, "row": 17, "col": 14, "class_name": "built_up", "class_label": "Built-up / impervious"}, "geometry": {"type": "Point", "coordinates": [374265.0, 757035.0]}}, {"type": "Feature", "properties": {"class_id": 1, "row": 42, "col": 16, "class_name": "built_up", "class_label": "Built-up / impervious"}, "geometry": {"type": "Point", "coordinates": [374325.0, 756285.0]}}, {"type": "Feature", "properties": {"class_id": 1, "row": 75, "col": 14, "class_name": "built_up", "class_label": "Built-up / impervious"}, "geometry": {"type": "Point", "coordinates": [374265.0, 755295.0]}}, {"type": "Feature", "properties": {"class_id": 1, "row": 45, "col": 16, "class_name": "built_up", "class_label": "Built-up / impervious"}, "geometry": {"type": "Point", "coordinates": [374325.0, 756195.0]}}, {"type": "Feature", "properties": {"class_id": 1, "row": 75, "col": 33, "class_name": "built_up", "class_label": "Built-up / impervious"}, "geometry": {"type": "Point", "coordinates": [374835.0, 755295.0]}}, {"type": "Feature", "properties": {"class_id": 1, "row": 57, "col": 17, "class_name": "built_up", "class_label": "Built-up / impervious"}, "geometry": {"type": "Point", "coordinates": [374355.0, 755835.0]}}, {"type": "Feature", "properties": {"class_id": 1, "row": 25, "col": 15, "class_name": "built_up", "class_label": "Built-up / impervious"}, "geometry": {"type": "Point", "coordinates": [374295.0, 756795.0]}}, {"type": "Feature", "properties": {"class_id": 1, "row": 29, "col": 34, "class_name": "built_up", "class_label": "Built-up / impervious"}, "geometry": {"type": "Point", "coordinates": [374865.0, 756675.0]}}, {"type": "Feature", "properties": {"class_id": 1, "row": 27, "col": 16, "class_name": "built_up", "class_label": "Built-up / impervious"}, "geometry": {"type": "Point", "coordinates": [374325.0, 756735.0]}}, {"type": "Feature", "properties": {"class_id": 1, "row": 26, "col": 40, "class_name": "built_up", "class_label": "Built-up / impervious"}, "geometry": {"type": "Point", "coordinates": [375045.0, 756765.0]}}, {"type": "Feature", "properties": {"class_id": 1, "row": 78, "col": 42, "class_name": "built_up", "class_label": "Built-up / impervious"}, "geometry": {"type": "Point", "coordinates": [375105.0, 755205.0]}}, {"type": "Feature", "properties": {"class_id": 1, "row": 66, "col": 34, "class_name": "built_up", "class_label": "Built-up / impervious"}, "geometry": {"type": "Point", "coordinates": [374865.0, 755565.0]}}, {"type": "Feature", "properties": {"class_id": 1, "row": 18, "col": 14, "class_name": "built_up", "class_label": "Built-up / impervious"}, "geometry": {"type": "Point", "coordinates": [374265.0, 757005.0]}}, {"type": "Feature", "properties": {"class_id": 1, "row": 51, "col": 34, "class_name": "built_up", "class_label": "Built-up / impervious"}, "geometry": {"type": "Point", "coordinates": [374865.0, 756015.0]}}, {"type": "Feature", "properties": {"class_id": 1, "row": 52, "col": 34, "class_name": "built_up", "class_label": "Built-up / impervious"}, "geometry": {"type": "Point", "coordinates": [374865.0, 755985.0]}}, {"type": "Feature", "properties": {"class_id": 1, "row": 48, "col": 46, "class_name": "built_up", "class_label": "Built-up / impervious"}, "geometry": {"type": "Point", "coordinates": [375225.0, 756105.0]}}, {"type": "Feature", "properties": {"class_id": 1, "row": 26, "col": 14, "class_name": "built_up", "class_label": "Built-up / impervious"}, "geometry": {"type": "Point", "coordinates": [374265.0, 756765.0]}}, {"type": "Feature", "properties": {"class_id": 1, "row": 53, "col": 35, "class_name": "built_up", "class_label": "Built-up / impervious"}, "geometry": {"type": "Point", "coordinates": [374895.0, 755955.0]}}, {"type": "Feature", "properties": {"class_id": 1, "row": 31, "col": 60, "class_name": "built_up", "class_label": "Built-up / impervious"}, "geometry": {"type": "Point", "coordinates": [375645.0, 756615.0]}}, {"type": "Feature", "properties": {"class_id": 1, "row": 51, "col": 25, "class_name": "built_up", "class_label": "Built-up / impervious"}, "geometry": {"type": "Point", "coordinates": [374595.0, 756015.0]}}, {"type": "Feature", "properties": {"class_id": 1, "row": 92, "col": 17, "class_name": "built_up", "class_label": "Built-up / impervious"}, "geometry": {"type": "Point", "coordinates": [374355.0, 754785.0]}}, {"type": "Feature", "properties": {"class_id": 1, "row": 13, "col": 14, "class_name": "built_up", "class_label": "Built-up / impervious"}, "geometry": {"type": "Point", "coordinates": [374265.0, 757155.0]}}, {"type": "Feature", "properties": {"class_id": 1, "row": 103, "col": 18, "class_name": "built_up", "class_label": "Built-up / impervious"}, "geometry": {"type": "Point", "coordinates": [374385.0, 754455.0]}}, {"type": "Feature", "properties": {"class_id": 1, "row": 16, "col": 28, "class_name": "built_up", "class_label": "Built-up / impervious"}, "geometry": {"type": "Point", "coordinates": [374685.0, 757065.0]}}, {"type": "Feature", "properties": {"class_id": 1, "row": 70, "col": 46, "class_name": "built_up", "class_label": "Built-up / impervious"}, "geometry": {"type": "Point", "coordinates": [375225.0, 755445.0]}}, {"type": "Feature", "properties": {"class_id": 1, "row": 18, "col": 21, "class_name": "built_up", "class_label": "Built-up / impervious"}, "geometry": {"type": "Point", "coordinates": [374475.0, 757005.0]}}, {"type": "Feature", "properties": {"class_id": 1, "row": 24, "col": 17, "class_name": "built_up", "class_label": "Built-up / impervious"}, "geometry": {"type": "Point", "coordinates": [374355.0, 756825.0]}}, {"type": "Feature", "properties": {"class_id": 1, "row": 17, "col": 34, "class_name": "built_up", "class_label": "Built-up / impervious"}, "geometry": {"type": "Point", "coordinates": [374865.0, 757035.0]}}, {"type": "Feature", "properties": {"class_id": 1, "row": 31, "col": 29, "class_name": "built_up", "class_label": "Built-up / impervious"}, "geometry": {"type": "Point", "coordinates": [374715.0, 756615.0]}}, {"type": "Feature", "properties": {"class_id": 1, "row": 13, "col": 18, "class_name": "built_up", "class_label": "Built-up / impervious"}, "geometry": {"type": "Point", "coordinates": [374385.0, 757155.0]}}, {"type": "Feature", "properties": {"class_id": 1, "row": 61, "col": 33, "class_name": "built_up", "class_label": "Built-up / impervious"}, "geometry": {"type": "Point", "coordinates": [374835.0, 755715.0]}}, {"type": "Feature", "properties": {"class_id": 1, "row": 89, "col": 37, "class_name": "built_up", "class_label": "Built-up / impervious"}, "geometry": {"type": "Point", "coordinates": [374955.0, 754875.0]}}, {"type": "Feature", "properties": {"class_id": 1, "row": 80, "col": 36, "class_name": "built_up", "class_label": "Built-up / impervious"}, "geometry": {"type": "Point", "coordinates": [374925.0, 755145.0]}}, {"type": "Feature", "properties": {"class_id": 5, "row": 72, "col": 12, "class_name": "beach_sand", "class_label": "Beach / sand"}, "geometry": {"type": "Point", "coordinates": [374205.0, 755385.0]}}, {"type": "Feature", "properties": {"class_id": 5, "row": 74, "col": 12, "class_name": "beach_sand", "class_label": "Beach / sand"}, "geometry": {"type": "Point", "coordinates": [374205.0, 755325.0]}}, {"type": "Feature", "properties": {"class_id": 5, "row": 73, "col": 12, "class_name": "beach_sand", "class_label": "Beach / sand"}, "geometry": {"type": "Point", "coordinates": [374205.0, 755355.0]}}, {"type": "Feature", "properties": {"class_id": 5, "row": 71, "col": 12, "class_name": "beach_sand", "class_label": "Beach / sand"}, "geometry": {"type": "Point", "coordinates": [374205.0, 755415.0]}}, {"type": "Feature", "properties": {"class_id": 3, "row": 119, "col": 25, "class_name": "open_bare", "class_label": "Open / bare / sparse vegetation"}, "geometry": {"type": "Point", "coordinates": [374595.0, 753975.0]}}, {"type": "Feature", "properties": {"class_id": 3, "row": 78, "col": 25, "class_name": "open_bare", "class_label": "Open / bare / sparse vegetation"}, "geometry": {"type": "Point", "coordinates": [374595.0, 755205.0]}}, {"type": "Feature", "properties": {"class_id": 3, "row": 24, "col": 40, "class_name": "open_bare", "class_label": "Open / bare / sparse vegetation"}, "geometry": {"type": "Point", "coordinates": [375045.0, 756825.0]}}, {"type": "Feature", "properties": {"class_id": 3, "row": 74, "col": 46, "class_name": "open_bare", "class_label": "Open / bare / sparse vegetation"}, "geometry": {"type": "Point", "coordinates": [375225.0, 755325.0]}}, {"type": "Feature", "properties": {"class_id": 3, "row": 67, "col": 35, "class_name": "open_bare", "class_label": "Open / bare / sparse vegetation"}, "geometry": {"type": "Point", "coordinates": [374895.0, 755535.0]}}, {"type": "Feature", "properties": {"class_id": 3, "row": 38, "col": 50, "class_name": "open_bare", "class_label": "Open / bare / sparse vegetation"}, "geometry": {"type": "Point", "coordinates": [375345.0, 756405.0]}}, {"type": "Feature", "properties": {"class_id": 3, "row": 25, "col": 40, "class_name": "open_bare", "class_label": "Open / bare / sparse vegetation"}, "geometry": {"type": "Point", "coordinates": [375045.0, 756795.0]}}, {"type": "Feature", "properties": {"class_id": 3, "row": 17, "col": 19, "class_name": "open_bare", "class_label": "Open / bare / sparse vegetation"}, "geometry": {"type": "Point", "coordinates": [374415.0, 757035.0]}}, {"type": "Feature", "properties": {"class_id": 3, "row": 51, "col": 24, "class_name": "open_bare", "class_label": "Open / bare / sparse vegetation"}, "geometry": {"type": "Point", "coordinates": [374565.0, 756015.0]}}, {"type": "Feature", "properties": {"class_id": 3, "row": 29, "col": 27, "class_name": "open_bare", "class_label": "Open / bare / sparse vegetation"}, "geometry": {"type": "Point", "coordinates": [374655.0, 756675.0]}}, {"type": "Feature", "properties": {"class_id": 3, "row": 61, "col": 26, "class_name": "open_bare", "class_label": "Open / bare / sparse vegetation"}, "geometry": {"type": "Point", "coordinates": [374625.0, 755715.0]}}, {"type": "Feature", "properties": {"class_id": 3, "row": 40, "col": 30, "class_name": "open_bare", "class_label": "Open / bare / sparse vegetation"}, "geometry": {"type": "Point", "coordinates": [374745.0, 756345.0]}}, {"type": "Feature", "properties": {"class_id": 3, "row": 42, "col": 38, "class_name": "open_bare", "class_label": "Open / bare / sparse vegetation"}, "geometry": {"type": "Point", "coordinates": [374985.0, 756285.0]}}, {"type": "Feature", "properties": {"class_id": 3, "row": 26, "col": 31, "class_name": "open_bare", "class_label": "Open / bare / sparse vegetation"}, "geometry": {"type": "Point", "coordinates": [374775.0, 756765.0]}}, {"type": "Feature", "properties": {"class_id": 3, "row": 25, "col": 31, "class_name": "open_bare", "class_label": "Open / bare / sparse vegetation"}, "geometry": {"type": "Point", "coordinates": [374775.0, 756795.0]}}, {"type": "Feature", "properties": {"class_id": 3, "row": 35, "col": 25, "class_name": "open_bare", "class_label": "Open / bare / sparse vegetation"}, "geometry": {"type": "Point", "coordinates": [374595.0, 756495.0]}}, {"type": "Feature", "properties": {"class_id": 3, "row": 98, "col": 36, "class_name": "open_bare", "class_label": "Open / bare / sparse vegetation"}, "geometry": {"type": "Point", "coordinates": [374925.0, 754605.0]}}, {"type": "Feature", "properties": {"class_id": 3, "row": 79, "col": 46, "class_name": "open_bare", "class_label": "Open / bare / sparse vegetation"}, "geometry": {"type": "Point", "coordinates": [375225.0, 755175.0]}}, {"type": "Feature", "properties": {"class_id": 3, "row": 61, "col": 42, "class_name": "open_bare", "class_label": "Open / bare / sparse vegetation"}, "geometry": {"type": "Point", "coordinates": [375105.0, 755715.0]}}, {"type": "Feature", "properties": {"class_id": 3, "row": 59, "col": 16, "class_name": "open_bare", "class_label": "Open / bare / sparse vegetation"}, "geometry": {"type": "Point", "coordinates": [374325.0, 755775.0]}}, {"type": "Feature", "properties": {"class_id": 3, "row": 40, "col": 18, "class_name": "open_bare", "class_label": "Open / bare / sparse vegetation"}, "geometry": {"type": "Point", "coordinates": [374385.0, 756345.0]}}, {"type": "Feature", "properties": {"class_id": 3, "row": 50, "col": 24, "class_name": "open_bare", "class_label": "Open / bare / sparse vegetation"}, "geometry": {"type": "Point", "coordinates": [374565.0, 756045.0]}}, {"type": "Feature", "properties": {"class_id": 3, "row": 20, "col": 20, "class_name": "open_bare", "class_label": "Open / bare / sparse vegetation"}, "geometry": {"type": "Point", "coordinates": [374445.0, 756945.0]}}, {"type": "Feature", "properties": {"class_id": 3, "row": 92, "col": 37, "class_name": "open_bare", "class_label": "Open / bare / sparse vegetation"}, "geometry": {"type": "Point", "coordinates": [374955.0, 754785.0]}}, {"type": "Feature", "properties": {"class_id": 3, "row": 30, "col": 56, "class_name": "open_bare", "class_label": "Open / bare / sparse vegetation"}, "geometry": {"type": "Point", "coordinates": [375525.0, 756645.0]}}, {"type": "Feature", "properties": {"class_id": 3, "row": 57, "col": 51, "class_name": "open_bare", "class_label": "Open / bare / sparse vegetation"}, "geometry": {"type": "Point", "coordinates": [375375.0, 755835.0]}}, {"type": "Feature", "properties": {"class_id": 3, "row": 35, "col": 41, "class_name": "open_bare", "class_label": "Open / bare / sparse vegetation"}, "geometry": {"type": "Point", "coordinates": [375075.0, 756495.0]}}, {"type": "Feature", "properties": {"class_id": 3, "row": 16, "col": 29, "class_name": "open_bare", "class_label": "Open / bare / sparse vegetation"}, "geometry": {"type": "Point", "coordinates": [374715.0, 757065.0]}}, {"type": "Feature", "properties": {"class_id": 3, "row": 74, "col": 22, "class_name": "open_bare", "class_label": "Open / bare / sparse vegetation"}, "geometry": {"type": "Point", "coordinates": [374505.0, 755325.0]}}, {"type": "Feature", "properties": {"class_id": 3, "row": 24, "col": 23, "class_name": "open_bare", "class_label": "Open / bare / sparse vegetation"}, "geometry": {"type": "Point", "coordinates": [374535.0, 756825.0]}}, {"type": "Feature", "properties": {"class_id": 3, "row": 36, "col": 20, "class_name": "open_bare", "class_label": "Open / bare / sparse vegetation"}, "geometry": {"type": "Point", "coordinates": [374445.0, 756465.0]}}, {"type": "Feature", "properties": {"class_id": 3, "row": 67, "col": 39, "class_name": "open_bare", "class_label": "Open / bare / sparse vegetation"}, "geometry": {"type": "Point", "coordinates": [375015.0, 755535.0]}}, {"type": "Feature", "properties": {"class_id": 3, "row": 116, "col": 27, "class_name": "open_bare", "class_label": "Open / bare / sparse vegetation"}, "geometry": {"type": "Point", "coordinates": [374655.0, 754065.0]}}, {"type": "Feature", "properties": {"class_id": 3, "row": 74, "col": 15, "class_name": "open_bare", "class_label": "Open / bare / sparse vegetation"}, "geometry": {"type": "Point", "coordinates": [374295.0, 755325.0]}}, {"type": "Feature", "properties": {"class_id": 3, "row": 26, "col": 47, "class_name": "open_bare", "class_label": "Open / bare / sparse vegetation"}, "geometry": {"type": "Point", "coordinates": [375255.0, 756765.0]}}, {"type": "Feature", "properties": {"class_id": 3, "row": 46, "col": 45, "class_name": "open_bare", "class_label": "Open / bare / sparse vegetation"}, "geometry": {"type": "Point", "coordinates": [375195.0, 756165.0]}}, {"type": "Feature", "properties": {"class_id": 3, "row": 77, "col": 16, "class_name": "open_bare", "class_label": "Open / bare / sparse vegetation"}, "geometry": {"type": "Point", "coordinates": [374325.0, 755235.0]}}, {"type": "Feature", "properties": {"class_id": 3, "row": 99, "col": 18, "class_name": "open_bare", "class_label": "Open / bare / sparse vegetation"}, "geometry": {"type": "Point", "coordinates": [374385.0, 754575.0]}}, {"type": "Feature", "properties": {"class_id": 3, "row": 30, "col": 33, "class_name": "open_bare", "class_label": "Open / bare / sparse vegetation"}, "geometry": {"type": "Point", "coordinates": [374835.0, 756645.0]}}, {"type": "Feature", "properties": {"class_id": 3, "row": 64, "col": 43, "class_name": "open_bare", "class_label": "Open / bare / sparse vegetation"}, "geometry": {"type": "Point", "coordinates": [375135.0, 755625.0]}}, {"type": "Feature", "properties": {"class_id": 3, "row": 48, "col": 18, "class_name": "open_bare", "class_label": "Open / bare / sparse vegetation"}, "geometry": {"type": "Point", "coordinates": [374385.0, 756105.0]}}, {"type": "Feature", "properties": {"class_id": 3, "row": 39, "col": 16, "class_name": "open_bare", "class_label": "Open / bare / sparse vegetation"}, "geometry": {"type": "Point", "coordinates": [374325.0, 756375.0]}}, {"type": "Feature", "properties": {"class_id": 3, "row": 37, "col": 16, "class_name": "open_bare", "class_label": "Open / bare / sparse vegetation"}, "geometry": {"type": "Point", "coordinates": [374325.0, 756435.0]}}, {"type": "Feature", "properties": {"class_id": 3, "row": 71, "col": 35, "class_name": "open_bare", "class_label": "Open / bare / sparse vegetation"}, "geometry": {"type": "Point", "coordinates": [374895.0, 755415.0]}}, {"type": "Feature", "properties": {"class_id": 3, "row": 74, "col": 31, "class_name": "open_bare", "class_label": "Open / bare / sparse vegetation"}, "geometry": {"type": "Point", "coordinates": [374775.0, 755325.0]}}, {"type": "Feature", "properties": {"class_id": 3, "row": 39, "col": 21, "class_name": "open_bare", "class_label": "Open / bare / sparse vegetation"}, "geometry": {"type": "Point", "coordinates": [374475.0, 756375.0]}}, {"type": "Feature", "properties": {"class_id": 3, "row": 27, "col": 25, "class_name": "open_bare", "class_label": "Open / bare / sparse vegetation"}, "geometry": {"type": "Point", "coordinates": [374595.0, 756735.0]}}, {"type": "Feature", "properties": {"class_id": 3, "row": 71, "col": 48, "class_name": "open_bare", "class_label": "Open / bare / sparse vegetation"}, "geometry": {"type": "Point", "coordinates": [375285.0, 755415.0]}}, {"type": "Feature", "properties": {"class_id": 3, "row": 64, "col": 19, "class_name": "open_bare", "class_label": "Open / bare / sparse vegetation"}, "geometry": {"type": "Point", "coordinates": [374415.0, 755625.0]}}, {"type": "Feature", "properties": {"class_id": 3, "row": 17, "col": 22, "class_name": "open_bare", "class_label": "Open / bare / sparse vegetation"}, "geometry": {"type": "Point", "coordinates": [374505.0, 757035.0]}}, {"type": "Feature", "properties": {"class_id": 3, "row": 36, "col": 23, "class_name": "open_bare", "class_label": "Open / bare / sparse vegetation"}, "geometry": {"type": "Point", "coordinates": [374535.0, 756465.0]}}, {"type": "Feature", "properties": {"class_id": 3, "row": 43, "col": 32, "class_name": "open_bare", "class_label": "Open / bare / sparse vegetation"}, "geometry": {"type": "Point", "coordinates": [374805.0, 756255.0]}}, {"type": "Feature", "properties": {"class_id": 3, "row": 30, "col": 20, "class_name": "open_bare", "class_label": "Open / bare / sparse vegetation"}, "geometry": {"type": "Point", "coordinates": [374445.0, 756645.0]}}, {"type": "Feature", "properties": {"class_id": 3, "row": 59, "col": 23, "class_name": "open_bare", "class_label": "Open / bare / sparse vegetation"}, "geometry": {"type": "Point", "coordinates": [374535.0, 755775.0]}}, {"type": "Feature", "properties": {"class_id": 3, "row": 43, "col": 37, "class_name": "open_bare", "class_label": "Open / bare / sparse vegetation"}, "geometry": {"type": "Point", "coordinates": [374955.0, 756255.0]}}, {"type": "Feature", "properties": {"class_id": 3, "row": 23, "col": 27, "class_name": "open_bare", "class_label": "Open / bare / sparse vegetation"}, "geometry": {"type": "Point", "coordinates": [374655.0, 756855.0]}}, {"type": "Feature", "properties": {"class_id": 3, "row": 48, "col": 29, "class_name": "open_bare", "class_label": "Open / bare / sparse vegetation"}, "geometry": {"type": "Point", "coordinates": [374715.0, 756105.0]}}, {"type": "Feature", "properties": {"class_id": 3, "row": 46, "col": 57, "class_name": "open_bare", "class_label": "Open / bare / sparse vegetation"}, "geometry": {"type": "Point", "coordinates": [375555.0, 756165.0]}}, {"type": "Feature", "properties": {"class_id": 3, "row": 18, "col": 16, "class_name": "open_bare", "class_label": "Open / bare / sparse vegetation"}, "geometry": {"type": "Point", "coordinates": [374325.0, 757005.0]}}, {"type": "Feature", "properties": {"class_id": 3, "row": 34, "col": 35, "class_name": "open_bare", "class_label": "Open / bare / sparse vegetation"}, "geometry": {"type": "Point", "coordinates": [374895.0, 756525.0]}}, {"type": "Feature", "properties": {"class_id": 3, "row": 34, "col": 34, "class_name": "open_bare", "class_label": "Open / bare / sparse vegetation"}, "geometry": {"type": "Point", "coordinates": [374865.0, 756525.0]}}, {"type": "Feature", "properties": {"class_id": 3, "row": 46, "col": 23, "class_name": "open_bare", "class_label": "Open / bare / sparse vegetation"}, "geometry": {"type": "Point", "coordinates": [374535.0, 756165.0]}}, {"type": "Feature", "properties": {"class_id": 3, "row": 31, "col": 56, "class_name": "open_bare", "class_label": "Open / bare / sparse vegetation"}, "geometry": {"type": "Point", "coordinates": [375525.0, 756615.0]}}, {"type": "Feature", "properties": {"class_id": 3, "row": 71, "col": 51, "class_name": "open_bare", "class_label": "Open / bare / sparse vegetation"}, "geometry": {"type": "Point", "coordinates": [375375.0, 755415.0]}}, {"type": "Feature", "properties": {"class_id": 3, "row": 17, "col": 20, "class_name": "open_bare", "class_label": "Open / bare / sparse vegetation"}, "geometry": {"type": "Point", "coordinates": [374445.0, 757035.0]}}, {"type": "Feature", "properties": {"class_id": 3, "row": 20, "col": 39, "class_name": "open_bare", "class_label": "Open / bare / sparse vegetation"}, "geometry": {"type": "Point", "coordinates": [375015.0, 756945.0]}}, {"type": "Feature", "properties": {"class_id": 3, "row": 113, "col": 27, "class_name": "open_bare", "class_label": "Open / bare / sparse vegetation"}, "geometry": {"type": "Point", "coordinates": [374655.0, 754155.0]}}, {"type": "Feature", "properties": {"class_id": 3, "row": 86, "col": 37, "class_name": "open_bare", "class_label": "Open / bare / sparse vegetation"}, "geometry": {"type": "Point", "coordinates": [374955.0, 754965.0]}}, {"type": "Feature", "properties": {"class_id": 3, "row": 112, "col": 42, "class_name": "open_bare", "class_label": "Open / bare / sparse vegetation"}, "geometry": {"type": "Point", "coordinates": [375105.0, 754185.0]}}, {"type": "Feature", "properties": {"class_id": 3, "row": 62, "col": 26, "class_name": "open_bare", "class_label": "Open / bare / sparse vegetation"}, "geometry": {"type": "Point", "coordinates": [374625.0, 755685.0]}}, {"type": "Feature", "properties": {"class_id": 3, "row": 48, "col": 33, "class_name": "open_bare", "class_label": "Open / bare / sparse vegetation"}, "geometry": {"type": "Point", "coordinates": [374835.0, 756105.0]}}, {"type": "Feature", "properties": {"class_id": 3, "row": 52, "col": 35, "class_name": "open_bare", "class_label": "Open / bare / sparse vegetation"}, "geometry": {"type": "Point", "coordinates": [374895.0, 755985.0]}}, {"type": "Feature", "properties": {"class_id": 3, "row": 85, "col": 36, "class_name": "open_bare", "class_label": "Open / bare / sparse vegetation"}, "geometry": {"type": "Point", "coordinates": [374925.0, 754995.0]}}, {"type": "Feature", "properties": {"class_id": 3, "row": 52, "col": 27, "class_name": "open_bare", "class_label": "Open / bare / sparse vegetation"}, "geometry": {"type": "Point", "coordinates": [374655.0, 755985.0]}}, {"type": "Feature", "properties": {"class_id": 3, "row": 66, "col": 26, "class_name": "open_bare", "class_label": "Open / bare / sparse vegetation"}, "geometry": {"type": "Point", "coordinates": [374625.0, 755565.0]}}, {"type": "Feature", "properties": {"class_id": 3, "row": 74, "col": 30, "class_name": "open_bare", "class_label": "Open / bare / sparse vegetation"}, "geometry": {"type": "Point", "coordinates": [374745.0, 755325.0]}}, {"type": "Feature", "properties": {"class_id": 3, "row": 79, "col": 27, "class_name": "open_bare", "class_label": "Open / bare / sparse vegetation"}, "geometry": {"type": "Point", "coordinates": [374655.0, 755175.0]}}, {"type": "Feature", "properties": {"class_id": 3, "row": 45, "col": 34, "class_name": "open_bare", "class_label": "Open / bare / sparse vegetation"}, "geometry": {"type": "Point", "coordinates": [374865.0, 756195.0]}}, {"type": "Feature", "properties": {"class_id": 3, "row": 83, "col": 35, "class_name": "open_bare", "class_label": "Open / bare / sparse vegetation"}, "geometry": {"type": "Point", "coordinates": [374895.0, 755055.0]}}, {"type": "Feature", "properties": {"class_id": 3, "row": 76, "col": 37, "class_name": "open_bare", "class_label": "Open / bare / sparse vegetation"}, "geometry": {"type": "Point", "coordinates": [374955.0, 755265.0]}}, {"type": "Feature", "properties": {"class_id": 3, "row": 34, "col": 17, "class_name": "open_bare", "class_label": "Open / bare / sparse vegetation"}, "geometry": {"type": "Point", "coordinates": [374355.0, 756525.0]}}, {"type": "Feature", "properties": {"class_id": 3, "row": 29, "col": 48, "class_name": "open_bare", "class_label": "Open / bare / sparse vegetation"}, "geometry": {"type": "Point", "coordinates": [375285.0, 756675.0]}}, {"type": "Feature", "properties": {"class_id": 3, "row": 80, "col": 42, "class_name": "open_bare", "class_label": "Open / bare / sparse vegetation"}, "geometry": {"type": "Point", "coordinates": [375105.0, 755145.0]}}, {"type": "Feature", "properties": {"class_id": 3, "row": 27, "col": 37, "class_name": "open_bare", "class_label": "Open / bare / sparse vegetation"}, "geometry": {"type": "Point", "coordinates": [374955.0, 756735.0]}}, {"type": "Feature", "properties": {"class_id": 3, "row": 79, "col": 52, "class_name": "open_bare", "class_label": "Open / bare / sparse vegetation"}, "geometry": {"type": "Point", "coordinates": [375405.0, 755175.0]}}, {"type": "Feature", "properties": {"class_id": 3, "row": 43, "col": 26, "class_name": "open_bare", "class_label": "Open / bare / sparse vegetation"}, "geometry": {"type": "Point", "coordinates": [374625.0, 756255.0]}}, {"type": "Feature", "properties": {"class_id": 3, "row": 41, "col": 19, "class_name": "open_bare", "class_label": "Open / bare / sparse vegetation"}, "geometry": {"type": "Point", "coordinates": [374415.0, 756315.0]}}, {"type": "Feature", "properties": {"class_id": 3, "row": 72, "col": 35, "class_name": "open_bare", "class_label": "Open / bare / sparse vegetation"}, "geometry": {"type": "Point", "coordinates": [374895.0, 755385.0]}}, {"type": "Feature", "properties": {"class_id": 3, "row": 91, "col": 39, "class_name": "open_bare", "class_label": "Open / bare / sparse vegetation"}, "geometry": {"type": "Point", "coordinates": [375015.0, 754815.0]}}, {"type": "Feature", "properties": {"class_id": 3, "row": 57, "col": 50, "class_name": "open_bare", "class_label": "Open / bare / sparse vegetation"}, "geometry": {"type": "Point", "coordinates": [375345.0, 755835.0]}}, {"type": "Feature", "properties": {"class_id": 3, "row": 23, "col": 46, "class_name": "open_bare", "class_label": "Open / bare / sparse vegetation"}, "geometry": {"type": "Point", "coordinates": [375225.0, 756855.0]}}, {"type": "Feature", "properties": {"class_id": 3, "row": 79, "col": 35, "class_name": "open_bare", "class_label": "Open / bare / sparse vegetation"}, "geometry": {"type": "Point", "coordinates": [374895.0, 755175.0]}}, {"type": "Feature", "properties": {"class_id": 3, "row": 21, "col": 22, "class_name": "open_bare", "class_label": "Open / bare / sparse vegetation"}, "geometry": {"type": "Point", "coordinates": [374505.0, 756915.0]}}, {"type": "Feature", "properties": {"class_id": 3, "row": 11, "col": 18, "class_name": "open_bare", "class_label": "Open / bare / sparse vegetation"}, "geometry": {"type": "Point", "coordinates": [374385.0, 757215.0]}}, {"type": "Feature", "properties": {"class_id": 3, "row": 21, "col": 32, "class_name": "open_bare", "class_label": "Open / bare / sparse vegetation"}, "geometry": {"type": "Point", "coordinates": [374805.0, 756915.0]}}, {"type": "Feature", "properties": {"class_id": 3, "row": 23, "col": 31, "class_name": "open_bare", "class_label": "Open / bare / sparse vegetation"}, "geometry": {"type": "Point", "coordinates": [374775.0, 756855.0]}}, {"type": "Feature", "properties": {"class_id": 3, "row": 77, "col": 38, "class_name": "open_bare", "class_label": "Open / bare / sparse vegetation"}, "geometry": {"type": "Point", "coordinates": [374985.0, 755235.0]}}, {"type": "Feature", "properties": {"class_id": 3, "row": 24, "col": 20, "class_name": "open_bare", "class_label": "Open / bare / sparse vegetation"}, "geometry": {"type": "Point", "coordinates": [374445.0, 756825.0]}}, {"type": "Feature", "properties": {"class_id": 3, "row": 41, "col": 25, "class_name": "open_bare", "class_label": "Open / bare / sparse vegetation"}, "geometry": {"type": "Point", "coordinates": [374595.0, 756315.0]}}, {"type": "Feature", "properties": {"class_id": 3, "row": 33, "col": 32, "class_name": "open_bare", "class_label": "Open / bare / sparse vegetation"}, "geometry": {"type": "Point", "coordinates": [374805.0, 756555.0]}}, {"type": "Feature", "properties": {"class_id": 3, "row": 76, "col": 34, "class_name": "open_bare", "class_label": "Open / bare / sparse vegetation"}, "geometry": {"type": "Point", "coordinates": [374865.0, 755265.0]}}, {"type": "Feature", "properties": {"class_id": 3, "row": 53, "col": 48, "class_name": "open_bare", "class_label": "Open / bare / sparse vegetation"}, "geometry": {"type": "Point", "coordinates": [375285.0, 755955.0]}}, {"type": "Feature", "properties": {"class_id": 3, "row": 32, "col": 25, "class_name": "open_bare", "class_label": "Open / bare / sparse vegetation"}, "geometry": {"type": "Point", "coordinates": [374595.0, 756585.0]}}, {"type": "Feature", "properties": {"class_id": 3, "row": 38, "col": 34, "class_name": "open_bare", "class_label": "Open / bare / sparse vegetation"}, "geometry": {"type": "Point", "coordinates": [374865.0, 756405.0]}}, {"type": "Feature", "properties": {"class_id": 3, "row": 69, "col": 40, "class_name": "open_bare", "class_label": "Open / bare / sparse vegetation"}, "geometry": {"type": "Point", "coordinates": [375045.0, 755475.0]}}, {"type": "Feature", "properties": {"class_id": 3, "row": 13, "col": 24, "class_name": "open_bare", "class_label": "Open / bare / sparse vegetation"}, "geometry": {"type": "Point", "coordinates": [374565.0, 757155.0]}}, {"type": "Feature", "properties": {"class_id": 3, "row": 20, "col": 33, "class_name": "open_bare", "class_label": "Open / bare / sparse vegetation"}, "geometry": {"type": "Point", "coordinates": [374835.0, 756945.0]}}, {"type": "Feature", "properties": {"class_id": 3, "row": 88, "col": 31, "class_name": "open_bare", "class_label": "Open / bare / sparse vegetation"}, "geometry": {"type": "Point", "coordinates": [374775.0, 754905.0]}}, {"type": "Feature", "properties": {"class_id": 3, "row": 78, "col": 17, "class_name": "open_bare", "class_label": "Open / bare / sparse vegetation"}, "geometry": {"type": "Point", "coordinates": [374355.0, 755205.0]}}, {"type": "Feature", "properties": {"class_id": 3, "row": 42, "col": 28, "class_name": "open_bare", "class_label": "Open / bare / sparse vegetation"}, "geometry": {"type": "Point", "coordinates": [374685.0, 756285.0]}}, {"type": "Feature", "properties": {"class_id": 3, "row": 48, "col": 21, "class_name": "open_bare", "class_label": "Open / bare / sparse vegetation"}, "geometry": {"type": "Point", "coordinates": [374475.0, 756105.0]}}, {"type": "Feature", "properties": {"class_id": 3, "row": 51, "col": 36, "class_name": "open_bare", "class_label": "Open / bare / sparse vegetation"}, "geometry": {"type": "Point", "coordinates": [374925.0, 756015.0]}}, {"type": "Feature", "properties": {"class_id": 3, "row": 46, "col": 43, "class_name": "open_bare", "class_label": "Open / bare / sparse vegetation"}, "geometry": {"type": "Point", "coordinates": [375135.0, 756165.0]}}, {"type": "Feature", "properties": {"class_id": 3, "row": 49, "col": 43, "class_name": "open_bare", "class_label": "Open / bare / sparse vegetation"}, "geometry": {"type": "Point", "coordinates": [375135.0, 756075.0]}}, {"type": "Feature", "properties": {"class_id": 3, "row": 17, "col": 16, "class_name": "open_bare", "class_label": "Open / bare / sparse vegetation"}, "geometry": {"type": "Point", "coordinates": [374325.0, 757035.0]}}, {"type": "Feature", "properties": {"class_id": 3, "row": 31, "col": 61, "class_name": "open_bare", "class_label": "Open / bare / sparse vegetation"}, "geometry": {"type": "Point", "coordinates": [375675.0, 756615.0]}}, {"type": "Feature", "properties": {"class_id": 3, "row": 30, "col": 19, "class_name": "open_bare", "class_label": "Open / bare / sparse vegetation"}, "geometry": {"type": "Point", "coordinates": [374415.0, 756645.0]}}, {"type": "Feature", "properties": {"class_id": 3, "row": 72, "col": 31, "class_name": "open_bare", "class_label": "Open / bare / sparse vegetation"}, "geometry": {"type": "Point", "coordinates": [374775.0, 755385.0]}}, {"type": "Feature", "properties": {"class_id": 3, "row": 70, "col": 48, "class_name": "open_bare", "class_label": "Open / bare / sparse vegetation"}, "geometry": {"type": "Point", "coordinates": [375285.0, 755445.0]}}, {"type": "Feature", "properties": {"class_id": 3, "row": 40, "col": 17, "class_name": "open_bare", "class_label": "Open / bare / sparse vegetation"}, "geometry": {"type": "Point", "coordinates": [374355.0, 756345.0]}}]}