{
"type": "FeatureCollection",
"name": "FSI",
"crs": { "type": "name", "properties": { "name": "urn:ogc:def:crs:OGC:1.3:CRS84" } },
"xy_coordinate_resolution": 1e-15,
"features": [
{ "type": "Feature", "properties": { "id": 108.0, "left": 399301.18050189223, "top": 481510.3994, "right": 399416.65055573016, "bottom": 481410.3994, "row_index": 7.0, "col_index": 5.0, "Area_build": null, "Floor_Area": null, "Hex_area": 152.0257, "GSI": 0.0, "FSI": 0.0, "OSR": null, "GSI_Norm": 0.0, "FSI_Norm": 0.0, "Density_V": 0.0 }, "geometry": { "type": "MultiPolygon", "coordinates": [ [ [ [ 79.863545473277213, 6.832003752092684 ], [ 79.863595449548427, 6.832136705548312 ], [ 79.863649579458709, 6.832268024395087 ], [ 79.86368193198517, 6.832340004660557 ], [ 79.863716138585573, 6.832281045361944 ], [ 79.863529241542949, 6.831956072181217 ], [ 79.863545473277213, 6.832003752092684 ] ] ] ] } },
{ "type": "Feature", "properties": { "id": 109.0, "left": 399301.18050189223, "top": 481410.3994, "right": 399416.65055573016, "bottom": 481310.3994, "row_index": 8.0, "col_index": 5.0, "Area_build": 1376.6488, "Floor_Area": 5526.259, "Hex_area": 2308.1793, "GSI": 0.5964, "FSI": 2.3942, "OSR": 0.1686, "GSI_Norm": 0.177, "FSI_Norm": 0.0474, "Density_V": 0.1122 }, "geometry": { "type": "MultiPolygon", "coordinates": [ [ [ [ 79.863315556013617, 6.831038500806738 ], [ 79.863335311100215, 6.83117914880609 ], [ 79.863359476525645, 6.831319107193151 ], [ 79.863388028445442, 6.83145823784574 ], [ 79.863420938686119, 6.83159640345841 ], [ 79.863458174773029, 6.831733467677982 ], [ 79.863476385934703, 6.831793035810461 ], [ 79.863717853305545, 6.83137683635939 ], [ 79.863457556967518, 6.830924237092474 ], [ 79.863303122442076, 6.830923944451321 ], [ 79.863315556013617, 6.831038500806738 ] ] ] ] } },
{ "type": "Feature", "properties": { "id": 110.0, "left": 399301.18050189223, "top": 481310.3994, "right": 399416.65055573016, "bottom": 481210.3994, "row_index": 9.0, "col_index": 5.0, "Area_build": 2441.0997, "Floor_Area": 12974.185, "Hex_area": 3317.1148, "GSI": 0.7359, "FSI": 3.9113, "OSR": 0.0675, "GSI_Norm": 0.2184, "FSI_Norm": 0.0774, "Density_V": 0.1479 }, "geometry": { "type": "MultiPolygon", "coordinates": [ [ [ [ 79.863301844864665, 6.830046366207294 ], [ 79.863290427423095, 6.830187934230411 ], [ 79.863283464587468, 6.83032979084795 ], [ 79.863280963233152, 6.83047179606527 ], [ 79.863282925832578, 6.83061380974095 ], [ 79.863289350452916, 6.830755691725115 ], [ 79.863300230757787, 6.830897301997717 ], [ 79.863303122442076, 6.830923944451321 ], [ 79.863457556967518, 6.830924237092474 ], [ 79.863719567794192, 6.830472627322464 ], [ 79.863459271830735, 6.830020028104181 ], [ 79.8633048375291, 6.830019735501832 ], [ 79.863301844864665, 6.830046366207294 ] ] ] ] } },
{ "type": "Feature", "properties": { "id": 111.0, "left": 399301.18050189223, "top": 481210.3994, "right": 399416.65055573016, "bottom": 481110.3994, "row_index": 10.0, "col_index": 5.0, "Area_build": 793.4898, "Floor_Area": 3899.845, "Hex_area": 2308.1806, "GSI": 0.3438, "FSI": 1.6896, "OSR": 0.3884, "GSI_Norm": 0.102, "FSI_Norm": 0.0334, "Density_V": 0.0677 }, "geometry": { "type": "MultiPolygon", "coordinates": [ [ [ [ 79.863462959077623, 6.829210805019128 ], [ 79.863425203542519, 6.829347727167847 ], [ 79.863391769584226, 6.829485767087352 ], [ 79.863362690201257, 6.829624788550258 ], [ 79.863337994094906, 6.82976465436042 ], [ 79.863317705640739, 6.829905226488322 ], [ 79.8633048375291, 6.830019735501832 ], [ 79.863459271830735, 6.830020028104181 ], [ 79.863721282051472, 6.829568418251179 ], [ 79.863481395831627, 6.829151306704328 ], [ 79.863462959077623, 6.829210805019128 ] ] ] ] } },
{ "type": "Feature", "properties": { "id": 112.0, "left": 399301.18050189223, "top": 481110.3994, "right": 399416.65055573016, "bottom": 481010.3994, "row_index": 11.0, "col_index": 5.0, "Area_build": null, "Floor_Area": null, "Hex_area": 152.0269, "GSI": 0.0, "FSI": 0.0, "OSR": null, "GSI_Norm": 0.0, "FSI_Norm": 0.0, "Density_V": 0.0 }, "geometry": { "type": "MultiPolygon", "coordinates": [ [ [ [ 79.863656388551178, 6.828676977276419 ], [ 79.863601761412141, 6.828808090124765 ], [ 79.86355128159714, 6.828940853294269 ], [ 79.863534868738824, 6.828988472838209 ], [ 79.863722996077414, 6.828664209145535 ], [ 79.863689013407836, 6.828605120415944 ], [ 79.863656388551178, 6.828676977276419 ] ] ] ] } },
{ "type": "Feature", "properties": { "id": 127.0, "left": 399387.78304227063, "top": 481660.3994, "right": 399503.25309610862, "bottom": 481560.3994, "row_index": 6.0, "col_index": 6.0, "Area_build": 303.7141, "Floor_Area": 4555.711, "Hex_area": 90.118, "GSI": 3.3702, "FSI": 50.5527, "OSR": -0.0469, "GSI_Norm": 1.0, "FSI_Norm": 1.0, "Density_V": 1.0 }, "geometry": { "type": "MultiPolygon", "coordinates": [ [ [ [ 79.864224905091547, 6.833244574625826 ], [ 79.864313541306444, 6.833355585057751 ], [ 79.864376996355659, 6.833430129244011 ], [ 79.864236733366511, 6.833186243740148 ], [ 79.864181180792244, 6.833186138533955 ], [ 79.864224905091547, 6.833244574625826 ] ] ] ] } },
{ "type": "Feature", "properties": { "id": 128.0, "left": 399387.78304227063, "top": 481560.3994, "right": 399503.25309610862, "bottom": 481460.3994, "row_index": 7.0, "col_index": 6.0, "Area_build": 2966.5813, "Floor_Area": 15967.68, "Hex_area": 5210.1813, "GSI": 0.5694, "FSI": 3.0647, "OSR": 0.1405, "GSI_Norm": 0.169, "FSI_Norm": 0.0606, "Density_V": 0.1148 }, "geometry": { "type": "MultiPolygon", "coordinates": [ [ [ [ 79.863707809591574, 6.832397579036162 ], [ 79.86377008248391, 6.832525241615656 ], [ 79.863836336682724, 6.832650886144809 ], [ 79.863906506805819, 6.832774388626341 ], [ 79.86398052360623, 6.83289562717681 ], [ 79.864058314040534, 6.833014482146934 ], [ 79.864139801341068, 6.833130836239633 ], [ 79.864181180792244, 6.833186138533955 ], [ 79.864236733366511, 6.833186243740148 ], [ 79.864498745030446, 6.832734633654432 ], [ 79.864238447336973, 6.832282034640397 ], [ 79.863716138585573, 6.832281045361944 ], [ 79.86368193198517, 6.832340004660557 ], [ 79.863707809591574, 6.832397579036162 ] ] ] ] } },
{ "type": "Feature", "properties": { "id": 129.0, "left": 399387.78304227063, "top": 481460.3994, "right": 399503.25309610862, "bottom": 481360.3994, "row_index": 8.0, "col_index": 6.0, "Area_build": 3203.6542, "Floor_Area": 14650.582, "Hex_area": 8628.8997, "GSI": 0.3713, "FSI": 1.6979, "OSR": 0.3703, "GSI_Norm": 0.1102, "FSI_Norm": 0.0336, "Density_V": 0.0719 }, "geometry": { "type": "MultiPolygon", "coordinates": [ [ [ [ 79.863499699962347, 6.831869295238089 ], [ 79.863529241542949, 6.83195607218122 ], [ 79.863716138585573, 6.832281045361944 ], [ 79.864238447336973, 6.832282034640397 ], [ 79.864500458394915, 6.831830424471737 ], [ 79.864240161076225, 6.831377825506275 ], [ 79.863717853305545, 6.83137683635939 ], [ 79.863476385934703, 6.831793035810461 ], [ 79.863499699962347, 6.831869295238089 ] ] ] ] } },
{ "type": "Feature", "properties": { "id": 130.0, "left": 399387.78304227063, "top": 481360.3994, "right": 399503.25309610862, "bottom": 481260.3994, "row_index": 9.0, "col_index": 6.0, "Area_build": 5698.1666, "Floor_Area": 28878.011, "Hex_area": 8659.4059, "GSI": 0.658, "FSI": 3.3349, "OSR": 0.1025, "GSI_Norm": 0.1952, "FSI_Norm": 0.066, "Density_V": 0.1306 }, "geometry": { "type": "MultiPolygon", "coordinates": [ [ [ [ 79.863457556967518, 6.830924237092474 ], [ 79.863717853305545, 6.83137683635939 ], [ 79.864240161076225, 6.831377825506275 ], [ 79.864502171528244, 6.830926215254676 ], [ 79.864241874584266, 6.830473616337784 ], [ 79.863719567794192, 6.830472627322464 ], [ 79.863457556967518, 6.830924237092474 ] ] ] ] } },
{ "type": "Feature", "properties": { "id": 131.0, "left": 399387.78304227063, "top": 481260.3994, "right": 399503.25309610862, "bottom": 481160.3994, "row_index": 10.0, "col_index": 6.0, "Area_build": 5340.7127, "Floor_Area": 27977.417, "Hex_area": 8659.4059, "GSI": 0.6168, "FSI": 3.2309, "OSR": 0.1186, "GSI_Norm": 0.183, "FSI_Norm": 0.0639, "Density_V": 0.1235 }, "geometry": { "type": "MultiPolygon", "coordinates": [ [ [ [ 79.863459271830735, 6.830020028104181 ], [ 79.863719567794192, 6.830472627322464 ], [ 79.864241874584266, 6.830473616337784 ], [ 79.86450388443042, 6.830022006003248 ], [ 79.864243587861097, 6.829569407134931 ], [ 79.863721282051472, 6.829568418251179 ], [ 79.863459271830735, 6.830020028104181 ] ] ] ] } },
{ "type": "Feature", "properties": { "id": 132.0, "left": 399387.78304227063, "top": 481160.3994, "right": 399503.25309610862, "bottom": 481060.3994, "row_index": 11.0, "col_index": 6.0, "Area_build": 1711.9532, "Floor_Area": 9724.962, "Hex_area": 8628.9001, "GSI": 0.1984, "FSI": 1.127, "OSR": 0.7113, "GSI_Norm": 0.0589, "FSI_Norm": 0.0223, "Density_V": 0.0406 }, "geometry": { "type": "MultiPolygon", "coordinates": [ [ [ [ 79.863504998926217, 6.829075135765389 ], [ 79.863481395831627, 6.82915130670433 ], [ 79.863721282051472, 6.829568418251179 ], [ 79.864243587861097, 6.829569407134931 ], [ 79.864505597101456, 6.829117796717465 ], [ 79.864245300906731, 6.828665197897721 ], [ 79.863722996077414, 6.828664209145535 ], [ 79.863534868738824, 6.828988472838207 ], [ 79.863504998926217, 6.829075135765389 ] ] ] ] } },
{ "type": "Feature", "properties": { "id": 133.0, "left": 399387.78304227063, "top": 481060.3994, "right": 399503.25309610862, "bottom": 480960.3994, "row_index": 12.0, "col_index": 6.0, "Area_build": 1477.6981, "Floor_Area": 6281.569, "Hex_area": 5210.185, "GSI": 0.2836, "FSI": 1.2056, "OSR": 0.5942, "GSI_Norm": 0.0841, "FSI_Norm": 0.0238, "Density_V": 0.054 }, "geometry": { "type": "MultiPolygon", "coordinates": [ [ [ [ 79.864149873479889, 6.82781602814006 ], [ 79.864067946620722, 6.827932072866324 ], [ 79.863989707004748, 6.828050632423854 ], [ 79.863915231846093, 6.828171589810665 ], [ 79.863844594644064, 6.828294825658378 ], [ 79.863777865110578, 6.828420218350018 ], [ 79.86371510910142, 6.828547644140039 ], [ 79.863689013407836, 6.828605120415944 ], [ 79.863722996077414, 6.828664209145535 ], [ 79.864245300906731, 6.828665197897721 ], [ 79.864507309541338, 6.828213587397322 ], [ 79.864247013721155, 6.827760988626157 ], [ 79.864191461323031, 6.827760883503052 ], [ 79.864149873479889, 6.82781602814006 ] ] ] ] } },
{ "type": "Feature", "properties": { "id": 134.0, "left": 399387.78304227063, "top": 480960.3994, "right": 399503.25309610862, "bottom": 480860.3994, "row_index": 13.0, "col_index": 6.0, "Area_build": 55.3579, "Floor_Area": 223.126, "Hex_area": 90.1194, "GSI": 0.6143, "FSI": 2.4759, "OSR": 0.1558, "GSI_Norm": 0.1823, "FSI_Norm": 0.049, "Density_V": 0.1157 }, "geometry": { "type": "MultiPolygon", "coordinates": [ [ [ [ 79.864324461957963, 6.827591938667016 ], [ 79.864235406729492, 6.827702612765196 ], [ 79.864191461323031, 6.827760883503052 ], [ 79.864247013721155, 6.827760988626157 ], [ 79.86438819932431, 6.827517633961894 ], [ 79.864324461957963, 6.827591938667016 ] ] ] ] } },
{ "type": "Feature", "properties": { "id": 146.0, "left": 399474.38558264909, "top": 481710.3994, "right": 399589.85563648702, "bottom": 481610.3994, "row_index": 5.0, "col_index": 7.0, "Area_build": 1394.801, "Floor_Area": 5854.622, "Hex_area": 1979.1561, "GSI": 0.7047, "FSI": 2.9581, "OSR": 0.0998, "GSI_Norm": 0.2091, "FSI_Norm": 0.0585, "Density_V": 0.1338 }, "geometry": { "type": "MultiPolygon", "coordinates": [ [ [ [ 79.864599753108678, 6.833671167177727 ], [ 79.864701610914082, 6.833770198762098 ], [ 79.86480653073734, 6.833865983655291 ], [ 79.864914409035393, 6.833958427327206 ], [ 79.865025139345349, 6.834047438545107 ], [ 79.865138612389387, 6.834132929463666 ], [ 79.865222016473311, 6.834191753106858 ], [ 79.865279640822465, 6.834092430190324 ], [ 79.865019341773134, 6.833639831429427 ], [ 79.864568662269633, 6.833638978418779 ], [ 79.864599753108678, 6.833671167177727 ] ] ] ] } },
{ "type": "Feature", "properties": { "id": 147.0, "left": 399474.38558264909, "top": 481610.3994, "right": 399589.85563648702, "bottom": 481510.3994, "row_index": 6.0, "col_index": 7.0, "Area_build": 5855.9967, "Floor_Area": 28134.089, "Hex_area": 8573.6437, "GSI": 0.683, "FSI": 3.2815, "OSR": 0.0966, "GSI_Norm": 0.2027, "FSI_Norm": 0.0649, "Density_V": 0.1338 }, "geometry": { "type": "MultiPolygon", "coordinates": [ [ [ [ 79.864405622513914, 6.83346375797974 ], [ 79.864501057842062, 6.833568986636349 ], [ 79.864568662269633, 6.833638978418779 ], [ 79.865019341773134, 6.833639831429427 ], [ 79.865281353062173, 6.83318822086204 ], [ 79.865021054387839, 6.832735622149652 ], [ 79.864498745030446, 6.832734633654432 ], [ 79.864236733366511, 6.833186243740148 ], [ 79.864376996355659, 6.833430129244011 ], [ 79.864405622513914, 6.83346375797974 ] ] ] ] } },
{ "type": "Feature", "properties": { "id": 148.0, "left": 399474.38558264909, "top": 481510.3994, "right": 399589.85563648702, "bottom": 481410.3994, "row_index": 7.0, "col_index": 7.0, "Area_build": 4431.2509, "Floor_Area": 19577.279, "Hex_area": 8659.4097, "GSI": 0.5117, "FSI": 2.2608, "OSR": 0.216, "GSI_Norm": 0.1518, "FSI_Norm": 0.0447, "Density_V": 0.0982 }, "geometry": { "type": "MultiPolygon", "coordinates": [ [ [ [ 79.864238447336973, 6.832282034640397 ], [ 79.864498745030446, 6.832734633654432 ], [ 79.865021054387839, 6.832735622149652 ], [ 79.86528306507094, 6.832284011499379 ], [ 79.865022766771517, 6.831831412835505 ], [ 79.864500458394915, 6.831830424471737 ], [ 79.864238447336973, 6.832282034640397 ] ] ] ] } },
{ "type": "Feature", "properties": { "id": 149.0, "left": 399474.38558264909, "top": 481410.3994, "right": 399589.85563648702, "bottom": 481310.3994, "row_index": 8.0, "col_index": 7.0, "Area_build": 4871.2676, "Floor_Area": 21179.249, "Hex_area": 8659.4097, "GSI": 0.5625, "FSI": 2.4458, "OSR": 0.1789, "GSI_Norm": 0.1669, "FSI_Norm": 0.0484, "Density_V": 0.1077 }, "geometry": { "type": "MultiPolygon", "coordinates": [ [ [ [ 79.864240161076225, 6.831377825506275 ], [ 79.864500458394915, 6.831830424471737 ], [ 79.865022766771517, 6.831831412835505 ], [ 79.865284776848753, 6.831379802102346 ], [ 79.865024478924198, 6.830927203486989 ], [ 79.864502171528244, 6.830926215254676 ], [ 79.864240161076225, 6.831377825506275 ] ] ] ] } },
{ "type": "Feature", "properties": { "id": 150.0, "left": 399474.38558264909, "top": 481310.3994, "right": 399589.85563648702, "bottom": 481210.3994, "row_index": 9.0, "col_index": 7.0, "Area_build": 4705.9821, "Floor_Area": 23890.481, "Hex_area": 8659.4096, "GSI": 0.5435, "FSI": 2.7589, "OSR": 0.1655, "GSI_Norm": 0.1613, "FSI_Norm": 0.0546, "Density_V": 0.108 }, "geometry": { "type": "MultiPolygon", "coordinates": [ [ [ [ 79.864241874584266, 6.830473616337784 ], [ 79.864502171528244, 6.830926215254676 ], [ 79.865024478924198, 6.830927203486989 ], [ 79.865286488395611, 6.830475592670951 ], [ 79.865026190845839, 6.830022994104111 ], [ 79.86450388443042, 6.830022006003248 ], [ 79.864241874584266, 6.830473616337784 ] ] ] ] } },
{ "type": "Feature", "properties": { "id": 151.0, "left": 399474.38558264909, "top": 481210.3994, "right": 399589.85563648702, "bottom": 481110.3994, "row_index": 10.0, "col_index": 7.0, "Area_build": 3801.7377, "Floor_Area": 20496.951, "Hex_area": 8659.4096, "GSI": 0.439, "FSI": 2.367, "OSR": 0.237, "GSI_Norm": 0.1303, "FSI_Norm": 0.0468, "Density_V": 0.0886 }, "geometry": { "type": "MultiPolygon", "coordinates": [ [ [ [ 79.864243587861097, 6.829569407134931 ], [ 79.86450388443042, 6.830022006003248 ], [ 79.865026190845839, 6.830022994104111 ], [ 79.865288199711543, 6.829571383205193 ], [ 79.865027902536497, 6.82911878468687 ], [ 79.864505597101456, 6.829117796717465 ], [ 79.864243587861097, 6.829569407134931 ] ] ] ] } },
{ "type": "Feature", "properties": { "id": 152.0, "left": 399474.38558264909, "top": 481110.3994, "right": 399589.85563648702, "bottom": 481010.3994, "row_index": 11.0, "col_index": 7.0, "Area_build": 3075.7572, "Floor_Area": 16042.36, "Hex_area": 8659.4097, "GSI": 0.3552, "FSI": 1.8526, "OSR": 0.3481, "GSI_Norm": 0.1054, "FSI_Norm": 0.0366, "Density_V": 0.071 }, "geometry": { "type": "MultiPolygon", "coordinates": [ [ [ [ 79.864245300906731, 6.828665197897721 ], [ 79.864505597101456, 6.829117796717465 ], [ 79.865027902536497, 6.82911878468687 ], [ 79.86528991079652, 6.828667173705082 ], [ 79.865029613996143, 6.828214575235276 ], [ 79.864507309541338, 6.828213587397322 ], [ 79.864245300906731, 6.828665197897721 ] ] ] ] } },
{ "type": "Feature", "properties": { "id": 153.0, "left": 399474.38558264909, "top": 481010.3994, "right": 399589.85563648702, "bottom": 480910.3994, "row_index": 12.0, "col_index": 7.0, "Area_build": 4525.9643, "Floor_Area": 19773.653, "Hex_area": 8573.645, "GSI": 0.5279, "FSI": 2.3063, "OSR": 0.2047, "GSI_Norm": 0.1566, "FSI_Norm": 0.0456, "Density_V": 0.1011 }, "geometry": { "type": "MultiPolygon", "coordinates": [ [ [ [ 79.864512783414341, 6.827379248367519 ], [ 79.864416951278201, 6.827484115065497 ], [ 79.86438819932431, 6.827517633961894 ], [ 79.864247013721155, 6.827760988626157 ], [ 79.864507309541338, 6.828213587397322 ], [ 79.865029613996143, 6.828214575235276 ], [ 79.86529162165057, 6.827762964170613 ], [ 79.865031325224777, 6.827310365749331 ], [ 79.864580651063307, 6.827309513531533 ], [ 79.864512783414341, 6.827379248367519 ] ] ] ] } },
{ "type": "Feature", "properties": { "id": 154.0, "left": 399474.38558264909, "top": 480910.3994, "right": 399589.85563648702, "bottom": 480810.3994, "row_index": 13.0, "col_index": 7.0, "Area_build": 844.4159, "Floor_Area": 4165.129, "Hex_area": 1979.1609, "GSI": 0.4267, "FSI": 2.1045, "OSR": 0.2724, "GSI_Norm": 0.1266, "FSI_Norm": 0.0416, "Density_V": 0.0841 }, "geometry": { "type": "MultiPolygon", "coordinates": [ [ [ [ 79.865152460300962, 6.826817721646873 ], [ 79.865038666082725, 6.826902782770943 ], [ 79.86492760112759, 6.826991374492049 ], [ 79.864819375041918, 6.827083409382628 ], [ 79.8647140946306, 6.827178796617175 ], [ 79.864611863791794, 6.827277442061882 ], [ 79.864580651063307, 6.827309513531533 ], [ 79.865031325224777, 6.827310365749331 ], [ 79.86529333227368, 6.826858754601798 ], [ 79.86523608496158, 6.826759214018077 ], [ 79.865152460300962, 6.826817721646873 ] ] ] ] } },
{ "type": "Feature", "properties": { "id": 166.0, "left": 399560.98812302755, "top": 481760.3994, "right": 399676.45817686548, "bottom": 481660.3994, "row_index": 5.0, "col_index": 8.0, "Area_build": 2393.0264, "Floor_Area": 12714.176, "Hex_area": 2790.9039, "GSI": 0.8574, "FSI": 4.5556, "OSR": 0.0313, "GSI_Norm": 0.2544, "FSI_Norm": 0.0901, "Density_V": 0.1723 }, "geometry": { "type": "MultiPolygon", "coordinates": [ [ [ [ 79.865254716182733, 6.83421481571166 ], [ 79.865373336144131, 6.834293016475253 ], [ 79.865494355208909, 6.834367454577745 ], [ 79.865617653944582, 6.834438056555747 ], [ 79.865743110668603, 6.834504752731701 ], [ 79.865870601568574, 6.834567477282635 ], [ 79.866000000824357, 6.834626168305139 ], [ 79.866012686731409, 6.834631448422805 ], [ 79.866062251797132, 6.834546016492593 ], [ 79.86580195176677, 6.83409341803354 ], [ 79.865279640822465, 6.834092430190324 ], [ 79.865222016473311, 6.834191753106858 ], [ 79.865254716182733, 6.83421481571166 ] ] ] ] } },
{ "type": "Feature", "properties": { "id": 167.0, "left": 399560.98812302755, "top": 481660.3994, "right": 399676.45817686548, "bottom": 481560.3994, "row_index": 6.0, "col_index": 8.0, "Area_build": 6069.9237, "Floor_Area": 27196.615, "Hex_area": 8659.4133, "GSI": 0.701, "FSI": 3.1407, "OSR": 0.0952, "GSI_Norm": 0.208, "FSI_Norm": 0.0621, "Density_V": 0.1351 }, "geometry": { "type": "MultiPolygon", "coordinates": [ [ [ [ 79.865019341773134, 6.833639831429427 ], [ 79.865279640822465, 6.834092430190324 ], [ 79.86580195176677, 6.83409341803354 ], [ 79.866063962680741, 6.83364180698451 ], [ 79.865803663025503, 6.83318920857391 ], [ 79.865281353062173, 6.83318822086204 ], [ 79.865019341773134, 6.833639831429427 ] ] ] ] } },
{ "type": "Feature", "properties": { "id": 168.0, "left": 399560.98812302755, "top": 481560.3994, "right": 399676.45817686548, "bottom": 481460.3994, "row_index": 7.0, "col_index": 8.0, "Area_build": 4682.163, "Floor_Area": 22680.236, "Hex_area": 8659.4134, "GSI": 0.5407, "FSI": 2.6191, "OSR": 0.1754, "GSI_Norm": 0.1604, "FSI_Norm": 0.0518, "Density_V": 0.1061 }, "geometry": { "type": "MultiPolygon", "coordinates": [ [ [ [ 79.865021054387839, 6.832735622149652 ], [ 79.865281353062173, 6.83318822086204 ], [ 79.865803663025503, 6.83318920857391 ], [ 79.866065673333608, 6.832737597442053 ], [ 79.865805374053423, 6.832284999079912 ], [ 79.86528306507094, 6.832284011499379 ], [ 79.865021054387839, 6.832735622149652 ] ] ] ] } },
{ "type": "Feature", "properties": { "id": 169.0, "left": 399560.98812302755, "top": 481460.3994, "right": 399676.45817686548, "bottom": 481360.3994, "row_index": 8.0, "col_index": 8.0, "Area_build": 4690.0866, "Floor_Area": 18759.851, "Hex_area": 8659.4134, "GSI": 0.5416, "FSI": 2.1664, "OSR": 0.2116, "GSI_Norm": 0.1607, "FSI_Norm": 0.0429, "Density_V": 0.1018 }, "geometry": { "type": "MultiPolygon", "coordinates": [ [ [ [ 79.865022766771517, 6.831831412835505 ], [ 79.86528306507094, 6.832284011499379 ], [ 79.865805374053423, 6.832284999079912 ], [ 79.866067383755706, 6.831833387865223 ], [ 79.865807084850516, 6.831380789551538 ], [ 79.865284776848753, 6.831379802102346 ], [ 79.865022766771517, 6.831831412835505 ] ] ] ] } },
{ "type": "Feature", "properties": { "id": 170.0, "left": 399560.98812302755, "top": 481360.3994, "right": 399676.45817686548, "bottom": 481260.3994, "row_index": 9.0, "col_index": 8.0, "Area_build": 6305.8106, "Floor_Area": 35445.144, "Hex_area": 8659.4133, "GSI": 0.7282, "FSI": 4.0933, "OSR": 0.0664, "GSI_Norm": 0.2161, "FSI_Norm": 0.081, "Density_V": 0.1485 }, "geometry": { "type": "MultiPolygon", "coordinates": [ [ [ [ 79.865024478924198, 6.830927203486989 ], [ 79.865284776848753, 6.831379802102346 ], [ 79.865807084850516, 6.831380789551538 ], [ 79.866069093947075, 6.83092917825403 ], [ 79.865808795416783, 6.830476579988801 ], [ 79.865286488395611, 6.830475592670951 ], [ 79.865024478924198, 6.830927203486989 ] ] ] ] } },
{ "type": "Feature", "properties": { "id": 171.0, "left": 399560.98812302755, "top": 481260.3994, "right": 399676.45817686548, "bottom": 481160.3994, "row_index": 10.0, "col_index": 8.0, "Area_build": 4538.5184, "Floor_Area": 21349.526, "Hex_area": 8659.4134, "GSI": 0.5241, "FSI": 2.4655, "OSR": 0.193, "GSI_Norm": 0.1555, "FSI_Norm": 0.0488, "Density_V": 0.1022 }, "geometry": { "type": "MultiPolygon", "coordinates": [ [ [ [ 79.865026190845839, 6.830022994104111 ], [ 79.865286488395611, 6.830475592670951 ], [ 79.865808795416783, 6.830476579988801 ], [ 79.866070803907689, 6.830024968608468 ], [ 79.86581050575225, 6.829572370391703 ], [ 79.865288199711543, 6.829571383205193 ], [ 79.865026190845839, 6.830022994104111 ] ] ] ] } },
{ "type": "Feature", "properties": { "id": 172.0, "left": 399560.98812302755, "top": 481160.3994, "right": 399676.45817686548, "bottom": 481060.3994, "row_index": 11.0, "col_index": 8.0, "Area_build": 4717.3493, "Floor_Area": 23550.93, "Hex_area": 8659.4134, "GSI": 0.5448, "FSI": 2.7197, "OSR": 0.1674, "GSI_Norm": 0.1617, "FSI_Norm": 0.0538, "Density_V": 0.1078 }, "geometry": { "type": "MultiPolygon", "coordinates": [ [ [ [ 79.865027902536497, 6.82911878468687 ], [ 79.865288199711543, 6.829571383205193 ], [ 79.86581050575225, 6.829572370391703 ], [ 79.866072513637562, 6.829120758928553 ], [ 79.86581221585692, 6.828668160760249 ], [ 79.86528991079652, 6.828667173705082 ], [ 79.865027902536497, 6.82911878468687 ] ] ] ] } },
{ "type": "Feature", "properties": { "id": 173.0, "left": 399560.98812302755, "top": 481060.3994, "right": 399676.45817686548, "bottom": 480960.3994, "row_index": 12.0, "col_index": 8.0, "Area_build": 5169.8518, "Floor_Area": 25034.055, "Hex_area": 8659.4134, "GSI": 0.597, "FSI": 2.891, "OSR": 0.1394, "GSI_Norm": 0.1771, "FSI_Norm": 0.0572, "Density_V": 0.1172 }, "geometry": { "type": "MultiPolygon", "coordinates": [ [ [ [ 79.865029613996143, 6.828214575235276 ], [ 79.86528991079652, 6.828667173705082 ], [ 79.86581221585692, 6.828668160760249 ], [ 79.866074223136678, 6.82821654921428 ], [ 79.865813925730762, 6.827763951094444 ], [ 79.86529162165057, 6.827762964170613 ], [ 79.865029613996143, 6.828214575235276 ] ] ] ] } },
{ "type": "Feature", "properties": { "id": 174.0, "left": 399560.98812302755, "top": 480960.3994, "right": 399676.45817686548, "bottom": 480860.3994, "row_index": 13.0, "col_index": 8.0, "Area_build": 5349.6906, "Floor_Area": 26245.327, "Hex_area": 8659.4134, "GSI": 0.6178, "FSI": 3.0308, "OSR": 0.1261, "GSI_Norm": 0.1833, "FSI_Norm": 0.06, "Density_V": 0.1217 }, "geometry": { "type": "MultiPolygon", "coordinates": [ [ [ [ 79.865031325224777, 6.827310365749331 ], [ 79.86529162165057, 6.827762964170613 ], [ 79.865813925730762, 6.827763951094444 ], [ 79.866075932405067, 6.827312339465659 ], [ 79.865815635373806, 6.826859741394294 ], [ 79.86529333227368, 6.826858754601798 ], [ 79.865031325224777, 6.827310365749331 ] ] ] ] } },
{ "type": "Feature", "properties": { "id": 175.0, "left": 399560.98812302755, "top": 480860.3994, "right": 399676.45817686548, "bottom": 480760.3994, "row_index": 14.0, "col_index": 8.0, "Area_build": 1329.1741, "Floor_Area": 6837.748, "Hex_area": 2790.9097, "GSI": 0.4763, "FSI": 2.45, "OSR": 0.2138, "GSI_Norm": 0.1413, "FSI_Norm": 0.0485, "Density_V": 0.0949 }, "geometry": { "type": "MultiPolygon", "coordinates": [ [ [ [ 79.866015695136937, 6.826327742600517 ], [ 79.865886077009549, 6.826385944234502 ], [ 79.865758351868749, 6.826448186512486 ], [ 79.865632645761011, 6.826514408010051 ], [ 79.865509082740402, 6.826584543375875 ], [ 79.865387784746275, 6.826658523396213 ], [ 79.865268871482797, 6.826736275063197 ], [ 79.86523608496158, 6.826759214018077 ], [ 79.86529333227368, 6.826858754601798 ], [ 79.865815635373806, 6.826859741394294 ], [ 79.866077641442729, 6.826408129682695 ], [ 79.866028400426913, 6.826322510568993 ], [ 79.866015695136937, 6.826327742600517 ] ] ] ] } },
{ "type": "Feature", "properties": { "id": 185.0, "left": 399647.59066340601, "top": 481810.3994, "right": 399763.06071724393, "bottom": 481710.3994, "row_index": 4.0, "col_index": 9.0, "Area_build": 944.3019, "Floor_Area": 3555.003, "Hex_area": 1664.4009, "GSI": 0.5674, "FSI": 2.1359, "OSR": 0.2026, "GSI_Norm": 0.1684, "FSI_Norm": 0.0423, "Density_V": 0.1054 }, "geometry": { "type": "MultiPolygon", "coordinates": [ [ [ [ 79.86613118073231, 6.834680767876455 ], [ 79.866264011831305, 6.834731222111659 ], [ 79.866398363030413, 6.834777481216835 ], [ 79.866534101738495, 6.834819499538229 ], [ 79.866671093994839, 6.834857235607304 ], [ 79.866777840074349, 6.834883063376159 ], [ 79.866584563347388, 6.834547003552228 ], [ 79.866062251797132, 6.834546016492593 ], [ 79.866012686731409, 6.834631448422805 ], [ 79.86613118073231, 6.834680767876455 ] ] ] ] } },
{ "type": "Feature", "properties": { "id": 186.0, "left": 399647.59066340601, "top": 481710.3994, "right": 399763.06071724393, "bottom": 481610.3994, "row_index": 5.0, "col_index": 9.0, "Area_build": 6330.3687, "Floor_Area": 24156.195, "Hex_area": 8659.4171, "GSI": 0.731, "FSI": 2.7896, "OSR": 0.0964, "GSI_Norm": 0.2169, "FSI_Norm": 0.0552, "Density_V": 0.1361 }, "geometry": { "type": "MultiPolygon", "coordinates": [ [ [ [ 79.86580195176677, 6.83409341803354 ], [ 79.866062251797132, 6.834546016492593 ], [ 79.866584563347388, 6.834547003552228 ], [ 79.866846573886193, 6.834095392021586 ], [ 79.866586273249951, 6.83364279391292 ], [ 79.866063962680741, 6.83364180698451 ], [ 79.86580195176677, 6.83409341803354 ] ] ] ] } },
{ "type": "Feature", "properties": { "id": 187.0, "left": 399647.59066340601, "top": 481610.3994, "right": 399763.06071724393, "bottom": 481510.3994, "row_index": 6.0, "col_index": 9.0, "Area_build": 7943.2594, "Floor_Area": 71747.538, "Hex_area": 8659.4171, "GSI": 0.9173, "FSI": 8.2855, "OSR": 0.01, "GSI_Norm": 0.2722, "FSI_Norm": 0.1639, "Density_V": 0.2181 }, "geometry": { "type": "MultiPolygon", "coordinates": [ [ [ [ 79.865803663025503, 6.83318920857391 ], [ 79.866063962680741, 6.83364180698451 ], [ 79.866586273249951, 6.83364279391292 ], [ 79.866848283182932, 6.833191182299504 ], [ 79.866587982921885, 6.832738584239233 ], [ 79.866065673333608, 6.832737597442053 ], [ 79.865803663025503, 6.83318920857391 ] ] ] ] } },
{ "type": "Feature", "properties": { "id": 188.0, "left": 399647.59066340601, "top": 481510.3994, "right": 399763.06071724393, "bottom": 481410.3994, "row_index": 7.0, "col_index": 9.0, "Area_build": 7408.7876, "Floor_Area": 58437.735, "Hex_area": 8659.4171, "GSI": 0.8556, "FSI": 6.7485, "OSR": 0.0214, "GSI_Norm": 0.2539, "FSI_Norm": 0.1335, "Density_V": 0.1937 }, "geometry": { "type": "MultiPolygon", "coordinates": [ [ [ [ 79.865805374053423, 6.832284999079912 ], [ 79.866065673333608, 6.832737597442053 ], [ 79.866587982921885, 6.832738584239233 ], [ 79.866849992249129, 6.832286972543049 ], [ 79.866589692363206, 6.831834374531178 ], [ 79.866067383755706, 6.831833387865223 ], [ 79.865805374053423, 6.832284999079912 ] ] ] ] } },
{ "type": "Feature", "properties": { "id": 189.0, "left": 399647.59066340601, "top": 481410.3994, "right": 399763.06071724393, "bottom": 481310.3994, "row_index": 8.0, "col_index": 9.0, "Area_build": 6407.2563, "Floor_Area": 36138.255, "Hex_area": 8659.4171, "GSI": 0.7399, "FSI": 4.1733, "OSR": 0.0623, "GSI_Norm": 0.2195, "FSI_Norm": 0.0826, "Density_V": 0.1511 }, "geometry": { "type": "MultiPolygon", "coordinates": [ [ [ [ 79.865807084850516, 6.831380789551538 ], [ 79.866067383755706, 6.831833387865223 ], [ 79.866589692363206, 6.831834374531178 ], [ 79.866851701084798, 6.831382762752219 ], [ 79.866591401573913, 6.830930164788755 ], [ 79.866069093947075, 6.83092917825403 ], [ 79.865807084850516, 6.831380789551538 ] ] ] ] } },
{ "type": "Feature", "properties": { "id": 190.0, "left": 399647.59066340601, "top": 481310.3994, "right": 399763.06071724393, "bottom": 481210.3994, "row_index": 9.0, "col_index": 9.0, "Area_build": 5975.0534, "Floor_Area": 27255.344, "Hex_area": 8659.4171, "GSI": 0.69, "FSI": 3.1475, "OSR": 0.0985, "GSI_Norm": 0.2047, "FSI_Norm": 0.0623, "Density_V": 0.1335 }, "geometry": { "type": "MultiPolygon", "coordinates": [ [ [ [ 79.865808795416783, 6.830476579988801 ], [ 79.866069093947075, 6.83092917825403 ], [ 79.866591401573913, 6.830930164788755 ], [ 79.866853409689895, 6.830478552927032 ], [ 79.866593110554007, 6.830025955011969 ], [ 79.866070803907689, 6.830024968608468 ], [ 79.865808795416783, 6.830476579988801 ] ] ] ] } },
{ "type": "Feature", "properties": { "id": 191.0, "left": 399647.59066340601, "top": 481210.3994, "right": 399763.06071724393, "bottom": 481110.3994, "row_index": 10.0, "col_index": 9.0, "Area_build": 5832.5111, "Floor_Area": 35032.331, "Hex_area": 8659.4171, "GSI": 0.6735, "FSI": 4.0456, "OSR": 0.0807, "GSI_Norm": 0.1998, "FSI_Norm": 0.08, "Density_V": 0.1399 }, "geometry": { "type": "MultiPolygon", "coordinates": [ [ [ [ 79.86581050575225, 6.829572370391703 ], [ 79.866070803907689, 6.830024968608468 ], [ 79.866593110554007, 6.830025955011969 ], [ 79.866855118064436, 6.829574343067482 ], [ 79.866594819303486, 6.829121745200825 ], [ 79.866072513637562, 6.829120758928553 ], [ 79.86581050575225, 6.829572370391703 ] ] ] ] } },
{ "type": "Feature", "properties": { "id": 192.0, "left": 399647.59066340601, "top": 481110.3994, "right": 399763.06071724393, "bottom": 481010.3994, "row_index": 11.0, "col_index": 9.0, "Area_build": 4378.1813, "Floor_Area": 25729.1, "Hex_area": 8659.4171, "GSI": 0.5056, "FSI": 2.9712, "OSR": 0.1664, "GSI_Norm": 0.15, "FSI_Norm": 0.0588, "Density_V": 0.1044 }, "geometry": { "type": "MultiPolygon", "coordinates": [ [ [ [ 79.86581221585692, 6.828668160760249 ], [ 79.866072513637562, 6.829120758928553 ], [ 79.866594819303486, 6.829121745200825 ], [ 79.866856826208476, 6.828670133173578 ], [ 79.866596527822338, 6.828217535355331 ], [ 79.866074223136678, 6.82821654921428 ], [ 79.86581221585692, 6.828668160760249 ] ] ] ] } },
{ "type": "Feature", "properties": { "id": 193.0, "left": 399647.59066340601, "top": 481010.3994, "right": 399763.06071724393, "bottom": 480910.3994, "row_index": 12.0, "col_index": 9.0, "Area_build": 6702.8422, "Floor_Area": 34933.134, "Hex_area": 8659.4171, "GSI": 0.7741, "FSI": 4.0341, "OSR": 0.056, "GSI_Norm": 0.2297, "FSI_Norm": 0.0798, "Density_V": 0.1548 }, "geometry": { "type": "MultiPolygon", "coordinates": [ [ [ [ 79.865813925730762, 6.827763951094444 ], [ 79.866074223136678, 6.82821654921428 ], [ 79.866596527822338, 6.828217535355331 ], [ 79.866858534121931, 6.827765923245322 ], [ 79.866598236110619, 6.827313325475485 ], [ 79.866075932405067, 6.827312339465659 ], [ 79.865813925730762, 6.827763951094444 ] ] ] ] } },
{ "type": "Feature", "properties": { "id": 194.0, "left": 399647.59066340601, "top": 480910.3994, "right": 399763.06071724393, "bottom": 480810.3994, "row_index": 13.0, "col_index": 9.0, "Area_build": 4703.6278, "Floor_Area": 22966.243, "Hex_area": 8659.4171, "GSI": 0.5432, "FSI": 2.6522, "OSR": 0.1722, "GSI_Norm": 0.1612, "FSI_Norm": 0.0525, "Density_V": 0.1069 }, "geometry": { "type": "MultiPolygon", "coordinates": [ [ [ [ 79.865815635373806, 6.826859741394294 ], [ 79.866075932405067, 6.827312339465659 ], [ 79.866598236110619, 6.827313325475485 ], [ 79.866860241804872, 6.82686171328272 ], [ 79.866599944168271, 6.826409115561295 ], [ 79.866077641442729, 6.826408129682695 ], [ 79.865815635373806, 6.826859741394294 ] ] ] ] } },
{ "type": "Feature", "properties": { "id": 195.0, "left": 399647.59066340601, "top": 480810.3994, "right": 399763.06071724393, "bottom": 480710.3994, "row_index": 14.0, "col_index": 9.0, "Area_build": 1074.5228, "Floor_Area": 4517.893, "Hex_area": 1664.4064, "GSI": 0.6456, "FSI": 2.7144, "OSR": 0.1306, "GSI_Norm": 0.1916, "FSI_Norm": 0.0537, "Density_V": 0.1227 }, "geometry": { "type": "MultiPolygon", "coordinates": [ [ [ [ 79.866687645304268, 6.826099211756322 ], [ 79.866550513866883, 6.826136430267118 ], [ 79.866414619713623, 6.826177935657688 ], [ 79.866280096952096, 6.82622368696787 ], [ 79.866147078336525, 6.826273639047408 ], [ 79.866028400426913, 6.826322510568993 ], [ 79.866077641442729, 6.826408129682695 ], [ 79.866599944168271, 6.826409115561295 ], [ 79.866794486690566, 6.826073787101421 ], [ 79.866687645304268, 6.826099211756322 ] ] ] ] } },
{ "type": "Feature", "properties": { "id": 206.0, "left": 399734.19320378441, "top": 481760.3994, "right": 399849.66325762233, "bottom": 481660.3994, "row_index": 5.0, "col_index": 10.0, "Area_build": 6834.3092, "Floor_Area": 45001.571, "Hex_area": 8259.9341, "GSI": 0.8274, "FSI": 5.4482, "OSR": 0.0317, "GSI_Norm": 0.2455, "FSI_Norm": 0.1078, "Density_V": 0.1767 }, "geometry": { "type": "MultiPolygon", "coordinates": [ [ [ [ 79.866809204601509, 6.834890652181675 ], [ 79.866948297256727, 6.834919716281873 ], [ 79.867088234689419, 6.834944399223888 ], [ 79.867228878794705, 6.834964676647473 ], [ 79.867370090770194, 6.834980528540224 ], [ 79.867378424821766, 6.834981199941979 ], [ 79.867629186678485, 6.834548975973013 ], [ 79.867368885061182, 6.834096378166421 ], [ 79.866846573886193, 6.834095392021586 ], [ 79.866584563347388, 6.834547003552228 ], [ 79.866777840074349, 6.834883063376159 ], [ 79.866809204601509, 6.834890652181675 ] ] ] ] } },
{ "type": "Feature", "properties": { "id": 207.0, "left": 399734.19320378441, "top": 481660.3994, "right": 399849.66325762233, "bottom": 481560.3994, "row_index": 6.0, "col_index": 10.0, "Area_build": 5917.6095, "Floor_Area": 49647.533, "Hex_area": 8659.4208, "GSI": 0.6834, "FSI": 5.7334, "OSR": 0.0552, "GSI_Norm": 0.2028, "FSI_Norm": 0.1134, "Density_V": 0.1581 }, "geometry": { "type": "MultiPolygon", "coordinates": [ [ [ [ 79.866586273249951, 6.83364279391292 ], [ 79.866846573886193, 6.834095392021586 ], [ 79.867368885061182, 6.834096378166421 ], [ 79.867630894618941, 6.833644766071472 ], [ 79.867370593376961, 6.833192168313222 ], [ 79.866848283182932, 6.833191182299504 ], [ 79.866586273249951, 6.83364279391292 ] ] ] ] } },
{ "type": "Feature", "properties": { "id": 208.0, "left": 399734.19320378441, "top": 481560.3994, "right": 399849.66325762233, "bottom": 481460.3994, "row_index": 7.0, "col_index": 10.0, "Area_build": 5640.0173, "Floor_Area": 75054.567, "Hex_area": 8659.4208, "GSI": 0.6513, "FSI": 8.6674, "OSR": 0.0402, "GSI_Norm": 0.1933, "FSI_Norm": 0.1715, "Density_V": 0.1824 }, "geometry": { "type": "MultiPolygon", "coordinates": [ [ [ [ 79.866587982921885, 6.832738584239233 ], [ 79.866848283182932, 6.833191182299504 ], [ 79.867370593376961, 6.833192168313222 ], [ 79.867632602329024, 6.832740556135559 ], [ 79.867372301462311, 6.832287958425652 ], [ 79.866849992249129, 6.832286972543049 ], [ 79.866587982921885, 6.832738584239233 ] ] ] ] } },
{ "type": "Feature", "properties": { "id": 209.0, "left": 399734.19320378441, "top": 481460.3994, "right": 399849.66325762233, "bottom": 481360.3994, "row_index": 8.0, "col_index": 10.0, "Area_build": 4819.647, "Floor_Area": 29391.393, "Hex_area": 8659.4208, "GSI": 0.5566, "FSI": 3.3942, "OSR": 0.1306, "GSI_Norm": 0.1652, "FSI_Norm": 0.0671, "Density_V": 0.1162 }, "geometry": { "type": "MultiPolygon", "coordinates": [ [ [ [ 79.866589692363206, 6.831834374531178 ], [ 79.866849992249129, 6.832286972543049 ], [ 79.867372301462311, 6.832287958425652 ], [ 79.867634309808764, 6.831836346165276 ], [ 79.867374009317217, 6.831383748503712 ], [ 79.866851701084798, 6.831382762752219 ], [ 79.866589692363206, 6.831834374531178 ] ] ] ] } },
{ "type": "Feature", "properties": { "id": 210.0, "left": 399734.19320378441, "top": 481360.3994, "right": 399849.66325762233, "bottom": 481260.3994, "row_index": 9.0, "col_index": 10.0, "Area_build": 7605.7838, "Floor_Area": 43850.663, "Hex_area": 8659.4208, "GSI": 0.8783, "FSI": 5.0639, "OSR": 0.024, "GSI_Norm": 0.2606, "FSI_Norm": 0.1002, "Density_V": 0.1804 }, "geometry": { "type": "MultiPolygon", "coordinates": [ [ [ [ 79.866591401573913, 6.830930164788755 ], [ 79.866851701084798, 6.831382762752219 ], [ 79.867374009317217, 6.831383748503712 ], [ 79.867636017058146, 6.830932136160627 ], [ 79.867375716941737, 6.830479538547409 ], [ 79.866853409689895, 6.830478552927032 ], [ 79.866591401573913, 6.830930164788755 ] ] ] ] } },
{ "type": "Feature", "properties": { "id": 211.0, "left": 399734.19320378441, "top": 481260.3994, "right": 399849.66325762233, "bottom": 481160.3994, "row_index": 10.0, "col_index": 10.0, "Area_build": 5778.3628, "Floor_Area": 45563.055, "Hex_area": 8659.4208, "GSI": 0.6673, "FSI": 5.2617, "OSR": 0.0632, "GSI_Norm": 0.198, "FSI_Norm": 0.1041, "Density_V": 0.1511 }, "geometry": { "type": "MultiPolygon", "coordinates": [ [ [ [ 79.866593110554007, 6.830025955011969 ], [ 79.866853409689895, 6.830478552927032 ], [ 79.867375716941737, 6.830479538547409 ], [ 79.867637724077198, 6.830027926121613 ], [ 79.867377424335842, 6.829575328556749 ], [ 79.866855118064436, 6.829574343067482 ], [ 79.866593110554007, 6.830025955011969 ] ] ] ] } },
{ "type": "Feature", "properties": { "id": 212.0, "left": 399734.19320378441, "top": 481160.3994, "right": 399849.66325762233, "bottom": 481060.3994, "row_index": 11.0, "col_index": 10.0, "Area_build": 2258.0113, "Floor_Area": 11142.255, "Hex_area": 8659.4208, "GSI": 0.2608, "FSI": 1.2867, "OSR": 0.5745, "GSI_Norm": 0.0774, "FSI_Norm": 0.0255, "Density_V": 0.0515 }, "geometry": { "type": "MultiPolygon", "coordinates": [ [ [ [ 79.866594819303486, 6.829121745200825 ], [ 79.866855118064436, 6.829574343067482 ], [ 79.867377424335842, 6.829575328556749 ], [ 79.867639430865879, 6.829123716048247 ], [ 79.867379131499519, 6.82867111853173 ], [ 79.866856826208476, 6.828670133173578 ], [ 79.866594819303486, 6.829121745200825 ] ] ] ] } },
{ "type": "Feature", "properties": { "id": 213.0, "left": 399734.19320378441, "top": 481060.3994, "right": 399849.66325762233, "bottom": 480960.3994, "row_index": 12.0, "col_index": 10.0, "Area_build": 6334.1506, "Floor_Area": 36430.408, "Hex_area": 8659.4209, "GSI": 0.7315, "FSI": 4.207, "OSR": 0.0638, "GSI_Norm": 0.217, "FSI_Norm": 0.0832, "Density_V": 0.1501 }, "geometry": { "type": "MultiPolygon", "coordinates": [ [ [ [ 79.866596527822338, 6.828217535355331 ], [ 79.866856826208476, 6.828670133173578 ], [ 79.867379131499519, 6.82867111853173 ], [ 79.867641137424258, 6.828219505940524 ], [ 79.867380838432823, 6.827766908472364 ], [ 79.866858534121931, 6.827765923245322 ], [ 79.866596527822338, 6.828217535355331 ] ] ] ] } },
{ "type": "Feature", "properties": { "id": 214.0, "left": 399734.19320378441, "top": 480960.3994, "right": 399849.66325762233, "bottom": 480860.3994, "row_index": 13.0, "col_index": 10.0, "Area_build": 4663.9431, "Floor_Area": 21704.284, "Hex_area": 8659.4208, "GSI": 0.5386, "FSI": 2.5064, "OSR": 0.1841, "GSI_Norm": 0.1598, "FSI_Norm": 0.0496, "Density_V": 0.1047 }, "geometry": { "type": "MultiPolygon", "coordinates": [ [ [ [ 79.866598236110619, 6.827313325475485 ], [ 79.866858534121931, 6.827765923245322 ], [ 79.867380838432823, 6.827766908472364 ], [ 79.867642843752279, 6.827315295798457 ], [ 79.867382545135683, 6.826862698378649 ], [ 79.866860241804872, 6.82686171328272 ], [ 79.866598236110619, 6.827313325475485 ] ] ] ] } },
{ "type": "Feature", "properties": { "id": 215.0, "left": 399734.19320378441, "top": 480860.3994, "right": 399849.66325762233, "bottom": 480760.3994, "row_index": 14.0, "col_index": 10.0, "Area_build": 3937.0361, "Floor_Area": 18318.686, "Hex_area": 8259.9384, "GSI": 0.4766, "FSI": 2.2178, "OSR": 0.236, "GSI_Norm": 0.1414, "FSI_Norm": 0.0439, "Density_V": 0.0927 }, "geometry": { "type": "MultiPolygon", "coordinates": [ [ [ [ 79.867387090029709, 6.825978557957073 ], [ 79.867245821822664, 6.825993876914493 ], [ 79.867105104733824, 6.826013623433229 ], [ 79.866965077630041, 6.826037778025881 ], [ 79.866825878697298, 6.826066316854948 ], [ 79.866794486690566, 6.826073787101421 ], [ 79.866599944168271, 6.826409115561295 ], [ 79.866860241804872, 6.82686171328272 ], [ 79.867382545135683, 6.826862698378649 ], [ 79.867644549849942, 6.826411085622043 ], [ 79.86739542607107, 6.825977918029128 ], [ 79.867387090029709, 6.825978557957073 ] ] ] ] } },
{ "type": "Feature", "properties": { "id": 225.0, "left": 399820.79574416287, "top": 481810.3994, "right": 399936.26579800079, "bottom": 481710.3994, "row_index": 4.0, "col_index": 11.0, "Area_build": 3179.9858, "Floor_Area": 21431.667, "Hex_area": 4191.2993, "GSI": 0.7587, "FSI": 5.1134, "OSR": 0.0472, "GSI_Norm": 0.2251, "FSI_Norm": 0.1011, "Density_V": 0.1631 }, "geometry": { "type": "MultiPolygon", "coordinates": [ [ [ [ 79.867511731252961, 6.834991939257295 ], [ 79.867653660457151, 6.834998897536865 ], [ 79.867795738311898, 6.83500139651124 ], [ 79.867937824599522, 6.834999433713644 ], [ 79.868079779094131, 6.834993011080669 ], [ 79.868221461699719, 6.834982134950316 ], [ 79.868362732588722, 6.83496681605581 ], [ 79.868389115070173, 6.834963113929579 ], [ 79.868151498459241, 6.834549961334157 ], [ 79.867629186678485, 6.834548975973013 ], [ 79.867378424821766, 6.834981199941979 ], [ 79.867511731252961, 6.834991939257295 ] ] ] ] } },
{ "type": "Feature", "properties": { "id": 226.0, "left": 399820.79574416287, "top": 481710.3994, "right": 399936.26579800079, "bottom": 481610.3994, "row_index": 5.0, "col_index": 11.0, "Area_build": 7659.1184, "Floor_Area": 56192.546, "Hex_area": 8659.4245, "GSI": 0.8845, "FSI": 6.4892, "OSR": 0.0178, "GSI_Norm": 0.2624, "FSI_Norm": 0.1284, "Density_V": 0.1954 }, "geometry": { "type": "MultiPolygon", "coordinates": [ [ [ [ 79.867368885061182, 6.834096378166421 ], [ 79.867629186678485, 6.834548975973013 ], [ 79.868151498459241, 6.834549961334157 ], [ 79.868413507641577, 6.834098348757707 ], [ 79.868153205418622, 6.83364575130162 ], [ 79.867630894618941, 6.833644766071472 ], [ 79.867368885061182, 6.834096378166421 ] ] ] ] } },
{ "type": "Feature", "properties": { "id": 227.0, "left": 399820.79574416287, "top": 481610.3994, "right": 399936.26579800079, "bottom": 481510.3994, "row_index": 6.0, "col_index": 11.0, "Area_build": 4606.0721, "Floor_Area": 24140.486, "Hex_area": 8659.4245, "GSI": 0.5319, "FSI": 2.7878, "OSR": 0.1679, "GSI_Norm": 0.1578, "FSI_Norm": 0.0551, "Density_V": 0.1065 }, "geometry": { "type": "MultiPolygon", "coordinates": [ [ [ [ 79.867370593376961, 6.833192168313222 ], [ 79.867630894618941, 6.833644766071472 ], [ 79.868153205418622, 6.83364575130162 ], [ 79.868415213995362, 6.833194138642508 ], [ 79.868154912147787, 6.832741541234703 ], [ 79.867632602329024, 6.832740556135559 ], [ 79.867370593376961, 6.833192168313222 ] ] ] ] } },
{ "type": "Feature", "properties": { "id": 228.0, "left": 399820.79574416287, "top": 481510.3994, "right": 399936.26579800079, "bottom": 481410.3994, "row_index": 7.0, "col_index": 11.0, "Area_build": 3912.6067, "Floor_Area": 16741.86, "Hex_area": 8659.4245, "GSI": 0.4518, "FSI": 1.9334, "OSR": 0.2835, "GSI_Norm": 0.1341, "FSI_Norm": 0.0382, "Density_V": 0.0862 }, "geometry": { "type": "MultiPolygon", "coordinates": [ [ [ [ 79.867372301462311, 6.832287958425652 ], [ 79.867632602329024, 6.832740556135559 ], [ 79.868154912147787, 6.832741541234703 ], [ 79.868416920119003, 6.832289928492938 ], [ 79.868156618646736, 6.83183733113342 ], [ 79.867634309808764, 6.831836346165276 ], [ 79.867372301462311, 6.832287958425652 ] ] ] ] } },
{ "type": "Feature", "properties": { "id": 229.0, "left": 399820.79574416287, "top": 481410.3994, "right": 399936.26579800079, "bottom": 481310.3994, "row_index": 8.0, "col_index": 11.0, "Area_build": 4828.0675, "Floor_Area": 20517.741, "Hex_area": 8659.4245, "GSI": 0.5576, "FSI": 2.3694, "OSR": 0.1867, "GSI_Norm": 0.1655, "FSI_Norm": 0.0469, "Density_V": 0.1062 }, "geometry": { "type": "MultiPolygon", "coordinates": [ [ [ [ 79.867374009317217, 6.831383748503712 ], [ 79.867634309808764, 6.831836346165276 ], [ 79.868156618646736, 6.83183733113342 ], [ 79.868418626012485, 6.831385718308995 ], [ 79.868158324915484, 6.830933120997766 ], [ 79.867636017058146, 6.830932136160627 ], [ 79.867374009317217, 6.831383748503712 ] ] ] ] } },
{ "type": "Feature", "properties": { "id": 230.0, "left": 399820.79574416287, "top": 481310.3994, "right": 399936.26579800079, "bottom": 481210.3994, "row_index": 9.0, "col_index": 11.0, "Area_build": 5326.071, "Floor_Area": 36978.203, "Hex_area": 8659.4246, "GSI": 0.6151, "FSI": 4.2703, "OSR": 0.0901, "GSI_Norm": 0.1825, "FSI_Norm": 0.0845, "Density_V": 0.1335 }, "geometry": { "type": "MultiPolygon", "coordinates": [ [ [ [ 79.867375716941737, 6.830479538547409 ], [ 79.867636017058146, 6.830932136160627 ], [ 79.868158324915484, 6.830933120997766 ], [ 79.868420331675821, 6.830481508090695 ], [ 79.868160030953987, 6.830028910827757 ], [ 79.867637724077198, 6.830027926121613 ], [ 79.867375716941737, 6.830479538547409 ] ] ] ] } },
{ "type": "Feature", "properties": { "id": 231.0, "left": 399820.79574416287, "top": 481210.3994, "right": 399936.26579800079, "bottom": 481110.3994, "row_index": 10.0, "col_index": 11.0, "Area_build": 3832.4055, "Floor_Area": 19430.301, "Hex_area": 8659.4245, "GSI": 0.4426, "FSI": 2.2438, "OSR": 0.2484, "GSI_Norm": 0.1313, "FSI_Norm": 0.0444, "Density_V": 0.0879 }, "geometry": { "type": "MultiPolygon", "coordinates": [ [ [ [ 79.867377424335842, 6.829575328556749 ], [ 79.867637724077198, 6.830027926121613 ], [ 79.868160030953987, 6.830028910827757 ], [ 79.868422037108999, 6.829577297838032 ], [ 79.868161736762303, 6.829124700623389 ], [ 79.867639430865879, 6.829123716048247 ], [ 79.867377424335842, 6.829575328556749 ] ] ] ] } },
{ "type": "Feature", "properties": { "id": 232.0, "left": 399820.79574416287, "top": 481110.3994, "right": 399936.26579800079, "bottom": 481010.3994, "row_index": 11.0, "col_index": 11.0, "Area_build": 4400.8641, "Floor_Area": 19121.434, "Hex_area": 8659.4245, "GSI": 0.5082, "FSI": 2.2082, "OSR": 0.2227, "GSI_Norm": 0.1508, "FSI_Norm": 0.0437, "Density_V": 0.0973 }, "geometry": { "type": "MultiPolygon", "coordinates": [ [ [ [ 79.867379131499519, 6.82867111853173 ], [ 79.867639430865879, 6.829123716048247 ], [ 79.868161736762303, 6.829124700623389 ], [ 79.868423742312032, 6.828673087551021 ], [ 79.868163442340389, 6.828220490384671 ], [ 79.867641137424258, 6.828219505940524 ], [ 79.867379131499519, 6.82867111853173 ] ] ] ] } },
{ "type": "Feature", "properties": { "id": 233.0, "left": 399820.79574416287, "top": 481010.3994, "right": 399936.26579800079, "bottom": 480910.3994, "row_index": 12.0, "col_index": 11.0, "Area_build": 5162.3412, "Floor_Area": 23120.934, "Hex_area": 8659.4246, "GSI": 0.5962, "FSI": 2.67, "OSR": 0.1513, "GSI_Norm": 0.1769, "FSI_Norm": 0.0528, "Density_V": 0.1149 }, "geometry": { "type": "MultiPolygon", "coordinates": [ [ [ [ 79.867380838432823, 6.827766908472364 ], [ 79.867641137424258, 6.828219505940524 ], [ 79.868163442340389, 6.828220490384671 ], [ 79.868425447284935, 6.827768877229654 ], [ 79.868165147688288, 6.827316280111606 ], [ 79.867642843752279, 6.827315295798457 ], [ 79.867380838432823, 6.827766908472364 ] ] ] ] } },
{ "type": "Feature", "properties": { "id": 234.0, "left": 399820.79574416287, "top": 480910.3994, "right": 399936.26579800079, "bottom": 480810.3994, "row_index": 13.0, "col_index": 11.0, "Area_build": 4268.7018, "Floor_Area": 22626.646, "Hex_area": 8659.4246, "GSI": 0.493, "FSI": 2.613, "OSR": 0.1941, "GSI_Norm": 0.1463, "FSI_Norm": 0.0517, "Density_V": 0.099 }, "geometry": { "type": "MultiPolygon", "coordinates": [ [ [ [ 79.867382545135683, 6.826862698378649 ], [ 79.867642843752279, 6.827315295798457 ], [ 79.868165147688288, 6.827316280111606 ], [ 79.868427152027678, 6.826864666873945 ], [ 79.868166852805956, 6.826412069804197 ], [ 79.867644549849942, 6.826411085622043 ], [ 79.867382545135683, 6.826862698378649 ] ] ] ] } },
{ "type": "Feature", "properties": { "id": 235.0, "left": 399820.79574416287, "top": 480810.3994, "right": 399936.26579800079, "bottom": 480710.3994, "row_index": 14.0, "col_index": 11.0, "Area_build": 2851.7584, "Floor_Area": 15022.017, "Hex_area": 4191.3067, "GSI": 0.6804, "FSI": 3.5841, "OSR": 0.0892, "GSI_Norm": 0.2019, "FSI_Norm": 0.0709, "Density_V": 0.1364 }, "geometry": { "type": "MultiPolygon", "coordinates": [ [ [ [ 79.868379654498924, 6.825996013501176 ], [ 79.868238445047567, 6.825980162241124 ], [ 79.868096807142649, 6.825968752080355 ], [ 79.867954880559864, 6.825961794278501 ], [ 79.867812805359748, 6.825959295701361 ], [ 79.86767072174942, 6.825961258814144 ], [ 79.8675287699443, 6.825967681679026 ], [ 79.86739542607107, 6.825977918029128 ], [ 79.867644549849942, 6.826411085622043 ], [ 79.868166852805956, 6.826412069804197 ], [ 79.86840602265444, 6.825999815078418 ], [ 79.868379654498924, 6.825996013501176 ] ] ] ] } },
{ "type": "Feature", "properties": { "id": 246.0, "left": 399907.39828454127, "top": 481760.3994, "right": 400022.86833837925, "bottom": 481660.3994, "row_index": 5.0, "col_index": 12.0, "Area_build": 4852.46, "Floor_Area": 17763.548, "Hex_area": 7997.0613, "GSI": 0.6068, "FSI": 2.2213, "OSR": 0.177, "GSI_Norm": 0.18, "FSI_Norm": 0.0439, "Density_V": 0.112 }, "geometry": { "type": "MultiPolygon", "coordinates": [ [ [ [ 79.868503452339837, 6.834947069514951 ], [ 79.868643482075711, 6.834922914815227 ], [ 79.868782683600017, 6.834894375794569 ], [ 79.868920919533807, 6.834861480617832 ], [ 79.869034401789733, 6.834830680938023 ], [ 79.869196122250912, 6.83455193035795 ], [ 79.868935819046882, 6.834099333204163 ], [ 79.868413507641577, 6.834098348757707 ], [ 79.868151498459241, 6.834549961334157 ], [ 79.868389115070173, 6.834963113929579 ], [ 79.868503452339837, 6.834947069514951 ] ] ] ] } },
{ "type": "Feature", "properties": { "id": 247.0, "left": 399907.39828454127, "top": 481660.3994, "right": 400022.86833837925, "bottom": 481560.3994, "row_index": 6.0, "col_index": 12.0, "Area_build": 6922.8923, "Floor_Area": 33929.031, "Hex_area": 8659.4283, "GSI": 0.7995, "FSI": 3.9182, "OSR": 0.0512, "GSI_Norm": 0.2372, "FSI_Norm": 0.0775, "Density_V": 0.1574 }, "geometry": { "type": "MultiPolygon", "coordinates": [ [ [ [ 79.868153205418622, 6.83364575130162 ], [ 79.868413507641577, 6.834098348757707 ], [ 79.868935819046882, 6.834099333204163 ], [ 79.869197827248172, 6.833647720063635 ], [ 79.868937524419678, 6.833195122958077 ], [ 79.868415213995362, 6.833194138642508 ], [ 79.868153205418622, 6.83364575130162 ] ] ] ] } },
{ "type": "Feature", "properties": { "id": 248.0, "left": 399907.39828454127, "top": 481560.3994, "right": 400022.86833837925, "bottom": 481460.3994, "row_index": 7.0, "col_index": 12.0, "Area_build": 3787.2486, "Floor_Area": 14580.876, "Hex_area": 8659.4283, "GSI": 0.4374, "FSI": 1.6838, "OSR": 0.3341, "GSI_Norm": 0.1298, "FSI_Norm": 0.0333, "Density_V": 0.0816 }, "geometry": { "type": "MultiPolygon", "coordinates": [ [ [ [ 79.868154912147787, 6.832741541234703 ], [ 79.868415213995362, 6.833194138642508 ], [ 79.868937524419678, 6.833195122958077 ], [ 79.8691995320155, 6.832743509734945 ], [ 79.868939229562443, 6.832290912677616 ], [ 79.868416920119003, 6.832289928492938 ], [ 79.868154912147787, 6.832741541234703 ] ] ] ] } },
{ "type": "Feature", "properties": { "id": 249.0, "left": 399907.39828454127, "top": 481460.3994, "right": 400022.86833837925, "bottom": 481360.3994, "row_index": 8.0, "col_index": 12.0, "Area_build": 4628.1201, "Floor_Area": 19203.449, "Hex_area": 8659.4282, "GSI": 0.5345, "FSI": 2.2176, "OSR": 0.2099, "GSI_Norm": 0.1586, "FSI_Norm": 0.0439, "Density_V": 0.1012 }, "geometry": { "type": "MultiPolygon", "coordinates": [ [ [ [ 79.868156618646736, 6.83183733113342 ], [ 79.868416920119003, 6.832289928492938 ], [ 79.868939229562443, 6.832290912677616 ], [ 79.869201236552868, 6.831839299371884 ], [ 79.868940934475205, 6.831386702362789 ], [ 79.868418626012485, 6.831385718308995 ], [ 79.868156618646736, 6.83183733113342 ] ] ] ] } },
{ "type": "Feature", "properties": { "id": 250.0, "left": 399907.39828454127, "top": 481360.3994, "right": 400022.86833837925, "bottom": 481260.3994, "row_index": 9.0, "col_index": 12.0, "Area_build": 4138.2221, "Floor_Area": 18825.479, "Hex_area": 8659.4282, "GSI": 0.4779, "FSI": 2.174, "OSR": 0.2402, "GSI_Norm": 0.1418, "FSI_Norm": 0.043, "Density_V": 0.0924 }, "geometry": { "type": "MultiPolygon", "coordinates": [ [ [ [ 79.868158324915484, 6.830933120997766 ], [ 79.868418626012485, 6.831385718308995 ], [ 79.868940934475205, 6.831386702362789 ], [ 79.869202940860276, 6.830935088974462 ], [ 79.868942639157936, 6.830482492013599 ], [ 79.868420331675821, 6.830481508090695 ], [ 79.868158324915484, 6.830933120997766 ] ] ] ] } },
{ "type": "Feature", "properties": { "id": 251.0, "left": 399907.39828454127, "top": 481260.3994, "right": 400022.86833837925, "bottom": 481160.3994, "row_index": 10.0, "col_index": 12.0, "Area_build": 5582.2133, "Floor_Area": 24518.508, "Hex_area": 8659.4283, "GSI": 0.6446, "FSI": 2.8314, "OSR": 0.1255, "GSI_Norm": 0.1913, "FSI_Norm": 0.056, "Density_V": 0.1237 }, "geometry": { "type": "MultiPolygon", "coordinates": [ [ [ [ 79.868160030953987, 6.830028910827757 ], [ 79.868420331675821, 6.830481508090695 ], [ 79.868942639157936, 6.830482492013599 ], [ 79.869204644937753, 6.830030878542677 ], [ 79.868944343610664, 6.829578281630049 ], [ 79.868422037108999, 6.829577297838032 ], [ 79.868160030953987, 6.830028910827757 ] ] ] ] } },
{ "type": "Feature", "properties": { "id": 252.0, "left": 399907.39828454127, "top": 481160.3994, "right": 400022.86833837925, "bottom": 481060.3994, "row_index": 11.0, "col_index": 12.0, "Area_build": 4036.8466, "Floor_Area": 18114.921, "Hex_area": 8659.4282, "GSI": 0.4662, "FSI": 2.0919, "OSR": 0.2552, "GSI_Norm": 0.1383, "FSI_Norm": 0.0414, "Density_V": 0.0899 }, "geometry": { "type": "MultiPolygon", "coordinates": [ [ [ [ 79.868161736762303, 6.829124700623389 ], [ 79.868422037108999, 6.829577297838032 ], [ 79.868944343610664, 6.829578281630049 ], [ 79.869206348785269, 6.829126668076539 ], [ 79.868946047833376, 6.828674071212151 ], [ 79.868423742312032, 6.828673087551021 ], [ 79.868161736762303, 6.829124700623389 ] ] ] ] } },
{ "type": "Feature", "properties": { "id": 253.0, "left": 399907.39828454127, "top": 481060.3994, "right": 400022.86833837925, "bottom": 480960.3994, "row_index": 12.0, "col_index": 12.0, "Area_build": 4154.7232, "Floor_Area": 17372.867, "Hex_area": 8659.4282, "GSI": 0.4798, "FSI": 2.0062, "OSR": 0.2593, "GSI_Norm": 0.1424, "FSI_Norm": 0.0397, "Density_V": 0.091 }, "geometry": { "type": "MultiPolygon", "coordinates": [ [ [ [ 79.868163442340389, 6.828220490384671 ], [ 79.868423742312032, 6.828673087551021 ], [ 79.868946047833376, 6.828674071212151 ], [ 79.869208052402854, 6.828222457576049 ], [ 79.868947751826084, 6.8277698607599 ], [ 79.868425447284935, 6.827768877229654 ], [ 79.868163442340389, 6.828220490384671 ] ] ] ] } },
{ "type": "Feature", "properties": { "id": 254.0, "left": 399907.39828454127, "top": 480960.3994, "right": 400022.86833837925, "bottom": 480860.3994, "row_index": 13.0, "col_index": 12.0, "Area_build": 5163.5505, "Floor_Area": 29617.432, "Hex_area": 8659.4283, "GSI": 0.5963, "FSI": 3.4203, "OSR": 0.118, "GSI_Norm": 0.1769, "FSI_Norm": 0.0677, "Density_V": 0.1223 }, "geometry": { "type": "MultiPolygon", "coordinates": [ [ [ [ 79.868165147688288, 6.827316280111606 ], [ 79.868425447284935, 6.827768877229654 ], [ 79.868947751826084, 6.8277698607599 ], [ 79.869209755790479, 6.827318247041215 ], [ 79.868949455588776, 6.826865650273309 ], [ 79.868427152027678, 6.826864666873945 ], [ 79.868165147688288, 6.827316280111606 ] ] ] ] } },
{ "type": "Feature", "properties": { "id": 255.0, "left": 399907.39828454127, "top": 480860.3994, "right": 400022.86833837925, "bottom": 480760.3994, "row_index": 14.0, "col_index": 12.0, "Area_build": 3401.6643, "Floor_Area": 27386.873, "Hex_area": 7997.066, "GSI": 0.4254, "FSI": 3.4246, "OSR": 0.1678, "GSI_Norm": 0.1262, "FSI_Norm": 0.0677, "Density_V": 0.097 }, "geometry": { "type": "MultiPolygon", "coordinates": [ [ [ [ 79.868937429934689, 6.826103451300838 ], [ 79.868799321540365, 6.826070035636918 ], [ 79.868660231189395, 6.82604097238247 ], [ 79.868520296143771, 6.826016290218168 ], [ 79.86840602265444, 6.825999815078418 ], [ 79.868166852805956, 6.826412069804197 ], [ 79.868427152027678, 6.826864666873945 ], [ 79.868949455588776, 6.826865650273309 ], [ 79.869211458948172, 6.826414036472038 ], [ 79.869050792801147, 6.826134678067224 ], [ 79.868937429934689, 6.826103451300838 ] ] ] ] } },
{ "type": "Feature", "properties": { "id": 265.0, "left": 399994.00082491979, "top": 481810.3994, "right": 400109.47087875771, "bottom": 481710.3994, "row_index": 4.0, "col_index": 13.0, "Area_build": 1105.8722, "Floor_Area": 4685.763, "Hex_area": 1077.3605, "GSI": 1.0265, "FSI": 4.3493, "OSR": -0.0061, "GSI_Norm": 0.3046, "FSI_Norm": 0.086, "Density_V": 0.1953 }, "geometry": { "type": "MultiPolygon", "coordinates": [ [ [ [ 79.86905805345117, 6.834824261748987 ], [ 79.869193950013766, 6.834782755919102 ], [ 79.869328475104567, 6.83473700409007 ], [ 79.869461495960067, 6.834687051414191 ], [ 79.869592881301458, 6.834632947189617 ], [ 79.869722501464082, 6.834574744811671 ], [ 79.869729131651596, 6.834571513834633 ], [ 79.869718434261756, 6.834552914020599 ], [ 79.869196122250912, 6.83455193035795 ], [ 79.869034401789733, 6.834830680938023 ], [ 79.86905805345117, 6.834824261748987 ] ] ] ] } },
{ "type": "Feature", "properties": { "id": 266.0, "left": 399994.00082491979, "top": 481710.3994, "right": 400109.47087875771, "bottom": 481610.3994, "row_index": 5.0, "col_index": 13.0, "Area_build": 4907.894, "Floor_Area": 20908.497, "Hex_area": 8659.4319, "GSI": 0.5668, "FSI": 2.4145, "OSR": 0.1794, "GSI_Norm": 0.1682, "FSI_Norm": 0.0478, "Density_V": 0.108 }, "geometry": { "type": "MultiPolygon", "coordinates": [ [ [ [ 79.868935819046882, 6.834099333204163 ], [ 79.869196122250912, 6.83455193035795 ], [ 79.869718434261756, 6.834552914020599 ], [ 79.869980442087467, 6.834101300398682 ], [ 79.86972013827797, 6.833648703595507 ], [ 79.869197827248172, 6.833647720063635 ], [ 79.868935819046882, 6.834099333204163 ] ] ] ] } },
{ "type": "Feature", "properties": { "id": 267.0, "left": 399994.00082491979, "top": 481610.3994, "right": 400109.47087875771, "bottom": 481510.3994, "row_index": 6.0, "col_index": 13.0, "Area_build": 4050.831, "Floor_Area": 15905.689, "Hex_area": 8659.432, "GSI": 0.4678, "FSI": 1.8368, "OSR": 0.2897, "GSI_Norm": 0.1388, "FSI_Norm": 0.0363, "Density_V": 0.0876 }, "geometry": { "type": "MultiPolygon", "coordinates": [ [ [ [ 79.868937524419678, 6.833195122958077 ], [ 79.869197827248172, 6.833647720063635 ], [ 79.86972013827797, 6.833648703595507 ], [ 79.86998214549827, 6.833197089891045 ], [ 79.869721842064351, 6.832744493136042 ], [ 79.8691995320155, 6.832743509734945 ], [ 79.868937524419678, 6.833195122958077 ] ] ] ] } },
{ "type": "Feature", "properties": { "id": 268.0, "left": 399994.00082491979, "top": 481510.3994, "right": 400109.47087875771, "bottom": 481410.3994, "row_index": 7.0, "col_index": 13.0, "Area_build": 4723.8452, "Floor_Area": 16007.799, "Hex_area": 8659.432, "GSI": 0.5455, "FSI": 1.8486, "OSR": 0.2459, "GSI_Norm": 0.1619, "FSI_Norm": 0.0366, "Density_V": 0.0992 }, "geometry": { "type": "MultiPolygon", "coordinates": [ [ [ [ 79.868939229562443, 6.832290912677616 ], [ 79.8691995320155, 6.832743509734945 ], [ 79.869721842064351, 6.832744493136042 ], [ 79.869983848679311, 6.832292879349038 ], [ 79.869723545620928, 6.831840282642213 ], [ 79.869201236552868, 6.831839299371884 ], [ 79.868939229562443, 6.832290912677616 ] ] ] ] } },
{ "type": "Feature", "properties": { "id": 269.0, "left": 399994.00082491979, "top": 481410.3994, "right": 400109.47087875771, "bottom": 481310.3994, "row_index": 8.0, "col_index": 13.0, "Area_build": 6400.4366, "Floor_Area": 44617.933, "Hex_area": 8659.432, "GSI": 0.7391, "FSI": 5.1525, "OSR": 0.0506, "GSI_Norm": 0.2193, "FSI_Norm": 0.1019, "Density_V": 0.1606 }, "geometry": { "type": "MultiPolygon", "coordinates": [ [ [ [ 79.868940934475205, 6.831386702362789 ], [ 79.869201236552868, 6.831839299371884 ], [ 79.869723545620928, 6.831840282642213 ], [ 79.869985551630634, 6.831388668772663 ], [ 79.869725248947674, 6.830936072114015 ], [ 79.869202940860276, 6.830935088974462 ], [ 79.868940934475205, 6.831386702362789 ] ] ] ] } },
{ "type": "Feature", "properties": { "id": 270.0, "left": 399994.00082491979, "top": 481310.3994, "right": 400109.47087875771, "bottom": 481210.3994, "row_index": 9.0, "col_index": 13.0, "Area_build": 4098.413, "Floor_Area": 15659.365, "Hex_area": 8659.432, "GSI": 0.4733, "FSI": 1.8084, "OSR": 0.2913, "GSI_Norm": 0.1404, "FSI_Norm": 0.0358, "Density_V": 0.0881 }, "geometry": { "type": "MultiPolygon", "coordinates": [ [ [ [ 79.868942639157936, 6.830482492013599 ], [ 79.869202940860276, 6.830935088974462 ], [ 79.869725248947674, 6.830936072114015 ], [ 79.869987254352168, 6.830484458161927 ], [ 79.869726952044616, 6.830031861551458 ], [ 79.869204644937753, 6.830030878542677 ], [ 79.868942639157936, 6.830482492013599 ] ] ] ] } },
{ "type": "Feature", "properties": { "id": 271.0, "left": 399994.00082491979, "top": 481210.3994, "right": 400109.47087875771, "bottom": 481110.3994, "row_index": 10.0, "col_index": 13.0, "Area_build": 4816.593, "Floor_Area": 20126.146, "Hex_area": 8659.4319, "GSI": 0.5562, "FSI": 2.3242, "OSR": 0.1909, "GSI_Norm": 0.165, "FSI_Norm": 0.046, "Density_V": 0.1055 }, "geometry": { "type": "MultiPolygon", "coordinates": [ [ [ [ 79.868944343610664, 6.829578281630049 ], [ 79.869204644937753, 6.830030878542677 ], [ 79.869726952044616, 6.830031861551458 ], [ 79.869988956843983, 6.829580247516838 ], [ 79.869728654911754, 6.829127650954547 ], [ 79.869206348785269, 6.829126668076539 ], [ 79.868944343610664, 6.829578281630049 ] ] ] ] } },
{ "type": "Feature", "properties": { "id": 272.0, "left": 399994.00082491979, "top": 481110.3994, "right": 400109.47087875771, "bottom": 481010.3994, "row_index": 11.0, "col_index": 13.0, "Area_build": 4833.9924, "Floor_Area": 21030.002, "Hex_area": 8659.432, "GSI": 0.5582, "FSI": 2.4286, "OSR": 0.1819, "GSI_Norm": 0.1656, "FSI_Norm": 0.048, "Density_V": 0.1068 }, "geometry": { "type": "MultiPolygon", "coordinates": [ [ [ [ 79.868946047833376, 6.828674071212151 ], [ 79.869206348785269, 6.829126668076539 ], [ 79.869728654911754, 6.829127650954547 ], [ 79.869990659106037, 6.82867603683739 ], [ 79.869730357549074, 6.828223440323287 ], [ 79.869208052402854, 6.828222457576049 ], [ 79.868946047833376, 6.828674071212151 ] ] ] ] } },
{ "type": "Feature", "properties": { "id": 273.0, "left": 399994.00082491979, "top": 481010.3994, "right": 400109.47087875771, "bottom": 480910.3994, "row_index": 12.0, "col_index": 13.0, "Area_build": 4668.1659, "Floor_Area": 21341.778, "Hex_area": 8659.4319, "GSI": 0.5391, "FSI": 2.4646, "OSR": 0.187, "GSI_Norm": 0.16, "FSI_Norm": 0.0488, "Density_V": 0.1044 }, "geometry": { "type": "MultiPolygon", "coordinates": [ [ [ [ 79.868947751826084, 6.8277698607599 ], [ 79.869208052402854, 6.828222457576049 ], [ 79.869730357549074, 6.828223440323287 ], [ 79.869992361138358, 6.827771826123596 ], [ 79.869732059956576, 6.82731922965768 ], [ 79.869209755790479, 6.827318247041215 ], [ 79.868947751826084, 6.8277698607599 ] ] ] ] } },
{ "type": "Feature", "properties": { "id": 274.0, "left": 399994.00082491979, "top": 480910.3994, "right": 400109.47087875771, "bottom": 480810.3994, "row_index": 13.0, "col_index": 13.0, "Area_build": 5479.1761, "Floor_Area": 28922.384, "Hex_area": 8659.432, "GSI": 0.6327, "FSI": 3.34, "OSR": 0.11, "GSI_Norm": 0.1877, "FSI_Norm": 0.0661, "Density_V": 0.1269 }, "geometry": { "type": "MultiPolygon", "coordinates": [ [ [ [ 79.868949455588776, 6.826865650273309 ], [ 79.869209755790479, 6.827318247041215 ], [ 79.869732059956576, 6.82731922965768 ], [ 79.869994062940918, 6.826867615375463 ], [ 79.86973376213426, 6.82641501895773 ], [ 79.869211458948172, 6.826414036472038 ], [ 79.868949455588776, 6.826865650273309 ] ] ] ] } },
{ "type": "Feature", "properties": { "id": 275.0, "left": 399994.00082491979, "top": 480810.3994, "right": 400109.47087875771, "bottom": 480710.3994, "row_index": 14.0, "col_index": 13.0, "Area_build": 382.2998, "Floor_Area": 2112.282, "Hex_area": 1077.3656, "GSI": 0.3548, "FSI": 1.9606, "OSR": 0.3291, "GSI_Norm": 0.1053, "FSI_Norm": 0.0388, "Density_V": 0.0721 }, "geometry": { "type": "MultiPolygon", "coordinates": [ [ [ [ 79.869737911476193, 6.826393203021242 ], [ 79.869608513713004, 6.826334513214062 ], [ 79.869477335435334, 6.826279914818226 ], [ 79.869344506097903, 6.826229461714022 ], [ 79.869210156784661, 6.8261832036909 ], [ 79.869074420079315, 6.826141186398347 ], [ 79.869050792801147, 6.826134678067224 ], [ 79.869211458948172, 6.826414036472038 ], [ 79.86973376213426, 6.82641501895773 ], [ 79.869744529602414, 6.826396459059602 ], [ 79.869737911476193, 6.826393203021242 ] ] ] ] } },
{ "type": "Feature", "properties": { "id": 286.0, "left": 400080.60336529819, "top": 481760.3994, "right": 400196.07341913611, "bottom": 481660.3994, "row_index": 5.0, "col_index": 14.0, "Area_build": 758.813, "Floor_Area": 2730.376, "Hex_area": 1754.6071, "GSI": 0.4325, "FSI": 1.5561, "OSR": 0.3647, "GSI_Norm": 0.1283, "FSI_Norm": 0.0308, "Density_V": 0.0796 }, "geometry": { "type": "MultiPolygon", "coordinates": [ [ [ [ 79.869850228525479, 6.834512501720186 ], [ 79.869975936431587, 6.834446279342778 ], [ 79.870099501121274, 6.834376143034248 ], [ 79.87022080064861, 6.834302162012057 ], [ 79.870339715303331, 6.834224409288034 ], [ 79.870456127728986, 6.834142961596294 ], [ 79.870505096800173, 6.83410635710058 ], [ 79.870502753722647, 6.834102283146749 ], [ 79.869980442087467, 6.834101300398682 ], [ 79.869718434261756, 6.834552914020599 ], [ 79.869729131651596, 6.834571513834634 ], [ 79.869850228525479, 6.834512501720186 ] ] ] ] } },
{ "type": "Feature", "properties": { "id": 287.0, "left": 400080.60336529819, "top": 481660.3994, "right": 400196.07341913611, "bottom": 481560.3994, "row_index": 6.0, "col_index": 14.0, "Area_build": 4454.4329, "Floor_Area": 19604.005, "Hex_area": 8659.4357, "GSI": 0.5144, "FSI": 2.2639, "OSR": 0.2145, "GSI_Norm": 0.1526, "FSI_Norm": 0.0448, "Density_V": 0.0987 }, "geometry": { "type": "MultiPolygon", "coordinates": [ [ [ [ 79.86972013827797, 6.833648703595507 ], [ 79.869980442087467, 6.834101300398682 ], [ 79.870502753722647, 6.834102283146749 ], [ 79.870764760567297, 6.83365066896098 ], [ 79.870504456152474, 6.833198072508451 ], [ 79.86998214549827, 6.833197089891045 ], [ 79.86972013827797, 6.833648703595507 ] ] ] ] } },
{ "type": "Feature", "properties": { "id": 288.0, "left": 400080.60336529819, "top": 481560.3994, "right": 400196.07341913611, "bottom": 481460.3994, "row_index": 7.0, "col_index": 14.0, "Area_build": 5001.2435, "Floor_Area": 23275.428, "Hex_area": 8659.4357, "GSI": 0.5775, "FSI": 2.6879, "OSR": 0.1572, "GSI_Norm": 0.1714, "FSI_Norm": 0.0532, "Density_V": 0.1123 }, "geometry": { "type": "MultiPolygon", "coordinates": [ [ [ [ 79.869721842064351, 6.832744493136042 ], [ 79.86998214549827, 6.833197089891045 ], [ 79.870504456152474, 6.833198072508451 ], [ 79.870766462391842, 6.832746458240193 ], [ 79.870506158352669, 6.832293861835784 ], [ 79.869983848679311, 6.832292879349038 ], [ 79.869721842064351, 6.832744493136042 ] ] ] ] } },
{ "type": "Feature", "properties": { "id": 289.0, "left": 400080.60336529819, "top": 481460.3994, "right": 400196.07341913611, "bottom": 481360.3994, "row_index": 8.0, "col_index": 14.0, "Area_build": 6287.9951, "Floor_Area": 43713.496, "Hex_area": 8659.4357, "GSI": 0.7261, "FSI": 5.0481, "OSR": 0.0542, "GSI_Norm": 0.2154, "FSI_Norm": 0.0999, "Density_V": 0.1577 }, "geometry": { "type": "MultiPolygon", "coordinates": [ [ [ [ 79.869723545620928, 6.831840282642213 ], [ 79.869983848679311, 6.832292879349038 ], [ 79.870506158352669, 6.832293861835784 ], [ 79.870768163986838, 6.83184224748504 ], [ 79.870507860323229, 6.831389651128749 ], [ 79.869985551630634, 6.831388668772663 ], [ 79.869723545620928, 6.831840282642213 ] ] ] ] } },
{ "type": "Feature", "properties": { "id": 290.0, "left": 400080.60336529819, "top": 481360.3994, "right": 400196.07341913611, "bottom": 481260.3994, "row_index": 9.0, "col_index": 14.0, "Area_build": 5675.2437, "Floor_Area": 43118.743, "Hex_area": 8659.4357, "GSI": 0.6554, "FSI": 4.9794, "OSR": 0.0692, "GSI_Norm": 0.1945, "FSI_Norm": 0.0985, "Density_V": 0.1465 }, "geometry": { "type": "MultiPolygon", "coordinates": [ [ [ [ 79.869725248947674, 6.830936072114015 ], [ 79.869985551630634, 6.831388668772663 ], [ 79.870507860323229, 6.831389651128749 ], [ 79.870769865352273, 6.830938036695525 ], [ 79.870509562064186, 6.830485440387354 ], [ 79.869987254352168, 6.830484458161927 ], [ 79.869725248947674, 6.830936072114015 ] ] ] ] } },
{ "type": "Feature", "properties": { "id": 291.0, "left": 400080.60336529819, "top": 481260.3994, "right": 400196.07341913611, "bottom": 481160.3994, "row_index": 10.0, "col_index": 14.0, "Area_build": 4856.8365, "Floor_Area": 18100.901, "Hex_area": 8659.4357, "GSI": 0.5609, "FSI": 2.0903, "OSR": 0.2101, "GSI_Norm": 0.1664, "FSI_Norm": 0.0413, "Density_V": 0.1039 }, "geometry": { "type": "MultiPolygon", "coordinates": [ [ [ [ 79.869726952044616, 6.830031861551458 ], [ 79.869987254352168, 6.830484458161927 ], [ 79.870509562064186, 6.830485440387354 ], [ 79.870771566488145, 6.830033825871649 ], [ 79.870511263575537, 6.829581229611601 ], [ 79.869988956843983, 6.829580247516838 ], [ 79.869726952044616, 6.830031861551458 ] ] ] ] } },
{ "type": "Feature", "properties": { "id": 292.0, "left": 400080.60336529819, "top": 481160.3994, "right": 400196.07341913611, "bottom": 481060.3994, "row_index": 11.0, "col_index": 14.0, "Area_build": 4104.9661, "Floor_Area": 17357.418, "Hex_area": 8659.4357, "GSI": 0.474, "FSI": 2.0045, "OSR": 0.2624, "GSI_Norm": 0.1406, "FSI_Norm": 0.0397, "Density_V": 0.0902 }, "geometry": { "type": "MultiPolygon", "coordinates": [ [ [ [ 79.869728654911754, 6.829127650954547 ], [ 79.869988956843983, 6.829580247516838 ], [ 79.870511263575537, 6.829581229611601 ], [ 79.870773267394483, 6.829129615013423 ], [ 79.870512964857255, 6.828677018801501 ], [ 79.869990659106037, 6.82867603683739 ], [ 79.869728654911754, 6.829127650954547 ] ] ] ] } },
{ "type": "Feature", "properties": { "id": 293.0, "left": 400080.60336529819, "top": 481060.3994, "right": 400196.07341913611, "bottom": 480960.3994, "row_index": 12.0, "col_index": 14.0, "Area_build": 4006.0269, "Floor_Area": 17017.088, "Hex_area": 8659.4357, "GSI": 0.4626, "FSI": 1.9651, "OSR": 0.2735, "GSI_Norm": 0.1373, "FSI_Norm": 0.0389, "Density_V": 0.0881 }, "geometry": { "type": "MultiPolygon", "coordinates": [ [ [ [ 79.869730357549074, 6.828223440323287 ], [ 79.869990659106037, 6.82867603683739 ], [ 79.870512964857255, 6.828677018801501 ], [ 79.870774968071274, 6.828225404120842 ], [ 79.870514665909383, 6.827772807957047 ], [ 79.869992361138358, 6.827771826123596 ], [ 79.869730357549074, 6.828223440323287 ] ] ] ] } },
{ "type": "Feature", "properties": { "id": 294.0, "left": 400080.60336529819, "top": 480960.3994, "right": 400196.07341913611, "bottom": 480860.3994, "row_index": 13.0, "col_index": 14.0, "Area_build": 4755.7963, "Floor_Area": 20793.232, "Hex_area": 8659.4357, "GSI": 0.5492, "FSI": 2.4012, "OSR": 0.1877, "GSI_Norm": 0.163, "FSI_Norm": 0.0475, "Density_V": 0.1053 }, "geometry": { "type": "MultiPolygon", "coordinates": [ [ [ [ 79.869732059956576, 6.82731922965768 ], [ 79.869992361138358, 6.827771826123596 ], [ 79.870514665909383, 6.827772807957047 ], [ 79.870776668518531, 6.827321193193919 ], [ 79.870516366731877, 6.826868597078255 ], [ 79.869994062940918, 6.826867615375463 ], [ 79.869732059956576, 6.82731922965768 ] ] ] ] } },
{ "type": "Feature", "properties": { "id": 295.0, "left": 400080.60336529819, "top": 480860.3994, "right": 400196.07341913611, "bottom": 480760.3994, "row_index": 14.0, "col_index": 14.0, "Area_build": 885.3485, "Floor_Area": 3637.246, "Hex_area": 1754.6127, "GSI": 0.5046, "FSI": 2.073, "OSR": 0.239, "GSI_Norm": 0.1497, "FSI_Norm": 0.041, "Density_V": 0.0954 }, "geometry": { "type": "MultiPolygon", "coordinates": [ [ [ [ 79.870469894880742, 6.826827742988748 ], [ 79.870353791650587, 6.826745858090255 ], [ 79.870235172416528, 6.826667658666785 ], [ 79.870114154240369, 6.826593221889741 ], [ 79.869990856551141, 6.826522621217276 ], [ 79.869865401027184, 6.826455926321808 ], [ 79.869744529602414, 6.8263964590596 ], [ 79.86973376213426, 6.82641501895773 ], [ 79.869994062940918, 6.826867615375463 ], [ 79.870516366731877, 6.826868597078255 ], [ 79.870518725332857, 6.82686453154486 ], [ 79.870469894880742, 6.826827742988748 ] ] ] ] } },
{ "type": "Feature", "properties": { "id": 306.0, "left": 400167.20590567664, "top": 481710.3994, "right": 400282.67595951457, "bottom": 481610.3994, "row_index": 5.0, "col_index": 15.0, "Area_build": 313.0, "Floor_Area": 1542.769, "Hex_area": 823.1607, "GSI": 0.3802, "FSI": 1.8742, "OSR": 0.3307, "GSI_Norm": 0.1128, "FSI_Norm": 0.0371, "Density_V": 0.075 }, "geometry": { "type": "MultiPolygon", "coordinates": [ [ [ [ 79.87056992303873, 6.834057899317516 ], [ 79.870680988928697, 6.833969306399617 ], [ 79.870789215788875, 6.833877270274874 ], [ 79.870894496811303, 6.833781881773667 ], [ 79.87099672809542, 6.833683235034805 ], [ 79.871027940339047, 6.83365116375351 ], [ 79.870764760567297, 6.83365066896098 ], [ 79.870502753722647, 6.834102283146749 ], [ 79.870505096800173, 6.83410635710058 ], [ 79.87056992303873, 6.834057899317516 ] ] ] ] } },
{ "type": "Feature", "properties": { "id": 307.0, "left": 400167.20590567664, "top": 481610.3994, "right": 400282.67595951457, "bottom": 481510.3994, "row_index": 6.0, "col_index": 15.0, "Area_build": 4219.4774, "Floor_Area": 17517.46, "Hex_area": 7546.9291, "GSI": 0.5591, "FSI": 2.3211, "OSR": 0.19, "GSI_Norm": 0.1659, "FSI_Norm": 0.0459, "Density_V": 0.1059 }, "geometry": { "type": "MultiPolygon", "coordinates": [ [ [ [ 79.871095808750596, 6.833581427412621 ], [ 79.871191640995832, 6.833476559380912 ], [ 79.871284130256058, 6.833368734433725 ], [ 79.871373185255678, 6.833258058983263 ], [ 79.871458718108485, 6.833144642254835 ], [ 79.871490955742104, 6.833098978648734 ], [ 79.871288772670383, 6.832747439943246 ], [ 79.870766462391842, 6.832746458240193 ], [ 79.870504456152474, 6.833198072508451 ], [ 79.870764760567297, 6.83365066896098 ], [ 79.871027940339047, 6.83365116375351 ], [ 79.871095808750596, 6.833581427412621 ] ] ] ] } },
{ "type": "Feature", "properties": { "id": 308.0, "left": 400167.20590567664, "top": 481510.3994, "right": 400282.67595951457, "bottom": 481410.3994, "row_index": 7.0, "col_index": 15.0, "Area_build": 6808.0637, "Floor_Area": 27497.276, "Hex_area": 8659.4394, "GSI": 0.7862, "FSI": 3.1754, "OSR": 0.0673, "GSI_Norm": 0.2333, "FSI_Norm": 0.0628, "Density_V": 0.1481 }, "geometry": { "type": "MultiPolygon", "coordinates": [ [ [ [ 79.870506158352669, 6.832293861835784 ], [ 79.870766462391842, 6.832746458240193 ], [ 79.871288772670383, 6.832747439943246 ], [ 79.871550777928903, 6.83229582511134 ], [ 79.871290473284589, 6.831843229057546 ], [ 79.870768163986838, 6.83184224748504 ], [ 79.870506158352669, 6.832293861835784 ] ] ] ] } },
{ "type": "Feature", "properties": { "id": 309.0, "left": 400167.20590567664, "top": 481410.3994, "right": 400282.67595951457, "bottom": 481310.3994, "row_index": 8.0, "col_index": 15.0, "Area_build": 4886.7151, "Floor_Area": 25992.391, "Hex_area": 8659.4394, "GSI": 0.5643, "FSI": 3.0016, "OSR": 0.1451, "GSI_Norm": 0.1674, "FSI_Norm": 0.0594, "Density_V": 0.1134 }, "geometry": { "type": "MultiPolygon", "coordinates": [ [ [ [ 79.870507860323229, 6.831389651128749 ], [ 79.870768163986838, 6.83184224748504 ], [ 79.871290473284589, 6.831843229057546 ], [ 79.871552477938025, 6.83139161414321 ], [ 79.87129217366936, 6.830939018137484 ], [ 79.870769865352273, 6.830938036695525 ], [ 79.870507860323229, 6.831389651128749 ] ] ] ] } },
{ "type": "Feature", "properties": { "id": 310.0, "left": 400167.20590567664, "top": 481310.3994, "right": 400282.67595951457, "bottom": 481210.3994, "row_index": 9.0, "col_index": 15.0, "Area_build": 5582.3621, "Floor_Area": 28707.975, "Hex_area": 8659.4394, "GSI": 0.6447, "FSI": 3.3152, "OSR": 0.1072, "GSI_Norm": 0.1913, "FSI_Norm": 0.0656, "Density_V": 0.1285 }, "geometry": { "type": "MultiPolygon", "coordinates": [ [ [ [ 79.870509562064186, 6.830485440387354 ], [ 79.870769865352273, 6.830938036695525 ], [ 79.87129217366936, 6.830939018137484 ], [ 79.871554177717798, 6.830487403140726 ], [ 79.871293873824726, 6.830034807183059 ], [ 79.870771566488145, 6.830033825871649 ], [ 79.870509562064186, 6.830485440387354 ] ] ] ] } },
{ "type": "Feature", "properties": { "id": 311.0, "left": 400167.20590567664, "top": 481210.3994, "right": 400282.67595951457, "bottom": 481110.3994, "row_index": 10.0, "col_index": 15.0, "Area_build": 4443.5906, "Floor_Area": 18120.624, "Hex_area": 8659.4394, "GSI": 0.5131, "FSI": 2.0926, "OSR": 0.2327, "GSI_Norm": 0.1522, "FSI_Norm": 0.0414, "Density_V": 0.0968 }, "geometry": { "type": "MultiPolygon", "coordinates": [ [ [ [ 79.870511263575537, 6.829581229611601 ], [ 79.870771566488145, 6.830033825871649 ], [ 79.871293873824726, 6.830034807183059 ], [ 79.871555877268207, 6.829583192103881 ], [ 79.871295573750658, 6.829130596194286 ], [ 79.870773267394483, 6.829129615013423 ], [ 79.870511263575537, 6.829581229611601 ] ] ] ] } },
{ "type": "Feature", "properties": { "id": 312.0, "left": 400167.20590567664, "top": 481110.3994, "right": 400282.67595951457, "bottom": 481010.3994, "row_index": 11.0, "col_index": 15.0, "Area_build": 3780.5786, "Floor_Area": 14067.496, "Hex_area": 8659.4394, "GSI": 0.4366, "FSI": 1.6245, "OSR": 0.3468, "GSI_Norm": 0.1295, "FSI_Norm": 0.0321, "Density_V": 0.0808 }, "geometry": { "type": "MultiPolygon", "coordinates": [ [ [ [ 79.870512964857255, 6.828677018801501 ], [ 79.870773267394483, 6.829129615013423 ], [ 79.871295573750658, 6.829130596194286 ], [ 79.871557576589282, 6.828678981032684 ], [ 79.871297273447169, 6.828226385171165 ], [ 79.870774968071274, 6.828225404120842 ], [ 79.870512964857255, 6.828677018801501 ] ] ] ] } },
{ "type": "Feature", "properties": { "id": 313.0, "left": 400167.20590567664, "top": 481010.3994, "right": 400282.67595951457, "bottom": 480910.3994, "row_index": 12.0, "col_index": 15.0, "Area_build": 2891.1089, "Floor_Area": 12309.705, "Hex_area": 7546.9324, "GSI": 0.3831, "FSI": 1.6311, "OSR": 0.3782, "GSI_Norm": 0.1137, "FSI_Norm": 0.0323, "Density_V": 0.073 }, "geometry": { "type": "MultiPolygon", "coordinates": [ [ [ [ 79.871468709487445, 6.827829823364506 ], [ 79.871383604645501, 6.827716086133018 ], [ 79.871294967495757, 6.82760507689789 ], [ 79.871202885513782, 6.827496905210063 ], [ 79.871107449574509, 6.827391677820113 ], [ 79.871039845412099, 6.82732168752702 ], [ 79.870776668518531, 6.827321193193919 ], [ 79.870514665909383, 6.827772807957047 ], [ 79.870774968071274, 6.828225404120842 ], [ 79.871297273447169, 6.828226385171165 ], [ 79.871500775047664, 6.827875608011587 ], [ 79.871468709487445, 6.827829823364506 ] ] ] ] } },
{ "type": "Feature", "properties": { "id": 314.0, "left": 400167.20590567664, "top": 480910.3994, "right": 400282.67595951457, "bottom": 480810.3994, "row_index": 13.0, "col_index": 15.0, "Area_build": 899.6971, "Floor_Area": 3778.179, "Hex_area": 823.1645, "GSI": 1.093, "FSI": 4.5898, "OSR": -0.0203, "GSI_Norm": 0.3243, "FSI_Norm": 0.0908, "Density_V": 0.2076 }, "geometry": { "type": "MultiPolygon", "coordinates": [ [ [ [ 79.871008753862611, 6.82728949857289 ], [ 79.870906895779456, 6.827190468305064 ], [ 79.870801975847115, 6.827094684745607 ], [ 79.870694097609046, 6.827002242419359 ], [ 79.870583367527956, 6.826913232553737 ], [ 79.870518725332857, 6.82686453154486 ], [ 79.870516366731877, 6.826868597078255 ], [ 79.870776668518531, 6.827321193193919 ], [ 79.871039845412099, 6.82732168752702 ], [ 79.871008753862611, 6.82728949857289 ] ] ] ] } },
{ "type": "Feature", "properties": { "id": 328.0, "left": 400253.8084460551, "top": 481560.3994, "right": 400369.27849989303, "bottom": 481460.3994, "row_index": 7.0, "col_index": 16.0, "Area_build": 2091.2557, "Floor_Area": 9357.245, "Hex_area": 3240.3969, "GSI": 0.6454, "FSI": 2.8877, "OSR": 0.1228, "GSI_Norm": 0.1915, "FSI_Norm": 0.0571, "Density_V": 0.1243 }, "geometry": { "type": "MultiPolygon", "coordinates": [ [ [ [ 79.871540644404448, 6.833028596179063 ], [ 79.871618883293081, 6.832910035281412 ], [ 79.871693357563103, 6.832789076569155 ], [ 79.871763993718716, 6.832665839415905 ], [ 79.871830722052124, 6.83254044544378 ], [ 79.871893476712302, 6.832413018403389 ], [ 79.87194634635253, 6.832296567958164 ], [ 79.871550777928903, 6.83229582511134 ], [ 79.871288772670383, 6.832747439943246 ], [ 79.871490955742104, 6.833098978648734 ], [ 79.871540644404448, 6.833028596179063 ] ] ] ] } },
{ "type": "Feature", "properties": { "id": 329.0, "left": 400253.8084460551, "top": 481460.3994, "right": 400369.27849989303, "bottom": 481360.3994, "row_index": 8.0, "col_index": 16.0, "Area_build": 3599.2784, "Floor_Area": 16844.084, "Hex_area": 7393.8141, "GSI": 0.4868, "FSI": 2.2781, "OSR": 0.2253, "GSI_Norm": 0.1444, "FSI_Norm": 0.0451, "Density_V": 0.0948 }, "geometry": { "type": "MultiPolygon", "coordinates": [ [ [ [ 79.871952195769964, 6.832283684051685 ], [ 79.872006821278703, 6.832152570027854 ], [ 79.87205729933217, 6.832019805727351 ], [ 79.872103580117198, 6.831885522174181 ], [ 79.872145617963056, 6.831749851891604 ], [ 79.872183371386456, 6.831612928771321 ], [ 79.872188745974469, 6.831590736919434 ], [ 79.872074786860125, 6.831392594801588 ], [ 79.871552477938025, 6.83139161414321 ], [ 79.871290473284589, 6.831843229057546 ], [ 79.871550777928903, 6.83229582511134 ], [ 79.87194634635253, 6.832296567958164 ], [ 79.871952195769964, 6.832283684051685 ] ] ] ] } },
{ "type": "Feature", "properties": { "id": 330.0, "left": 400253.8084460551, "top": 481360.3994, "right": 400369.27849989303, "bottom": 481260.3994, "row_index": 9.0, "col_index": 16.0, "Area_build": 3419.7575, "Floor_Area": 19866.261, "Hex_area": 8635.3367, "GSI": 0.396, "FSI": 2.3006, "OSR": 0.2625, "GSI_Norm": 0.1175, "FSI_Norm": 0.0455, "Density_V": 0.0815 }, "geometry": { "type": "MultiPolygon", "coordinates": [ [ [ [ 79.872306718176063, 6.830914285858664 ], [ 79.872308528091352, 6.830891839071058 ], [ 79.872076485659292, 6.830488383668668 ], [ 79.871554177717798, 6.830487403140726 ], [ 79.87129217366936, 6.830939018137484 ], [ 79.871552477938025, 6.83139161414321 ], [ 79.872074786860125, 6.831392594801588 ], [ 79.872295775505108, 6.831011676961994 ], [ 79.872306718176063, 6.830914285858664 ] ] ] ] } },
{ "type": "Feature", "properties": { "id": 331.0, "left": 400253.8084460551, "top": 481260.3994, "right": 400369.27849989303, "bottom": 481160.3994, "row_index": 10.0, "col_index": 16.0, "Area_build": 5299.4564, "Floor_Area": 19448.207, "Hex_area": 8635.3368, "GSI": 0.6137, "FSI": 2.2522, "OSR": 0.1715, "GSI_Norm": 0.1821, "FSI_Norm": 0.0446, "Density_V": 0.1134 }, "geometry": { "type": "MultiPolygon", "coordinates": [ [ [ [ 79.872308316371289, 6.830063347942199 ], [ 79.872297739711499, 6.82996591719858 ], [ 79.872078184229238, 6.829584172501391 ], [ 79.871555877268207, 6.829583192103881 ], [ 79.871293873824726, 6.830034807183059 ], [ 79.871554177717798, 6.830487403140726 ], [ 79.872076485659292, 6.830488383668668 ], [ 79.872310041994453, 6.830085801890936 ], [ 79.872308316371289, 6.830063347942199 ] ] ] ] } },
{ "type": "Feature", "properties": { "id": 332.0, "left": 400253.8084460551, "top": 481160.3994, "right": 400369.27849989303, "bottom": 481060.3994, "row_index": 11.0, "col_index": 16.0, "Area_build": 2763.5411, "Floor_Area": 11736.648, "Hex_area": 7393.8159, "GSI": 0.3738, "FSI": 1.5874, "OSR": 0.3945, "GSI_Norm": 0.1109, "FSI_Norm": 0.0314, "Density_V": 0.0711 }, "geometry": { "type": "MultiPolygon", "coordinates": [ [ [ [ 79.872187595334282, 6.829364247014746 ], [ 79.872150356767406, 6.829227183153217 ], [ 79.872108829168766, 6.829091356032423 ], [ 79.872063053524641, 6.828956899696681 ], [ 79.87201307501347, 6.82882394683739 ], [ 79.871958942961371, 6.828692628662091 ], [ 79.871953142312876, 6.828679723484863 ], [ 79.871557576589282, 6.828678981032684 ], [ 79.871295573750658, 6.829130596194286 ], [ 79.871555877268207, 6.829583192103881 ], [ 79.872078184229238, 6.829584172501391 ], [ 79.872192886590213, 6.829386459306133 ], [ 79.872187595334282, 6.829364247014746 ] ] ] ] } },
{ "type": "Feature", "properties": { "id": 333.0, "left": 400253.8084460551, "top": 481060.3994, "right": 400369.27849989303, "bottom": 480960.3994, "row_index": 12.0, "col_index": 16.0, "Area_build": 1689.9969, "Floor_Area": 6561.156, "Hex_area": 3240.4003, "GSI": 0.5215, "FSI": 2.0248, "OSR": 0.2363, "GSI_Norm": 0.1547, "FSI_Norm": 0.0401, "Density_V": 0.0974 }, "geometry": { "type": "MultiPolygon", "coordinates": [ [ [ [ 79.871900710793284, 6.828563074764967 ], [ 79.871838435980365, 6.828435412998978 ], [ 79.871772179983154, 6.828309769349664 ], [ 79.871702008190965, 6.828186267810842 ], [ 79.871627989857387, 6.828065030262218 ], [ 79.871550198031812, 6.827946176349141 ], [ 79.871500775047664, 6.827875608011587 ], [ 79.871297273447169, 6.828226385171165 ], [ 79.871557576589282, 6.828678981032684 ], [ 79.871953142312876, 6.828679723484863 ], [ 79.871900710793284, 6.828563074764967 ] ] ] ] } },
{ "type": "Feature", "properties": { "id": 349.0, "left": 400340.41098643356, "top": 481410.3994, "right": 400455.88104027149, "bottom": 481310.3994, "row_index": 8.0, "col_index": 17.0, "Area_build": 316.4248, "Floor_Area": 1329.154, "Hex_area": 579.1361, "GSI": 0.5464, "FSI": 2.2951, "OSR": 0.1977, "GSI_Norm": 0.1621, "FSI_Norm": 0.0454, "Density_V": 0.1038 }, "geometry": { "type": "MultiPolygon", "coordinates": [ [ [ [ 79.872216803132403, 6.831474887941363 ], [ 79.872245880211096, 6.831335865632705 ], [ 79.872270573930408, 6.831195999044832 ], [ 79.872290859924121, 6.831055426210335 ], [ 79.872295775505108, 6.831011676961994 ], [ 79.872074786860125, 6.831392594801588 ], [ 79.872188745974469, 6.831590736919434 ], [ 79.872216803132403, 6.831474887941363 ] ] ] ] } },
{ "type": "Feature", "properties": { "id": 350.0, "left": 400340.41098643356, "top": 481310.3994, "right": 400455.88104027149, "bottom": 481210.3994, "row_index": 9.0, "col_index": 17.0, "Area_build": 706.5192, "Floor_Area": 2713.702, "Hex_area": 1264.3467, "GSI": 0.5588, "FSI": 2.1463, "OSR": 0.2056, "GSI_Norm": 0.1658, "FSI_Norm": 0.0425, "Density_V": 0.1042 }, "geometry": { "type": "MultiPolygon", "coordinates": [ [ [ [ 79.872325626676968, 6.830346840578564 ], [ 79.872319199367155, 6.830204958362498 ], [ 79.872310041994453, 6.830085801890936 ], [ 79.872076485659292, 6.830488383668668 ], [ 79.872308528091352, 6.830891839071058 ], [ 79.872318133039784, 6.830772717279243 ], [ 79.872325093254005, 6.830630860183994 ], [ 79.872327591953734, 6.830488854569438 ], [ 79.872325626676968, 6.830346840578564 ] ] ] ] } },
{ "type": "Feature", "properties": { "id": 351.0, "left": 400340.41098643356, "top": 481210.3994, "right": 400455.88104027149, "bottom": 481110.3994, "row_index": 10.0, "col_index": 17.0, "Area_build": 1085.0347, "Floor_Area": 5799.18, "Hex_area": 579.1368, "GSI": 1.8735, "FSI": 10.0135, "OSR": -0.0872, "GSI_Norm": 0.5559, "FSI_Norm": 0.1981, "Density_V": 0.377 }, "geometry": { "type": "MultiPolygon", "coordinates": [ [ [ [ 79.872292988433514, 6.829922149070265 ], [ 79.872273230684613, 6.829781501093033 ], [ 79.872249062627077, 6.829641542813042 ], [ 79.87222050811576, 6.829502412352051 ], [ 79.872192886590213, 6.829386459306133 ], [ 79.872078184229238, 6.829584172501391 ], [ 79.872297739711499, 6.82996591719858 ], [ 79.872292988433514, 6.829922149070265 ] ] ] ] } }
]
}
