{"type": "FeatureCollection", "name": "pois_snapped", "crs": {"type": "name", "properties": {"name": "urn:ogc:def:crs:OGC:1.3:CRS84"}}, "features": [{"type": "Feature", "properties": {"poi_id": "poi_0001", "name": "", "dest_group": "food", "source": "osm", "in_primary": true, "node_id": 7099, "snap_dist_m": 4.334, "snap_ok": true}, "geometry": {"type": "Point", "coordinates": [79.8755543, 6.8442283999999995]}}, {"type": "Feature", "properties": {"poi_id": "poi_0002", "name": "", "dest_group": "food", "source": "osm", "in_primary": true, "node_id": 7100, "snap_dist_m": 7.959, "snap_ok": true}, "geometry": {"type": "Point", "coordinates": [79.8675087, 6.8323034]}}, {"type": "Feature", "properties": {"poi_id": "poi_0003", "name": "", "dest_group": "food", "source": "osm", "in_primary": false, "node_id": 7101, "snap_dist_m": 13.54, "snap_ok": true}, "geometry": {"type": "Point", "coordinates": [79.86245789999998, 6.8508443]}}, {"type": "Feature", "properties": {"poi_id": "poi_0004", "name": "", "dest_group": "food", "source": "osm", "in_primary": false, "node_id": 7102, "snap_dist_m": 10.977, "snap_ok": true}, "geometry": {"type": "Point", "coordinates": [79.8657289, 6.851150700000001]}}, {"type": "Feature", "properties": {"poi_id": "poi_0005", "name": "", "dest_group": "food", "source": "osm", "in_primary": true, "node_id": 7103, "snap_dist_m": 14.414, "snap_ok": true}, "geometry": {"type": "Point", "coordinates": [79.8671846, 6.8334886]}}, {"type": "Feature", "properties": {"poi_id": "poi_0006", "name": "", "dest_group": "food", "source": "osm", "in_primary": true, "node_id": 7104, "snap_dist_m": 23.887, "snap_ok": true}, "geometry": {"type": "Point", "coordinates": [79.86709289999999, 6.8338052]}}, {"type": "Feature", "properties": {"poi_id": "poi_0007", "name": "", "dest_group": "food", "source": "osm", "in_primary": true, "node_id": 7105, "snap_dist_m": 8.161, "snap_ok": true}, "geometry": {"type": "Point", "coordinates": [79.86649349999999, 6.8324407]}}, {"type": "Feature", "properties": {"poi_id": "poi_0008", "name": "", "dest_group": "food", "source": "osm", "in_primary": true, "node_id": 7106, "snap_dist_m": 24.817, "snap_ok": true}, "geometry": {"type": "Point", "coordinates": [79.8675933, 6.8338757]}}, {"type": "Feature", "properties": {"poi_id": "poi_0009", "name": "", "dest_group": "food", "source": "osm", "in_primary": true, "node_id": 7107, "snap_dist_m": 9.757, "snap_ok": true}, "geometry": {"type": "Point", "coordinates": [79.86841419999999, 6.8329838]}}, {"type": "Feature", "properties": {"poi_id": "poi_0010", "name": "", "dest_group": "food", "source": "osm", "in_primary": true, "node_id": 2958, "snap_dist_m": 19.029, "snap_ok": true}, "geometry": {"type": "Point", "coordinates": [79.867754, 6.831416999999999]}}, {"type": "Feature", "properties": {"poi_id": "poi_0011", "name": "", "dest_group": "food", "source": "osm", "in_primary": true, "node_id": 7108, "snap_dist_m": 15.644, "snap_ok": true}, "geometry": {"type": "Point", "coordinates": [79.86751089999998, 6.8334512]}}, {"type": "Feature", "properties": {"poi_id": "poi_0012", "name": "", "dest_group": "food", "source": "osm", "in_primary": true, "node_id": 7109, "snap_dist_m": 8.515, "snap_ok": true}, "geometry": {"type": "Point", "coordinates": [79.8675901, 6.8329743999999994]}}, {"type": "Feature", "properties": {"poi_id": "poi_0013", "name": "", "dest_group": "food", "source": "osm", "in_primary": true, "node_id": 7110, "snap_dist_m": 14.331, "snap_ok": true}, "geometry": {"type": "Point", "coordinates": [79.86789529999999, 6.833024600000001]}}, {"type": "Feature", "properties": {"poi_id": "poi_0014", "name": "", "dest_group": "food", "source": "osm", "in_primary": true, "node_id": 7111, "snap_dist_m": 20.089, "snap_ok": true}, "geometry": {"type": "Point", "coordinates": [79.86768029999999, 6.8319045]}}, {"type": "Feature", "properties": {"poi_id": "poi_0015", "name": "", "dest_group": "food", "source": "osm", "in_primary": true, "node_id": 7112, "snap_dist_m": 20.798, "snap_ok": true}, "geometry": {"type": "Point", "coordinates": [79.8675828, 6.832642800000001]}}, {"type": "Feature", "properties": {"poi_id": "poi_0016", "name": "", "dest_group": "food", "source": "osm", "in_primary": true, "node_id": 7113, "snap_dist_m": 11.264, "snap_ok": true}, "geometry": {"type": "Point", "coordinates": [79.8671695, 6.8317286]}}, {"type": "Feature", "properties": {"poi_id": "poi_0017", "name": "", "dest_group": "food", "source": "osm", "in_primary": true, "node_id": 7114, "snap_dist_m": 10.143, "snap_ok": true}, "geometry": {"type": "Point", "coordinates": [79.8671834, 6.8324613]}}, {"type": "Feature", "properties": {"poi_id": "poi_0018", "name": "", "dest_group": "food", "source": "osm", "in_primary": true, "node_id": 7115, "snap_dist_m": 12.295, "snap_ok": true}, "geometry": {"type": "Point", "coordinates": [79.8672828, 6.832064599999999]}}, {"type": "Feature", "properties": {"poi_id": "poi_0019", "name": "5-Star Bakery", "dest_group": "food", "source": "osm", "in_primary": true, "node_id": 7116, "snap_dist_m": 12.164, "snap_ok": true}, "geometry": {"type": "Point", "coordinates": [79.87258330000002, 6.8318676]}}, {"type": "Feature", "properties": {"poi_id": "poi_0020", "name": "AL-BARAKA", "dest_group": "food", "source": "osm", "in_primary": false, "node_id": 4648, "snap_dist_m": 14.341, "snap_ok": true}, "geometry": {"type": "Point", "coordinates": [79.86262879999998, 6.851398800000001]}}, {"type": "Feature", "properties": {"poi_id": "poi_0021", "name": "Addara beach club", "dest_group": "food", "source": "osm", "in_primary": true, "node_id": 256, "snap_dist_m": 48.124, "snap_ok": true}, "geometry": {"type": "Point", "coordinates": [79.8627809, 6.8419469]}}, {"type": "Feature", "properties": {"poi_id": "poi_0022", "name": "Al-baraka", "dest_group": "food", "source": "osm", "in_primary": false, "node_id": 7117, "snap_dist_m": 15.34, "snap_ok": true}, "geometry": {"type": "Point", "coordinates": [79.8629631, 6.8510001]}}, {"type": "Feature", "properties": {"poi_id": "poi_0023", "name": "Anura's Place", "dest_group": "food", "source": "osm", "in_primary": false, "node_id": 7118, "snap_dist_m": 43.387, "snap_ok": true}, "geometry": {"type": "Point", "coordinates": [79.8614268, 6.852808199999999]}}, {"type": "Feature", "properties": {"poi_id": "poi_0024", "name": "Arthur's Pizza", "dest_group": "food", "source": "osm", "in_primary": true, "node_id": 7119, "snap_dist_m": 7.629, "snap_ok": true}, "geometry": {"type": "Point", "coordinates": [79.8668302, 6.841763699999999]}}, {"type": "Feature", "properties": {"poi_id": "poi_0025", "name": "As'sada", "dest_group": "food", "source": "osm", "in_primary": false, "node_id": 4769, "snap_dist_m": 11.46, "snap_ok": true}, "geometry": {"type": "Point", "coordinates": [79.86722589999998, 6.851238699999999]}}, {"type": "Feature", "properties": {"poi_id": "poi_0026", "name": "Barista", "dest_group": "food", "source": "osm", "in_primary": false, "node_id": 7120, "snap_dist_m": 22.378, "snap_ok": true}, "geometry": {"type": "Point", "coordinates": [79.8678351, 6.851220900000001]}}, {"type": "Feature", "properties": {"poi_id": "poi_0027", "name": "Barnes Garden Caf\u00e9", "dest_group": "food", "source": "osm", "in_primary": true, "node_id": 7121, "snap_dist_m": 5.151, "snap_ok": true}, "geometry": {"type": "Point", "coordinates": [79.86457779999999, 6.840148199999998]}}, {"type": "Feature", "properties": {"poi_id": "poi_0028", "name": "Big Taste", "dest_group": "food", "source": "osm", "in_primary": true, "node_id": 7122, "snap_dist_m": 8.595, "snap_ok": true}, "geometry": {"type": "Point", "coordinates": [79.8674677, 6.8350412999999985]}}, {"type": "Feature", "properties": {"poi_id": "poi_0029", "name": "Bloom Kandy", "dest_group": "food", "source": "osm", "in_primary": false, "node_id": 7123, "snap_dist_m": 12.781, "snap_ok": true}, "geometry": {"type": "Point", "coordinates": [79.86561249999998, 6.853284899999999]}}, {"type": "Feature", "properties": {"poi_id": "poi_0030", "name": "Burger King", "dest_group": "food", "source": "osm", "in_primary": true, "node_id": 7124, "snap_dist_m": 1.322, "snap_ok": true}, "geometry": {"type": "Point", "coordinates": [79.86663879999999, 6.8421829]}}, {"type": "Feature", "properties": {"poi_id": "poi_0031", "name": "Caravan fresh", "dest_group": "food", "source": "osm", "in_primary": false, "node_id": 7125, "snap_dist_m": 24.402, "snap_ok": true}, "geometry": {"type": "Point", "coordinates": [79.8653421, 6.852292499999999]}}, {"type": "Feature", "properties": {"poi_id": "poi_0032", "name": "Cargills Food City", "dest_group": "food", "source": "osm", "in_primary": true, "node_id": 7126, "snap_dist_m": 21.379, "snap_ok": true}, "geometry": {"type": "Point", "coordinates": [79.86712659999999, 6.832964600000001]}}, {"type": "Feature", "properties": {"poi_id": "poi_0033", "name": "Cargills Food City", "dest_group": "food", "source": "osm", "in_primary": false, "node_id": 6734, "snap_dist_m": 14.304, "snap_ok": true}, "geometry": {"type": "Point", "coordinates": [79.86905319999998, 6.827707800000001]}}, {"type": "Feature", "properties": {"poi_id": "poi_0034", "name": "Cargills Food City", "dest_group": "food", "source": "osm", "in_primary": true, "node_id": 7127, "snap_dist_m": 13.166, "snap_ok": true}, "geometry": {"type": "Point", "coordinates": [79.86728869999999, 6.837248799999999]}}, {"type": "Feature", "properties": {"poi_id": "poi_0035", "name": "Cargils Express", "dest_group": "food", "source": "osm", "in_primary": false, "node_id": 7128, "snap_dist_m": 6.921, "snap_ok": true}, "geometry": {"type": "Point", "coordinates": [79.86655949999998, 6.851318899999999]}}, {"type": "Feature", "properties": {"poi_id": "poi_0036", "name": "Cargils foodcity", "dest_group": "food", "source": "osm", "in_primary": false, "node_id": 4649, "snap_dist_m": 15.006, "snap_ok": true}, "geometry": {"type": "Point", "coordinates": [79.86266819999999, 6.851068099999999]}}, {"type": "Feature", "properties": {"poi_id": "poi_0037", "name": "Cargils foodcity", "dest_group": "food", "source": "osm", "in_primary": false, "node_id": 7129, "snap_dist_m": 25.214, "snap_ok": true}, "geometry": {"type": "Point", "coordinates": [79.8630749, 6.851906999999999]}}, {"type": "Feature", "properties": {"poi_id": "poi_0038", "name": "Casserole", "dest_group": "food", "source": "osm", "in_primary": true, "node_id": 7130, "snap_dist_m": 15.893, "snap_ok": true}, "geometry": {"type": "Point", "coordinates": [79.86711049999998, 6.841861000000001]}}, {"type": "Feature", "properties": {"poi_id": "poi_0039", "name": "Catamaran Seafood Restaurant", "dest_group": "food", "source": "osm", "in_primary": true, "node_id": 415, "snap_dist_m": 72.765, "snap_ok": true}, "geometry": {"type": "Point", "coordinates": [79.86329969999998, 6.837818699999999]}}, {"type": "Feature", "properties": {"poi_id": "poi_0040", "name": "Chamenka Guest House", "dest_group": "food", "source": "osm", "in_primary": false, "node_id": 7131, "snap_dist_m": 16.69, "snap_ok": true}, "geometry": {"type": "Point", "coordinates": [79.87418950000001, 6.847246499999999]}}, {"type": "Feature", "properties": {"poi_id": "poi_0041", "name": "Clock Inn Dehiwala", "dest_group": "food", "source": "osm", "in_primary": false, "node_id": 7132, "snap_dist_m": 20.031, "snap_ok": true}, "geometry": {"type": "Point", "coordinates": [79.8675939, 6.850877800000001]}}, {"type": "Feature", "properties": {"poi_id": "poi_0042", "name": "Cup Cafe", "dest_group": "food", "source": "osm", "in_primary": true, "node_id": 7133, "snap_dist_m": 3.162, "snap_ok": true}, "geometry": {"type": "Point", "coordinates": [79.8663307, 6.843833999999999]}}, {"type": "Feature", "properties": {"poi_id": "poi_0043", "name": "Dehiwala Super Market Complex", "dest_group": "food", "source": "osm", "in_primary": false, "node_id": 7134, "snap_dist_m": 16.015, "snap_ok": true}, "geometry": {"type": "Point", "coordinates": [79.8650976, 6.8510925]}}, {"type": "Feature", "properties": {"poi_id": "poi_0044", "name": "Dinducal Thalapakattu Buriyani", "dest_group": "food", "source": "osm", "in_primary": true, "node_id": 7135, "snap_dist_m": 7.921, "snap_ok": true}, "geometry": {"type": "Point", "coordinates": [79.866877, 6.8414038]}}, {"type": "Feature", "properties": {"poi_id": "poi_0045", "name": "Domino's", "dest_group": "food", "source": "osm", "in_primary": false, "node_id": 7136, "snap_dist_m": 6.306, "snap_ok": true}, "geometry": {"type": "Point", "coordinates": [79.86926469999999, 6.8270175]}}, {"type": "Feature", "properties": {"poi_id": "poi_0046", "name": "Family bakers", "dest_group": "food", "source": "osm", "in_primary": true, "node_id": 7137, "snap_dist_m": 3.235, "snap_ok": true}, "geometry": {"type": "Point", "coordinates": [79.86855769999998, 6.8287195999999994]}}, {"type": "Feature", "properties": {"poi_id": "poi_0047", "name": "Frangipani", "dest_group": "food", "source": "osm", "in_primary": false, "node_id": 7138, "snap_dist_m": 18.878, "snap_ok": true}, "geometry": {"type": "Point", "coordinates": [79.8669764, 6.8508325999999995]}}, {"type": "Feature", "properties": {"poi_id": "poi_0048", "name": "Gihans beach Resort", "dest_group": "food", "source": "osm", "in_primary": false, "node_id": 7139, "snap_dist_m": 47.78, "snap_ok": true}, "geometry": {"type": "Point", "coordinates": [79.8614723, 6.852511499999999]}}, {"type": "Feature", "properties": {"poi_id": "poi_0049", "name": "Harpo's Pizza & Pasta", "dest_group": "food", "source": "osm", "in_primary": false, "node_id": 7140, "snap_dist_m": 7.233, "snap_ok": true}, "geometry": {"type": "Point", "coordinates": [79.86612379999998, 6.850051500000001]}}, {"type": "Feature", "properties": {"poi_id": "poi_0050", "name": "KAwdana Sapupakaraya", "dest_group": "food", "source": "osm", "in_primary": false, "node_id": 7141, "snap_dist_m": 2.606, "snap_ok": true}, "geometry": {"type": "Point", "coordinates": [79.87203519999998, 6.845570599999999]}}, {"type": "Feature", "properties": {"poi_id": "poi_0051", "name": "KFC", "dest_group": "food", "source": "osm", "in_primary": false, "node_id": 3436, "snap_dist_m": 2.264, "snap_ok": true}, "geometry": {"type": "Point", "coordinates": [79.86791170000001, 6.8509393]}}, {"type": "Feature", "properties": {"poi_id": "poi_0052", "name": "Keels Super", "dest_group": "food", "source": "osm", "in_primary": false, "node_id": 7142, "snap_dist_m": 18.004, "snap_ok": true}, "geometry": {"type": "Point", "coordinates": [79.8739314, 6.8194371999999985]}}, {"type": "Feature", "properties": {"poi_id": "poi_0053", "name": "La Langousterie", "dest_group": "food", "source": "osm", "in_primary": true, "node_id": 364, "snap_dist_m": 34.799, "snap_ok": true}, "geometry": {"type": "Point", "coordinates": [79.86306090000001, 6.8359409]}}, {"type": "Feature", "properties": {"poi_id": "poi_0054", "name": "La Voile Blanche", "dest_group": "food", "source": "osm", "in_primary": true, "node_id": 330, "snap_dist_m": 37.604, "snap_ok": true}, "geometry": {"type": "Point", "coordinates": [79.86296979999999, 6.8401723]}}, {"type": "Feature", "properties": {"poi_id": "poi_0055", "name": "Lavinia Breeze", "dest_group": "food", "source": "osm", "in_primary": true, "node_id": 7143, "snap_dist_m": 26.647, "snap_ok": true}, "geometry": {"type": "Point", "coordinates": [79.8632205, 6.841332399999999]}}, {"type": "Feature", "properties": {"poi_id": "poi_0056", "name": "Little Star", "dest_group": "food", "source": "osm", "in_primary": true, "node_id": 7144, "snap_dist_m": 10.775, "snap_ok": true}, "geometry": {"type": "Point", "coordinates": [79.86728659999999, 6.8369601]}}, {"type": "Feature", "properties": {"poi_id": "poi_0057", "name": "McDonald's", "dest_group": "food", "source": "osm", "in_primary": true, "node_id": 7145, "snap_dist_m": 11.491, "snap_ok": true}, "geometry": {"type": "Point", "coordinates": [79.868797, 6.827355100000001]}}, {"type": "Feature", "properties": {"poi_id": "poi_0058", "name": "Milano Hotel", "dest_group": "food", "source": "osm", "in_primary": false, "node_id": 7146, "snap_dist_m": 9.954, "snap_ok": true}, "geometry": {"type": "Point", "coordinates": [79.8658303, 6.8506979]}}, {"type": "Feature", "properties": {"poi_id": "poi_0059", "name": "Mini supermarket and Gem Store", "dest_group": "food", "source": "osm", "in_primary": true, "node_id": 7147, "snap_dist_m": 7.173, "snap_ok": true}, "geometry": {"type": "Point", "coordinates": [79.86296549999999, 6.833357800000001]}}, {"type": "Feature", "properties": {"poi_id": "poi_0060", "name": "Mount Casadi", "dest_group": "food", "source": "osm", "in_primary": true, "node_id": null, "snap_dist_m": 112.514, "snap_ok": false}, "geometry": {"type": "Point", "coordinates": [79.86260329999999, 6.8300254]}}, {"type": "Feature", "properties": {"poi_id": "poi_0061", "name": "Mount Sea Pal", "dest_group": "food", "source": "osm", "in_primary": true, "node_id": 292, "snap_dist_m": 36.619, "snap_ok": true}, "geometry": {"type": "Point", "coordinates": [79.86272949999999, 6.843002900000001]}}, {"type": "Feature", "properties": {"poi_id": "poi_0062", "name": "Mount breeze hotel", "dest_group": "food", "source": "osm", "in_primary": true, "node_id": 377, "snap_dist_m": 15.165, "snap_ok": true}, "geometry": {"type": "Point", "coordinates": [79.8633535, 6.8406729]}}, {"type": "Feature", "properties": {"poi_id": "poi_0063", "name": "P&S Bakers", "dest_group": "food", "source": "osm", "in_primary": false, "node_id": 7148, "snap_dist_m": 14.204, "snap_ok": true}, "geometry": {"type": "Point", "coordinates": [79.86617879999999, 6.8497764]}}, {"type": "Feature", "properties": {"poi_id": "poi_0064", "name": "Piyasena", "dest_group": "food", "source": "osm", "in_primary": false, "node_id": 7149, "snap_dist_m": 4.624, "snap_ok": true}, "geometry": {"type": "Point", "coordinates": [79.86608239999998, 6.8492954]}}, {"type": "Feature", "properties": {"poi_id": "poi_0065", "name": "Pizza Hut", "dest_group": "food", "source": "osm", "in_primary": true, "node_id": 7150, "snap_dist_m": 9.038, "snap_ok": true}, "geometry": {"type": "Point", "coordinates": [79.8680707, 6.829427799999999]}}, {"type": "Feature", "properties": {"poi_id": "poi_0066", "name": "Popeyes", "dest_group": "food", "source": "osm", "in_primary": true, "node_id": 7151, "snap_dist_m": 25.415, "snap_ok": true}, "geometry": {"type": "Point", "coordinates": [79.86630689999998, 6.836274300000001]}}, {"type": "Feature", "properties": {"poi_id": "poi_0067", "name": "Rata Anurata Mila Aduwata", "dest_group": "food", "source": "osm", "in_primary": false, "node_id": 7152, "snap_dist_m": 2.266, "snap_ok": true}, "geometry": {"type": "Point", "coordinates": [79.8660702, 6.848845900000001]}}, {"type": "Feature", "properties": {"poi_id": "poi_0068", "name": "Saravana Bawan", "dest_group": "food", "source": "osm", "in_primary": false, "node_id": 7153, "snap_dist_m": 9.861, "snap_ok": true}, "geometry": {"type": "Point", "coordinates": [79.86584069999999, 6.853660999999999]}}, {"type": "Feature", "properties": {"poi_id": "poi_0069", "name": "Sawadee Beach Front", "dest_group": "food", "source": "osm", "in_primary": true, "node_id": 330, "snap_dist_m": 39.118, "snap_ok": true}, "geometry": {"type": "Point", "coordinates": [79.862988, 6.840447999999999]}}, {"type": "Feature", "properties": {"poi_id": "poi_0070", "name": "Singer Mega", "dest_group": "food", "source": "osm", "in_primary": true, "node_id": 7154, "snap_dist_m": 1.37, "snap_ok": true}, "geometry": {"type": "Point", "coordinates": [79.8673029, 6.834159]}}, {"type": "Feature", "properties": {"poi_id": "poi_0071", "name": "Softlogic GLOMARK", "dest_group": "food", "source": "osm", "in_primary": true, "node_id": 6750, "snap_dist_m": 14.506, "snap_ok": true}, "geometry": {"type": "Point", "coordinates": [79.86681819999998, 6.8362154]}}, {"type": "Feature", "properties": {"poi_id": "poi_0072", "name": "Street Burger", "dest_group": "food", "source": "osm", "in_primary": true, "node_id": 7155, "snap_dist_m": 16.833, "snap_ok": true}, "geometry": {"type": "Point", "coordinates": [79.8671004, 6.8359661]}}, {"type": "Feature", "properties": {"poi_id": "poi_0073", "name": "Subway", "dest_group": "food", "source": "osm", "in_primary": true, "node_id": 7156, "snap_dist_m": 7.949, "snap_ok": true}, "geometry": {"type": "Point", "coordinates": [79.86718059999998, 6.8414014]}}, {"type": "Feature", "properties": {"poi_id": "poi_0074", "name": "Sumanadisi Bakery", "dest_group": "food", "source": "osm", "in_primary": false, "node_id": 7157, "snap_dist_m": 14.73, "snap_ok": true}, "geometry": {"type": "Point", "coordinates": [79.8721663, 6.850891]}}, {"type": "Feature", "properties": {"poi_id": "poi_0075", "name": "Sunil beach resort", "dest_group": "food", "source": "osm", "in_primary": true, "node_id": 7158, "snap_dist_m": 94.961, "snap_ok": true}, "geometry": {"type": "Point", "coordinates": [79.863301, 6.836661099999999]}}, {"type": "Feature", "properties": {"poi_id": "poi_0076", "name": "Surf club", "dest_group": "food", "source": "osm", "in_primary": true, "node_id": 491, "snap_dist_m": 48.728, "snap_ok": true}, "geometry": {"type": "Point", "coordinates": [79.86259589999999, 6.8439888]}}, {"type": "Feature", "properties": {"poi_id": "poi_0077", "name": "Taco Bell", "dest_group": "food", "source": "osm", "in_primary": true, "node_id": 7159, "snap_dist_m": 5.828, "snap_ok": true}, "geometry": {"type": "Point", "coordinates": [79.8683375, 6.8295734]}}, {"type": "Feature", "properties": {"poi_id": "poi_0078", "name": "The Pit Stop", "dest_group": "food", "source": "osm", "in_primary": true, "node_id": 7160, "snap_dist_m": 6.021, "snap_ok": true}, "geometry": {"type": "Point", "coordinates": [79.8648538, 6.838962399999999]}}, {"type": "Feature", "properties": {"poi_id": "poi_0079", "name": "Thilanka beach resort", "dest_group": "food", "source": "osm", "in_primary": true, "node_id": 6164, "snap_dist_m": 10.27, "snap_ok": true}, "geometry": {"type": "Point", "coordinates": [79.8648847, 6.835283899999999]}}, {"type": "Feature", "properties": {"poi_id": "poi_0080", "name": "belta", "dest_group": "food", "source": "osm", "in_primary": false, "node_id": 7161, "snap_dist_m": 12.842, "snap_ok": true}, "geometry": {"type": "Point", "coordinates": [79.8722983, 6.8210621]}}, {"type": "Feature", "properties": {"poi_id": "poi_0081", "name": "caravan fresh", "dest_group": "food", "source": "osm", "in_primary": false, "node_id": 7162, "snap_dist_m": 7.909, "snap_ok": true}, "geometry": {"type": "Point", "coordinates": [79.8653481, 6.8513934999999995]}}, {"type": "Feature", "properties": {"poi_id": "poi_0082", "name": "foodcity", "dest_group": "food", "source": "osm", "in_primary": false, "node_id": 7163, "snap_dist_m": 18.779, "snap_ok": true}, "geometry": {"type": "Point", "coordinates": [79.86452890000001, 6.849665]}}, {"type": "Feature", "properties": {"poi_id": "poi_0083", "name": "88 Grand Restaurant - Mount Lavinia", "dest_group": "food", "source": "gmaps", "in_primary": true, "node_id": 1206, "snap_dist_m": 12.257, "snap_ok": true}, "geometry": {"type": "Point", "coordinates": [79.8678938, 6.8306922000000005]}}, {"type": "Feature", "properties": {"poi_id": "poi_0084", "name": "88 Spicy Hut", "dest_group": "food", "source": "gmaps", "in_primary": true, "node_id": 7164, "snap_dist_m": 9.986, "snap_ok": true}, "geometry": {"type": "Point", "coordinates": [79.86939889999998, 6.831025899999999]}}, {"type": "Feature", "properties": {"poi_id": "poi_0085", "name": "Al Bite Restaurant", "dest_group": "food", "source": "gmaps", "in_primary": true, "node_id": 7077, "snap_dist_m": 5.822, "snap_ok": true}, "geometry": {"type": "Point", "coordinates": [79.86624099999999, 6.8461346999999995]}}, {"type": "Feature", "properties": {"poi_id": "poi_0086", "name": "Amaa Rasa Mount Lavinia", "dest_group": "food", "source": "gmaps", "in_primary": true, "node_id": 7165, "snap_dist_m": 9.335, "snap_ok": true}, "geometry": {"type": "Point", "coordinates": [79.86826739999998, 6.830572799999999]}}, {"type": "Feature", "properties": {"poi_id": "poi_0087", "name": "Arpico Super Center - Dehiwala", "dest_group": "food", "source": "gmaps", "in_primary": true, "node_id": 7166, "snap_dist_m": 9.4, "snap_ok": true}, "geometry": {"type": "Point", "coordinates": [79.8662806, 6.8467389999999995]}}, {"type": "Feature", "properties": {"poi_id": "poi_0088", "name": "Bakesloft", "dest_group": "food", "source": "gmaps", "in_primary": true, "node_id": 7167, "snap_dist_m": 7.812, "snap_ok": true}, "geometry": {"type": "Point", "coordinates": [79.8638915, 6.845169800000001]}}, {"type": "Feature", "properties": {"poi_id": "poi_0089", "name": "Barista - Mount Lavinia", "dest_group": "food", "source": "gmaps", "in_primary": true, "node_id": 7168, "snap_dist_m": 12.869, "snap_ok": true}, "geometry": {"type": "Point", "coordinates": [79.86653619999998, 6.8425708]}}, {"type": "Feature", "properties": {"poi_id": "poi_0090", "name": "Beach House Bistro Mt. Lavinia", "dest_group": "food", "source": "gmaps", "in_primary": true, "node_id": 276, "snap_dist_m": 18.679, "snap_ok": true}, "geometry": {"type": "Point", "coordinates": [79.86292739999999, 6.841023699999999]}}, {"type": "Feature", "properties": {"poi_id": "poi_0091", "name": "Buba Beach Seafood Restaurant", "dest_group": "food", "source": "gmaps", "in_primary": true, "node_id": 5883, "snap_dist_m": 59.979, "snap_ok": true}, "geometry": {"type": "Point", "coordinates": [79.86284769999999, 6.829500799999999]}}, {"type": "Feature", "properties": {"poi_id": "poi_0092", "name": "Caf\u00e9 Maitland By Mount Lavinia Hotel", "dest_group": "food", "source": "gmaps", "in_primary": true, "node_id": 7169, "snap_dist_m": 12.729, "snap_ok": true}, "geometry": {"type": "Point", "coordinates": [79.86532789999998, 6.835593599999999]}}, {"type": "Feature", "properties": {"poi_id": "poi_0093", "name": "Cakies cake corner", "dest_group": "food", "source": "gmaps", "in_primary": true, "node_id": 7170, "snap_dist_m": 3.312, "snap_ok": true}, "geometry": {"type": "Point", "coordinates": [79.86957579999999, 6.841578999999999]}}, {"type": "Feature", "properties": {"poi_id": "poi_0094", "name": "Caravan Fresh - The Cake & Pastry Shop", "dest_group": "food", "source": "gmaps", "in_primary": true, "node_id": 4990, "snap_dist_m": 8.123, "snap_ok": true}, "geometry": {"type": "Point", "coordinates": [79.86764139999998, 6.8381759]}}, {"type": "Feature", "properties": {"poi_id": "poi_0095", "name": "Cargills Food City - Mt. Lavinia 02", "dest_group": "food", "source": "gmaps", "in_primary": true, "node_id": 7171, "snap_dist_m": 14.585, "snap_ok": true}, "geometry": {"type": "Point", "coordinates": [79.86602559999999, 6.844350999999998]}}, {"type": "Feature", "properties": {"poi_id": "poi_0096", "name": "Ceylon Tour Tech", "dest_group": "food", "source": "gmaps", "in_primary": true, "node_id": 7172, "snap_dist_m": 2.395, "snap_ok": true}, "geometry": {"type": "Point", "coordinates": [79.86467149999999, 6.8444494]}}, {"type": "Feature", "properties": {"poi_id": "poi_0097", "name": "Cooper", "dest_group": "food", "source": "gmaps", "in_primary": true, "node_id": 1962, "snap_dist_m": 8.092, "snap_ok": true}, "geometry": {"type": "Point", "coordinates": [79.86776479999999, 6.826635599999999]}}, {"type": "Feature", "properties": {"poi_id": "poi_0098", "name": "Crepe Runner - Mount Lavinia", "dest_group": "food", "source": "gmaps", "in_primary": true, "node_id": 7173, "snap_dist_m": 10.338, "snap_ok": true}, "geometry": {"type": "Point", "coordinates": [79.86748119999999, 6.8357353]}}, {"type": "Feature", "properties": {"poi_id": "poi_0099", "name": "Crispy Day", "dest_group": "food", "source": "gmaps", "in_primary": true, "node_id": 7174, "snap_dist_m": 8.959, "snap_ok": true}, "geometry": {"type": "Point", "coordinates": [79.86599979999998, 6.846500799999999]}}, {"type": "Feature", "properties": {"poi_id": "poi_0100", "name": "D & G Spicy", "dest_group": "food", "source": "gmaps", "in_primary": true, "node_id": 7175, "snap_dist_m": 8.369, "snap_ok": true}, "geometry": {"type": "Point", "coordinates": [79.86309309999999, 6.8440354999999995]}}, {"type": "Feature", "properties": {"poi_id": "poi_0101", "name": "Day To Day Mount", "dest_group": "food", "source": "gmaps", "in_primary": true, "node_id": 7176, "snap_dist_m": 9.111, "snap_ok": true}, "geometry": {"type": "Point", "coordinates": [79.867532, 6.840105899999999]}}, {"type": "Feature", "properties": {"poi_id": "poi_0102", "name": "Dwaraka Indian Vegetarian Restaurant - Mount Lavinia", "dest_group": "food", "source": "gmaps", "in_primary": true, "node_id": 7177, "snap_dist_m": 14.493, "snap_ok": true}, "geometry": {"type": "Point", "coordinates": [79.8663024, 6.831686499999998]}}, {"type": "Feature", "properties": {"poi_id": "poi_0103", "name": "Earth Bistro - Mt Lavinia", "dest_group": "food", "source": "gmaps", "in_primary": true, "node_id": 7178, "snap_dist_m": 11.627, "snap_ok": true}, "geometry": {"type": "Point", "coordinates": [79.8709086, 6.832326499999999]}}, {"type": "Feature", "properties": {"poi_id": "poi_0104", "name": "FOODADO", "dest_group": "food", "source": "gmaps", "in_primary": true, "node_id": 610, "snap_dist_m": 3.605, "snap_ok": true}, "geometry": {"type": "Point", "coordinates": [79.8655643, 6.846930800000001]}}, {"type": "Feature", "properties": {"poi_id": "poi_0105", "name": "Fresh Khana", "dest_group": "food", "source": "gmaps", "in_primary": true, "node_id": 7179, "snap_dist_m": 10.658, "snap_ok": true}, "geometry": {"type": "Point", "coordinates": [79.86996579999999, 6.845011499999999]}}, {"type": "Feature", "properties": {"poi_id": "poi_0106", "name": "Full Meals Mushroom House", "dest_group": "food", "source": "gmaps", "in_primary": true, "node_id": 7180, "snap_dist_m": 15.0, "snap_ok": true}, "geometry": {"type": "Point", "coordinates": [79.86516649999999, 6.8456156]}}, {"type": "Feature", "properties": {"poi_id": "poi_0107", "name": "Gemi Rasa (\u0d9c\u0dd0\u0db8\u0dd2 \u0dbb\u0dc3) Restaurant", "dest_group": "food", "source": "gmaps", "in_primary": true, "node_id": 7181, "snap_dist_m": 6.198, "snap_ok": true}, "geometry": {"type": "Point", "coordinates": [79.8668138, 6.823057099999999]}}, {"type": "Feature", "properties": {"poi_id": "poi_0108", "name": "Governor's Restaurant", "dest_group": "food", "source": "gmaps", "in_primary": true, "node_id": 83, "snap_dist_m": 49.737, "snap_ok": true}, "geometry": {"type": "Point", "coordinates": [79.8619444, 6.833611100000001]}}, {"type": "Feature", "properties": {"poi_id": "poi_0109", "name": "Haqiqi Biriyani", "dest_group": "food", "source": "gmaps", "in_primary": true, "node_id": 7182, "snap_dist_m": 10.151, "snap_ok": true}, "geometry": {"type": "Point", "coordinates": [79.8659089, 6.8473889]}}, {"type": "Feature", "properties": {"poi_id": "poi_0110", "name": "Heba's Kitchen", "dest_group": "food", "source": "gmaps", "in_primary": true, "node_id": 7183, "snap_dist_m": 15.928, "snap_ok": true}, "geometry": {"type": "Point", "coordinates": [79.8674607, 6.8205544]}}, {"type": "Feature", "properties": {"poi_id": "poi_0111", "name": "KOZY Kitchen", "dest_group": "food", "source": "gmaps", "in_primary": true, "node_id": 7184, "snap_dist_m": 75.844, "snap_ok": true}, "geometry": {"type": "Point", "coordinates": [79.8682864, 6.834208499999999]}}, {"type": "Feature", "properties": {"poi_id": "poi_0112", "name": "Krusty Kitchen", "dest_group": "food", "source": "gmaps", "in_primary": true, "node_id": 7185, "snap_dist_m": 0.055, "snap_ok": true}, "geometry": {"type": "Point", "coordinates": [79.8694394, 6.833648099999998]}}, {"type": "Feature", "properties": {"poi_id": "poi_0113", "name": "Lavinia Bay Sea Food Restaurant", "dest_group": "food", "source": "gmaps", "in_primary": true, "node_id": 7186, "snap_dist_m": 11.989, "snap_ok": true}, "geometry": {"type": "Point", "coordinates": [79.86360909999998, 6.8397649000000005]}}, {"type": "Feature", "properties": {"poi_id": "poi_0114", "name": "Life style tea and coffee bar by Eshara & Hiruka", "dest_group": "food", "source": "gmaps", "in_primary": true, "node_id": 7187, "snap_dist_m": 13.39, "snap_ok": true}, "geometry": {"type": "Point", "coordinates": [79.8690135, 6.830680899999999]}}, {"type": "Feature", "properties": {"poi_id": "poi_0115", "name": "Loon Tao", "dest_group": "food", "source": "gmaps", "in_primary": true, "node_id": 324, "snap_dist_m": 67.768, "snap_ok": true}, "geometry": {"type": "Point", "coordinates": [79.8630945, 6.8391584]}}, {"type": "Feature", "properties": {"poi_id": "poi_0116", "name": "Love Lavin beach Boulevard Restaurant", "dest_group": "food", "source": "gmaps", "in_primary": true, "node_id": 256, "snap_dist_m": 30.344, "snap_ok": true}, "geometry": {"type": "Point", "coordinates": [79.86271879999998, 6.8423750000000005]}}, {"type": "Feature", "properties": {"poi_id": "poi_0117", "name": "Mamma's Kitchen", "dest_group": "food", "source": "gmaps", "in_primary": true, "node_id": 7188, "snap_dist_m": 11.137, "snap_ok": true}, "geometry": {"type": "Point", "coordinates": [79.86949119999998, 6.846331299999999]}}, {"type": "Feature", "properties": {"poi_id": "poi_0118", "name": "Manna Deli", "dest_group": "food", "source": "gmaps", "in_primary": true, "node_id": 7189, "snap_dist_m": 3.909, "snap_ok": true}, "geometry": {"type": "Point", "coordinates": [79.86975349999999, 6.843589099999999]}}, {"type": "Feature", "properties": {"poi_id": "poi_0119", "name": "Mathara", "dest_group": "food", "source": "gmaps", "in_primary": true, "node_id": 7190, "snap_dist_m": 25.95, "snap_ok": true}, "geometry": {"type": "Point", "coordinates": [79.868249, 6.8282962]}}, {"type": "Feature", "properties": {"poi_id": "poi_0120", "name": "MealZone", "dest_group": "food", "source": "gmaps", "in_primary": true, "node_id": 7191, "snap_dist_m": 13.316, "snap_ok": true}, "geometry": {"type": "Point", "coordinates": [79.8655041, 6.846248299999999]}}, {"type": "Feature", "properties": {"poi_id": "poi_0121", "name": "Mullet's Restaurant", "dest_group": "food", "source": "gmaps", "in_primary": true, "node_id": 7192, "snap_dist_m": 6.314, "snap_ok": true}, "geometry": {"type": "Point", "coordinates": [79.87180009999999, 6.8315577]}}, {"type": "Feature", "properties": {"poi_id": "poi_0122", "name": "Nesmart super", "dest_group": "food", "source": "gmaps", "in_primary": true, "node_id": 7193, "snap_dist_m": 6.795, "snap_ok": true}, "geometry": {"type": "Point", "coordinates": [79.8665135, 6.8435514999999985]}}, {"type": "Feature", "properties": {"poi_id": "poi_0123", "name": "Nildiya Restaurant", "dest_group": "food", "source": "gmaps", "in_primary": true, "node_id": 6138, "snap_dist_m": 3.625, "snap_ok": true}, "geometry": {"type": "Point", "coordinates": [79.8676802, 6.8293256]}}, {"type": "Feature", "properties": {"poi_id": "poi_0124", "name": "Nook Cafe@mount", "dest_group": "food", "source": "gmaps", "in_primary": true, "node_id": 7194, "snap_dist_m": 12.9, "snap_ok": true}, "geometry": {"type": "Point", "coordinates": [79.8682902, 6.8287957]}}, {"type": "Feature", "properties": {"poi_id": "poi_0125", "name": "Olivia Restaurant and Bar", "dest_group": "food", "source": "gmaps", "in_primary": true, "node_id": 7195, "snap_dist_m": 9.275, "snap_ok": true}, "geometry": {"type": "Point", "coordinates": [79.86332, 6.8348985]}}, {"type": "Feature", "properties": {"poi_id": "poi_0126", "name": "Pathani Catering", "dest_group": "food", "source": "gmaps", "in_primary": true, "node_id": 7196, "snap_dist_m": 9.116, "snap_ok": true}, "geometry": {"type": "Point", "coordinates": [79.8712977, 6.830341700000001]}}, {"type": "Feature", "properties": {"poi_id": "poi_0127", "name": "RR CAFE", "dest_group": "food", "source": "gmaps", "in_primary": true, "node_id": 1346, "snap_dist_m": 6.553, "snap_ok": true}, "geometry": {"type": "Point", "coordinates": [79.87455069999999, 6.8424422]}}, {"type": "Feature", "properties": {"poi_id": "poi_0128", "name": "Ranga's", "dest_group": "food", "source": "gmaps", "in_primary": true, "node_id": 395, "snap_dist_m": 47.727, "snap_ok": true}, "geometry": {"type": "Point", "coordinates": [79.8629826, 6.835368700000001]}}, {"type": "Feature", "properties": {"poi_id": "poi_0129", "name": "Ranveli beach Mount Lavinia", "dest_group": "food", "source": "gmaps", "in_primary": true, "node_id": 364, "snap_dist_m": 71.246, "snap_ok": true}, "geometry": {"type": "Point", "coordinates": [79.8630058, 6.836351699999998]}}, {"type": "Feature", "properties": {"poi_id": "poi_0130", "name": "Redmark", "dest_group": "food", "source": "gmaps", "in_primary": true, "node_id": 7197, "snap_dist_m": 8.552, "snap_ok": true}, "geometry": {"type": "Point", "coordinates": [79.86994559999998, 6.846062300000001]}}, {"type": "Feature", "properties": {"poi_id": "poi_0131", "name": "Reef House Cafe", "dest_group": "food", "source": "gmaps", "in_primary": true, "node_id": 2315, "snap_dist_m": 48.48, "snap_ok": true}, "geometry": {"type": "Point", "coordinates": [79.86248099999999, 6.843629999999999]}}, {"type": "Feature", "properties": {"poi_id": "poi_0132", "name": "Ruhunu Bath Kade - Mount Lavinia", "dest_group": "food", "source": "gmaps", "in_primary": true, "node_id": 7198, "snap_dist_m": 17.173, "snap_ok": true}, "geometry": {"type": "Point", "coordinates": [79.8671622, 6.8348543]}}, {"type": "Feature", "properties": {"poi_id": "poi_0133", "name": "S I Royal Shawarma", "dest_group": "food", "source": "gmaps", "in_primary": true, "node_id": 151, "snap_dist_m": 9.918, "snap_ok": true}, "geometry": {"type": "Point", "coordinates": [79.8702397, 6.847199699999999]}}, {"type": "Feature", "properties": {"poi_id": "poi_0134", "name": "SEVEN ELEVEN CAFE PVT LTD", "dest_group": "food", "source": "gmaps", "in_primary": true, "node_id": 1591, "snap_dist_m": 7.837, "snap_ok": true}, "geometry": {"type": "Point", "coordinates": [79.8712096, 6.839005300000001]}}, {"type": "Feature", "properties": {"poi_id": "poi_0135", "name": "SHAWARMAS DEHIWALA", "dest_group": "food", "source": "gmaps", "in_primary": true, "node_id": 7199, "snap_dist_m": 7.437, "snap_ok": true}, "geometry": {"type": "Point", "coordinates": [79.8655761, 6.848833600000001]}}, {"type": "Feature", "properties": {"poi_id": "poi_0136", "name": "SILK", "dest_group": "food", "source": "gmaps", "in_primary": true, "node_id": 7200, "snap_dist_m": 7.401, "snap_ok": true}, "geometry": {"type": "Point", "coordinates": [79.86432569999998, 6.843127599999999]}}, {"type": "Feature", "properties": {"poi_id": "poi_0137", "name": "Sandpit Cafe Mount Lavinia", "dest_group": "food", "source": "gmaps", "in_primary": true, "node_id": 7201, "snap_dist_m": 1.627, "snap_ok": true}, "geometry": {"type": "Point", "coordinates": [79.86617179999999, 6.8417774]}}, {"type": "Feature", "properties": {"poi_id": "poi_0138", "name": "Senior Quality Executive", "dest_group": "food", "source": "gmaps", "in_primary": true, "node_id": 7202, "snap_dist_m": 15.512, "snap_ok": true}, "geometry": {"type": "Point", "coordinates": [79.86602169999999, 6.8432851999999995]}}, {"type": "Feature", "properties": {"poi_id": "poi_0139", "name": "Shani Snack Bar", "dest_group": "food", "source": "gmaps", "in_primary": true, "node_id": 7203, "snap_dist_m": 9.38, "snap_ok": true}, "geometry": {"type": "Point", "coordinates": [79.8676423, 6.838820999999999]}}, {"type": "Feature", "properties": {"poi_id": "poi_0140", "name": "Sharifa caterings", "dest_group": "food", "source": "gmaps", "in_primary": true, "node_id": 7204, "snap_dist_m": 7.671, "snap_ok": true}, "geometry": {"type": "Point", "coordinates": [79.8705107, 6.841622900000001]}}, {"type": "Feature", "properties": {"poi_id": "poi_0141", "name": "Spiceland Restaurant", "dest_group": "food", "source": "gmaps", "in_primary": true, "node_id": 7205, "snap_dist_m": 3.773, "snap_ok": true}, "geometry": {"type": "Point", "coordinates": [79.86654140000002, 6.847540499999999]}}, {"type": "Feature", "properties": {"poi_id": "poi_0142", "name": "Subway - Mount Lavinia", "dest_group": "food", "source": "gmaps", "in_primary": true, "node_id": 7206, "snap_dist_m": 12.398, "snap_ok": true}, "geometry": {"type": "Point", "coordinates": [79.8671235, 6.836352099999998]}}, {"type": "Feature", "properties": {"poi_id": "poi_0143", "name": "Thai Cuisine La Rambla", "dest_group": "food", "source": "gmaps", "in_primary": true, "node_id": 7207, "snap_dist_m": 7.971, "snap_ok": true}, "geometry": {"type": "Point", "coordinates": [79.8644648, 6.8335122]}}, {"type": "Feature", "properties": {"poi_id": "poi_0144", "name": "The Angler", "dest_group": "food", "source": "gmaps", "in_primary": true, "node_id": 7208, "snap_dist_m": 9.223, "snap_ok": true}, "geometry": {"type": "Point", "coordinates": [79.8641661, 6.833357600000001]}}, {"type": "Feature", "properties": {"poi_id": "poi_0145", "name": "The Monarch Store & Cafe", "dest_group": "food", "source": "gmaps", "in_primary": true, "node_id": 7209, "snap_dist_m": 5.621, "snap_ok": true}, "geometry": {"type": "Point", "coordinates": [79.86798299999998, 6.829744900000001]}}, {"type": "Feature", "properties": {"poi_id": "poi_0146", "name": "The Mount Bakers", "dest_group": "food", "source": "gmaps", "in_primary": true, "node_id": 7210, "snap_dist_m": 12.509, "snap_ok": true}, "geometry": {"type": "Point", "coordinates": [79.86750069999998, 6.8354067]}}, {"type": "Feature", "properties": {"poi_id": "poi_0147", "name": "The Templers Cafe", "dest_group": "food", "source": "gmaps", "in_primary": true, "node_id": 7211, "snap_dist_m": 19.27, "snap_ok": true}, "geometry": {"type": "Point", "coordinates": [79.86964779999998, 6.831174]}}, {"type": "Feature", "properties": {"poi_id": "poi_0148", "name": "The fresh made", "dest_group": "food", "source": "gmaps", "in_primary": true, "node_id": 7212, "snap_dist_m": 5.849, "snap_ok": true}, "geometry": {"type": "Point", "coordinates": [79.87186409999998, 6.844195599999999]}}, {"type": "Feature", "properties": {"poi_id": "poi_0149", "name": "Time 2 Eat", "dest_group": "food", "source": "gmaps", "in_primary": true, "node_id": 7213, "snap_dist_m": 5.431, "snap_ok": true}, "geometry": {"type": "Point", "coordinates": [79.8661387, 6.847199599999999]}}, {"type": "Feature", "properties": {"poi_id": "poi_0150", "name": "Umay Kitchen", "dest_group": "food", "source": "gmaps", "in_primary": true, "node_id": 7214, "snap_dist_m": 7.282, "snap_ok": true}, "geometry": {"type": "Point", "coordinates": [79.86874059999998, 6.8215723]}}, {"type": "Feature", "properties": {"poi_id": "poi_0151", "name": "Wadiya by Rasa Malaysia Beach Restaurant", "dest_group": "food", "source": "gmaps", "in_primary": true, "node_id": 415, "snap_dist_m": 45.887, "snap_ok": true}, "geometry": {"type": "Point", "coordinates": [79.8631369, 6.838735400000001]}}, {"type": "Feature", "properties": {"poi_id": "poi_0152", "name": "abdhullaah foods", "dest_group": "food", "source": "gmaps", "in_primary": true, "node_id": 7215, "snap_dist_m": 15.904, "snap_ok": true}, "geometry": {"type": "Point", "coordinates": [79.8656242, 6.824712799999999]}}, {"type": "Feature", "properties": {"poi_id": "poi_0153", "name": "Ginsomin", "dest_group": "health", "source": "osm", "in_primary": true, "node_id": 7216, "snap_dist_m": 8.404, "snap_ok": true}, "geometry": {"type": "Point", "coordinates": [79.86766219999998, 6.838173399999999]}}, {"type": "Feature", "properties": {"poi_id": "poi_0154", "name": "Harcourts", "dest_group": "health", "source": "osm", "in_primary": false, "node_id": 7217, "snap_dist_m": 11.522, "snap_ok": true}, "geometry": {"type": "Point", "coordinates": [79.8651499, 6.8513541]}}, {"type": "Feature", "properties": {"poi_id": "poi_0155", "name": "Maharhishi Ayurveda Hospital", "dest_group": "health", "source": "osm", "in_primary": true, "node_id": 7218, "snap_dist_m": 19.649, "snap_ok": true}, "geometry": {"type": "Point", "coordinates": [79.8656752, 6.830397099999998]}}, {"type": "Feature", "properties": {"poi_id": "poi_0156", "name": "Navajeevana Health care centre", "dest_group": "health", "source": "osm", "in_primary": false, "node_id": 7219, "snap_dist_m": 34.857, "snap_ok": true}, "geometry": {"type": "Point", "coordinates": [79.8647643, 6.851488800000001]}}, {"type": "Feature", "properties": {"poi_id": "poi_0157", "name": "Siddhalepa", "dest_group": "health", "source": "osm", "in_primary": false, "node_id": 7220, "snap_dist_m": 13.843, "snap_ok": true}, "geometry": {"type": "Point", "coordinates": [79.87732169999998, 6.831185399999999]}}, {"type": "Feature", "properties": {"poi_id": "poi_0158", "name": "Sri Jeewarakshaka Bhayshajyalaya", "dest_group": "health", "source": "osm", "in_primary": false, "node_id": 7221, "snap_dist_m": 8.362, "snap_ok": true}, "geometry": {"type": "Point", "coordinates": [79.8660313, 6.8522186]}}, {"type": "Feature", "properties": {"poi_id": "poi_0159", "name": "dehiwal urban health muster", "dest_group": "health", "source": "osm", "in_primary": false, "node_id": 7222, "snap_dist_m": 0.597, "snap_ok": true}, "geometry": {"type": "Point", "coordinates": [79.8650781, 6.8494075]}}, {"type": "Feature", "properties": {"poi_id": "poi_0160", "name": "no place", "dest_group": "health", "source": "osm", "in_primary": true, "node_id": 7223, "snap_dist_m": 9.672, "snap_ok": true}, "geometry": {"type": "Point", "coordinates": [79.8653421, 6.848992999999999]}}, {"type": "Feature", "properties": {"poi_id": "poi_0161", "name": "Healthcare Pharmacy (Pvt) Ltd", "dest_group": "health", "source": "gmaps", "in_primary": true, "node_id": 7224, "snap_dist_m": 13.003, "snap_ok": true}, "geometry": {"type": "Point", "coordinates": [79.86853449999998, 6.829017399999999]}}, {"type": "Feature", "properties": {"poi_id": "poi_0162", "name": "Medicare Pharmacy (pvt) ltd", "dest_group": "health", "source": "gmaps", "in_primary": true, "node_id": 1193, "snap_dist_m": 13.687, "snap_ok": true}, "geometry": {"type": "Point", "coordinates": [79.8675017, 6.832742499999998]}}, {"type": "Feature", "properties": {"poi_id": "poi_0163", "name": "Medix Pharmacy", "dest_group": "health", "source": "gmaps", "in_primary": true, "node_id": 7225, "snap_dist_m": 10.443, "snap_ok": true}, "geometry": {"type": "Point", "coordinates": [79.8708175, 6.8390393]}}, {"type": "Feature", "properties": {"poi_id": "poi_0164", "name": "The Mount Pharmacy - Mount Lavinia", "dest_group": "health", "source": "gmaps", "in_primary": true, "node_id": 7111, "snap_dist_m": 15.537, "snap_ok": true}, "geometry": {"type": "Point", "coordinates": [79.867642, 6.83188]}}, {"type": "Feature", "properties": {"poi_id": "poi_0165", "name": "", "dest_group": "transit", "source": "osm", "in_primary": true, "node_id": 793, "snap_dist_m": 4.399, "snap_ok": true}, "geometry": {"type": "Point", "coordinates": [79.8673845, 6.8375563]}}, {"type": "Feature", "properties": {"poi_id": "poi_0166", "name": "", "dest_group": "transit", "source": "osm", "in_primary": true, "node_id": 7226, "snap_dist_m": 1.487, "snap_ok": true}, "geometry": {"type": "Point", "coordinates": [79.8662705, 6.844588199999999]}}, {"type": "Feature", "properties": {"poi_id": "poi_0167", "name": "", "dest_group": "transit", "source": "osm", "in_primary": false, "node_id": 7227, "snap_dist_m": 4.825, "snap_ok": true}, "geometry": {"type": "Point", "coordinates": [79.87128509999998, 6.8225850999999995]}}, {"type": "Feature", "properties": {"poi_id": "poi_0168", "name": "", "dest_group": "transit", "source": "osm", "in_primary": false, "node_id": 94, "snap_dist_m": 11.873, "snap_ok": true}, "geometry": {"type": "Point", "coordinates": [79.8735358, 6.819409499999999]}}, {"type": "Feature", "properties": {"poi_id": "poi_0169", "name": "", "dest_group": "transit", "source": "osm", "in_primary": true, "node_id": 857, "snap_dist_m": 0.4, "snap_ok": true}, "geometry": {"type": "Point", "coordinates": [79.8659654, 6.8488504]}}, {"type": "Feature", "properties": {"poi_id": "poi_0170", "name": "", "dest_group": "transit", "source": "osm", "in_primary": true, "node_id": 748, "snap_dist_m": 0.088, "snap_ok": true}, "geometry": {"type": "Point", "coordinates": [79.86766759999999, 6.830800799999998]}}, {"type": "Feature", "properties": {"poi_id": "poi_0171", "name": "", "dest_group": "transit", "source": "osm", "in_primary": false, "node_id": 4765, "snap_dist_m": 0.151, "snap_ok": true}, "geometry": {"type": "Point", "coordinates": [79.86640649999998, 6.851281099999999]}}, {"type": "Feature", "properties": {"poi_id": "poi_0172", "name": "CTB Depot", "dest_group": "transit", "source": "osm", "in_primary": false, "node_id": 7228, "snap_dist_m": 29.038, "snap_ok": true}, "geometry": {"type": "Point", "coordinates": [79.8686977, 6.826173299999999]}}, {"type": "Feature", "properties": {"poi_id": "poi_0173", "name": "Cargills Food City Ratmalana", "dest_group": "transit", "source": "osm", "in_primary": true, "node_id": 728, "snap_dist_m": 0.028, "snap_ok": true}, "geometry": {"type": "Point", "coordinates": [79.8688536, 6.827684399999999]}}, {"type": "Feature", "properties": {"poi_id": "poi_0174", "name": "Dehiala railway station", "dest_group": "transit", "source": "osm", "in_primary": false, "node_id": 7229, "snap_dist_m": 0.758, "snap_ok": true}, "geometry": {"type": "Point", "coordinates": [79.86231229999999, 6.8509062]}}, {"type": "Feature", "properties": {"poi_id": "poi_0175", "name": "Dehiwala Bus Stop", "dest_group": "transit", "source": "osm", "in_primary": false, "node_id": 7134, "snap_dist_m": 7.221, "snap_ok": true}, "geometry": {"type": "Point", "coordinates": [79.86502049999999, 6.8512749]}}, {"type": "Feature", "properties": {"poi_id": "poi_0176", "name": "Dehiwala Junction", "dest_group": "transit", "source": "osm", "in_primary": false, "node_id": 6061, "snap_dist_m": 0.209, "snap_ok": true}, "geometry": {"type": "Point", "coordinates": [79.8658814, 6.851820299999999]}}, {"type": "Feature", "properties": {"poi_id": "poi_0177", "name": "Hotel Road halt", "dest_group": "transit", "source": "osm", "in_primary": true, "node_id": 821, "snap_dist_m": 0.155, "snap_ok": true}, "geometry": {"type": "Point", "coordinates": [79.8668469, 6.841971299999999]}}, {"type": "Feature", "properties": {"poi_id": "poi_0178", "name": "Hotel Road halt", "dest_group": "transit", "source": "osm", "in_primary": true, "node_id": 813, "snap_dist_m": 0.489, "snap_ok": true}, "geometry": {"type": "Point", "coordinates": [79.86721399999999, 6.840760399999999]}}, {"type": "Feature", "properties": {"poi_id": "poi_0179", "name": "Karagampitiya", "dest_group": "transit", "source": "osm", "in_primary": false, "node_id": 87, "snap_dist_m": 0.042, "snap_ok": true}, "geometry": {"type": "Point", "coordinates": [79.8720234, 6.850417599999999]}}, {"type": "Feature", "properties": {"poi_id": "poi_0180", "name": "Mount Lavinia", "dest_group": "transit", "source": "osm", "in_primary": true, "node_id": 7103, "snap_dist_m": 8.692, "snap_ok": true}, "geometry": {"type": "Point", "coordinates": [79.8672498, 6.833537899999999]}}, {"type": "Feature", "properties": {"poi_id": "poi_0181", "name": "Mount Lavinia", "dest_group": "transit", "source": "osm", "in_primary": true, "node_id": 7230, "snap_dist_m": 0.687, "snap_ok": true}, "geometry": {"type": "Point", "coordinates": [79.8673945, 6.8352314]}}, {"type": "Feature", "properties": {"poi_id": "poi_0182", "name": "Mount Lavinia Bus Stand", "dest_group": "transit", "source": "osm", "in_primary": true, "node_id": 7126, "snap_dist_m": 5.976, "snap_ok": true}, "geometry": {"type": "Point", "coordinates": [79.86727279999998, 6.8330085]}}, {"type": "Feature", "properties": {"poi_id": "poi_0183", "name": "Mount Lavinia Police Station halt", "dest_group": "transit", "source": "osm", "in_primary": false, "node_id": 2127, "snap_dist_m": 0.245, "snap_ok": true}, "geometry": {"type": "Point", "coordinates": [79.86975249999999, 6.825442299999998]}}, {"type": "Feature", "properties": {"poi_id": "poi_0184", "name": "Templers Road", "dest_group": "transit", "source": "osm", "in_primary": true, "node_id": 7231, "snap_dist_m": 5.114, "snap_ok": true}, "geometry": {"type": "Point", "coordinates": [79.8682418, 6.8295398]}}, {"type": "Feature", "properties": {"poi_id": "poi_0185", "name": "255 Kottawa Bus Stop", "dest_group": "transit", "source": "gmaps", "in_primary": true, "node_id": 7232, "snap_dist_m": 4.265, "snap_ok": true}, "geometry": {"type": "Point", "coordinates": [79.8670798, 6.832585800000001]}}, {"type": "Feature", "properties": {"poi_id": "poi_0186", "name": "Bus Stop", "dest_group": "transit", "source": "gmaps", "in_primary": true, "node_id": 7233, "snap_dist_m": 5.869, "snap_ok": true}, "geometry": {"type": "Point", "coordinates": [79.8675799, 6.8377605]}}, {"type": "Feature", "properties": {"poi_id": "poi_0187", "name": "Mt. Lavinia Bus Stop", "dest_group": "transit", "source": "gmaps", "in_primary": true, "node_id": 1193, "snap_dist_m": 9.591, "snap_ok": true}, "geometry": {"type": "Point", "coordinates": [79.86747369999999, 6.8328026999999985]}}, {"type": "Feature", "properties": {"poi_id": "poi_0188", "name": "", "dest_group": "education", "source": "osm", "in_primary": true, "node_id": 7234, "snap_dist_m": 3.197, "snap_ok": true}, "geometry": {"type": "Point", "coordinates": [79.86775669999999, 6.8465091]}}, {"type": "Feature", "properties": {"poi_id": "poi_0189", "name": "", "dest_group": "education", "source": "osm", "in_primary": true, "node_id": 7235, "snap_dist_m": 23.684, "snap_ok": true}, "geometry": {"type": "Point", "coordinates": [79.8656927, 6.8322327000000005]}}, {"type": "Feature", "properties": {"poi_id": "poi_0190", "name": "", "dest_group": "education", "source": "osm", "in_primary": false, "node_id": 7236, "snap_dist_m": 27.701, "snap_ok": true}, "geometry": {"type": "Point", "coordinates": [79.86358959999998, 6.850215499999999]}}, {"type": "Feature", "properties": {"poi_id": "poi_0191", "name": "British College of Applied Studies", "dest_group": "education", "source": "osm", "in_primary": true, "node_id": 7237, "snap_dist_m": 32.809, "snap_ok": true}, "geometry": {"type": "Point", "coordinates": [79.86744289999999, 6.830503800000001]}}, {"type": "Feature", "properties": {"poi_id": "poi_0192", "name": "Faculty of Engineering", "dest_group": "education", "source": "osm", "in_primary": false, "node_id": 7238, "snap_dist_m": 32.823, "snap_ok": true}, "geometry": {"type": "Point", "coordinates": [79.87303849999999, 6.825584]}}, {"type": "Feature", "properties": {"poi_id": "poi_0193", "name": "Girls High School", "dest_group": "education", "source": "osm", "in_primary": true, "node_id": 7239, "snap_dist_m": 9.275, "snap_ok": true}, "geometry": {"type": "Point", "coordinates": [79.8649848, 6.834605900000001]}}, {"type": "Feature", "properties": {"poi_id": "poi_0194", "name": "Hejaaz International Boys School", "dest_group": "education", "source": "osm", "in_primary": true, "node_id": 7240, "snap_dist_m": 1.065, "snap_ok": true}, "geometry": {"type": "Point", "coordinates": [79.86821489999998, 6.843138800000001]}}, {"type": "Feature", "properties": {"poi_id": "poi_0195", "name": "Lalith Athulathmudali College", "dest_group": "education", "source": "osm", "in_primary": true, "node_id": 7241, "snap_dist_m": 32.649, "snap_ok": true}, "geometry": {"type": "Point", "coordinates": [79.8717788, 6.829559500000001]}}, {"type": "Feature", "properties": {"poi_id": "poi_0196", "name": "MSTI", "dest_group": "education", "source": "osm", "in_primary": false, "node_id": 4803, "snap_dist_m": 13.435, "snap_ok": true}, "geometry": {"type": "Point", "coordinates": [79.8639902, 6.8511163999999996]}}, {"type": "Feature", "properties": {"poi_id": "poi_0197", "name": "Metropolitn College", "dest_group": "education", "source": "osm", "in_primary": false, "node_id": 4771, "snap_dist_m": 17.104, "snap_ok": true}, "geometry": {"type": "Point", "coordinates": [79.8676804, 6.8511982]}}, {"type": "Feature", "properties": {"poi_id": "poi_0198", "name": "Najaa International School", "dest_group": "education", "source": "osm", "in_primary": true, "node_id": 7242, "snap_dist_m": 10.746, "snap_ok": true}, "geometry": {"type": "Point", "coordinates": [79.8691585, 6.838620099999999]}}, {"type": "Feature", "properties": {"poi_id": "poi_0199", "name": "Presbyterian Girls School", "dest_group": "education", "source": "osm", "in_primary": false, "node_id": 7243, "snap_dist_m": 10.377, "snap_ok": true}, "geometry": {"type": "Point", "coordinates": [79.8633844, 6.850498000000001]}}, {"type": "Feature", "properties": {"poi_id": "poi_0200", "name": "Science College", "dest_group": "education", "source": "osm", "in_primary": false, "node_id": 5710, "snap_dist_m": 51.307, "snap_ok": true}, "geometry": {"type": "Point", "coordinates": [79.8764537, 6.830135099999999]}}, {"type": "Feature", "properties": {"poi_id": "poi_0201", "name": "St. Thomas College", "dest_group": "education", "source": "osm", "in_primary": true, "node_id": 7244, "snap_dist_m": 6.073, "snap_ok": true}, "geometry": {"type": "Point", "coordinates": [79.8653408, 6.837151799999999]}}, {"type": "Feature", "properties": {"poi_id": "poi_0202", "name": "Subodha adarsha kanishta vidyalaya", "dest_group": "education", "source": "osm", "in_primary": false, "node_id": 7245, "snap_dist_m": 5.827, "snap_ok": true}, "geometry": {"type": "Point", "coordinates": [79.867935, 6.849237599999999]}}, {"type": "Feature", "properties": {"poi_id": "poi_0203", "name": "Sumaga Vidyalaya", "dest_group": "education", "source": "osm", "in_primary": false, "node_id": 7246, "snap_dist_m": 21.37, "snap_ok": true}, "geometry": {"type": "Point", "coordinates": [79.87013859999999, 6.848451599999999]}}, {"type": "Feature", "properties": {"poi_id": "poi_0204", "name": "msti maritime academy", "dest_group": "education", "source": "osm", "in_primary": false, "node_id": 7247, "snap_dist_m": 8.87, "snap_ok": true}, "geometry": {"type": "Point", "coordinates": [79.86584439999999, 6.850685699999999]}}, {"type": "Feature", "properties": {"poi_id": "poi_0205", "name": "suboda adarsha colleg", "dest_group": "education", "source": "osm", "in_primary": true, "node_id": 7248, "snap_dist_m": 21.158, "snap_ok": true}, "geometry": {"type": "Point", "coordinates": [79.8673831, 6.8419008]}}, {"type": "Feature", "properties": {"poi_id": "poi_0206", "name": "the briish iinternational pre school", "dest_group": "education", "source": "osm", "in_primary": false, "node_id": 7249, "snap_dist_m": 5.137, "snap_ok": true}, "geometry": {"type": "Point", "coordinates": [79.8660181, 6.850397899999999]}}, {"type": "Feature", "properties": {"poi_id": "poi_0207", "name": "", "dest_group": "finance", "source": "osm", "in_primary": true, "node_id": 7250, "snap_dist_m": 2.167, "snap_ok": true}, "geometry": {"type": "Point", "coordinates": [79.86819159999999, 6.8285195]}}, {"type": "Feature", "properties": {"poi_id": "poi_0208", "name": "", "dest_group": "finance", "source": "osm", "in_primary": false, "node_id": 5446, "snap_dist_m": 4.316, "snap_ok": true}, "geometry": {"type": "Point", "coordinates": [79.87374909999998, 6.829748]}}, {"type": "Feature", "properties": {"poi_id": "poi_0209", "name": "", "dest_group": "finance", "source": "osm", "in_primary": false, "node_id": 7251, "snap_dist_m": 38.78, "snap_ok": true}, "geometry": {"type": "Point", "coordinates": [79.87391009999999, 6.8314188]}}, {"type": "Feature", "properties": {"poi_id": "poi_0210", "name": "", "dest_group": "finance", "source": "osm", "in_primary": true, "node_id": 7252, "snap_dist_m": 4.037, "snap_ok": true}, "geometry": {"type": "Point", "coordinates": [79.8678021, 6.830728700000001]}}, {"type": "Feature", "properties": {"poi_id": "poi_0211", "name": "", "dest_group": "finance", "source": "osm", "in_primary": false, "node_id": 7253, "snap_dist_m": 4.32, "snap_ok": true}, "geometry": {"type": "Point", "coordinates": [79.8658046, 6.8515598]}}, {"type": "Feature", "properties": {"poi_id": "poi_0212", "name": "", "dest_group": "finance", "source": "osm", "in_primary": false, "node_id": 1538, "snap_dist_m": 32.133, "snap_ok": true}, "geometry": {"type": "Point", "coordinates": [79.86658549999999, 6.8525561]}}, {"type": "Feature", "properties": {"poi_id": "poi_0213", "name": "", "dest_group": "finance", "source": "osm", "in_primary": false, "node_id": 7254, "snap_dist_m": 0.887, "snap_ok": true}, "geometry": {"type": "Point", "coordinates": [79.8643661, 6.851285599999999]}}, {"type": "Feature", "properties": {"poi_id": "poi_0214", "name": "", "dest_group": "finance", "source": "osm", "in_primary": false, "node_id": 7255, "snap_dist_m": 1.24, "snap_ok": true}, "geometry": {"type": "Point", "coordinates": [79.8658459, 6.852818099999999]}}, {"type": "Feature", "properties": {"poi_id": "poi_0215", "name": "", "dest_group": "finance", "source": "osm", "in_primary": false, "node_id": 7256, "snap_dist_m": 83.421, "snap_ok": true}, "geometry": {"type": "Point", "coordinates": [79.86154729999998, 6.8509325]}}, {"type": "Feature", "properties": {"poi_id": "poi_0216", "name": "", "dest_group": "finance", "source": "osm", "in_primary": true, "node_id": 7257, "snap_dist_m": 4.895, "snap_ok": true}, "geometry": {"type": "Point", "coordinates": [79.8663138, 6.83707]}}, {"type": "Feature", "properties": {"poi_id": "poi_0217", "name": "", "dest_group": "finance", "source": "osm", "in_primary": true, "node_id": 7258, "snap_dist_m": 6.738, "snap_ok": true}, "geometry": {"type": "Point", "coordinates": [79.86658769999998, 6.838750299999999]}}, {"type": "Feature", "properties": {"poi_id": "poi_0218", "name": "BOC", "dest_group": "finance", "source": "osm", "in_primary": true, "node_id": 7104, "snap_dist_m": 8.259, "snap_ok": true}, "geometry": {"type": "Point", "coordinates": [79.8672378, 6.833779900000001]}}, {"type": "Feature", "properties": {"poi_id": "poi_0219", "name": "Bank of Ceylon", "dest_group": "finance", "source": "osm", "in_primary": false, "node_id": 7259, "snap_dist_m": 8.217, "snap_ok": true}, "geometry": {"type": "Point", "coordinates": [79.8659759, 6.852548999999998]}}, {"type": "Feature", "properties": {"poi_id": "poi_0220", "name": "Bank of Ceylon (BOC)", "dest_group": "finance", "source": "osm", "in_primary": true, "node_id": 7260, "snap_dist_m": 15.704, "snap_ok": true}, "geometry": {"type": "Point", "coordinates": [79.8671766, 6.835775999999999]}}, {"type": "Feature", "properties": {"poi_id": "poi_0221", "name": "Commercial Attidiya", "dest_group": "finance", "source": "osm", "in_primary": false, "node_id": 7261, "snap_dist_m": 8.964, "snap_ok": true}, "geometry": {"type": "Point", "coordinates": [79.87319599999998, 6.819915199999998]}}, {"type": "Feature", "properties": {"poi_id": "poi_0222", "name": "Commercial Bank of Ceylon", "dest_group": "finance", "source": "osm", "in_primary": true, "node_id": 7262, "snap_dist_m": 7.526, "snap_ok": true}, "geometry": {"type": "Point", "coordinates": [79.8665767, 6.846733200000001]}}, {"type": "Feature", "properties": {"poi_id": "poi_0223", "name": "Commercial Bank of Ceylon", "dest_group": "finance", "source": "osm", "in_primary": false, "node_id": 7263, "snap_dist_m": 13.084, "snap_ok": true}, "geometry": {"type": "Point", "coordinates": [79.8725796, 6.821208899999999]}}, {"type": "Feature", "properties": {"poi_id": "poi_0224", "name": "Commercial Bank of Ceylon", "dest_group": "finance", "source": "osm", "in_primary": true, "node_id": 7264, "snap_dist_m": 12.346, "snap_ok": true}, "geometry": {"type": "Point", "coordinates": [79.8670411, 6.8407391]}}, {"type": "Feature", "properties": {"poi_id": "poi_0225", "name": "DFCV Bank", "dest_group": "finance", "source": "osm", "in_primary": true, "node_id": 7265, "snap_dist_m": 14.342, "snap_ok": true}, "geometry": {"type": "Point", "coordinates": [79.86735499999999, 6.840980999999999]}}, {"type": "Feature", "properties": {"poi_id": "poi_0226", "name": "HNB", "dest_group": "finance", "source": "osm", "in_primary": true, "node_id": 7266, "snap_dist_m": 15.404, "snap_ok": true}, "geometry": {"type": "Point", "coordinates": [79.86755549999998, 6.832477599999999]}}, {"type": "Feature", "properties": {"poi_id": "poi_0227", "name": "HNB", "dest_group": "finance", "source": "osm", "in_primary": false, "node_id": 7267, "snap_dist_m": 11.561, "snap_ok": true}, "geometry": {"type": "Point", "coordinates": [79.86570559999998, 6.852492499999999]}}, {"type": "Feature", "properties": {"poi_id": "poi_0228", "name": "HNB", "dest_group": "finance", "source": "osm", "in_primary": false, "node_id": 7229, "snap_dist_m": 12.975, "snap_ok": true}, "geometry": {"type": "Point", "coordinates": [79.8623944, 6.850995799999999]}}, {"type": "Feature", "properties": {"poi_id": "poi_0229", "name": "LOLC inance", "dest_group": "finance", "source": "osm", "in_primary": false, "node_id": 7268, "snap_dist_m": 7.908, "snap_ok": true}, "geometry": {"type": "Point", "coordinates": [79.8658779, 6.849750900000001]}}, {"type": "Feature", "properties": {"poi_id": "poi_0230", "name": "NDB", "dest_group": "finance", "source": "osm", "in_primary": true, "node_id": 7269, "snap_dist_m": 6.533, "snap_ok": true}, "geometry": {"type": "Point", "coordinates": [79.8677045, 6.8367957]}}, {"type": "Feature", "properties": {"poi_id": "poi_0231", "name": "NSB", "dest_group": "finance", "source": "osm", "in_primary": false, "node_id": 7243, "snap_dist_m": 7.409, "snap_ok": true}, "geometry": {"type": "Point", "coordinates": [79.86322779999999, 6.8504671]}}, {"type": "Feature", "properties": {"poi_id": "poi_0232", "name": "People's Bank", "dest_group": "finance", "source": "osm", "in_primary": false, "node_id": 7270, "snap_dist_m": 11.641, "snap_ok": true}, "geometry": {"type": "Point", "coordinates": [79.86426319999998, 6.850875600000001]}}, {"type": "Feature", "properties": {"poi_id": "poi_0233", "name": "Peoples Bank", "dest_group": "finance", "source": "osm", "in_primary": false, "node_id": 4797, "snap_dist_m": 21.2, "snap_ok": true}, "geometry": {"type": "Point", "coordinates": [79.8654691, 6.851100199999999]}}, {"type": "Feature", "properties": {"poi_id": "poi_0234", "name": "SDB bank Dehiwala Branch", "dest_group": "finance", "source": "osm", "in_primary": false, "node_id": 7271, "snap_dist_m": 3.938, "snap_ok": true}, "geometry": {"type": "Point", "coordinates": [79.86609419999999, 6.848157699999999]}}, {"type": "Feature", "properties": {"poi_id": "poi_0235", "name": "Sampath Bank", "dest_group": "finance", "source": "osm", "in_primary": false, "node_id": 7272, "snap_dist_m": 14.6, "snap_ok": true}, "geometry": {"type": "Point", "coordinates": [79.8710449, 6.8233451]}}, {"type": "Feature", "properties": {"poi_id": "poi_0236", "name": "Sampath Bank", "dest_group": "finance", "source": "osm", "in_primary": true, "node_id": 7273, "snap_dist_m": 18.292, "snap_ok": true}, "geometry": {"type": "Point", "coordinates": [79.86714909999999, 6.835412999999999]}}, {"type": "Feature", "properties": {"poi_id": "poi_0237", "name": "Seylan Bank", "dest_group": "finance", "source": "osm", "in_primary": false, "node_id": 7274, "snap_dist_m": 14.904, "snap_ok": true}, "geometry": {"type": "Point", "coordinates": [79.8696088, 6.825242899999999]}}, {"type": "Feature", "properties": {"poi_id": "poi_0238", "name": "Siyapatha Finance", "dest_group": "finance", "source": "osm", "in_primary": false, "node_id": 7275, "snap_dist_m": 2.293, "snap_ok": true}, "geometry": {"type": "Point", "coordinates": [79.86607889999999, 6.8516481]}}, {"type": "Feature", "properties": {"poi_id": "poi_0239", "name": "amana bank", "dest_group": "finance", "source": "osm", "in_primary": false, "node_id": 7276, "snap_dist_m": 11.064, "snap_ok": true}, "geometry": {"type": "Point", "coordinates": [79.87239360000001, 6.820956100000001]}}, {"type": "Feature", "properties": {"poi_id": "poi_0240", "name": "DFCC - LIOC ATM/CDM", "dest_group": "finance", "source": "gmaps", "in_primary": true, "node_id": 7277, "snap_dist_m": 5.027, "snap_ok": true}, "geometry": {"type": "Point", "coordinates": [79.8669268, 6.842455999999999]}}, {"type": "Feature", "properties": {"poi_id": "poi_0241", "name": "HNB ATM", "dest_group": "finance", "source": "gmaps", "in_primary": true, "node_id": 7278, "snap_dist_m": 12.598, "snap_ok": true}, "geometry": {"type": "Point", "coordinates": [79.866824, 6.841669999999998]}}, {"type": "Feature", "properties": {"poi_id": "poi_0242", "name": "NSB Mount Lavinia", "dest_group": "finance", "source": "gmaps", "in_primary": true, "node_id": 776, "snap_dist_m": 26.214, "snap_ok": true}, "geometry": {"type": "Point", "coordinates": [79.86707199999998, 6.8345318]}}, {"type": "Feature", "properties": {"poi_id": "poi_0243", "name": "Nation Trust Bank", "dest_group": "finance", "source": "gmaps", "in_primary": true, "node_id": 1138, "snap_dist_m": 25.475, "snap_ok": true}, "geometry": {"type": "Point", "coordinates": [79.8672873, 6.841575399999998]}}, {"type": "Feature", "properties": {"poi_id": "poi_0244", "name": "Sampath & ComBank ATM", "dest_group": "finance", "source": "gmaps", "in_primary": true, "node_id": 7166, "snap_dist_m": 9.4, "snap_ok": true}, "geometry": {"type": "Point", "coordinates": [79.8662806, 6.8467389999999995]}}, {"type": "Feature", "properties": {"poi_id": "poi_0245", "name": "Seylan Off Site Kiosks ATM - Mount Lavinia", "dest_group": "finance", "source": "gmaps", "in_primary": true, "node_id": 7208, "snap_dist_m": 9.223, "snap_ok": true}, "geometry": {"type": "Point", "coordinates": [79.86416609999998, 6.833357599999999]}}, {"type": "Feature", "properties": {"poi_id": "poi_0246", "name": "", "dest_group": "open_space", "source": "osm", "in_primary": true, "node_id": 7279, "snap_dist_m": 52.269, "snap_ok": true}, "geometry": {"type": "Point", "coordinates": [79.8633072, 6.8322012999999995]}}, {"type": "Feature", "properties": {"poi_id": "poi_0247", "name": "", "dest_group": "open_space", "source": "osm", "in_primary": true, "node_id": 7280, "snap_dist_m": 22.408, "snap_ok": true}, "geometry": {"type": "Point", "coordinates": [79.86997509999999, 6.8312787]}}, {"type": "Feature", "properties": {"poi_id": "poi_0248", "name": "", "dest_group": "open_space", "source": "osm", "in_primary": true, "node_id": 4739, "snap_dist_m": 25.611, "snap_ok": true}, "geometry": {"type": "Point", "coordinates": [79.870423, 6.8345829]}}, {"type": "Feature", "properties": {"poi_id": "poi_0249", "name": "", "dest_group": "open_space", "source": "osm", "in_primary": true, "node_id": 7281, "snap_dist_m": 23.674, "snap_ok": true}, "geometry": {"type": "Point", "coordinates": [79.86895859999998, 6.821933399999998]}}, {"type": "Feature", "properties": {"poi_id": "poi_0250", "name": "", "dest_group": "open_space", "source": "osm", "in_primary": false, "node_id": 7282, "snap_dist_m": 13.304, "snap_ok": true}, "geometry": {"type": "Point", "coordinates": [79.86919459999999, 6.821504]}}, {"type": "Feature", "properties": {"poi_id": "poi_0251", "name": "", "dest_group": "open_space", "source": "osm", "in_primary": false, "node_id": 5305, "snap_dist_m": 21.84, "snap_ok": true}, "geometry": {"type": "Point", "coordinates": [79.8688499, 6.821112499999998]}}, {"type": "Feature", "properties": {"poi_id": "poi_0252", "name": "", "dest_group": "open_space", "source": "osm", "in_primary": false, "node_id": 7283, "snap_dist_m": 32.738, "snap_ok": true}, "geometry": {"type": "Point", "coordinates": [79.87017499999999, 6.819354199999999]}}, {"type": "Feature", "properties": {"poi_id": "poi_0253", "name": "Childern park", "dest_group": "open_space", "source": "osm", "in_primary": true, "node_id": 7284, "snap_dist_m": 13.635, "snap_ok": true}, "geometry": {"type": "Point", "coordinates": [79.8664519, 6.8448385]}}, {"type": "Feature", "properties": {"poi_id": "poi_0254", "name": "Beach", "dest_group": "open_space", "source": "gmaps", "in_primary": true, "node_id": 414, "snap_dist_m": 1.693, "snap_ok": true}, "geometry": {"type": "Point", "coordinates": [79.863693, 6.834962]}}, {"type": "Feature", "properties": {"poi_id": "poi_0255", "name": "Mount Lavinia Children's Park", "dest_group": "open_space", "source": "gmaps", "in_primary": true, "node_id": 49, "snap_dist_m": 23.923, "snap_ok": true}, "geometry": {"type": "Point", "coordinates": [79.8637656, 6.832437499999999]}}, {"type": "Feature", "properties": {"poi_id": "poi_0256", "name": "Mount Lavinia Children\u2019s Park basketball court", "dest_group": "open_space", "source": "gmaps", "in_primary": true, "node_id": 49, "snap_dist_m": 37.789, "snap_ok": true}, "geometry": {"type": "Point", "coordinates": [79.8638825, 6.832064]}}, {"type": "Feature", "properties": {"poi_id": "poi_0257", "name": "Netz Premier", "dest_group": "open_space", "source": "gmaps", "in_primary": true, "node_id": 7285, "snap_dist_m": 9.374, "snap_ok": true}, "geometry": {"type": "Point", "coordinates": [79.8665625, 6.841312499999999]}}]}