{
"type": "FeatureCollection",
"name": "boundary_500m",
"crs": { "type": "name", "properties": { "name": "urn:ogc:def:crs:OGC:1.3:CRS84" } },
"features": [
{ "type": "Feature", "properties": { "id": 1, "Buffer_Are": 785193.72 }, "geometry": { "type": "MultiPolygon", "coordinates": [ [ [ [ 79.872327591953734, 6.830488854569438 ], [ 79.872325626676968, 6.830346840578564 ], [ 79.872319199367155, 6.830204958362498 ], [ 79.872308316371289, 6.830063347942199 ], [ 79.872292988433514, 6.829922149070265 ], [ 79.872273230684613, 6.829781501093033 ], [ 79.872249062627077, 6.829641542813042 ], [ 79.87222050811576, 6.829502412352051 ], [ 79.872187595334282, 6.829364247014746 ], [ 79.872150356767406, 6.829227183153217 ], [ 79.872108829168766, 6.829091356032423 ], [ 79.872063053524641, 6.828956899696681 ], [ 79.87201307501347, 6.82882394683739 ], [ 79.871958942961371, 6.828692628662091 ], [ 79.871900710793284, 6.828563074764967 ], [ 79.871838435980365, 6.828435412998978 ], [ 79.871772179983154, 6.828309769349664 ], [ 79.871702008190965, 6.828186267810842 ], [ 79.871627989857387, 6.828065030262218 ], [ 79.871550198031812, 6.827946176349141 ], [ 79.871468709487445, 6.827829823364506 ], [ 79.871383604645501, 6.827716086133018 ], [ 79.871294967495757, 6.82760507689789 ], [ 79.871202885513782, 6.827496905210063 ], [ 79.871107449574509, 6.827391677820113 ], [ 79.871008753862611, 6.82728949857289 ], [ 79.870906895779456, 6.827190468305064 ], [ 79.870801975847115, 6.827094684745607 ], [ 79.870694097609046, 6.827002242419359 ], [ 79.870583367527956, 6.826913232553737 ], [ 79.870469894880742, 6.826827742988748 ], [ 79.870353791650587, 6.826745858090255 ], [ 79.870235172416528, 6.826667658666785 ], [ 79.870114154240369, 6.826593221889741 ], [ 79.869990856551141, 6.826522621217276 ], [ 79.869865401027184, 6.826455926321808 ], [ 79.869737911476193, 6.826393203021242 ], [ 79.869608513713004, 6.826334513214062 ], [ 79.869477335435334, 6.826279914818226 ], [ 79.869344506097903, 6.826229461714022 ], [ 79.869210156784661, 6.8261832036909 ], [ 79.869074420079315, 6.826141186398347 ], [ 79.868937429934689, 6.826103451300838 ], [ 79.868799321540365, 6.826070035636918 ], [ 79.868660231189395, 6.82604097238247 ], [ 79.868520296143771, 6.826016290218168 ], [ 79.868379654498924, 6.825996013501176 ], [ 79.868238445047567, 6.825980162241124 ], [ 79.868096807142649, 6.825968752080355 ], [ 79.867954880559864, 6.825961794278501 ], [ 79.867812805359748, 6.825959295701361 ], [ 79.86767072174942, 6.825961258814144 ], [ 79.8675287699443, 6.825967681679026 ], [ 79.867387090029709, 6.825978557957073 ], [ 79.867245821822664, 6.825993876914493 ], [ 79.867105104733824, 6.826013623433229 ], [ 79.866965077630041, 6.826037778025881 ], [ 79.866825878697298, 6.826066316854948 ], [ 79.866687645304268, 6.826099211756322 ], [ 79.866550513866883, 6.826136430267118 ], [ 79.866414619713623, 6.826177935657688 ], [ 79.866280096952096, 6.82622368696787 ], [ 79.866147078336525, 6.826273639047408 ], [ 79.866015695136937, 6.826327742600517 ], [ 79.865886077009549, 6.826385944234502 ], [ 79.865758351868749, 6.826448186512486 ], [ 79.865632645761011, 6.826514408010051 ], [ 79.865509082740402, 6.826584543375875 ], [ 79.865387784746275, 6.826658523396213 ], [ 79.865268871482797, 6.826736275063197 ], [ 79.865152460300962, 6.826817721646873 ], [ 79.865038666082725, 6.826902782770943 ], [ 79.86492760112759, 6.826991374492049 ], [ 79.864819375041918, 6.827083409382628 ], [ 79.8647140946306, 6.827178796617175 ], [ 79.864611863791794, 6.827277442061882 ], [ 79.864512783414341, 6.827379248367519 ], [ 79.864416951278201, 6.827484115065497 ], [ 79.864324461957963, 6.827591938667016 ], [ 79.864235406729492, 6.827702612765196 ], [ 79.864149873479889, 6.82781602814006 ], [ 79.864067946620722, 6.827932072866324 ], [ 79.863989707004748, 6.828050632423854 ], [ 79.863915231846093, 6.828171589810665 ], [ 79.863844594644064, 6.828294825658378 ], [ 79.863777865110578, 6.828420218350018 ], [ 79.86371510910142, 6.828547644140039 ], [ 79.863656388551178, 6.828676977276419 ], [ 79.863601761412141, 6.828808090124765 ], [ 79.86355128159714, 6.828940853294269 ], [ 79.863504998926217, 6.829075135765389 ], [ 79.863462959077623, 6.829210805019128 ], [ 79.863425203542519, 6.829347727167847 ], [ 79.863391769584226, 6.829485767087352 ], [ 79.863362690201257, 6.829624788550258 ], [ 79.863337994094906, 6.82976465436042 ], [ 79.863317705640739, 6.829905226488322 ], [ 79.863301844864665, 6.830046366207294 ], [ 79.863290427423095, 6.830187934230411 ], [ 79.863283464587468, 6.83032979084795 ], [ 79.863280963233152, 6.83047179606527 ], [ 79.863282925832578, 6.83061380974095 ], [ 79.863289350452916, 6.830755691725115 ], [ 79.863300230757787, 6.830897301997717 ], [ 79.863315556013617, 6.831038500806738 ], [ 79.863335311100215, 6.83117914880609 ], [ 79.863359476525645, 6.831319107193151 ], [ 79.863388028445442, 6.83145823784574 ], [ 79.863420938686119, 6.83159640345841 ], [ 79.863458174773029, 6.831733467677982 ], [ 79.863499699962347, 6.831869295238089 ], [ 79.863545473277213, 6.832003752092684 ], [ 79.863595449548427, 6.832136705548312 ], [ 79.863649579458709, 6.832268024395087 ], [ 79.863707809591574, 6.832397579036162 ], [ 79.86377008248391, 6.832525241615656 ], [ 79.863836336682724, 6.832650886144809 ], [ 79.863906506805819, 6.832774388626341 ], [ 79.86398052360623, 6.83289562717681 ], [ 79.864058314040534, 6.833014482146934 ], [ 79.864139801341068, 6.833130836239633 ], [ 79.864224905091547, 6.833244574625826 ], [ 79.864313541306444, 6.833355585057751 ], [ 79.864405622513914, 6.83346375797974 ], [ 79.864501057842062, 6.833568986636349 ], [ 79.864599753108678, 6.833671167177727 ], [ 79.864701610914082, 6.833770198762098 ], [ 79.86480653073734, 6.833865983655291 ], [ 79.864914409035393, 6.833958427327206 ], [ 79.865025139345349, 6.834047438545107 ], [ 79.865138612389387, 6.834132929463666 ], [ 79.865254716182733, 6.83421481571166 ], [ 79.865373336144131, 6.834293016475253 ], [ 79.865494355208909, 6.834367454577745 ], [ 79.865617653944582, 6.834438056555747 ], [ 79.865743110668603, 6.834504752731701 ], [ 79.865870601568574, 6.834567477282635 ], [ 79.866000000824357, 6.834626168305139 ], [ 79.86613118073231, 6.834680767876455 ], [ 79.866264011831305, 6.834731222111659 ], [ 79.866398363030413, 6.834777481216835 ], [ 79.866534101738495, 6.834819499538229 ], [ 79.866671093994839, 6.834857235607304 ], [ 79.866809204601509, 6.834890652181675 ], [ 79.866948297256727, 6.834919716281873 ], [ 79.867088234689419, 6.834944399223888 ], [ 79.867228878794705, 6.834964676647473 ], [ 79.867370090770194, 6.834980528540224 ], [ 79.867511731252961, 6.834991939257295 ], [ 79.867653660457151, 6.834998897536865 ], [ 79.867795738311898, 6.83500139651124 ], [ 79.867937824599522, 6.834999433713644 ], [ 79.868079779094131, 6.834993011080669 ], [ 79.868221461699719, 6.834982134950316 ], [ 79.868362732588722, 6.83496681605581 ], [ 79.868503452339837, 6.834947069514951 ], [ 79.868643482075711, 6.834922914815227 ], [ 79.868782683600017, 6.834894375794569 ], [ 79.868920919533807, 6.834861480617832 ], [ 79.86905805345117, 6.834824261748987 ], [ 79.869193950013766, 6.834782755919102 ], [ 79.869328475104567, 6.83473700409007 ], [ 79.869461495960067, 6.834687051414191 ], [ 79.869592881301458, 6.834632947189617 ], [ 79.869722501464082, 6.834574744811671 ], [ 79.869850228525479, 6.834512501720186 ], [ 79.869975936431587, 6.834446279342778 ], [ 79.870099501121274, 6.834376143034248 ], [ 79.87022080064861, 6.834302162012057 ], [ 79.870339715303331, 6.834224409288034 ], [ 79.870456127728986, 6.834142961596294 ], [ 79.87056992303873, 6.834057899317516 ], [ 79.870680988928697, 6.833969306399617 ], [ 79.870789215788875, 6.833877270274874 ], [ 79.870894496811303, 6.833781881773667 ], [ 79.87099672809542, 6.833683235034805 ], [ 79.871095808750596, 6.833581427412621 ], [ 79.871191640995832, 6.833476559380912 ], [ 79.871284130256058, 6.833368734433725 ], [ 79.871373185255678, 6.833258058983263 ], [ 79.871458718108485, 6.833144642254835 ], [ 79.871540644404448, 6.833028596179063 ], [ 79.871618883293081, 6.832910035281412 ], [ 79.871693357563103, 6.832789076569155 ], [ 79.871763993718716, 6.832665839415905 ], [ 79.871830722052124, 6.83254044544378 ], [ 79.871893476712302, 6.832413018403389 ], [ 79.871952195769964, 6.832283684051685 ], [ 79.872006821278703, 6.832152570027854 ], [ 79.87205729933217, 6.832019805727351 ], [ 79.872103580117198, 6.831885522174181 ], [ 79.872145617963056, 6.831749851891604 ], [ 79.872183371386456, 6.831612928771321 ], [ 79.872216803132403, 6.831474887941363 ], [ 79.872245880211096, 6.831335865632705 ], [ 79.872270573930408, 6.831195999044832 ], [ 79.872290859924121, 6.831055426210335 ], [ 79.872306718176063, 6.830914285858664 ], [ 79.872318133039784, 6.830772717279243 ], [ 79.872325093254005, 6.830630860183994 ], [ 79.872327591953734, 6.830488854569438 ] ] ] ] } }
]
}
