{"type": "FeatureCollection", "name": "gmaps_places_raw", "crs": {"type": "name", "properties": {"name": "urn:ogc:def:crs:OGC:1.3:CRS84"}}, "features": [{"type": "Feature", "properties": {"place_id": "ChIJ86lZXxdb4joRgVbfDe976uo", "name": "Loon Tao", "gmaps_category": "Chinese restaurant", "dest_group": "food", "source": "gmaps"}, "geometry": {"type": "Point", "coordinates": [79.8630945, 6.8391584]}}, {"type": "Feature", "properties": {"place_id": "ChIJiTUZIvFb4joRGRjc3EJXRtM", "name": "Golden Beach Lavinia", "gmaps_category": "Restaurant", "dest_group": "food", "source": "gmaps"}, "geometry": {"type": "Point", "coordinates": [79.8628851, 6.8408554]}}, {"type": "Feature", "properties": {"place_id": "ChIJxz3PVjtb4joRaryMireShKY", "name": "Buba Beach Seafood Restaurant", "gmaps_category": "Seafood restaurant", "dest_group": "food", "source": "gmaps"}, "geometry": {"type": "Point", "coordinates": [79.8628477, 6.8295008]}}, {"type": "Feature", "properties": {"place_id": "ChIJJan-JOFb4joR7oYBLhTpyJ4", "name": "Lavinia Bay Sea Food Restaurant", "gmaps_category": "Restaurant", "dest_group": "food", "source": "gmaps"}, "geometry": {"type": "Point", "coordinates": [79.86360909999999, 6.8397649]}}, {"type": "Feature", "properties": {"place_id": "ChIJSfuLUhVb4joRyK7ShdnTpdg", "name": "PBC - Padparradscha Beach Club", "gmaps_category": "Restaurant", "dest_group": "food", "source": "gmaps"}, "geometry": {"type": "Point", "coordinates": [79.8627359, 6.842806]}}, {"type": "Feature", "properties": {"place_id": "ChIJP2PUfxdb4joR4IQvcGj9CmU", "name": "Catamaran Beach Restaurant", "gmaps_category": "Restaurant", "dest_group": "food", "source": "gmaps"}, "geometry": {"type": "Point", "coordinates": [79.8632156, 6.8378224]}}, {"type": "Feature", "properties": {"place_id": "ChIJlWMKMgVb4joRUcE2qpzCos8", "name": "Toddy Bay Restaurant & Bar", "gmaps_category": "Restaurant", "dest_group": "food", "source": "gmaps"}, "geometry": {"type": "Point", "coordinates": [79.862796, 6.8297052]}}, {"type": "Feature", "properties": {"place_id": "ChIJkUA6GR5b4joRX5Cs1v5_LJY", "name": "Sturgeon Restaurant and Bar", "gmaps_category": "Restaurant", "dest_group": "food", "source": "gmaps"}, "geometry": {"type": "Point", "coordinates": [79.8628468, 6.8411537]}}, {"type": "Feature", "properties": {"place_id": "ChIJr__iPz1b4joRgW2cmwj5CLA", "name": "Governor's Restaurant", "gmaps_category": "Restaurant", "dest_group": "food", "source": "gmaps"}, "geometry": {"type": "Point", "coordinates": [79.8619444, 6.8336111]}}, {"type": "Feature", "properties": {"place_id": "ChIJpw1eX2Bb4joRG0auJTNQiog", "name": "Crepe Runner - Mount Lavinia", "gmaps_category": "Restaurant", "dest_group": "food", "source": "gmaps"}, "geometry": {"type": "Point", "coordinates": [79.8674812, 6.8357353]}}, {"type": "Feature", "properties": {"place_id": "ChIJkdS6ma9b4joReF4rO0k3TF0", "name": "Street Burger - Mount Lavinia", "gmaps_category": "Hamburger restaurant", "dest_group": "food", "source": "gmaps"}, "geometry": {"type": "Point", "coordinates": [79.8671518, 6.8359872]}}, {"type": "Feature", "properties": {"place_id": "ChIJ2xk31Ytb4joRgj_o7TUQof8", "name": "Spoons Mount Lavinia", "gmaps_category": "Restaurant", "dest_group": "food", "source": "gmaps"}, "geometry": {"type": "Point", "coordinates": [79.8651625, 6.8355568]}}, {"type": "Feature", "properties": {"place_id": "ChIJ2fQYT6pb4joR5H_LZDmfCec", "name": "Olivia Restaurant and Bar", "gmaps_category": "Italian restaurant", "dest_group": "food", "source": "gmaps"}, "geometry": {"type": "Point", "coordinates": [79.86332, 6.8348985]}}, {"type": "Feature", "properties": {"place_id": "ChIJX3g9Z9db4joRC_9xS9w03-U", "name": "Sugar & Spice - Mount Lavinia", "gmaps_category": "Restaurant", "dest_group": "food", "source": "gmaps"}, "geometry": {"type": "Point", "coordinates": [79.8673059, 6.841247]}}, {"type": "Feature", "properties": {"place_id": "ChIJQfXCpRBb4joRkLohMRoqBAk", "name": "JoJo's Place", "gmaps_category": "Restaurant", "dest_group": "food", "source": "gmaps"}, "geometry": {"type": "Point", "coordinates": [79.8628839, 6.8410302]}}, {"type": "Feature", "properties": {"place_id": "ChIJwYfouBtb4joR5LbDyaCqhSE", "name": "Casserole Restaurant", "gmaps_category": "Restaurant", "dest_group": "food", "source": "gmaps"}, "geometry": {"type": "Point", "coordinates": [79.8670834, 6.8418967]}}, {"type": "Feature", "properties": {"place_id": "ChIJ1wMeOStb4joR0QJrqJJ8Uyk", "name": "Amaa Rasa Mount Lavinia", "gmaps_category": "Restaurant", "dest_group": "food", "source": "gmaps"}, "geometry": {"type": "Point", "coordinates": [79.8682674, 6.8305728]}}, {"type": "Feature", "properties": {"place_id": "ChIJLwp2QCJb4joRcflROkn7aR0", "name": "The Fab - Mount Lavinia", "gmaps_category": "Bakery", "dest_group": "food", "source": "gmaps"}, "geometry": {"type": "Point", "coordinates": [79.8675385, 6.8331327]}}, {"type": "Feature", "properties": {"place_id": "ChIJX_IF6Rhb4joR2MgdcPEr3lw", "name": "Little Star - Mount Lavinia", "gmaps_category": "Restaurant", "dest_group": "food", "source": "gmaps"}, "geometry": {"type": "Point", "coordinates": [79.8672282, 6.8368557]}}, {"type": "Feature", "properties": {"place_id": "ChIJ1Zt8glBb4joROyOQigdolqU", "name": "Caravan Fresh - The Cake & Pastry Shop", "gmaps_category": "Bakery", "dest_group": "food", "source": "gmaps"}, "geometry": {"type": "Point", "coordinates": [79.8676414, 6.8381759]}}, {"type": "Feature", "properties": {"place_id": "ChIJHSEVHyRb4joRqX4wPIK6Q-w", "name": "Family Baker", "gmaps_category": "Bakery", "dest_group": "food", "source": "gmaps"}, "geometry": {"type": "Point", "coordinates": [79.8685964, 6.8287304]}}, {"type": "Feature", "properties": {"place_id": "ChIJ_aIy7iBb4joRwErNHF6BahM", "name": "Five Star Bakers", "gmaps_category": "Bakery", "dest_group": "food", "source": "gmaps"}, "geometry": {"type": "Point", "coordinates": [79.8725042, 6.8318849]}}, {"type": "Feature", "properties": {"place_id": "ChIJ2XLfuBtb4joRElKoU9ypq_s", "name": "Family Baker", "gmaps_category": "Bakery", "dest_group": "food", "source": "gmaps"}, "geometry": {"type": "Point", "coordinates": [79.8671166, 6.8417895]}}, {"type": "Feature", "properties": {"place_id": "ChIJzZsPQgBb4joRFbfo7OnisCM", "name": "The Mount Bakers", "gmaps_category": "Bakery", "dest_group": "food", "source": "gmaps"}, "geometry": {"type": "Point", "coordinates": [79.8675007, 6.8354067]}}, {"type": "Feature", "properties": {"place_id": "ChIJc3aNMgBb4joRpanEZPiTAUw", "name": "The Mount Bakers", "gmaps_category": "Bakery", "dest_group": "food", "source": "gmaps"}, "geometry": {"type": "Point", "coordinates": [79.8674522, 6.8354123]}}, {"type": "Feature", "properties": {"place_id": "ChIJ91R-HwBb4joRW0AuFgMZD44", "name": "Cakies cake corner", "gmaps_category": "Bakery", "dest_group": "food", "source": "gmaps"}, "geometry": {"type": "Point", "coordinates": [79.86957579999999, 6.841578999999999]}}, {"type": "Feature", "properties": {"place_id": "ChIJTX4osRtb4joRZEUZmTz6JrQ", "name": "Burger King - Mount Lavinia", "gmaps_category": "Fast food restaurant", "dest_group": "food", "source": "gmaps"}, "geometry": {"type": "Point", "coordinates": [79.8665625, 6.8421372]}}, {"type": "Feature", "properties": {"place_id": "ChIJeaGvHABb4joRTEVEiXqdCps", "name": "Crispy Day", "gmaps_category": "Fast food restaurant", "dest_group": "food", "source": "gmaps"}, "geometry": {"type": "Point", "coordinates": [79.8659998, 6.8465008]}}, {"type": "Feature", "properties": {"place_id": "ChIJ9zDFWQBb4joRZ1l2J8WGKnA", "name": "Pango's - Mount Lavinia", "gmaps_category": "Fast food restaurant", "dest_group": "food", "source": "gmaps"}, "geometry": {"type": "Point", "coordinates": [79.8662695, 6.8438822]}}, {"type": "Feature", "properties": {"place_id": "ChIJV8qq2m1b4joRoD1zQfSTAgg", "name": "Popeyes Louisiana Chicken - Mount Lavinia", "gmaps_category": "Fast food restaurant", "dest_group": "food", "source": "gmaps"}, "geometry": {"type": "Point", "coordinates": [79.8666311, 6.8363204]}}, {"type": "Feature", "properties": {"place_id": "ChIJaQ2_PQBb4joRjPYQZ-7ug1Q", "name": "Dinemore GO - Mount Lavinia", "gmaps_category": "Fast food restaurant", "dest_group": "food", "source": "gmaps"}, "geometry": {"type": "Point", "coordinates": [79.8687983, 6.8273882]}}, {"type": "Feature", "properties": {"place_id": "ChIJPXtc5hhb4joRwa_1RfFO0rE", "name": "KFC - Mount Lavinia", "gmaps_category": "Fast food restaurant", "dest_group": "food", "source": "gmaps"}, "geometry": {"type": "Point", "coordinates": [79.8673063, 6.8373267]}}, {"type": "Feature", "properties": {"place_id": "ChIJdS9bUxdb4joRjPH35hzUq1g", "name": "Sugar Beach", "gmaps_category": "Beach club", "dest_group": "food", "source": "gmaps"}, "geometry": {"type": "Point", "coordinates": [79.8630034, 6.8401836]}}, {"type": "Feature", "properties": {"place_id": "ChIJ3wudLCNb4joRMHqv89u6TDk", "name": "Mount Lavinia Children's Park", "gmaps_category": "Park", "dest_group": "open_space", "source": "gmaps"}, "geometry": {"type": "Point", "coordinates": [79.8637656, 6.8324375]}}, {"type": "Feature", "properties": {"place_id": "ChIJUQ4BJBtb4joR-3jUc1OG92k", "name": "Children\u2019s Park", "gmaps_category": "Park", "dest_group": "open_space", "source": "gmaps"}, "geometry": {"type": "Point", "coordinates": [79.8664774, 6.8448264]}}, {"type": "Feature", "properties": {"place_id": "ChIJkS0m6yNb4joRwwooBYmf3pw", "name": "Mount Lavinia Children\u2019s Park basketball court", "gmaps_category": "Playground", "dest_group": "open_space", "source": "gmaps"}, "geometry": {"type": "Point", "coordinates": [79.8638825, 6.832064]}}, {"type": "Feature", "properties": {"place_id": "ChIJxWsSlo1b4joRp9VY9ee_SW8", "name": "Netz Premier", "gmaps_category": "Indoor playground", "dest_group": "open_space", "source": "gmaps"}, "geometry": {"type": "Point", "coordinates": [79.8665625, 6.8413125]}}, {"type": "Feature", "properties": {"place_id": "ChIJ87mLLLFb4joRSP1YqYt8UH0", "name": "Sky 348 Bar & Restaurant", "gmaps_category": "Pub", "dest_group": "food", "source": "gmaps"}, "geometry": {"type": "Point", "coordinates": [79.8671038, 6.8331523]}}, {"type": "Feature", "properties": {"place_id": "ChIJIyzemRhb4joRzPt-XDxuOW0", "name": "Bank of Ceylon ATM", "gmaps_category": "ATM", "dest_group": "finance", "source": "gmaps"}, "geometry": {"type": "Point", "coordinates": [79.867183, 6.8357953]}}, {"type": "Feature", "properties": {"place_id": "ChIJ_epj3gRb4joRwd4LgwQ6icU", "name": "Commercial/Sampath ATM Booth", "gmaps_category": "ATM", "dest_group": "finance", "source": "gmaps"}, "geometry": {"type": "Point", "coordinates": [79.866387, 6.846859]}}, {"type": "Feature", "properties": {"place_id": "ChIJxS_w2xtb4joRD0_wHcGIWjw", "name": "Commercial Bank ATM", "gmaps_category": "ATM", "dest_group": "finance", "source": "gmaps"}, "geometry": {"type": "Point", "coordinates": [79.86709239999999, 6.8407991]}}, {"type": "Feature", "properties": {"place_id": "ChIJIZ1MCotb4joRMf839AhDwIM", "name": "DFCC Bank - Mt.Lavinia Branch - ATM", "gmaps_category": "ATM", "dest_group": "finance", "source": "gmaps"}, "geometry": {"type": "Point", "coordinates": [79.8673556, 6.8408982]}}, {"type": "Feature", "properties": {"place_id": "ChIJaZPSDRlb4joRiKaZlZyWHww", "name": "HNB ATM", "gmaps_category": "ATM", "dest_group": "finance", "source": "gmaps"}, "geometry": {"type": "Point", "coordinates": [79.866824, 6.84167]}}, {"type": "Feature", "properties": {"place_id": "ChIJW9l43gRb4joRVLbwc405UIA", "name": "Sampath & ComBank ATM", "gmaps_category": "ATM", "dest_group": "finance", "source": "gmaps"}, "geometry": {"type": "Point", "coordinates": [79.8662806, 6.846739]}}, {"type": "Feature", "properties": {"place_id": "ChIJuUZ4NSJb4joRAUpVSnTH9xE", "name": "HNB ATM", "gmaps_category": "ATM", "dest_group": "finance", "source": "gmaps"}, "geometry": {"type": "Point", "coordinates": [79.86759789999999, 6.8323838]}}, {"type": "Feature", "properties": {"place_id": "ChIJ3_1zaSJb4joR99Xi4HF5b_4", "name": "People's Bank ATM", "gmaps_category": "ATM", "dest_group": "finance", "source": "gmaps"}, "geometry": {"type": "Point", "coordinates": [79.86704929999999, 6.8338391]}}, {"type": "Feature", "properties": {"place_id": "ChIJI1GH9hhb4joRme4jIAhxdu0", "name": "Sampath Bank", "gmaps_category": "ATM", "dest_group": "finance", "source": "gmaps"}, "geometry": {"type": "Point", "coordinates": [79.8663079, 6.8370709]}}, {"type": "Feature", "properties": {"place_id": "ChIJq_nuMxxb4joRJ7OzhMahMp4", "name": "DFCC - LIOC ATM/CDM", "gmaps_category": "ATM", "dest_group": "finance", "source": "gmaps"}, "geometry": {"type": "Point", "coordinates": [79.8669268, 6.842455999999999]}}, {"type": "Feature", "properties": {"place_id": "ChIJmX0Fscpb4joREbD2-3-k_qc", "name": "Seylan Off Site Kiosks ATM - Mount Lavinia", "gmaps_category": "ATM", "dest_group": "finance", "source": "gmaps"}, "geometry": {"type": "Point", "coordinates": [79.86416609999999, 6.833357599999999]}}, {"type": "Feature", "properties": {"place_id": "ChIJe3HmVp9b4joRnAYEhsUEeoE", "name": "Commercial Bank ATM", "gmaps_category": "ATM", "dest_group": "finance", "source": "gmaps"}, "geometry": {"type": "Point", "coordinates": [79.8678261, 6.8308967]}}, {"type": "Feature", "properties": {"place_id": "ChIJx7N_pXhb4joRDE_ZMWW8nQU", "name": "Java Lounge - Mount Lavinia", "gmaps_category": "Coffee shop", "dest_group": "food", "source": "gmaps"}, "geometry": {"type": "Point", "coordinates": [79.8683397, 6.8295214]}}, {"type": "Feature", "properties": {"place_id": "ChIJMfNRNYFb4joRMcWLl78sQ40", "name": "Nook Cafe@mount", "gmaps_category": "Cafe", "dest_group": "food", "source": "gmaps"}, "geometry": {"type": "Point", "coordinates": [79.8682902, 6.8287957]}}, {"type": "Feature", "properties": {"place_id": "ChIJr5a3NpJb4joRH8ghVCqYQLw", "name": "The Templers Cafe", "gmaps_category": "Coffee shop", "dest_group": "food", "source": "gmaps"}, "geometry": {"type": "Point", "coordinates": [79.8696478, 6.831174]}}, {"type": "Feature", "properties": {"place_id": "ChIJRZoRGTRb4joRAvwpNhYeW2I", "name": "Sandpit Cafe Mount Lavinia", "gmaps_category": "Cafe", "dest_group": "food", "source": "gmaps"}, "geometry": {"type": "Point", "coordinates": [79.8661718, 6.8417774]}}, {"type": "Feature", "properties": {"place_id": "ChIJf1S_EJ5b4joRlIV63bMZeVA", "name": "Chocoholics - Mount Lavinia", "gmaps_category": "Chocolate cafe", "dest_group": "food", "source": "gmaps"}, "geometry": {"type": "Point", "coordinates": [79.8671827, 6.8339425]}}, {"type": "Feature", "properties": {"place_id": "ChIJsynPTZxb4joRcZMK5l1BzWI", "name": "Lia Cafe", "gmaps_category": "Cafe", "dest_group": "food", "source": "gmaps"}, "geometry": {"type": "Point", "coordinates": [79.8645603, 6.8399105]}}, {"type": "Feature", "properties": {"place_id": "ChIJi-p5fgBb4joRINERjkHDCMY", "name": "Elephant House Hotel Road Cafe", "gmaps_category": "Cafe", "dest_group": "food", "source": "gmaps"}, "geometry": {"type": "Point", "coordinates": [79.8663281, 6.8363463]}}, {"type": "Feature", "properties": {"place_id": "ChIJz00X8I5b4joR8zP7lK_Pvcs", "name": "Barista - Mount Lavinia", "gmaps_category": "Cafe", "dest_group": "food", "source": "gmaps"}, "geometry": {"type": "Point", "coordinates": [79.8665362, 6.8425708]}}, {"type": "Feature", "properties": {"place_id": "ChIJq4-5TCJb4joRzR_JUYdvDVA", "name": "255 Kottawa Bus Stop", "gmaps_category": "Bus stop", "dest_group": "transit", "source": "gmaps"}, "geometry": {"type": "Point", "coordinates": [79.8670798, 6.8325858]}}, {"type": "Feature", "properties": {"place_id": "ChIJe-vDuRtb4joRpP990or_a_k", "name": "Hotel Road Bus Stop", "gmaps_category": "Bus stop", "dest_group": "transit", "source": "gmaps"}, "geometry": {"type": "Point", "coordinates": [79.8668117, 6.8419457]}}, {"type": "Feature", "properties": {"place_id": "ChIJfyfUIBtb4joR9xivP1P9p1o", "name": "Cemetery Bus Stop", "gmaps_category": "Bus stop", "dest_group": "transit", "source": "gmaps"}, "geometry": {"type": "Point", "coordinates": [79.8662442, 6.8446769]}}, {"type": "Feature", "properties": {"place_id": "ChIJ02UsRiJb4joRrLYERmM73b8", "name": "Mt.Laviniya", "gmaps_category": "Bus stop", "dest_group": "transit", "source": "gmaps"}, "geometry": {"type": "Point", "coordinates": [79.86729559999999, 6.8331776]}}, {"type": "Feature", "properties": {"place_id": "ChIJr42M3xhb4joRe2ERgXEARTw", "name": "Bus Stop", "gmaps_category": "Bus stop", "dest_group": "transit", "source": "gmaps"}, "geometry": {"type": "Point", "coordinates": [79.8675799, 6.8377605]}}, {"type": "Feature", "properties": {"place_id": "ChIJI2mKTyJb4joRr6dqU3eqdgk", "name": "Mt. Lavinia Bus Stop", "gmaps_category": "Bus stop", "dest_group": "transit", "source": "gmaps"}, "geometry": {"type": "Point", "coordinates": [79.86735, 6.83297]}}, {"type": "Feature", "properties": {"place_id": "ChIJ0xKhTCJb4joRLn2PNxkwKbA", "name": "Mt. Lavinia/255 Kottawa Bus Stop", "gmaps_category": "Bus stop", "dest_group": "transit", "source": "gmaps"}, "geometry": {"type": "Point", "coordinates": [79.86711729999999, 6.8325577]}}, {"type": "Feature", "properties": {"place_id": "ChIJXyYHSiJb4joRxWPHZ6rwR50", "name": "Mt. Lavinia Bus Stop", "gmaps_category": "Bus stop", "dest_group": "transit", "source": "gmaps"}, "geometry": {"type": "Point", "coordinates": [79.86747369999999, 6.832802699999999]}}, {"type": "Feature", "properties": {"place_id": "ChIJBYltQCJb4joRebaPzBR5P6g", "name": "Mt. Lavinia Bus Stop", "gmaps_category": "Bus stop", "dest_group": "transit", "source": "gmaps"}, "geometry": {"type": "Point", "coordinates": [79.8674391, 6.8337208]}}, {"type": "Feature", "properties": {"place_id": "ChIJ2xAZvxtb4joRId-sPqOzIQo", "name": "Family Super - Mount Lavinia", "gmaps_category": "Supermarket", "dest_group": "food", "source": "gmaps"}, "geometry": {"type": "Point", "coordinates": [79.8671166, 6.8417895]}}, {"type": "Feature", "properties": {"place_id": "ChIJ4Q5YKcxb4joRB4TxiuySrJY", "name": "Softlogic GLOMARK - Mount Lavinia", "gmaps_category": "Grocery store", "dest_group": "food", "source": "gmaps"}, "geometry": {"type": "Point", "coordinates": [79.8666589, 6.8363241]}}, {"type": "Feature", "properties": {"place_id": "ChIJEZcx5hhb4joR1ziFY-aEiko", "name": "Cargills Food City \u2013 Mount Lavinia STC", "gmaps_category": "Supermarket", "dest_group": "food", "source": "gmaps"}, "geometry": {"type": "Point", "coordinates": [79.8672939, 6.8372218]}}, {"type": "Feature", "properties": {"place_id": "ChIJt1yVsCNb4joRaJ0zhsrKGS0", "name": "Keells - Mount lavinia", "gmaps_category": "Supermarket", "dest_group": "food", "source": "gmaps"}, "geometry": {"type": "Point", "coordinates": [79.867235, 6.831912]}}, {"type": "Feature", "properties": {"place_id": "ChIJmaUcqHxb4joR-EYJoF0zsus", "name": "Cargills Food City - Mt. Lavinia 02", "gmaps_category": "Supermarket", "dest_group": "food", "source": "gmaps"}, "geometry": {"type": "Point", "coordinates": [79.8660256, 6.844351]}}, {"type": "Feature", "properties": {"place_id": "ChIJmf8wTgBb4joRnJxuhbNVcJ4", "name": "Nesmart super", "gmaps_category": "Grocery store", "dest_group": "food", "source": "gmaps"}, "geometry": {"type": "Point", "coordinates": [79.8665135, 6.843551499999999]}}, {"type": "Feature", "properties": {"place_id": "ChIJNdDH3ARb4joR_jsUUmXbHD4", "name": "Arpico Super Center - Dehiwala", "gmaps_category": "Shop supermarket furniture store", "dest_group": "food", "source": "gmaps"}, "geometry": {"type": "Point", "coordinates": [79.8662806, 6.846739]}}, {"type": "Feature", "properties": {"place_id": "ChIJFzCAv7Fb4joRoPhxIs114ag", "name": "Caf\u00e9 Maitland By Mount Lavinia Hotel", "gmaps_category": "Food court", "dest_group": "food", "source": "gmaps"}, "geometry": {"type": "Point", "coordinates": [79.8653279, 6.8355936]}}, {"type": "Feature", "properties": {"place_id": "ChIJS7V8yCNb4joRdLFyihkYbLA", "name": "The Mount Pharmacy - Mount Lavinia", "gmaps_category": "Pharmacy", "dest_group": "health", "source": "gmaps"}, "geometry": {"type": "Point", "coordinates": [79.867642, 6.83188]}}, {"type": "Feature", "properties": {"place_id": "ChIJwQmFGyRb4joRuRyAQjtQclg", "name": "Healthcare Pharmacy (Pvt) Ltd", "gmaps_category": "Pharmacy", "dest_group": "health", "source": "gmaps"}, "geometry": {"type": "Point", "coordinates": [79.8685345, 6.8290174]}}, {"type": "Feature", "properties": {"place_id": "ChIJm4TtSSJb4joR-9EfECFY6iQ", "name": "Medicare Pharmacy (pvt) ltd", "gmaps_category": "Pharmacy", "dest_group": "health", "source": "gmaps"}, "geometry": {"type": "Point", "coordinates": [79.8675017, 6.8327425]}}, {"type": "Feature", "properties": {"place_id": "ChIJD6DnBYFb4joRkjw0V-mhHG8", "name": "Medix Pharmacy", "gmaps_category": "Pharmacy", "dest_group": "health", "source": "gmaps"}, "geometry": {"type": "Point", "coordinates": [79.8708175, 6.8390393]}}, {"type": "Feature", "properties": {"place_id": "ChIJTetzaSJb4joRLDGBEkaD0FQ", "name": "People's Bank", "gmaps_category": "Public sector bank", "dest_group": "finance", "source": "gmaps"}, "geometry": {"type": "Point", "coordinates": [79.8671373, 6.8339637]}}, {"type": "Feature", "properties": {"place_id": "ChIJAQRA2Rtb4joRHLQ694mFV0k", "name": "Commercial Bank", "gmaps_category": "Bank", "dest_group": "finance", "source": "gmaps"}, "geometry": {"type": "Point", "coordinates": [79.8670946, 6.840781]}}, {"type": "Feature", "properties": {"place_id": "ChIJuUZ4NSJb4joRbGbylul9Ny0", "name": "HNB Mount Lavinia", "gmaps_category": "Bank", "dest_group": "finance", "source": "gmaps"}, "geometry": {"type": "Point", "coordinates": [79.8675045, 6.8326464]}}, {"type": "Feature", "properties": {"place_id": "ChIJea2YkBhb4joR3yL9isR6fuc", "name": "Bank of Ceylon", "gmaps_category": "Public sector bank", "dest_group": "finance", "source": "gmaps"}, "geometry": {"type": "Point", "coordinates": [79.8671922, 6.8357924]}}, {"type": "Feature", "properties": {"place_id": "ChIJBeVxR2pb4joRsdU_yFlwzo4", "name": "NSB Mount Lavinia", "gmaps_category": "Bank", "dest_group": "finance", "source": "gmaps"}, "geometry": {"type": "Point", "coordinates": [79.867072, 6.8345318]}}, {"type": "Feature", "properties": {"place_id": "ChIJH0_4mxhb4joRtvkh6W8n0ZY", "name": "Sampath Bank Mount Lavinia", "gmaps_category": "Private sector bank", "dest_group": "finance", "source": "gmaps"}, "geometry": {"type": "Point", "coordinates": [79.8671844, 6.8353392]}}, {"type": "Feature", "properties": {"place_id": "ChIJ4wyn3Rtb4joRL9O21HURgWY", "name": "DFCC Bank - Mt.Lavinia", "gmaps_category": "Private sector bank", "dest_group": "finance", "source": "gmaps"}, "geometry": {"type": "Point", "coordinates": [79.8673675, 6.8409]}}, {"type": "Feature", "properties": {"place_id": "ChIJ8yIu5hhb4joRw1-5J7BKUp0", "name": "NDB Bank - Dehiwala-Mount Lavinia", "gmaps_category": "Bank", "dest_group": "finance", "source": "gmaps"}, "geometry": {"type": "Point", "coordinates": [79.867649, 6.8367883]}}, {"type": "Feature", "properties": {"place_id": "ChIJvXW3xhtb4joRfmEinDjAKoE", "name": "Nation Trust Bank", "gmaps_category": "Private sector bank", "dest_group": "finance", "source": "gmaps"}, "geometry": {"type": "Point", "coordinates": [79.8672873, 6.8415754]}}, {"type": "Feature", "properties": {"place_id": "ChIJL9eoQKdD4joRcytyNb1A34g", "name": "Commercial Bank Dehiwela (Arpico Super) Branch", "gmaps_category": "Bank", "dest_group": "finance", "source": "gmaps"}, "geometry": {"type": "Point", "coordinates": [79.8663214, 6.8467234]}}, {"type": "Feature", "properties": {"place_id": "ChIJlZBtdJNb4joR1XBMXLJwbsY", "name": "Senior Quality Executive", "gmaps_category": "Fast food restaurant", "dest_group": "food", "source": "gmaps"}, "geometry": {"type": "Point", "coordinates": [79.8660217, 6.8432852]}}, {"type": "Feature", "properties": {"place_id": "ChIJU7PuhOBb4joRszke2j78s-Q", "name": "D & G Spicy", "gmaps_category": "Restaurant", "dest_group": "food", "source": "gmaps"}, "geometry": {"type": "Point", "coordinates": [79.8630931, 6.8440355]}}, {"type": "Feature", "properties": {"place_id": "ChIJf0EmMgpb4joRshy44Th1p0s", "name": "Fresh Khana", "gmaps_category": "Restaurant", "dest_group": "food", "source": "gmaps"}, "geometry": {"type": "Point", "coordinates": [79.8699658, 6.8450115]}}, {"type": "Feature", "properties": {"place_id": "ChIJY7M97FJb4joR0OYbfcpsJq0", "name": "Time 2 Eat", "gmaps_category": "Restaurant", "dest_group": "food", "source": "gmaps"}, "geometry": {"type": "Point", "coordinates": [79.8661387, 6.8471996]}}, {"type": "Feature", "properties": {"place_id": "ChIJYfqOfoVb4joRcIiQqIEc5qo", "name": "Redmark", "gmaps_category": "Restaurant", "dest_group": "food", "source": "gmaps"}, "geometry": {"type": "Point", "coordinates": [79.8699456, 6.8460623]}}, {"type": "Feature", "properties": {"place_id": "ChIJd40Y_bBb4joRweUOb5y5UhA", "name": "SHAWARMAS DEHIWALA", "gmaps_category": "Turkish restaurant", "dest_group": "food", "source": "gmaps"}, "geometry": {"type": "Point", "coordinates": [79.8655761, 6.8488336]}}, {"type": "Feature", "properties": {"place_id": "ChIJH8WvGgBb4joRIcl-tHOybrI", "name": "FOODADO", "gmaps_category": "Fast food restaurant", "dest_group": "food", "source": "gmaps"}, "geometry": {"type": "Point", "coordinates": [79.8655643, 6.8469308]}}, {"type": "Feature", "properties": {"place_id": "ChIJXQhRKbJb4joR4wbUVTV7Eu4", "name": "S I Royal Shawarma", "gmaps_category": "Shawarma restaurant", "dest_group": "food", "source": "gmaps"}, "geometry": {"type": "Point", "coordinates": [79.8702397, 6.8471997]}}, {"type": "Feature", "properties": {"place_id": "ChIJm60OvvlZ4joR82dXPIcZJAE", "name": "Haqiqi Biriyani", "gmaps_category": "Sri Lankan restaurant", "dest_group": "food", "source": "gmaps"}, "geometry": {"type": "Point", "coordinates": [79.8659089, 6.8473889]}}, {"type": "Feature", "properties": {"place_id": "ChIJ0W1-CgBb4joR8A0KLI0_GBE", "name": "SILK", "gmaps_category": "Asian restaurant", "dest_group": "food", "source": "gmaps"}, "geometry": {"type": "Point", "coordinates": [79.8643257, 6.8431276]}}, {"type": "Feature", "properties": {"place_id": "ChIJc0ToO6Nb4joRsE2JzPPCPo4", "name": "Dine & Delish", "gmaps_category": "Asian restaurant", "dest_group": "food", "source": "gmaps"}, "geometry": {"type": "Point", "coordinates": [79.8662498, 6.8461316]}}, {"type": "Feature", "properties": {"place_id": "ChIJr8-_LwVb4joRUq7EcKyiDxc", "name": "MealZone", "gmaps_category": "Restaurant", "dest_group": "food", "source": "gmaps"}, "geometry": {"type": "Point", "coordinates": [79.8655041, 6.8462483]}}, {"type": "Feature", "properties": {"place_id": "ChIJi1FJDz5b4joRH3Ge0863AI8", "name": "Mamma's Kitchen", "gmaps_category": "Restaurant", "dest_group": "food", "source": "gmaps"}, "geometry": {"type": "Point", "coordinates": [79.8694912, 6.8463313]}}, {"type": "Feature", "properties": {"place_id": "ChIJP4uRG3Vb4joRihJVafSTUiA", "name": "Spiceland Restaurant", "gmaps_category": "Sri Lankan restaurant", "dest_group": "food", "source": "gmaps"}, "geometry": {"type": "Point", "coordinates": [79.8665414, 6.8475405]}}, {"type": "Feature", "properties": {"place_id": "ChIJs-maBRtb4joRV1BJEgoqOls", "name": "Samanasiri Hotel", "gmaps_category": "Restaurant", "dest_group": "food", "source": "gmaps"}, "geometry": {"type": "Point", "coordinates": [79.8666503, 6.8435646]}}, {"type": "Feature", "properties": {"place_id": "ChIJl26KbxBb4joROD9rHSGr8eU", "name": "Reef House Cafe", "gmaps_category": "Restaurant", "dest_group": "food", "source": "gmaps"}, "geometry": {"type": "Point", "coordinates": [79.862481, 6.84363]}}, {"type": "Feature", "properties": {"place_id": "ChIJA_NiT2Jb4joRnscHPha9Jik", "name": "Manna Deli", "gmaps_category": "Restaurant", "dest_group": "food", "source": "gmaps"}, "geometry": {"type": "Point", "coordinates": [79.8697535, 6.8435891]}}, {"type": "Feature", "properties": {"place_id": "ChIJh2xIBQBb4joRo4V_YWFU-bg", "name": "Love Lavin beach Boulevard Restaurant", "gmaps_category": "Restaurant", "dest_group": "food", "source": "gmaps"}, "geometry": {"type": "Point", "coordinates": [79.8627188, 6.842375]}}, {"type": "Feature", "properties": {"place_id": "ChIJsQKLvxpb4joRTmsJjTyRFdg", "name": "Ceylon Tour Tech", "gmaps_category": "Restaurant", "dest_group": "food", "source": "gmaps"}, "geometry": {"type": "Point", "coordinates": [79.8646715, 6.8444494]}}, {"type": "Feature", "properties": {"place_id": "ChIJq6T9TABb4joRwNQgqRPLr_c", "name": "RR Food", "gmaps_category": "Sri Lankan restaurant", "dest_group": "food", "source": "gmaps"}, "geometry": {"type": "Point", "coordinates": [79.8661493, 6.8472914]}}, {"type": "Feature", "properties": {"place_id": "ChIJQ5lZ1gRb4joRNZTgnOCYYWQ", "name": "Al Bite Restaurant", "gmaps_category": "Restaurant", "dest_group": "food", "source": "gmaps"}, "geometry": {"type": "Point", "coordinates": [79.866241, 6.8461347]}}, {"type": "Feature", "properties": {"place_id": "ChIJgb1iJQBb4joRShOEvNqZFEg", "name": "Full Meals Mushroom House", "gmaps_category": "Restaurant", "dest_group": "food", "source": "gmaps"}, "geometry": {"type": "Point", "coordinates": [79.8651665, 6.8456156]}}, {"type": "Feature", "properties": {"place_id": "ChIJFRlxSABb4joRCSBXUeysnsY", "name": "MEET U", "gmaps_category": "Coffee shop", "dest_group": "food", "source": "gmaps"}, "geometry": {"type": "Point", "coordinates": [79.8663144, 6.8463405]}}, {"type": "Feature", "properties": {"place_id": "ChIJFen5JwVb4joR_7vKFXl4ddA", "name": "Galaxy", "gmaps_category": "Coffee shop", "dest_group": "food", "source": "gmaps"}, "geometry": {"type": "Point", "coordinates": [79.8663137, 6.846156]}}, {"type": "Feature", "properties": {"place_id": "ChIJx62Ea2tZ4joRwHbBv22yI4U", "name": "Umay Kitchen", "gmaps_category": "Fast food restaurant", "dest_group": "food", "source": "gmaps"}, "geometry": {"type": "Point", "coordinates": [79.8687406, 6.8215723]}}, {"type": "Feature", "properties": {"place_id": "ChIJ9XT3Cnpb4joRq2I5c85zdyQ", "name": "Heba's Kitchen", "gmaps_category": "Restaurant", "dest_group": "food", "source": "gmaps"}, "geometry": {"type": "Point", "coordinates": [79.8674607, 6.8205544]}}, {"type": "Feature", "properties": {"place_id": "ChIJ0bE93m5b4joRJ-Arylk1m80", "name": "abdhullaah foods", "gmaps_category": "Restaurant", "dest_group": "food", "source": "gmaps"}, "geometry": {"type": "Point", "coordinates": [79.8656242, 6.8247128]}}, {"type": "Feature", "properties": {"place_id": "ChIJy7O9xF9b4joR56u-XY25BuQ", "name": "Gemi Rasa (\u0d9c\u0dd0\u0db8\u0dd2 \u0dbb\u0dc3) Restaurant", "gmaps_category": "Restaurant", "dest_group": "food", "source": "gmaps"}, "geometry": {"type": "Point", "coordinates": [79.8668138, 6.8230571]}}, {"type": "Feature", "properties": {"place_id": "ChIJ54Du0CVb4joRDP9TNlyXKyo", "name": "Bakesloft", "gmaps_category": "Bakery", "dest_group": "food", "source": "gmaps"}, "geometry": {"type": "Point", "coordinates": [79.8638915, 6.8451698]}}, {"type": "Feature", "properties": {"place_id": "ChIJy_xBXgBb4joRHm3YYyJnSv8", "name": "Beach", "gmaps_category": "Park", "dest_group": "open_space", "source": "gmaps"}, "geometry": {"type": "Point", "coordinates": [79.863693, 6.834962]}}, {"type": "Feature", "properties": {"place_id": "ChIJv6goPPVb4joRARNdR616Cq4", "name": "Lias Restaurants", "gmaps_category": "Restaurant", "dest_group": "food", "source": "gmaps"}, "geometry": {"type": "Point", "coordinates": [79.8682545, 6.8296546]}}, {"type": "Feature", "properties": {"place_id": "ChIJt6Yj4sJb4joR6tlfP_HW7RY", "name": "Vino Cafe", "gmaps_category": "Restaurant", "dest_group": "food", "source": "gmaps"}, "geometry": {"type": "Point", "coordinates": [79.8674631, 6.8348479]}}, {"type": "Feature", "properties": {"place_id": "ChIJ6R3peABb4joReO_nStRFCBc", "name": "Muncheeze cafe", "gmaps_category": "Bakery", "dest_group": "food", "source": "gmaps"}, "geometry": {"type": "Point", "coordinates": [79.8672293, 6.8325003]}}, {"type": "Feature", "properties": {"place_id": "ChIJqVZ6tZZb4joRD57TLdXxZpw", "name": "Print Shop by Seventh Sense Services (Pvt) Ltd", "gmaps_category": "Print shop", "dest_group": "food", "source": "gmaps"}, "geometry": {"type": "Point", "coordinates": [79.8672359, 6.8334131]}}, {"type": "Feature", "properties": {"place_id": "ChIJNVKOUgBb4joRIgcGnP6nymY", "name": "Life style tea and coffee bar by Eshara & Hiruka", "gmaps_category": "Coffee shop", "dest_group": "food", "source": "gmaps"}, "geometry": {"type": "Point", "coordinates": [79.8690135, 6.8306809]}}, {"type": "Feature", "properties": {"place_id": "ChIJ6Uqi6E1b4joRpodlBf4y9qs", "name": "Krusty Kitchen", "gmaps_category": "Restaurant", "dest_group": "food", "source": "gmaps"}, "geometry": {"type": "Point", "coordinates": [79.8694394, 6.8336481]}}, {"type": "Feature", "properties": {"place_id": "ChIJQfpe8XVb4joRBPhbD5c-9_c", "name": "Wasantha The Bakery Cafe", "gmaps_category": "Cafe", "dest_group": "food", "source": "gmaps"}, "geometry": {"type": "Point", "coordinates": [79.8677419, 6.8314531]}}, {"type": "Feature", "properties": {"place_id": "ChIJodec-C9b4joRcctmd6LgBMU", "name": "The Monarch Store & Cafe", "gmaps_category": "Cafe", "dest_group": "food", "source": "gmaps"}, "geometry": {"type": "Point", "coordinates": [79.867983, 6.8297449]}}, {"type": "Feature", "properties": {"place_id": "ChIJlTXnZdZb4joRsWQI_yqltPQ", "name": "Dwaraka Indian Vegetarian Restaurant - Mount Lavinia", "gmaps_category": "Vegetarian restaurant", "dest_group": "food", "source": "gmaps"}, "geometry": {"type": "Point", "coordinates": [79.8663024, 6.8316865]}}, {"type": "Feature", "properties": {"place_id": "ChIJtW6uLQBb4joRkYhkBVt50PA", "name": "Mullet's Restaurant", "gmaps_category": "Takeout Restaurant", "dest_group": "food", "source": "gmaps"}, "geometry": {"type": "Point", "coordinates": [79.8718001, 6.8315577]}}, {"type": "Feature", "properties": {"place_id": "ChIJ-e9HrSNb4joROGkcgvJ5UFM", "name": "CHERRY MINI MART", "gmaps_category": "Restaurant", "dest_group": "food", "source": "gmaps"}, "geometry": {"type": "Point", "coordinates": [79.8665869, 6.8323233]}}, {"type": "Feature", "properties": {"place_id": "ChIJCbYFPgBb4joR1Qpw908zAaY", "name": "Rasa Madura Family Restaurant", "gmaps_category": "Restaurant", "dest_group": "food", "source": "gmaps"}, "geometry": {"type": "Point", "coordinates": [79.8683368, 6.8297262]}}, {"type": "Feature", "properties": {"place_id": "ChIJqSGragBb4joRT16fSmGQ2mk", "name": "Mathara bath kade", "gmaps_category": "Restaurant", "dest_group": "food", "source": "gmaps"}, "geometry": {"type": "Point", "coordinates": [79.8678416, 6.8304865]}}, {"type": "Feature", "properties": {"place_id": "ChIJ8S1sWgBb4joRKrQRhRpOEdQ", "name": "Mathara", "gmaps_category": "Restaurant", "dest_group": "food", "source": "gmaps"}, "geometry": {"type": "Point", "coordinates": [79.868249, 6.8282962]}}, {"type": "Feature", "properties": {"place_id": "ChIJ23xXU4xb4joR-bnjkhW35rc", "name": "Templers Corner", "gmaps_category": "Food court", "dest_group": "food", "source": "gmaps"}, "geometry": {"type": "Point", "coordinates": [79.8679359, 6.8306906]}}, {"type": "Feature", "properties": {"place_id": "ChIJB2zbdQBb4joREuii1TIinb4", "name": "Cooper", "gmaps_category": "Hamburger restaurant", "dest_group": "food", "source": "gmaps"}, "geometry": {"type": "Point", "coordinates": [79.8677648, 6.8266356]}}, {"type": "Feature", "properties": {"place_id": "ChIJT3KAQp1b4joRMffUnC04biw", "name": "Food cafe", "gmaps_category": "Coffee shop", "dest_group": "food", "source": "gmaps"}, "geometry": {"type": "Point", "coordinates": [79.866389, 6.8323127]}}, {"type": "Feature", "properties": {"place_id": "ChIJ35jR5kxb4joRR5gXSzV9SSI", "name": "Rathu Kekulu Rice Meals \u0dbb\u0dad\u0dd4 \u0d9a\u0dd0\u0d9a\u0dd4\u0dc5\u0dd4 \u0db6\u0dad\u0dca \u0d9a\u0da9\u0dda", "gmaps_category": "Asian restaurant", "dest_group": "food", "source": "gmaps"}, "geometry": {"type": "Point", "coordinates": [79.8670305, 6.833836]}}, {"type": "Feature", "properties": {"place_id": "ChIJJ3HfKQBb4joR2M6gjl1FN3o", "name": "Wild Food", "gmaps_category": "Fast food restaurant", "dest_group": "food", "source": "gmaps"}, "geometry": {"type": "Point", "coordinates": [79.867483, 6.8341673]}}, {"type": "Feature", "properties": {"place_id": "ChIJM41EbABb4joReygB9GMlHw8", "name": "Basmala", "gmaps_category": "Arab restaurant", "dest_group": "food", "source": "gmaps"}, "geometry": {"type": "Point", "coordinates": [79.8673, 6.8315468]}}, {"type": "Feature", "properties": {"place_id": "ChIJn0sFIptb4joRMLymChnxSsk", "name": "Earth Bistro - Mt Lavinia", "gmaps_category": "Restaurant", "dest_group": "food", "source": "gmaps"}, "geometry": {"type": "Point", "coordinates": [79.8709086, 6.8323265]}}, {"type": "Feature", "properties": {"place_id": "ChIJ0T1xYQBb4joRpoFv8gZsd_s", "name": "Matara Ras\u00e1", "gmaps_category": "Restaurant", "dest_group": "food", "source": "gmaps"}, "geometry": {"type": "Point", "coordinates": [79.8671312, 6.8327337]}}, {"type": "Feature", "properties": {"place_id": "ChIJqz0NiKlb4joRmHvkO-4pmkk", "name": "\u0d85\u0dba\u0dd2\u0dba\u0d9c\u0dda \u0d9a\u0da9\u0dda", "gmaps_category": "Restaurant", "dest_group": "food", "source": "gmaps"}, "geometry": {"type": "Point", "coordinates": [79.8678867, 6.8305397]}}, {"type": "Feature", "properties": {"place_id": "ChIJqUc2m8lb4joRUXHGGxnK43Q", "name": "Yellow Rice - Mount Lavinia", "gmaps_category": "Restaurant", "dest_group": "food", "source": "gmaps"}, "geometry": {"type": "Point", "coordinates": [79.8672288, 6.8334179]}}, {"type": "Feature", "properties": {"place_id": "ChIJp7aGFqBb4joRtxgP6Hkw7dk", "name": "Al BaikLanka", "gmaps_category": "Restaurant", "dest_group": "food", "source": "gmaps"}, "geometry": {"type": "Point", "coordinates": [79.8683019, 6.8296007]}}, {"type": "Feature", "properties": {"place_id": "ChIJ-y1BfLRb4joRKKR2QMhCvBg", "name": "Nescafe Machines rent - VMC Enterprises", "gmaps_category": "Coffee vending machine", "dest_group": "food", "source": "gmaps"}, "geometry": {"type": "Point", "coordinates": [79.8672288, 6.8334179]}}, {"type": "Feature", "properties": {"place_id": "ChIJb0CTDSRb4joRk-2h90FyccY", "name": "Nildiya Restaurant", "gmaps_category": "Restaurant", "dest_group": "food", "source": "gmaps"}, "geometry": {"type": "Point", "coordinates": [79.8676802, 6.8293256]}}, {"type": "Feature", "properties": {"place_id": "ChIJKVHBq99b4joR3Q7Tu8KV6eU", "name": "88 Spicy Hut", "gmaps_category": "Restaurant", "dest_group": "food", "source": "gmaps"}, "geometry": {"type": "Point", "coordinates": [79.8693989, 6.8310259]}}, {"type": "Feature", "properties": {"place_id": "ChIJV99NkVVb4joRKcCDzc-o7ok", "name": "88 Grand Restaurant - Mount Lavinia", "gmaps_category": "Restaurant", "dest_group": "food", "source": "gmaps"}, "geometry": {"type": "Point", "coordinates": [79.8678938, 6.8306922]}}, {"type": "Feature", "properties": {"place_id": "ChIJt_VGDiRb4joRb3ITtI5sTXM", "name": "Pizza Hut - Mount Lavinia", "gmaps_category": "Pizza restaurant", "dest_group": "food", "source": "gmaps"}, "geometry": {"type": "Point", "coordinates": [79.8679534, 6.829299]}}, {"type": "Feature", "properties": {"place_id": "ChIJf3qpDgBb4joRG2X5lf4eqYE", "name": "YOSHA DOSA - Mount Lavinia", "gmaps_category": "South Indian restaurant", "dest_group": "food", "source": "gmaps"}, "geometry": {"type": "Point", "coordinates": [79.8674459, 6.833608]}}, {"type": "Feature", "properties": {"place_id": "ChIJxysUSABb4joRSTr-Jcl-NoY", "name": "Pathani Catering", "gmaps_category": "Asian restaurant", "dest_group": "food", "source": "gmaps"}, "geometry": {"type": "Point", "coordinates": [79.8712977, 6.8303417]}}, {"type": "Feature", "properties": {"place_id": "ChIJtfGGSQBb4joRSfn8DRf8ca0", "name": "KOZY Kitchen", "gmaps_category": "Asian restaurant", "dest_group": "food", "source": "gmaps"}, "geometry": {"type": "Point", "coordinates": [79.8682864, 6.8342085]}}, {"type": "Feature", "properties": {"place_id": "ChIJ93LOZMlb4joRPbRIm55F9aU", "name": "Elite Indian Restaurant", "gmaps_category": "Restaurant", "dest_group": "food", "source": "gmaps"}, "geometry": {"type": "Point", "coordinates": [79.8677942, 6.8311898]}}, {"type": "Feature", "properties": {"place_id": "ChIJ3-UPqhRb4joRLS5ktvy16rc", "name": "The fresh made", "gmaps_category": "Asian restaurant", "dest_group": "food", "source": "gmaps"}, "geometry": {"type": "Point", "coordinates": [79.8718641, 6.8441956]}}, {"type": "Feature", "properties": {"place_id": "ChIJUYmB3zdb4joRQyG6uD9OhgY", "name": "SEVEN ELEVEN CAFE PVT LTD", "gmaps_category": "Restaurant", "dest_group": "food", "source": "gmaps"}, "geometry": {"type": "Point", "coordinates": [79.8712096, 6.8390053]}}, {"type": "Feature", "properties": {"place_id": "ChIJC8rJOgBb4joReKtKRTJcSGs", "name": "RR CAFE", "gmaps_category": "Coffee shop", "dest_group": "food", "source": "gmaps"}, "geometry": {"type": "Point", "coordinates": [79.8745507, 6.8424422]}}, {"type": "Feature", "properties": {"place_id": "ChIJy7Afv1pb4joRBpSjxlUVoHc", "name": "Sharifa caterings", "gmaps_category": "Cafe", "dest_group": "food", "source": "gmaps"}, "geometry": {"type": "Point", "coordinates": [79.8705107, 6.8416229]}}, {"type": "Feature", "properties": {"place_id": "ChIJo2gSPRlb4joR_jOL85Nul_Y", "name": "Shani Snack Bar", "gmaps_category": "Restaurant", "dest_group": "food", "source": "gmaps"}, "geometry": {"type": "Point", "coordinates": [79.8676423, 6.838821]}}, {"type": "Feature", "properties": {"place_id": "ChIJt7DM6hhb4joR-anjdYAx36k", "name": "Subway - Mount Lavinia", "gmaps_category": "Sandwich shop", "dest_group": "food", "source": "gmaps"}, "geometry": {"type": "Point", "coordinates": [79.8671235, 6.8363521]}}, {"type": "Feature", "properties": {"place_id": "ChIJqaAbdCJb4joRYEs5bQj6pEw", "name": "Ruhunu Bath Kade - Mount Lavinia", "gmaps_category": "Restaurant", "dest_group": "food", "source": "gmaps"}, "geometry": {"type": "Point", "coordinates": [79.8671622, 6.8348543]}}, {"type": "Feature", "properties": {"place_id": "ChIJe-mCYBlb4joRHSQPBfkLZbs", "name": "Day To Day Mount", "gmaps_category": "Chocolate shop", "dest_group": "food", "source": "gmaps"}, "geometry": {"type": "Point", "coordinates": [79.867532, 6.8401059]}}, {"type": "Feature", "properties": {"place_id": "ChIJzwZNLEpb4joR8hO-BmFi1pY", "name": "YOYO'S BEACH", "gmaps_category": "Seafood restaurant", "dest_group": "food", "source": "gmaps"}, "geometry": {"type": "Point", "coordinates": [79.8627955, 6.8297071]}}, {"type": "Feature", "properties": {"place_id": "ChIJg6GWXM1b4joRShxD7TYazls", "name": "Wahoo on the Beach", "gmaps_category": "Chinese restaurant", "dest_group": "food", "source": "gmaps"}, "geometry": {"type": "Point", "coordinates": [79.8627099, 6.841961]}}, {"type": "Feature", "properties": {"place_id": "ChIJmzIcuBtb4joRkbc-BFdWMMM", "name": "Arthur's Pizzeria - Mount Lavinia", "gmaps_category": "Pizza restaurant", "dest_group": "food", "source": "gmaps"}, "geometry": {"type": "Point", "coordinates": [79.866795, 6.841794]}}, {"type": "Feature", "properties": {"place_id": "ChIJS0GViBBb4joRcAPO4aJAnl8", "name": "Boat Haus Cafe", "gmaps_category": "Restaurant", "dest_group": "food", "source": "gmaps"}, "geometry": {"type": "Point", "coordinates": [79.8627181, 6.8421886]}}, {"type": "Feature", "properties": {"place_id": "ChIJ4dWzKhhb4joRdBFsWmDxddI", "name": "Shelton sea food Restaurant", "gmaps_category": "Restaurant", "dest_group": "food", "source": "gmaps"}, "geometry": {"type": "Point", "coordinates": [79.8632615, 6.8377976]}}, {"type": "Feature", "properties": {"place_id": "ChIJU5Oy_hdb4joR-aZkJ6ER3UI", "name": "Ranga's", "gmaps_category": "Restaurant", "dest_group": "food", "source": "gmaps"}, "geometry": {"type": "Point", "coordinates": [79.8629826, 6.8353687]}}, {"type": "Feature", "properties": {"place_id": "ChIJ3fEFmRBb4joRV7V8BzOtUHs", "name": "Lavinia Restaurant Mount Lavinia Beach", "gmaps_category": "Chinese restaurant", "dest_group": "food", "source": "gmaps"}, "geometry": {"type": "Point", "coordinates": [79.8627561, 6.8418894]}}, {"type": "Feature", "properties": {"place_id": "ChIJM2x8Jxhb4joRAMEj8f5rpRE", "name": "Sunil Beach Resort", "gmaps_category": "Restaurant", "dest_group": "food", "source": "gmaps"}, "geometry": {"type": "Point", "coordinates": [79.8633055, 6.8368905]}}, {"type": "Feature", "properties": {"place_id": "ChIJz02M1Rlb4joRolX8usDFBBM", "name": "Fishermans Villa", "gmaps_category": "Restaurant", "dest_group": "food", "source": "gmaps"}, "geometry": {"type": "Point", "coordinates": [79.8633437, 6.8377636]}}, {"type": "Feature", "properties": {"place_id": "ChIJAd33EABb4joR0UbnNG3HgCE", "name": "Ranveli beach Mount Lavinia", "gmaps_category": "American restaurant", "dest_group": "food", "source": "gmaps"}, "geometry": {"type": "Point", "coordinates": [79.8630058, 6.8363517]}}, {"type": "Feature", "properties": {"place_id": "ChIJe06hIBhb4joRDIm4V6W4OKA", "name": "Marina64 Sea Breeze Restaurant", "gmaps_category": "Restaurant", "dest_group": "food", "source": "gmaps"}, "geometry": {"type": "Point", "coordinates": [79.8632063, 6.8364206]}}, {"type": "Feature", "properties": {"place_id": "ChIJ7U-yX6tb4joRSlEOgJjgApQ", "name": "Wadiya by Rasa Malaysia Beach Restaurant", "gmaps_category": "Restaurant", "dest_group": "food", "source": "gmaps"}, "geometry": {"type": "Point", "coordinates": [79.8631369, 6.8387354]}}, {"type": "Feature", "properties": {"place_id": "ChIJ0S7jF_hb4joR6ZS69U_Vveo", "name": "La Langousterie", "gmaps_category": "Bar", "dest_group": "food", "source": "gmaps"}, "geometry": {"type": "Point", "coordinates": [79.863075, 6.8359444]}}, {"type": "Feature", "properties": {"place_id": "ChIJ51vjxCJb4joRC4W4K5acZ3U", "name": "The Angler", "gmaps_category": "Restaurant", "dest_group": "food", "source": "gmaps"}, "geometry": {"type": "Point", "coordinates": [79.8641661, 6.8333576]}}, {"type": "Feature", "properties": {"place_id": "ChIJx_4KxCJb4joR2ZOqSBzsUjY", "name": "Thai Cuisine La Rambla", "gmaps_category": "Restaurant", "dest_group": "food", "source": "gmaps"}, "geometry": {"type": "Point", "coordinates": [79.8644648, 6.8335122]}}, {"type": "Feature", "properties": {"place_id": "ChIJh6VRJQBb4joRTsAODIkSufU", "name": "Beach House Bistro Mt. Lavinia", "gmaps_category": "Restaurant", "dest_group": "food", "source": "gmaps"}, "geometry": {"type": "Point", "coordinates": [79.8629274, 6.8410237]}}]}