{"type": "FeatureCollection", "name": "osm_pois_raw", "crs": {"type": "name", "properties": {"name": "urn:ogc:def:crs:OGC:1.3:CRS84"}}, "features": [{"type": "Feature", "properties": {"osm_type": "node", "osm_id": 269032442, "name": "Cargills Food City", "osm_key": "shop", "osm_value": "supermarket", "dest_group": "food", "source": "osm"}, "geometry": {"type": "Point", "coordinates": [79.8671266, 6.8329646]}}, {"type": "Feature", "properties": {"osm_type": "node", "osm_id": 621908264, "name": "Siddhalepa", "osm_key": "amenity", "osm_value": "hospital", "dest_group": "health", "source": "osm"}, "geometry": {"type": "Point", "coordinates": [79.8773217, 6.8311854]}}, {"type": "Feature", "properties": {"osm_type": "node", "osm_id": 621917716, "name": "Keells Super, Mount Lavinia.", "osm_key": "shop", "osm_value": "supermarket", "dest_group": "food", "source": "osm"}, "geometry": {"type": "Point", "coordinates": [79.8673272, 6.8318632]}}, {"type": "Feature", "properties": {"osm_type": "node", "osm_id": 621917718, "name": "Mount Lavinia", "osm_key": "highway", "osm_value": "bus_stop", "dest_group": "transit", "source": "osm"}, "geometry": {"type": "Point", "coordinates": [79.8672498, 6.8335379]}}, {"type": "Feature", "properties": {"osm_type": "node", "osm_id": 621925764, "name": "Presbyterian Girls School", "osm_key": "amenity", "osm_value": "school", "dest_group": "education", "source": "osm"}, "geometry": {"type": "Point", "coordinates": [79.8633844, 6.850498]}}, {"type": "Feature", "properties": {"osm_type": "node", "osm_id": 621925778, "name": "Family Super", "osm_key": "shop", "osm_value": "supermarket", "dest_group": "food", "source": "osm"}, "geometry": {"type": "Point", "coordinates": [79.8671234, 6.8418723]}}, {"type": "Feature", "properties": {"osm_type": "node", "osm_id": 652398687, "name": "", "osm_key": "amenity", "osm_value": "bank", "dest_group": "finance", "source": "osm"}, "geometry": {"type": "Point", "coordinates": [79.8681916, 6.8285195]}}, {"type": "Feature", "properties": {"osm_type": "node", "osm_id": 652406107, "name": "Girls High School", "osm_key": "amenity", "osm_value": "school", "dest_group": "education", "source": "osm"}, "geometry": {"type": "Point", "coordinates": [79.8649848, 6.8346059]}}, {"type": "Feature", "properties": {"osm_type": "node", "osm_id": 661807990, "name": "Lavinia Breeze", "osm_key": "amenity", "osm_value": "restaurant", "dest_group": "food", "source": "osm"}, "geometry": {"type": "Point", "coordinates": [79.8632205, 6.8413324]}}, {"type": "Feature", "properties": {"osm_type": "node", "osm_id": 673953421, "name": "Sumaga Vidyalaya", "osm_key": "amenity", "osm_value": "school", "dest_group": "education", "source": "osm"}, "geometry": {"type": "Point", "coordinates": [79.8701386, 6.8484516]}}, {"type": "Feature", "properties": {"osm_type": "node", "osm_id": 673953437, "name": "Sumanadisi Bakery", "osm_key": "amenity", "osm_value": "cafe", "dest_group": "food", "source": "osm"}, "geometry": {"type": "Point", "coordinates": [79.8721663, 6.850891]}}, {"type": "Feature", "properties": {"osm_type": "node", "osm_id": 1249816131, "name": "Sawadee Beach Front", "osm_key": "amenity", "osm_value": "restaurant", "dest_group": "food", "source": "osm"}, "geometry": {"type": "Point", "coordinates": [79.862988, 6.840448]}}, {"type": "Feature", "properties": {"osm_type": "node", "osm_id": 1249816149, "name": "HNB", "osm_key": "amenity", "osm_value": "bank", "dest_group": "finance", "source": "osm"}, "geometry": {"type": "Point", "coordinates": [79.8675555, 6.8324776]}}, {"type": "Feature", "properties": {"osm_type": "node", "osm_id": 1249816154, "name": "The Shore by O", "osm_key": "amenity", "osm_value": "restaurant", "dest_group": "food", "source": "osm"}, "geometry": {"type": "Point", "coordinates": [79.8632718, 6.8380834]}}, {"type": "Feature", "properties": {"osm_type": "node", "osm_id": 1249848054, "name": "Commercial Attidiya", "osm_key": "amenity", "osm_value": "bank", "dest_group": "finance", "source": "osm"}, "geometry": {"type": "Point", "coordinates": [79.873196, 6.8199152]}}, {"type": "Feature", "properties": {"osm_type": "node", "osm_id": 1249848075, "name": "Sampath Bank", "osm_key": "amenity", "osm_value": "bank", "dest_group": "finance", "source": "osm"}, "geometry": {"type": "Point", "coordinates": [79.8710449, 6.8233451]}}, {"type": "Feature", "properties": {"osm_type": "node", "osm_id": 1261082799, "name": "Karagampitiya ", "osm_key": "amenity", "osm_value": "bus_station", "dest_group": "transit", "source": "osm"}, "geometry": {"type": "Point", "coordinates": [79.8719, 6.8505585]}}, {"type": "Feature", "properties": {"osm_type": "node", "osm_id": 1434108415, "name": "Steam Boat", "osm_key": "amenity", "osm_value": "restaurant", "dest_group": "food", "source": "osm"}, "geometry": {"type": "Point", "coordinates": [79.8628147, 6.8421939]}}, {"type": "Feature", "properties": {"osm_type": "node", "osm_id": 1528655557, "name": "", "osm_key": "shop", "osm_value": "convenience", "dest_group": "food", "source": "osm"}, "geometry": {"type": "Point", "coordinates": [79.8755543, 6.8442284]}}, {"type": "Feature", "properties": {"osm_type": "node", "osm_id": 1528655559, "name": "KAwdana Sapupakaraya", "osm_key": "shop", "osm_value": "convenience", "dest_group": "food", "source": "osm"}, "geometry": {"type": "Point", "coordinates": [79.8720352, 6.8455706]}}, {"type": "Feature", "properties": {"osm_type": "node", "osm_id": 1533913599, "name": "Peoples Bank", "osm_key": "amenity", "osm_value": "bank", "dest_group": "finance", "source": "osm"}, "geometry": {"type": "Point", "coordinates": [79.8654691, 6.8511002]}}, {"type": "Feature", "properties": {"osm_type": "node", "osm_id": 1533913616, "name": "", "osm_key": "amenity", "osm_value": "school", "dest_group": "education", "source": "osm"}, "geometry": {"type": "Point", "coordinates": [79.8677567, 6.8465091]}}, {"type": "Feature", "properties": {"osm_type": "node", "osm_id": 1643862630, "name": "Templers Road", "osm_key": "highway", "osm_value": "bus_stop", "dest_group": "transit", "source": "osm"}, "geometry": {"type": "Point", "coordinates": [79.8682418, 6.8295398]}}, {"type": "Feature", "properties": {"osm_type": "node", "osm_id": 1643928268, "name": "Cargills Food City", "osm_key": "shop", "osm_value": "supermarket", "dest_group": "food", "source": "osm"}, "geometry": {"type": "Point", "coordinates": [79.8690532, 6.8277078]}}, {"type": "Feature", "properties": {"osm_type": "node", "osm_id": 1643928818, "name": "Cargills Food City", "osm_key": "shop", "osm_value": "supermarket", "dest_group": "food", "source": "osm"}, "geometry": {"type": "Point", "coordinates": [79.8672887, 6.8372488]}}, {"type": "Feature", "properties": {"osm_type": "node", "osm_id": 1643932408, "name": "Dinducal Thalapakattu Buriyani", "osm_key": "amenity", "osm_value": "restaurant", "dest_group": "food", "source": "osm"}, "geometry": {"type": "Point", "coordinates": [79.866877, 6.8414038]}}, {"type": "Feature", "properties": {"osm_type": "node", "osm_id": 1654309527, "name": "Lalith Athulathmudali College", "osm_key": "amenity", "osm_value": "school", "dest_group": "education", "source": "osm"}, "geometry": {"type": "Point", "coordinates": [79.8717788, 6.8295595]}}, {"type": "Feature", "properties": {"osm_type": "node", "osm_id": 1659163617, "name": "Hotel Road halt", "osm_key": "highway", "osm_value": "bus_stop", "dest_group": "transit", "source": "osm"}, "geometry": {"type": "Point", "coordinates": [79.8668469, 6.8419713]}}, {"type": "Feature", "properties": {"osm_type": "node", "osm_id": 1664611736, "name": "Mount Lavinia Bus Stand", "osm_key": "amenity", "osm_value": "bus_station", "dest_group": "transit", "source": "osm"}, "geometry": {"type": "Point", "coordinates": [79.8672728, 6.8330085]}}, {"type": "Feature", "properties": {"osm_type": "node", "osm_id": 1664611741, "name": "Mount Lavinia", "osm_key": "highway", "osm_value": "bus_stop", "dest_group": "transit", "source": "osm"}, "geometry": {"type": "Point", "coordinates": [79.8673945, 6.8352314]}}, {"type": "Feature", "properties": {"osm_type": "node", "osm_id": 1737502125, "name": "5-Star Bakery", "osm_key": "shop", "osm_value": "bakery", "dest_group": "food", "source": "osm"}, "geometry": {"type": "Point", "coordinates": [79.8725833, 6.8318676]}}, {"type": "Feature", "properties": {"osm_type": "node", "osm_id": 1838453716, "name": "Harcourts", "osm_key": "amenity", "osm_value": "pharmacy", "dest_group": "health", "source": "osm"}, "geometry": {"type": "Point", "coordinates": [79.8651499, 6.8513541]}}, {"type": "Feature", "properties": {"osm_type": "node", "osm_id": 1870009410, "name": "Commercial Bank of Ceylon", "osm_key": "amenity", "osm_value": "bank", "dest_group": "finance", "source": "osm"}, "geometry": {"type": "Point", "coordinates": [79.8665767, 6.8467332]}}, {"type": "Feature", "properties": {"osm_type": "node", "osm_id": 1870009411, "name": "DFCV Bank", "osm_key": "amenity", "osm_value": "bank", "dest_group": "finance", "source": "osm"}, "geometry": {"type": "Point", "coordinates": [79.867355, 6.840981]}}, {"type": "Feature", "properties": {"osm_type": "node", "osm_id": 1990943761, "name": "Food city express", "osm_key": "shop", "osm_value": "supermarket", "dest_group": "food", "source": "osm"}, "geometry": {"type": "Point", "coordinates": [79.8671666, 6.8327725]}}, {"type": "Feature", "properties": {"osm_type": "node", "osm_id": 1999705296, "name": "HNB", "osm_key": "amenity", "osm_value": "bank", "dest_group": "finance", "source": "osm"}, "geometry": {"type": "Point", "coordinates": [79.8657056, 6.8524925]}}, {"type": "Feature", "properties": {"osm_type": "node", "osm_id": 1999705297, "name": "Sumihiri Bakers & Hotel", "osm_key": "shop", "osm_value": "bakery", "dest_group": "food", "source": "osm"}, "geometry": {"type": "Point", "coordinates": [79.8657971, 6.8508834]}}, {"type": "Feature", "properties": {"osm_type": "node", "osm_id": 1999705298, "name": "BOC", "osm_key": "amenity", "osm_value": "bank", "dest_group": "finance", "source": "osm"}, "geometry": {"type": "Point", "coordinates": [79.8659446, 6.8527608]}}, {"type": "Feature", "properties": {"osm_type": "node", "osm_id": 3401467559, "name": "Anura's Place", "osm_key": "amenity", "osm_value": "restaurant", "dest_group": "food", "source": "osm"}, "geometry": {"type": "Point", "coordinates": [79.8614268, 6.8528082]}}, {"type": "Feature", "properties": {"osm_type": "node", "osm_id": 3401467563, "name": "Cargills Food City", "osm_key": "shop", "osm_value": "supermarket", "dest_group": "food", "source": "osm"}, "geometry": {"type": "Point", "coordinates": [79.8624595, 6.8508182]}}, {"type": "Feature", "properties": {"osm_type": "node", "osm_id": 3401467564, "name": "HNB", "osm_key": "amenity", "osm_value": "atm", "dest_group": "finance", "source": "osm"}, "geometry": {"type": "Point", "coordinates": [79.8623944, 6.8509958]}}, {"type": "Feature", "properties": {"osm_type": "node", "osm_id": 3401467565, "name": "NSB", "osm_key": "amenity", "osm_value": "atm", "dest_group": "finance", "source": "osm"}, "geometry": {"type": "Point", "coordinates": [79.8632278, 6.8504671]}}, {"type": "Feature", "properties": {"osm_type": "node", "osm_id": 3401467571, "name": "Saravana Bawan", "osm_key": "amenity", "osm_value": "fast_food", "dest_group": "food", "source": "osm"}, "geometry": {"type": "Point", "coordinates": [79.8658407, 6.853661]}}, {"type": "Feature", "properties": {"osm_type": "node", "osm_id": 3401467700, "name": "New Broadway Bakers", "osm_key": "shop", "osm_value": "bakery", "dest_group": "food", "source": "osm"}, "geometry": {"type": "Point", "coordinates": [79.8657312, 6.8512161]}}, {"type": "Feature", "properties": {"osm_type": "node", "osm_id": 3401467701, "name": "Dehiwala Super Market Complex", "osm_key": "shop", "osm_value": "supermarket", "dest_group": "food", "source": "osm"}, "geometry": {"type": "Point", "coordinates": [79.8650976, 6.8510925]}}, {"type": "Feature", "properties": {"osm_type": "node", "osm_id": 3772997718, "name": "Bank of Ceylon", "osm_key": "amenity", "osm_value": "bank", "dest_group": "finance", "source": "osm"}, "geometry": {"type": "Point", "coordinates": [79.8659759, 6.852549]}}, {"type": "Feature", "properties": {"osm_type": "node", "osm_id": 3773070276, "name": "Karagampitiya", "osm_key": "highway", "osm_value": "bus_stop", "dest_group": "transit", "source": "osm"}, "geometry": {"type": "Point", "coordinates": [79.8720234, 6.8504176]}}, {"type": "Feature", "properties": {"osm_type": "node", "osm_id": 4142166091, "name": "", "osm_key": "highway", "osm_value": "bus_stop", "dest_group": "transit", "source": "osm"}, "geometry": {"type": "Point", "coordinates": [79.8673845, 6.8375563]}}, {"type": "Feature", "properties": {"osm_type": "node", "osm_id": 4142166191, "name": "", "osm_key": "highway", "osm_value": "bus_stop", "dest_group": "transit", "source": "osm"}, "geometry": {"type": "Point", "coordinates": [79.8662705, 6.8445882]}}, {"type": "Feature", "properties": {"osm_type": "node", "osm_id": 4457451959, "name": "Arthur's Pizza", "osm_key": "amenity", "osm_value": "restaurant", "dest_group": "food", "source": "osm"}, "geometry": {"type": "Point", "coordinates": [79.8668302, 6.8417637]}}, {"type": "Feature", "properties": {"osm_type": "node", "osm_id": 4574074789, "name": "Mount Casadi", "osm_key": "amenity", "osm_value": "restaurant", "dest_group": "food", "source": "osm"}, "geometry": {"type": "Point", "coordinates": [79.8626033, 6.8300254]}}, {"type": "Feature", "properties": {"osm_type": "node", "osm_id": 4590512291, "name": "Burger King", "osm_key": "amenity", "osm_value": "fast_food", "dest_group": "food", "source": "osm"}, "geometry": {"type": "Point", "coordinates": [79.8666388, 6.8421829]}}, {"type": "Feature", "properties": {"osm_type": "node", "osm_id": 4590512292, "name": "Subway", "osm_key": "amenity", "osm_value": "fast_food", "dest_group": "food", "source": "osm"}, "geometry": {"type": "Point", "coordinates": [79.8671806, 6.8414014]}}, {"type": "Feature", "properties": {"osm_type": "node", "osm_id": 4609647907, "name": "NDB", "osm_key": "amenity", "osm_value": "bank", "dest_group": "finance", "source": "osm"}, "geometry": {"type": "Point", "coordinates": [79.8677045, 6.8367957]}}, {"type": "Feature", "properties": {"osm_type": "node", "osm_id": 4609647908, "name": "Sampath Bank", "osm_key": "amenity", "osm_value": "bank", "dest_group": "finance", "source": "osm"}, "geometry": {"type": "Point", "coordinates": [79.8671491, 6.835413]}}, {"type": "Feature", "properties": {"osm_type": "node", "osm_id": 4609648100, "name": "Family bakers", "osm_key": "amenity", "osm_value": "cafe", "dest_group": "food", "source": "osm"}, "geometry": {"type": "Point", "coordinates": [79.8685577, 6.8287196]}}, {"type": "Feature", "properties": {"osm_type": "node", "osm_id": 4609680993, "name": "Peoples bank", "osm_key": "amenity", "osm_value": "bank", "dest_group": "finance", "source": "osm"}, "geometry": {"type": "Point", "coordinates": [79.8672245, 6.8337922]}}, {"type": "Feature", "properties": {"osm_type": "node", "osm_id": 4711114092, "name": "Singer Mega", "osm_key": "shop", "osm_value": "convenience", "dest_group": "food", "source": "osm"}, "geometry": {"type": "Point", "coordinates": [79.8673029, 6.834159]}}, {"type": "Feature", "properties": {"osm_type": "node", "osm_id": 4711114094, "name": "Keels Super", "osm_key": "shop", "osm_value": "supermarket", "dest_group": "food", "source": "osm"}, "geometry": {"type": "Point", "coordinates": [79.8739314, 6.8194372]}}, {"type": "Feature", "properties": {"osm_type": "node", "osm_id": 4711149289, "name": "Bank of Ceylon (BOC)", "osm_key": "amenity", "osm_value": "bank", "dest_group": "finance", "source": "osm"}, "geometry": {"type": "Point", "coordinates": [79.8671766, 6.835776]}}, {"type": "Feature", "properties": {"osm_type": "node", "osm_id": 5103202333, "name": "Cup Cafe", "osm_key": "amenity", "osm_value": "cafe", "dest_group": "food", "source": "osm"}, "geometry": {"type": "Point", "coordinates": [79.8663307, 6.843834]}}, {"type": "Feature", "properties": {"osm_type": "node", "osm_id": 5105388327, "name": "La Voile Blanche", "osm_key": "amenity", "osm_value": "restaurant", "dest_group": "food", "source": "osm"}, "geometry": {"type": "Point", "coordinates": [79.8629698, 6.8401723]}}, {"type": "Feature", "properties": {"osm_type": "node", "osm_id": 5185255622, "name": "BOC", "osm_key": "amenity", "osm_value": "atm", "dest_group": "finance", "source": "osm"}, "geometry": {"type": "Point", "coordinates": [79.8672378, 6.8337799]}}, {"type": "Feature", "properties": {"osm_type": "node", "osm_id": 5317654428, "name": "Mini supermarket and Gem Store", "osm_key": "shop", "osm_value": "supermarket", "dest_group": "food", "source": "osm"}, "geometry": {"type": "Point", "coordinates": [79.8629655, 6.8333578]}}, {"type": "Feature", "properties": {"osm_type": "node", "osm_id": 5576010117, "name": "", "osm_key": "amenity", "osm_value": "bank", "dest_group": "finance", "source": "osm"}, "geometry": {"type": "Point", "coordinates": [79.8737491, 6.829748]}}, {"type": "Feature", "properties": {"osm_type": "node", "osm_id": 5576013454, "name": "", "osm_key": "amenity", "osm_value": "bank", "dest_group": "finance", "source": "osm"}, "geometry": {"type": "Point", "coordinates": [79.8739101, 6.8314188]}}, {"type": "Feature", "properties": {"osm_type": "node", "osm_id": 5606158822, "name": "Hejaaz International Boys School", "osm_key": "amenity", "osm_value": "school", "dest_group": "education", "source": "osm"}, "geometry": {"type": "Point", "coordinates": [79.8682149, 6.8431388]}}, {"type": "Feature", "properties": {"osm_type": "node", "osm_id": 5632202903, "name": "", "osm_key": "shop", "osm_value": "convenience", "dest_group": "food", "source": "osm"}, "geometry": {"type": "Point", "coordinates": [79.8675087, 6.8323034]}}, {"type": "Feature", "properties": {"osm_type": "node", "osm_id": 5632202904, "name": "", "osm_key": "shop", "osm_value": "convenience", "dest_group": "food", "source": "osm"}, "geometry": {"type": "Point", "coordinates": [79.8675919, 6.832308]}}, {"type": "Feature", "properties": {"osm_type": "node", "osm_id": 5632203232, "name": "", "osm_key": "shop", "osm_value": "convenience", "dest_group": "food", "source": "osm"}, "geometry": {"type": "Point", "coordinates": [79.8673176, 6.8323593]}}, {"type": "Feature", "properties": {"osm_type": "node", "osm_id": 5632203289, "name": "", "osm_key": "shop", "osm_value": "convenience", "dest_group": "food", "source": "osm"}, "geometry": {"type": "Point", "coordinates": [79.8672806, 6.8322425]}}, {"type": "Feature", "properties": {"osm_type": "node", "osm_id": 5648049122, "name": "The Pit Stop", "osm_key": "amenity", "osm_value": "cafe", "dest_group": "food", "source": "osm"}, "geometry": {"type": "Point", "coordinates": [79.8648538, 6.8389624]}}, {"type": "Feature", "properties": {"osm_type": "node", "osm_id": 5648049123, "name": "Mount Sea Pal", "osm_key": "amenity", "osm_value": "restaurant", "dest_group": "food", "source": "osm"}, "geometry": {"type": "Point", "coordinates": [79.8627295, 6.8430029]}}, {"type": "Feature", "properties": {"osm_type": "node", "osm_id": 5648067221, "name": "Little Star", "osm_key": "shop", "osm_value": "bakery", "dest_group": "food", "source": "osm"}, "geometry": {"type": "Point", "coordinates": [79.8672866, 6.8369601]}}, {"type": "Feature", "properties": {"osm_type": "node", "osm_id": 6466232466, "name": "British College of Applied Studies", "osm_key": "amenity", "osm_value": "college", "dest_group": "education", "source": "osm"}, "geometry": {"type": "Point", "coordinates": [79.8674429, 6.8305038]}}, {"type": "Feature", "properties": {"osm_type": "node", "osm_id": 6782430786, "name": "Barnes Garden Caf\u00e9", "osm_key": "amenity", "osm_value": "cafe", "dest_group": "food", "source": "osm"}, "geometry": {"type": "Point", "coordinates": [79.8645778, 6.8401482]}}, {"type": "Feature", "properties": {"osm_type": "node", "osm_id": 7133159645, "name": "Shelton Sea Food Restaurant", "osm_key": "amenity", "osm_value": "restaurant", "dest_group": "food", "source": "osm"}, "geometry": {"type": "Point", "coordinates": [79.8633503, 6.8377236]}}, {"type": "Feature", "properties": {"osm_type": "node", "osm_id": 7133210345, "name": "Najaa International School", "osm_key": "amenity", "osm_value": "school", "dest_group": "education", "source": "osm"}, "geometry": {"type": "Point", "coordinates": [79.8691585, 6.8386201]}}, {"type": "Feature", "properties": {"osm_type": "node", "osm_id": 7133250596, "name": "Catamaran Seafood Restaurant", "osm_key": "amenity", "osm_value": "restaurant", "dest_group": "food", "source": "osm"}, "geometry": {"type": "Point", "coordinates": [79.8632997, 6.8378187]}}, {"type": "Feature", "properties": {"osm_type": "node", "osm_id": 7133250972, "name": "Ginsomin", "osm_key": "amenity", "osm_value": "pharmacy", "dest_group": "health", "source": "osm"}, "geometry": {"type": "Point", "coordinates": [79.8676622, 6.8381734]}}, {"type": "Feature", "properties": {"osm_type": "node", "osm_id": 7615406295, "name": "Casserole", "osm_key": "amenity", "osm_value": "restaurant", "dest_group": "food", "source": "osm"}, "geometry": {"type": "Point", "coordinates": [79.8671105, 6.841861]}}, {"type": "Feature", "properties": {"osm_type": "node", "osm_id": 8552319907, "name": "", "osm_key": "highway", "osm_value": "bus_stop", "dest_group": "transit", "source": "osm"}, "geometry": {"type": "Point", "coordinates": [79.8712851, 6.8225851]}}, {"type": "Feature", "properties": {"osm_type": "node", "osm_id": 8557668832, "name": "", "osm_key": "highway", "osm_value": "bus_stop", "dest_group": "transit", "source": "osm"}, "geometry": {"type": "Point", "coordinates": [79.8735358, 6.8194095]}}, {"type": "Feature", "properties": {"osm_type": "node", "osm_id": 8557817527, "name": "Mount Lavinia Police Station halt", "osm_key": "highway", "osm_value": "bus_stop", "dest_group": "transit", "source": "osm"}, "geometry": {"type": "Point", "coordinates": [79.8697525, 6.8254423]}}, {"type": "Feature", "properties": {"osm_type": "node", "osm_id": 8557817529, "name": "Mount Lavinia Junction", "osm_key": "highway", "osm_value": "bus_stop", "dest_group": "transit", "source": "osm"}, "geometry": {"type": "Point", "coordinates": [79.8673693, 6.8331765]}}, {"type": "Feature", "properties": {"osm_type": "node", "osm_id": 8557817530, "name": "Mount Lavinia Magistrate-court", "osm_key": "highway", "osm_value": "bus_stop", "dest_group": "transit", "source": "osm"}, "geometry": {"type": "Point", "coordinates": [79.867428, 6.8375622]}}, {"type": "Feature", "properties": {"osm_type": "node", "osm_id": 8557817531, "name": "Hotel Road halt", "osm_key": "highway", "osm_value": "bus_stop", "dest_group": "transit", "source": "osm"}, "geometry": {"type": "Point", "coordinates": [79.867214, 6.8407604]}}, {"type": "Feature", "properties": {"osm_type": "node", "osm_id": 8570801612, "name": "", "osm_key": "highway", "osm_value": "bus_stop", "dest_group": "transit", "source": "osm"}, "geometry": {"type": "Point", "coordinates": [79.8714131, 6.8226593]}}, {"type": "Feature", "properties": {"osm_type": "node", "osm_id": 8570801613, "name": "Dharmarama Temple Road halt", "osm_key": "highway", "osm_value": "bus_stop", "dest_group": "transit", "source": "osm"}, "geometry": {"type": "Point", "coordinates": [79.8713361, 6.8225983]}}, {"type": "Feature", "properties": {"osm_type": "node", "osm_id": 8570801614, "name": "Maliban Junction", "osm_key": "highway", "osm_value": "bus_stop", "dest_group": "transit", "source": "osm"}, "geometry": {"type": "Point", "coordinates": [79.873627, 6.8194686]}}, {"type": "Feature", "properties": {"osm_type": "node", "osm_id": 8572280708, "name": "Dehiwala Junction", "osm_key": "highway", "osm_value": "bus_stop", "dest_group": "transit", "source": "osm"}, "geometry": {"type": "Point", "coordinates": [79.8658814, 6.8518203]}}, {"type": "Feature", "properties": {"osm_type": "node", "osm_id": 8594231615, "name": "Gihans beach Resort", "osm_key": "amenity", "osm_value": "restaurant", "dest_group": "food", "source": "osm"}, "geometry": {"type": "Point", "coordinates": [79.8614723, 6.8525115]}}, {"type": "Feature", "properties": {"osm_type": "node", "osm_id": 8594249343, "name": "Sunil beach resort", "osm_key": "amenity", "osm_value": "restaurant", "dest_group": "food", "source": "osm"}, "geometry": {"type": "Point", "coordinates": [79.863301, 6.8366611]}}, {"type": "Feature", "properties": {"osm_type": "node", "osm_id": 8594250504, "name": "Mount breeze hotel", "osm_key": "amenity", "osm_value": "restaurant", "dest_group": "food", "source": "osm"}, "geometry": {"type": "Point", "coordinates": [79.8633535, 6.8406729]}}, {"type": "Feature", "properties": {"osm_type": "node", "osm_id": 8594255220, "name": "Surf club", "osm_key": "amenity", "osm_value": "restaurant", "dest_group": "food", "source": "osm"}, "geometry": {"type": "Point", "coordinates": [79.8625959, 6.8439888]}}, {"type": "Feature", "properties": {"osm_type": "node", "osm_id": 8594256619, "name": "Addara beach club", "osm_key": "amenity", "osm_value": "restaurant", "dest_group": "food", "source": "osm"}, "geometry": {"type": "Point", "coordinates": [79.8627809, 6.8419469]}}, {"type": "Feature", "properties": {"osm_type": "node", "osm_id": 8594261102, "name": "La Langousterie", "osm_key": "amenity", "osm_value": "restaurant", "dest_group": "food", "source": "osm"}, "geometry": {"type": "Point", "coordinates": [79.8630609, 6.8359409]}}, {"type": "Feature", "properties": {"osm_type": "node", "osm_id": 8594262509, "name": "Maharhishi Ayurveda Hospital", "osm_key": "amenity", "osm_value": "hospital", "dest_group": "health", "source": "osm"}, "geometry": {"type": "Point", "coordinates": [79.8656752, 6.8303971]}}, {"type": "Feature", "properties": {"osm_type": "node", "osm_id": 8594263247, "name": "Thilanka beach resort", "osm_key": "amenity", "osm_value": "restaurant", "dest_group": "food", "source": "osm"}, "geometry": {"type": "Point", "coordinates": [79.8648847, 6.8352839]}}, {"type": "Feature", "properties": {"osm_type": "node", "osm_id": 8602519972, "name": "Bloom Kandy", "osm_key": "shop", "osm_value": "supermarket", "dest_group": "food", "source": "osm"}, "geometry": {"type": "Point", "coordinates": [79.8656125, 6.8532849]}}, {"type": "Feature", "properties": {"osm_type": "node", "osm_id": 8602525039, "name": "Harpo's Pizza & Pasta", "osm_key": "amenity", "osm_value": "cafe", "dest_group": "food", "source": "osm"}, "geometry": {"type": "Point", "coordinates": [79.8661238, 6.8500515]}}, {"type": "Feature", "properties": {"osm_type": "node", "osm_id": 8602536581, "name": "Chamenka Guest House", "osm_key": "amenity", "osm_value": "cafe", "dest_group": "food", "source": "osm"}, "geometry": {"type": "Point", "coordinates": [79.8741895, 6.8472465]}}, {"type": "Feature", "properties": {"osm_type": "node", "osm_id": 8604570879, "name": "Frangipani", "osm_key": "amenity", "osm_value": "cafe", "dest_group": "food", "source": "osm"}, "geometry": {"type": "Point", "coordinates": [79.8669764, 6.8508326]}}, {"type": "Feature", "properties": {"osm_type": "node", "osm_id": 8604573682, "name": "Clock Inn Dehiwala", "osm_key": "amenity", "osm_value": "cafe", "dest_group": "food", "source": "osm"}, "geometry": {"type": "Point", "coordinates": [79.8675939, 6.8508778]}}, {"type": "Feature", "properties": {"osm_type": "node", "osm_id": 8792949875, "name": "McDonald's", "osm_key": "amenity", "osm_value": "fast_food", "dest_group": "food", "source": "osm"}, "geometry": {"type": "Point", "coordinates": [79.868797, 6.8273551]}}, {"type": "Feature", "properties": {"osm_type": "node", "osm_id": 9379008232, "name": "Domino's", "osm_key": "amenity", "osm_value": "fast_food", "dest_group": "food", "source": "osm"}, "geometry": {"type": "Point", "coordinates": [79.8692647, 6.8270175]}}, {"type": "Feature", "properties": {"osm_type": "node", "osm_id": 9379015327, "name": "", "osm_key": "amenity", "osm_value": "atm", "dest_group": "finance", "source": "osm"}, "geometry": {"type": "Point", "coordinates": [79.8678021, 6.8307287]}}, {"type": "Feature", "properties": {"osm_type": "node", "osm_id": 9733862244, "name": "Taco Bell", "osm_key": "amenity", "osm_value": "fast_food", "dest_group": "food", "source": "osm"}, "geometry": {"type": "Point", "coordinates": [79.8683375, 6.8295734]}}, {"type": "Feature", "properties": {"osm_type": "node", "osm_id": 9887018987, "name": "Pizza Hut", "osm_key": "amenity", "osm_value": "restaurant", "dest_group": "food", "source": "osm"}, "geometry": {"type": "Point", "coordinates": [79.8680707, 6.8294278]}}, {"type": "Feature", "properties": {"osm_type": "node", "osm_id": 9936301580, "name": "Elite Indian Restaurant", "osm_key": "amenity", "osm_value": "restaurant", "dest_group": "food", "source": "osm"}, "geometry": {"type": "Point", "coordinates": [79.8678775, 6.8311823]}}, {"type": "Feature", "properties": {"osm_type": "node", "osm_id": 9936308591, "name": "Softlogic GLOMARK", "osm_key": "shop", "osm_value": "supermarket", "dest_group": "food", "source": "osm"}, "geometry": {"type": "Point", "coordinates": [79.8668182, 6.8362154]}}, {"type": "Feature", "properties": {"osm_type": "node", "osm_id": 9936308592, "name": "Popeyes", "osm_key": "amenity", "osm_value": "fast_food", "dest_group": "food", "source": "osm"}, "geometry": {"type": "Point", "coordinates": [79.8663069, 6.8362743]}}, {"type": "Feature", "properties": {"osm_type": "node", "osm_id": 10603951649, "name": "Hotel Road halt", "osm_key": "highway", "osm_value": "bus_stop", "dest_group": "transit", "source": "osm"}, "geometry": {"type": "Point", "coordinates": [79.8672826, 6.8407913]}}, {"type": "Feature", "properties": {"osm_type": "node", "osm_id": 10603977917, "name": "Dharmarama Temple Road halt", "osm_key": "highway", "osm_value": "bus_stop", "dest_group": "transit", "source": "osm"}, "geometry": {"type": "Point", "coordinates": [79.871402, 6.8226232]}}, {"type": "Feature", "properties": {"osm_type": "node", "osm_id": 10603977952, "name": "Mount Lavinia Police Station halt", "osm_key": "highway", "osm_value": "bus_stop", "dest_group": "transit", "source": "osm"}, "geometry": {"type": "Point", "coordinates": [79.8698326, 6.8254677]}}, {"type": "Feature", "properties": {"osm_type": "node", "osm_id": 10603977971, "name": "Mount Lavinia Junction", "osm_key": "highway", "osm_value": "bus_stop", "dest_group": "transit", "source": "osm"}, "geometry": {"type": "Point", "coordinates": [79.8673081, 6.8331777]}}, {"type": "Feature", "properties": {"osm_type": "node", "osm_id": 10605365166, "name": "Cargills Food City Ratmalana", "osm_key": "highway", "osm_value": "bus_stop", "dest_group": "transit", "source": "osm"}, "geometry": {"type": "Point", "coordinates": [79.8688536, 6.8276844]}}, {"type": "Feature", "properties": {"osm_type": "node", "osm_id": 10605417758, "name": "", "osm_key": "highway", "osm_value": "bus_stop", "dest_group": "transit", "source": "osm"}, "geometry": {"type": "Point", "coordinates": [79.8659654, 6.8488504]}}, {"type": "Feature", "properties": {"osm_type": "node", "osm_id": 10605417759, "name": "", "osm_key": "highway", "osm_value": "bus_stop", "dest_group": "transit", "source": "osm"}, "geometry": {"type": "Point", "coordinates": [79.8676676, 6.8308008]}}, {"type": "Feature", "properties": {"osm_type": "node", "osm_id": 11842723885, "name": "bake N cake", "osm_key": "shop", "osm_value": "bakery", "dest_group": "food", "source": "osm"}, "geometry": {"type": "Point", "coordinates": [79.8657266, 6.8512303]}}, {"type": "Feature", "properties": {"osm_type": "node", "osm_id": 11842732982, "name": "Broadway Bakers", "osm_key": "shop", "osm_value": "bakery", "dest_group": "food", "source": "osm"}, "geometry": {"type": "Point", "coordinates": [79.8656778, 6.8535146]}}, {"type": "Feature", "properties": {"osm_type": "node", "osm_id": 11842763172, "name": "no place", "osm_key": "amenity", "osm_value": "pharmacy", "dest_group": "health", "source": "osm"}, "geometry": {"type": "Point", "coordinates": [79.8653421, 6.848993]}}, {"type": "Feature", "properties": {"osm_type": "node", "osm_id": 11842769883, "name": "", "osm_key": "amenity", "osm_value": "atm", "dest_group": "finance", "source": "osm"}, "geometry": {"type": "Point", "coordinates": [79.8658046, 6.8515598]}}, {"type": "Feature", "properties": {"osm_type": "node", "osm_id": 11842843169, "name": "rathmale hotel", "osm_key": "amenity", "osm_value": "restaurant", "dest_group": "food", "source": "osm"}, "geometry": {"type": "Point", "coordinates": [79.8626206, 6.8506402]}}, {"type": "Feature", "properties": {"osm_type": "node", "osm_id": 11842845569, "name": "Caravan fresh", "osm_key": "shop", "osm_value": "bakery", "dest_group": "food", "source": "osm"}, "geometry": {"type": "Point", "coordinates": [79.8653421, 6.8522925]}}, {"type": "Feature", "properties": {"osm_type": "node", "osm_id": 11842845570, "name": "Msti Maritime Acedemy", "osm_key": "amenity", "osm_value": "college", "dest_group": "education", "source": "osm"}, "geometry": {"type": "Point", "coordinates": [79.8640227, 6.8511418]}}, {"type": "Feature", "properties": {"osm_type": "node", "osm_id": 11842855269, "name": "", "osm_key": "amenity", "osm_value": "atm", "dest_group": "finance", "source": "osm"}, "geometry": {"type": "Point", "coordinates": [79.8665855, 6.8525561]}}, {"type": "Feature", "properties": {"osm_type": "node", "osm_id": 11842857373, "name": "", "osm_key": "amenity", "osm_value": "atm", "dest_group": "finance", "source": "osm"}, "geometry": {"type": "Point", "coordinates": [79.8643661, 6.8512856]}}, {"type": "Feature", "properties": {"osm_type": "node", "osm_id": 11842858669, "name": "Al Baraka indian fafamily resturent", "osm_key": "amenity", "osm_value": "restaurant", "dest_group": "food", "source": "osm"}, "geometry": {"type": "Point", "coordinates": [79.8626258, 6.8507594]}}, {"type": "Feature", "properties": {"osm_type": "node", "osm_id": 11842859569, "name": "the british international perschool", "osm_key": "amenity", "osm_value": "kindergarten", "dest_group": "education", "source": "osm"}, "geometry": {"type": "Point", "coordinates": [79.8641051, 6.8512298]}}, {"type": "Feature", "properties": {"osm_type": "node", "osm_id": 11842859892, "name": "msti maritime academy", "osm_key": "amenity", "osm_value": "college", "dest_group": "education", "source": "osm"}, "geometry": {"type": "Point", "coordinates": [79.8658444, 6.8506857]}}, {"type": "Feature", "properties": {"osm_type": "node", "osm_id": 11842860079, "name": "Cargils foodcity", "osm_key": "shop", "osm_value": "supermarket", "dest_group": "food", "source": "osm"}, "geometry": {"type": "Point", "coordinates": [79.8626682, 6.8510681]}}, {"type": "Feature", "properties": {"osm_type": "node", "osm_id": 11842860293, "name": "Cargils foodcity", "osm_key": "shop", "osm_value": "supermarket", "dest_group": "food", "source": "osm"}, "geometry": {"type": "Point", "coordinates": [79.8630749, 6.851907]}}, {"type": "Feature", "properties": {"osm_type": "node", "osm_id": 11842860375, "name": "The british international pre school", "osm_key": "amenity", "osm_value": "college", "dest_group": "education", "source": "osm"}, "geometry": {"type": "Point", "coordinates": [79.8639276, 6.8511428]}}, {"type": "Feature", "properties": {"osm_type": "node", "osm_id": 11842860376, "name": "al baraka", "osm_key": "amenity", "osm_value": "restaurant", "dest_group": "food", "source": "osm"}, "geometry": {"type": "Point", "coordinates": [79.8661919, 6.8501101]}}, {"type": "Feature", "properties": {"osm_type": "node", "osm_id": 11842861784, "name": "Al-baraka", "osm_key": "amenity", "osm_value": "restaurant", "dest_group": "food", "source": "osm"}, "geometry": {"type": "Point", "coordinates": [79.8629631, 6.8510001]}}, {"type": "Feature", "properties": {"osm_type": "node", "osm_id": 11842861787, "name": "caravan fresh", "osm_key": "amenity", "osm_value": "restaurant", "dest_group": "food", "source": "osm"}, "geometry": {"type": "Point", "coordinates": [79.8653481, 6.8513935]}}, {"type": "Feature", "properties": {"osm_type": "node", "osm_id": 11842861788, "name": "the briish iinternational pre school", "osm_key": "amenity", "osm_value": "college", "dest_group": "education", "source": "osm"}, "geometry": {"type": "Point", "coordinates": [79.8660181, 6.8503979]}}, {"type": "Feature", "properties": {"osm_type": "node", "osm_id": 11842861789, "name": "foodcity", "osm_key": "shop", "osm_value": "supermarket", "dest_group": "food", "source": "osm"}, "geometry": {"type": "Point", "coordinates": [79.8645289, 6.849665]}}, {"type": "Feature", "properties": {"osm_type": "node", "osm_id": 11842871786, "name": "Cargils", "osm_key": "shop", "osm_value": "supermarket", "dest_group": "food", "source": "osm"}, "geometry": {"type": "Point", "coordinates": [79.8627274, 6.85108]}}, {"type": "Feature", "properties": {"osm_type": "node", "osm_id": 11842911170, "name": "", "osm_key": "shop", "osm_value": "supermarket", "dest_group": "food", "source": "osm"}, "geometry": {"type": "Point", "coordinates": [79.8624579, 6.8508443]}}, {"type": "Feature", "properties": {"osm_type": "node", "osm_id": 11842913769, "name": "LOLC inance", "osm_key": "amenity", "osm_value": "bank", "dest_group": "finance", "source": "osm"}, "geometry": {"type": "Point", "coordinates": [79.8658779, 6.8497509]}}, {"type": "Feature", "properties": {"osm_type": "node", "osm_id": 11842913869, "name": "", "osm_key": "amenity", "osm_value": "bank", "dest_group": "finance", "source": "osm"}, "geometry": {"type": "Point", "coordinates": [79.8658459, 6.8528181]}}, {"type": "Feature", "properties": {"osm_type": "node", "osm_id": 11842917686, "name": "", "osm_key": "shop", "osm_value": "bakery", "dest_group": "food", "source": "osm"}, "geometry": {"type": "Point", "coordinates": [79.8657289, 6.8511507]}}, {"type": "Feature", "properties": {"osm_type": "node", "osm_id": 11842920970, "name": "AL-BARAKA", "osm_key": "amenity", "osm_value": "restaurant", "dest_group": "food", "source": "osm"}, "geometry": {"type": "Point", "coordinates": [79.8626288, 6.8513988]}}, {"type": "Feature", "properties": {"osm_type": "node", "osm_id": 11842920971, "name": "The british international school", "osm_key": "amenity", "osm_value": "kindergarten", "dest_group": "education", "source": "osm"}, "geometry": {"type": "Point", "coordinates": [79.8640899, 6.8512628]}}, {"type": "Feature", "properties": {"osm_type": "node", "osm_id": 11842921794, "name": "Subodha adarsha kanishta vidyalaya", "osm_key": "amenity", "osm_value": "college", "dest_group": "education", "source": "osm"}, "geometry": {"type": "Point", "coordinates": [79.867935, 6.8492376]}}, {"type": "Feature", "properties": {"osm_type": "node", "osm_id": 11842923969, "name": "MSTI", "osm_key": "amenity", "osm_value": "college", "dest_group": "education", "source": "osm"}, "geometry": {"type": "Point", "coordinates": [79.8639902, 6.8511164]}}, {"type": "Feature", "properties": {"osm_type": "node", "osm_id": 11842924070, "name": "suboda adarsha colleg", "osm_key": "amenity", "osm_value": "college", "dest_group": "education", "source": "osm"}, "geometry": {"type": "Point", "coordinates": [79.8673831, 6.8419008]}}, {"type": "Feature", "properties": {"osm_type": "node", "osm_id": 11842933569, "name": "", "osm_key": "amenity", "osm_value": "atm", "dest_group": "finance", "source": "osm"}, "geometry": {"type": "Point", "coordinates": [79.8615473, 6.8509325]}}, {"type": "Feature", "properties": {"osm_type": "node", "osm_id": 11842950269, "name": "Siyapatha Finance", "osm_key": "amenity", "osm_value": "bank", "dest_group": "finance", "source": "osm"}, "geometry": {"type": "Point", "coordinates": [79.8660789, 6.8516481]}}, {"type": "Feature", "properties": {"osm_type": "node", "osm_id": 11842950270, "name": "KFC", "osm_key": "amenity", "osm_value": "fast_food", "dest_group": "food", "source": "osm"}, "geometry": {"type": "Point", "coordinates": [79.8679117, 6.8509393]}}, {"type": "Feature", "properties": {"osm_type": "node", "osm_id": 11842960670, "name": "food city", "osm_key": "shop", "osm_value": "supermarket", "dest_group": "food", "source": "osm"}, "geometry": {"type": "Point", "coordinates": [79.8663984, 6.8514184]}}, {"type": "Feature", "properties": {"osm_type": "node", "osm_id": 11842965710, "name": "dehiwal urban health muster", "osm_key": "amenity", "osm_value": "clinic", "dest_group": "health", "source": "osm"}, "geometry": {"type": "Point", "coordinates": [79.8650781, 6.8494075]}}, {"type": "Feature", "properties": {"osm_type": "node", "osm_id": 11842967690, "name": "Sri Jeewarakshaka Bhayshajyalaya Ayurvedic Medical Center", "osm_key": "amenity", "osm_value": "hospital", "dest_group": "health", "source": "osm"}, "geometry": {"type": "Point", "coordinates": [79.8659735, 6.8522939]}}, {"type": "Feature", "properties": {"osm_type": "node", "osm_id": 11842968741, "name": "BOC", "osm_key": "amenity", "osm_value": "bank", "dest_group": "finance", "source": "osm"}, "geometry": {"type": "Point", "coordinates": [79.8659434, 6.8527788]}}, {"type": "Feature", "properties": {"osm_type": "node", "osm_id": 11842977983, "name": "Vaishnavi Vihar", "osm_key": "amenity", "osm_value": "restaurant", "dest_group": "food", "source": "osm"}, "geometry": {"type": "Point", "coordinates": [79.8657932, 6.8535027]}}, {"type": "Feature", "properties": {"osm_type": "node", "osm_id": 11843006169, "name": "Dehiala railway station", "osm_key": "amenity", "osm_value": "bus_station", "dest_group": "transit", "source": "osm"}, "geometry": {"type": "Point", "coordinates": [79.8623123, 6.8509062]}}, {"type": "Feature", "properties": {"osm_type": "node", "osm_id": 11843054575, "name": "Cargils Express", "osm_key": "shop", "osm_value": "supermarket", "dest_group": "food", "source": "osm"}, "geometry": {"type": "Point", "coordinates": [79.8665595, 6.8513189]}}, {"type": "Feature", "properties": {"osm_type": "node", "osm_id": 11843066869, "name": "Lucky Store", "osm_key": "shop", "osm_value": "supermarket", "dest_group": "food", "source": "osm"}, "geometry": {"type": "Point", "coordinates": [79.8663687, 6.8513461]}}, {"type": "Feature", "properties": {"osm_type": "node", "osm_id": 11862651999, "name": "BOC", "osm_key": "amenity", "osm_value": "bank", "dest_group": "finance", "source": "osm"}, "geometry": {"type": "Point", "coordinates": [79.8659714, 6.8527516]}}, {"type": "Feature", "properties": {"osm_type": "node", "osm_id": 11862652180, "name": "Sri Jeewarakshaka Bhayshajyalaya", "osm_key": "amenity", "osm_value": "hospital", "dest_group": "health", "source": "osm"}, "geometry": {"type": "Point", "coordinates": [79.8660313, 6.8522186]}}, {"type": "Feature", "properties": {"osm_type": "node", "osm_id": 11862652191, "name": "Barista", "osm_key": "amenity", "osm_value": "cafe", "dest_group": "food", "source": "osm"}, "geometry": {"type": "Point", "coordinates": [79.8678351, 6.8512209]}}, {"type": "Feature", "properties": {"osm_type": "node", "osm_id": 11862652293, "name": "Siyapatha Finance", "osm_key": "amenity", "osm_value": "bank", "dest_group": "finance", "source": "osm"}, "geometry": {"type": "Point", "coordinates": [79.8661156, 6.8516062]}}, {"type": "Feature", "properties": {"osm_type": "node", "osm_id": 11862652313, "name": "Metropolitn College", "osm_key": "amenity", "osm_value": "college", "dest_group": "education", "source": "osm"}, "geometry": {"type": "Point", "coordinates": [79.8676804, 6.8511982]}}, {"type": "Feature", "properties": {"osm_type": "node", "osm_id": 11862652378, "name": "", "osm_key": "shop", "osm_value": "bakery", "dest_group": "food", "source": "osm"}, "geometry": {"type": "Point", "coordinates": [79.8654662, 6.8511317]}}, {"type": "Feature", "properties": {"osm_type": "node", "osm_id": 11862652382, "name": "Vaishnavi Vihar", "osm_key": "amenity", "osm_value": "restaurant", "dest_group": "food", "source": "osm"}, "geometry": {"type": "Point", "coordinates": [79.865858, 6.853492]}}, {"type": "Feature", "properties": {"osm_type": "node", "osm_id": 11862652389, "name": "Cargils Food City", "osm_key": "shop", "osm_value": "supermarket", "dest_group": "food", "source": "osm"}, "geometry": {"type": "Point", "coordinates": [79.8667531, 6.8513132]}}, {"type": "Feature", "properties": {"osm_type": "node", "osm_id": 12002014228, "name": "Milano Hotel", "osm_key": "shop", "osm_value": "bakery", "dest_group": "food", "source": "osm"}, "geometry": {"type": "Point", "coordinates": [79.8658303, 6.8506979]}}, {"type": "Feature", "properties": {"osm_type": "node", "osm_id": 12002014234, "name": "Piyasena", "osm_key": "shop", "osm_value": "supermarket", "dest_group": "food", "source": "osm"}, "geometry": {"type": "Point", "coordinates": [79.8660824, 6.8492954]}}, {"type": "Feature", "properties": {"osm_type": "node", "osm_id": 12002014236, "name": "Mathara Rathu Bath Kade", "osm_key": "amenity", "osm_value": "restaurant", "dest_group": "food", "source": "osm"}, "geometry": {"type": "Point", "coordinates": [79.8660967, 6.8501687]}}, {"type": "Feature", "properties": {"osm_type": "node", "osm_id": 12002014238, "name": "P&S Bakers", "osm_key": "shop", "osm_value": "bakery", "dest_group": "food", "source": "osm"}, "geometry": {"type": "Point", "coordinates": [79.8661788, 6.8497764]}}, {"type": "Feature", "properties": {"osm_type": "node", "osm_id": 12002014245, "name": "Southeren Fried Chicken", "osm_key": "amenity", "osm_value": "restaurant", "dest_group": "food", "source": "osm"}, "geometry": {"type": "Point", "coordinates": [79.8680907, 6.8508918]}}, {"type": "Feature", "properties": {"osm_type": "node", "osm_id": 12002014246, "name": "KFC", "osm_key": "amenity", "osm_value": "restaurant", "dest_group": "food", "source": "osm"}, "geometry": {"type": "Point", "coordinates": [79.8679484, 6.8509377]}}, {"type": "Feature", "properties": {"osm_type": "node", "osm_id": 12014266945, "name": "As'sada", "osm_key": "shop", "osm_value": "convenience", "dest_group": "food", "source": "osm"}, "geometry": {"type": "Point", "coordinates": [79.8672259, 6.8512387]}}, {"type": "Feature", "properties": {"osm_type": "node", "osm_id": 12388308625, "name": "Big Taste", "osm_key": "amenity", "osm_value": "restaurant", "dest_group": "food", "source": "osm"}, "geometry": {"type": "Point", "coordinates": [79.8674677, 6.8350413]}}, {"type": "Feature", "properties": {"osm_type": "node", "osm_id": 12401564251, "name": "SDB bank Dehiwala Branch", "osm_key": "amenity", "osm_value": "bank", "dest_group": "finance", "source": "osm"}, "geometry": {"type": "Point", "coordinates": [79.8660942, 6.8481577]}}, {"type": "Feature", "properties": {"osm_type": "node", "osm_id": 12401966987, "name": "People's Bank", "osm_key": "amenity", "osm_value": "bank", "dest_group": "finance", "source": "osm"}, "geometry": {"type": "Point", "coordinates": [79.8642632, 6.8508756]}}, {"type": "Feature", "properties": {"osm_type": "node", "osm_id": 12402598679, "name": "Navajeevana Health care centre", "osm_key": "amenity", "osm_value": "clinic", "dest_group": "health", "source": "osm"}, "geometry": {"type": "Point", "coordinates": [79.8647643, 6.8514888]}}, {"type": "Feature", "properties": {"osm_type": "node", "osm_id": 12402598680, "name": "Dehiwala Bus Stop", "osm_key": "highway", "osm_value": "bus_stop", "dest_group": "transit", "source": "osm"}, "geometry": {"type": "Point", "coordinates": [79.8650205, 6.8512749]}}, {"type": "Feature", "properties": {"osm_type": "node", "osm_id": 12402598681, "name": "", "osm_key": "highway", "osm_value": "bus_stop", "dest_group": "transit", "source": "osm"}, "geometry": {"type": "Point", "coordinates": [79.8664065, 6.8512811]}}, {"type": "Feature", "properties": {"osm_type": "node", "osm_id": 13105594130, "name": "", "osm_key": "amenity", "osm_value": "atm", "dest_group": "finance", "source": "osm"}, "geometry": {"type": "Point", "coordinates": [79.8663138, 6.83707]}}, {"type": "Feature", "properties": {"osm_type": "node", "osm_id": 13105617596, "name": "", "osm_key": "amenity", "osm_value": "atm", "dest_group": "finance", "source": "osm"}, "geometry": {"type": "Point", "coordinates": [79.8665877, 6.8387503]}}, {"type": "Feature", "properties": {"osm_type": "node", "osm_id": 13437123547, "name": "Commercial Bank of Ceylon", "osm_key": "amenity", "osm_value": "bank", "dest_group": "finance", "source": "osm"}, "geometry": {"type": "Point", "coordinates": [79.8725796, 6.8212089]}}, {"type": "Feature", "properties": {"osm_type": "node", "osm_id": 13437156165, "name": "amana bank", "osm_key": "amenity", "osm_value": "bank", "dest_group": "finance", "source": "osm"}, "geometry": {"type": "Point", "coordinates": [79.8723936, 6.8209561]}}, {"type": "Feature", "properties": {"osm_type": "node", "osm_id": 13437163128, "name": "belta", "osm_key": "shop", "osm_value": "supermarket", "dest_group": "food", "source": "osm"}, "geometry": {"type": "Point", "coordinates": [79.8722983, 6.8210621]}}, {"type": "Feature", "properties": {"osm_type": "node", "osm_id": 13475413198, "name": "Rata Anurata Mila Aduwata", "osm_key": "shop", "osm_value": "convenience", "dest_group": "food", "source": "osm"}, "geometry": {"type": "Point", "coordinates": [79.8660702, 6.8488459]}}, {"type": "Feature", "properties": {"osm_type": "way", "osm_id": 49000663, "name": "", "osm_key": "leisure", "osm_value": "playground", "dest_group": "open_space", "source": "osm"}, "geometry": {"type": "Point", "coordinates": [79.8633072, 6.8322013]}}, {"type": "Feature", "properties": {"osm_type": "way", "osm_id": 232514709, "name": "St. Thomas College", "osm_key": "amenity", "osm_value": "school", "dest_group": "education", "source": "osm"}, "geometry": {"type": "Point", "coordinates": [79.8653408, 6.8371518]}}, {"type": "Feature", "properties": {"osm_type": "way", "osm_id": 319057681, "name": "CTB Depot", "osm_key": "amenity", "osm_value": "bus_station", "dest_group": "transit", "source": "osm"}, "geometry": {"type": "Point", "coordinates": [79.8686977, 6.8261733]}}, {"type": "Feature", "properties": {"osm_type": "way", "osm_id": 583232430, "name": "Faculty of Engineering", "osm_key": "amenity", "osm_value": "college", "dest_group": "education", "source": "osm"}, "geometry": {"type": "Point", "coordinates": [79.8730385, 6.825584]}}, {"type": "Feature", "properties": {"osm_type": "way", "osm_id": 587522491, "name": "", "osm_key": "leisure", "osm_value": "park", "dest_group": "open_space", "source": "osm"}, "geometry": {"type": "Point", "coordinates": [79.8699751, 6.8312787]}}, {"type": "Feature", "properties": {"osm_type": "way", "osm_id": 587522492, "name": "", "osm_key": "leisure", "osm_value": "park", "dest_group": "open_space", "source": "osm"}, "geometry": {"type": "Point", "coordinates": [79.870423, 6.8345829]}}, {"type": "Feature", "properties": {"osm_type": "way", "osm_id": 587522493, "name": "", "osm_key": "leisure", "osm_value": "park", "dest_group": "open_space", "source": "osm"}, "geometry": {"type": "Point", "coordinates": [79.8689586, 6.8219334]}}, {"type": "Feature", "properties": {"osm_type": "way", "osm_id": 587522494, "name": "", "osm_key": "leisure", "osm_value": "park", "dest_group": "open_space", "source": "osm"}, "geometry": {"type": "Point", "coordinates": [79.8691946, 6.821504]}}, {"type": "Feature", "properties": {"osm_type": "way", "osm_id": 587522495, "name": "", "osm_key": "leisure", "osm_value": "park", "dest_group": "open_space", "source": "osm"}, "geometry": {"type": "Point", "coordinates": [79.8688499, 6.8211125]}}, {"type": "Feature", "properties": {"osm_type": "way", "osm_id": 587522496, "name": "", "osm_key": "leisure", "osm_value": "park", "dest_group": "open_space", "source": "osm"}, "geometry": {"type": "Point", "coordinates": [79.870175, 6.8193542]}}, {"type": "Feature", "properties": {"osm_type": "way", "osm_id": 587974607, "name": "", "osm_key": "shop", "osm_value": "convenience", "dest_group": "food", "source": "osm"}, "geometry": {"type": "Point", "coordinates": [79.8671846, 6.8334886]}}, {"type": "Feature", "properties": {"osm_type": "way", "osm_id": 587974608, "name": "", "osm_key": "shop", "osm_value": "convenience", "dest_group": "food", "source": "osm"}, "geometry": {"type": "Point", "coordinates": [79.8671877, 6.8334191]}}, {"type": "Feature", "properties": {"osm_type": "way", "osm_id": 587989178, "name": "", "osm_key": "amenity", "osm_value": "school", "dest_group": "education", "source": "osm"}, "geometry": {"type": "Point", "coordinates": [79.8656927, 6.8322327]}}, {"type": "Feature", "properties": {"osm_type": "way", "osm_id": 587989181, "name": "", "osm_key": "amenity", "osm_value": "school", "dest_group": "education", "source": "osm"}, "geometry": {"type": "Point", "coordinates": [79.8656821, 6.8323323]}}, {"type": "Feature", "properties": {"osm_type": "way", "osm_id": 587989200, "name": "", "osm_key": "shop", "osm_value": "convenience", "dest_group": "food", "source": "osm"}, "geometry": {"type": "Point", "coordinates": [79.8670929, 6.8338052]}}, {"type": "Feature", "properties": {"osm_type": "way", "osm_id": 587989203, "name": "", "osm_key": "shop", "osm_value": "convenience", "dest_group": "food", "source": "osm"}, "geometry": {"type": "Point", "coordinates": [79.867178, 6.8336222]}}, {"type": "Feature", "properties": {"osm_type": "way", "osm_id": 587989204, "name": "", "osm_key": "shop", "osm_value": "convenience", "dest_group": "food", "source": "osm"}, "geometry": {"type": "Point", "coordinates": [79.8671482, 6.8336956]}}, {"type": "Feature", "properties": {"osm_type": "way", "osm_id": 587989209, "name": "", "osm_key": "shop", "osm_value": "convenience", "dest_group": "food", "source": "osm"}, "geometry": {"type": "Point", "coordinates": [79.8671277, 6.8333301]}}, {"type": "Feature", "properties": {"osm_type": "way", "osm_id": 589745455, "name": "", "osm_key": "shop", "osm_value": "convenience", "dest_group": "food", "source": "osm"}, "geometry": {"type": "Point", "coordinates": [79.8664935, 6.8324407]}}, {"type": "Feature", "properties": {"osm_type": "way", "osm_id": 589745456, "name": "", "osm_key": "shop", "osm_value": "convenience", "dest_group": "food", "source": "osm"}, "geometry": {"type": "Point", "coordinates": [79.8666453, 6.8324641]}}, {"type": "Feature", "properties": {"osm_type": "way", "osm_id": 589745458, "name": "", "osm_key": "shop", "osm_value": "convenience", "dest_group": "food", "source": "osm"}, "geometry": {"type": "Point", "coordinates": [79.8666787, 6.8323643]}}, {"type": "Feature", "properties": {"osm_type": "way", "osm_id": 589745463, "name": "", "osm_key": "shop", "osm_value": "convenience", "dest_group": "food", "source": "osm"}, "geometry": {"type": "Point", "coordinates": [79.8662562, 6.8323645]}}, {"type": "Feature", "properties": {"osm_type": "way", "osm_id": 589816152, "name": "", "osm_key": "shop", "osm_value": "convenience", "dest_group": "food", "source": "osm"}, "geometry": {"type": "Point", "coordinates": [79.8675933, 6.8338757]}}, {"type": "Feature", "properties": {"osm_type": "way", "osm_id": 589816154, "name": "", "osm_key": "shop", "osm_value": "convenience", "dest_group": "food", "source": "osm"}, "geometry": {"type": "Point", "coordinates": [79.8671802, 6.8338933]}}, {"type": "Feature", "properties": {"osm_type": "way", "osm_id": 589816165, "name": "", "osm_key": "shop", "osm_value": "convenience", "dest_group": "food", "source": "osm"}, "geometry": {"type": "Point", "coordinates": [79.8671571, 6.8339594]}}, {"type": "Feature", "properties": {"osm_type": "way", "osm_id": 589816171, "name": "", "osm_key": "shop", "osm_value": "convenience", "dest_group": "food", "source": "osm"}, "geometry": {"type": "Point", "coordinates": [79.8684142, 6.8329838]}}, {"type": "Feature", "properties": {"osm_type": "way", "osm_id": 589816205, "name": "", "osm_key": "shop", "osm_value": "convenience", "dest_group": "food", "source": "osm"}, "geometry": {"type": "Point", "coordinates": [79.867754, 6.831417]}}, {"type": "Feature", "properties": {"osm_type": "way", "osm_id": 589816210, "name": "", "osm_key": "shop", "osm_value": "convenience", "dest_group": "food", "source": "osm"}, "geometry": {"type": "Point", "coordinates": [79.8678533, 6.8312781]}}, {"type": "Feature", "properties": {"osm_type": "way", "osm_id": 589816211, "name": "", "osm_key": "shop", "osm_value": "convenience", "dest_group": "food", "source": "osm"}, "geometry": {"type": "Point", "coordinates": [79.867731, 6.8312636]}}, {"type": "Feature", "properties": {"osm_type": "way", "osm_id": 589816212, "name": "", "osm_key": "shop", "osm_value": "convenience", "dest_group": "food", "source": "osm"}, "geometry": {"type": "Point", "coordinates": [79.8677822, 6.8313444]}}, {"type": "Feature", "properties": {"osm_type": "way", "osm_id": 589816257, "name": "", "osm_key": "shop", "osm_value": "convenience", "dest_group": "food", "source": "osm"}, "geometry": {"type": "Point", "coordinates": [79.8683184, 6.8327576]}}, {"type": "Feature", "properties": {"osm_type": "way", "osm_id": 589816280, "name": "", "osm_key": "shop", "osm_value": "convenience", "dest_group": "food", "source": "osm"}, "geometry": {"type": "Point", "coordinates": [79.8681721, 6.8329774]}}, {"type": "Feature", "properties": {"osm_type": "way", "osm_id": 589816286, "name": "", "osm_key": "shop", "osm_value": "convenience", "dest_group": "food", "source": "osm"}, "geometry": {"type": "Point", "coordinates": [79.8674786, 6.8336456]}}, {"type": "Feature", "properties": {"osm_type": "way", "osm_id": 589816287, "name": "", "osm_key": "shop", "osm_value": "convenience", "dest_group": "food", "source": "osm"}, "geometry": {"type": "Point", "coordinates": [79.8675109, 6.8334512]}}, {"type": "Feature", "properties": {"osm_type": "way", "osm_id": 589816291, "name": "", "osm_key": "shop", "osm_value": "convenience", "dest_group": "food", "source": "osm"}, "geometry": {"type": "Point", "coordinates": [79.8675541, 6.8332754]}}, {"type": "Feature", "properties": {"osm_type": "way", "osm_id": 589816292, "name": "", "osm_key": "shop", "osm_value": "convenience", "dest_group": "food", "source": "osm"}, "geometry": {"type": "Point", "coordinates": [79.8675901, 6.8329744]}}, {"type": "Feature", "properties": {"osm_type": "way", "osm_id": 589816293, "name": "", "osm_key": "shop", "osm_value": "convenience", "dest_group": "food", "source": "osm"}, "geometry": {"type": "Point", "coordinates": [79.8676199, 6.8331373]}}, {"type": "Feature", "properties": {"osm_type": "way", "osm_id": 589816294, "name": "", "osm_key": "shop", "osm_value": "convenience", "dest_group": "food", "source": "osm"}, "geometry": {"type": "Point", "coordinates": [79.8678953, 6.8330246]}}, {"type": "Feature", "properties": {"osm_type": "way", "osm_id": 589816298, "name": "", "osm_key": "shop", "osm_value": "convenience", "dest_group": "food", "source": "osm"}, "geometry": {"type": "Point", "coordinates": [79.8677014, 6.8316503]}}, {"type": "Feature", "properties": {"osm_type": "way", "osm_id": 589816303, "name": "", "osm_key": "shop", "osm_value": "convenience", "dest_group": "food", "source": "osm"}, "geometry": {"type": "Point", "coordinates": [79.8676803, 6.8319045]}}, {"type": "Feature", "properties": {"osm_type": "way", "osm_id": 589816305, "name": "", "osm_key": "shop", "osm_value": "convenience", "dest_group": "food", "source": "osm"}, "geometry": {"type": "Point", "coordinates": [79.8677055, 6.8317775]}}, {"type": "Feature", "properties": {"osm_type": "way", "osm_id": 589816319, "name": "", "osm_key": "shop", "osm_value": "convenience", "dest_group": "food", "source": "osm"}, "geometry": {"type": "Point", "coordinates": [79.8676832, 6.8323686]}}, {"type": "Feature", "properties": {"osm_type": "way", "osm_id": 589816321, "name": "", "osm_key": "shop", "osm_value": "convenience", "dest_group": "food", "source": "osm"}, "geometry": {"type": "Point", "coordinates": [79.8675584, 6.8323792]}}, {"type": "Feature", "properties": {"osm_type": "way", "osm_id": 589816323, "name": "", "osm_key": "shop", "osm_value": "convenience", "dest_group": "food", "source": "osm"}, "geometry": {"type": "Point", "coordinates": [79.8677378, 6.8324153]}}, {"type": "Feature", "properties": {"osm_type": "way", "osm_id": 589816326, "name": "", "osm_key": "shop", "osm_value": "convenience", "dest_group": "food", "source": "osm"}, "geometry": {"type": "Point", "coordinates": [79.867549, 6.8323283]}}, {"type": "Feature", "properties": {"osm_type": "way", "osm_id": 589816330, "name": "", "osm_key": "shop", "osm_value": "convenience", "dest_group": "food", "source": "osm"}, "geometry": {"type": "Point", "coordinates": [79.8675828, 6.8326428]}}, {"type": "Feature", "properties": {"osm_type": "way", "osm_id": 589816340, "name": "", "osm_key": "shop", "osm_value": "convenience", "dest_group": "food", "source": "osm"}, "geometry": {"type": "Point", "coordinates": [79.8676725, 6.8328054]}}, {"type": "Feature", "properties": {"osm_type": "way", "osm_id": 589816344, "name": "", "osm_key": "shop", "osm_value": "convenience", "dest_group": "food", "source": "osm"}, "geometry": {"type": "Point", "coordinates": [79.8675358, 6.8327935]}}, {"type": "Feature", "properties": {"osm_type": "way", "osm_id": 589816346, "name": "", "osm_key": "shop", "osm_value": "convenience", "dest_group": "food", "source": "osm"}, "geometry": {"type": "Point", "coordinates": [79.8676578, 6.8321528]}}, {"type": "Feature", "properties": {"osm_type": "way", "osm_id": 589816372, "name": "", "osm_key": "shop", "osm_value": "convenience", "dest_group": "food", "source": "osm"}, "geometry": {"type": "Point", "coordinates": [79.8671695, 6.8317286]}}, {"type": "Feature", "properties": {"osm_type": "way", "osm_id": 589816387, "name": "", "osm_key": "shop", "osm_value": "convenience", "dest_group": "food", "source": "osm"}, "geometry": {"type": "Point", "coordinates": [79.8671834, 6.8324613]}}, {"type": "Feature", "properties": {"osm_type": "way", "osm_id": 589816391, "name": "", "osm_key": "shop", "osm_value": "convenience", "dest_group": "food", "source": "osm"}, "geometry": {"type": "Point", "coordinates": [79.8672725, 6.8324991]}}, {"type": "Feature", "properties": {"osm_type": "way", "osm_id": 589816393, "name": "", "osm_key": "shop", "osm_value": "convenience", "dest_group": "food", "source": "osm"}, "geometry": {"type": "Point", "coordinates": [79.8672721, 6.8324458]}}, {"type": "Feature", "properties": {"osm_type": "way", "osm_id": 589816395, "name": "", "osm_key": "shop", "osm_value": "convenience", "dest_group": "food", "source": "osm"}, "geometry": {"type": "Point", "coordinates": [79.8672792, 6.832343]}}, {"type": "Feature", "properties": {"osm_type": "way", "osm_id": 589816397, "name": "", "osm_key": "shop", "osm_value": "convenience", "dest_group": "food", "source": "osm"}, "geometry": {"type": "Point", "coordinates": [79.867272, 6.8323734]}}, {"type": "Feature", "properties": {"osm_type": "way", "osm_id": 589816399, "name": "", "osm_key": "shop", "osm_value": "convenience", "dest_group": "food", "source": "osm"}, "geometry": {"type": "Point", "coordinates": [79.8672805, 6.8323139]}}, {"type": "Feature", "properties": {"osm_type": "way", "osm_id": 589816401, "name": "", "osm_key": "shop", "osm_value": "convenience", "dest_group": "food", "source": "osm"}, "geometry": {"type": "Point", "coordinates": [79.8672828, 6.8322749]}}, {"type": "Feature", "properties": {"osm_type": "way", "osm_id": 589816407, "name": "", "osm_key": "shop", "osm_value": "convenience", "dest_group": "food", "source": "osm"}, "geometry": {"type": "Point", "coordinates": [79.8672715, 6.8324093]}}, {"type": "Feature", "properties": {"osm_type": "way", "osm_id": 589816411, "name": "", "osm_key": "shop", "osm_value": "convenience", "dest_group": "food", "source": "osm"}, "geometry": {"type": "Point", "coordinates": [79.8672828, 6.8320646]}}, {"type": "Feature", "properties": {"osm_type": "way", "osm_id": 589816417, "name": "", "osm_key": "shop", "osm_value": "convenience", "dest_group": "food", "source": "osm"}, "geometry": {"type": "Point", "coordinates": [79.8672681, 6.8321923]}}, {"type": "Feature", "properties": {"osm_type": "way", "osm_id": 589816425, "name": "", "osm_key": "shop", "osm_value": "convenience", "dest_group": "food", "source": "osm"}, "geometry": {"type": "Point", "coordinates": [79.8672232, 6.8318764]}}, {"type": "Feature", "properties": {"osm_type": "way", "osm_id": 609795244, "name": "Seylan Bank", "osm_key": "amenity", "osm_value": "bank", "dest_group": "finance", "source": "osm"}, "geometry": {"type": "Point", "coordinates": [79.8696088, 6.8252429]}}, {"type": "Feature", "properties": {"osm_type": "way", "osm_id": 633523970, "name": "Science College", "osm_key": "amenity", "osm_value": "school", "dest_group": "education", "source": "osm"}, "geometry": {"type": "Point", "coordinates": [79.8764537, 6.8301351]}}, {"type": "Feature", "properties": {"osm_type": "way", "osm_id": 1084320749, "name": "Street Burger", "osm_key": "amenity", "osm_value": "restaurant", "dest_group": "food", "source": "osm"}, "geometry": {"type": "Point", "coordinates": [79.8671004, 6.8359661]}}, {"type": "Feature", "properties": {"osm_type": "way", "osm_id": 1084325596, "name": "Commercial Bank of Ceylon", "osm_key": "amenity", "osm_value": "bank", "dest_group": "finance", "source": "osm"}, "geometry": {"type": "Point", "coordinates": [79.8670411, 6.8407391]}}, {"type": "Feature", "properties": {"osm_type": "way", "osm_id": 1239813537, "name": "Navajeevana Health care centre", "osm_key": "amenity", "osm_value": "clinic", "dest_group": "health", "source": "osm"}, "geometry": {"type": "Point", "coordinates": [79.8647993, 6.8514719]}}, {"type": "Feature", "properties": {"osm_type": "way", "osm_id": 1338142226, "name": "P&S bakery", "osm_key": "amenity", "osm_value": "cafe", "dest_group": "food", "source": "osm"}, "geometry": {"type": "Point", "coordinates": [79.8661645, 6.8497823]}}, {"type": "Feature", "properties": {"osm_type": "way", "osm_id": 1340702293, "name": "Childern park", "osm_key": "leisure", "osm_value": "park", "dest_group": "open_space", "source": "osm"}, "geometry": {"type": "Point", "coordinates": [79.8664519, 6.8448385]}}, {"type": "Feature", "properties": {"osm_type": "way", "osm_id": 1340702294, "name": "", "osm_key": "amenity", "osm_value": "school", "dest_group": "education", "source": "osm"}, "geometry": {"type": "Point", "coordinates": [79.8635896, 6.8502155]}}, {"type": "Feature", "properties": {"osm_type": "way", "osm_id": 1340702295, "name": "National Savings Bank (NSB) - Dehiwala", "osm_key": "amenity", "osm_value": "bank", "dest_group": "finance", "source": "osm"}, "geometry": {"type": "Point", "coordinates": [79.8631508, 6.8506443]}}]}